{"type":"FeatureCollection","metadata":{"source":"C:\\ct-atlas-data\\processed\\geojson\\interpreted\\colorado_named_natural_streams_complete_v1.geojson","tier":"tier3","tile_size_degrees":0.25,"x":-432,"y":148,"bounds":{"west":-108,"south":37,"east":-107.75,"north":37.25}},"features":[{"type":"Feature","geometry":{"type":"LineString","coordinates":[[-107.7719,37.2481],[-107.7708,37.2473]]},"properties":{"source_id":"co_named_stream_114990","name":"Florida River","display_name":"Florida River","mapped_name":"Florida River","source_name":"Florida River","state":"CO","atlas_class":"named_natural_stream","huc8":"14080104","huc8Name":"Animas","huc8States":"CO,NM","lineageKey":"sanJuan","lineage":"sanJuan","historic":"sanJuan","current":"sanJuan","recovery":"recoveryWatch","lineageLabel":"San Juan lineage","lineageBasin":"Animas","lineageNote":"San Juan lineage context","atlas_context":"cutthroat_lineage_context","confidence":"Watershed-level lineage context; expert review recommended","geometryStatus":"Named natural stream segment from statewide hydrography","note":"This named natural stream falls within a HUC8 assigned to a cutthroat lineage context.","source_segment_id":"co_named_stream_114990","water_id":"co_florida_river_14080104_sanJuan_003","occurrence_id":"co_florida_river_14080104_sanJuan_003","occurrence_number":"003","segment_count":7,"disambiguator":"Animas · San Juan lineage · occurrence 003","basin":"Animas","atlas_layer":"named_water_occurrence","object_role":"named_water_occurrence","historic_label":"San Juan lineage","current_label":"San Juan lineage","recovery_label":"Recovery watch / review area","tier":"tier3","minZoom":14,"confidence_public":"Watershed-level lineage context; expert review recommended","geometry_status_public":"Named natural stream occurrence from statewide hydrography","geometry_source_public":"Grouped public hydrography segments","trout_source_public":"Compiled public recovery and lineage context; expert review recommended","public_notes":"Florida River is shown as a named-water occurrence within watershed-level cutthroat lineage context. This is not a precise biological boundary."}},{"type":"Feature","geometry":{"type":"LineString","coordinates":[[-107.7701,37.1324],[-107.7715,37.1321],[-107.7715,37.1313],[-107.7735,37.1315],[-107.7734,37.1304],[-107.7746,37.1293]]},"properties":{"source_id":"co_named_stream_114965","name":"Salt Creek","display_name":"Salt Creek","mapped_name":"Salt Creek","source_name":"Salt Creek","state":"CO","atlas_class":"named_natural_stream","huc8":"14080104","huc8Name":"Animas","huc8States":"CO,NM","lineageKey":"sanJuan","lineage":"sanJuan","historic":"sanJuan","current":"sanJuan","recovery":"recoveryWatch","lineageLabel":"San Juan lineage","lineageBasin":"Animas","lineageNote":"San Juan lineage context","atlas_context":"cutthroat_lineage_context","confidence":"Watershed-level lineage context; expert review recommended","geometryStatus":"Named natural stream segment from statewide hydrography","note":"This named natural stream falls within a HUC8 assigned to a cutthroat lineage context.","source_segment_id":"co_named_stream_114965","water_id":"co_salt_creek_14080104_sanJuan_002","occurrence_id":"co_salt_creek_14080104_sanJuan_002","occurrence_number":"002","segment_count":19,"disambiguator":"Animas · San Juan lineage · occurrence 002","basin":"Animas","atlas_layer":"named_water_occurrence","object_role":"named_water_occurrence","historic_label":"San Juan lineage","current_label":"San Juan lineage","recovery_label":"Recovery watch / review area","tier":"tier3","minZoom":14,"confidence_public":"Watershed-level lineage context; expert review recommended","geometry_status_public":"Named natural stream occurrence from statewide hydrography","geometry_source_public":"Grouped public hydrography segments","trout_source_public":"Compiled public recovery and lineage context; expert review recommended","public_notes":"Salt Creek is shown as a named-water occurrence within watershed-level cutthroat lineage context. This is not a precise biological boundary."}},{"type":"Feature","geometry":{"type":"LineString","coordinates":[[-107.7746,37.1293],[-107.776,37.1312],[-107.7774,37.1308],[-107.778,37.1314],[-107.7785,37.1298],[-107.7844,37.1294],[-107.7866,37.1302]]},"properties":{"source_id":"co_named_stream_114968","name":"Salt Creek","display_name":"Salt Creek","mapped_name":"Salt Creek","source_name":"Salt Creek","state":"CO","atlas_class":"named_natural_stream","huc8":"14080104","huc8Name":"Animas","huc8States":"CO,NM","lineageKey":"sanJuan","lineage":"sanJuan","historic":"sanJuan","current":"sanJuan","recovery":"recoveryWatch","lineageLabel":"San Juan lineage","lineageBasin":"Animas","lineageNote":"San Juan lineage context","atlas_context":"cutthroat_lineage_context","confidence":"Watershed-level lineage context; expert review recommended","geometryStatus":"Named natural stream segment from statewide hydrography","note":"This named natural stream falls within a HUC8 assigned to a cutthroat lineage context.","source_segment_id":"co_named_stream_114968","water_id":"co_salt_creek_14080104_sanJuan_002","occurrence_id":"co_salt_creek_14080104_sanJuan_002","occurrence_number":"002","segment_count":19,"disambiguator":"Animas · San Juan lineage · occurrence 002","basin":"Animas","atlas_layer":"named_water_occurrence","object_role":"named_water_occurrence","historic_label":"San Juan lineage","current_label":"San Juan lineage","recovery_label":"Recovery watch / review area","tier":"tier3","minZoom":14,"confidence_public":"Watershed-level lineage context; expert review recommended","geometry_status_public":"Named natural stream occurrence from statewide hydrography","geometry_source_public":"Grouped public hydrography segments","trout_source_public":"Compiled public recovery and lineage context; expert review recommended","public_notes":"Salt Creek is shown as a named-water occurrence within watershed-level cutthroat lineage context. This is not a precise biological boundary."}},{"type":"Feature","geometry":{"type":"LineString","coordinates":[[-107.7522,37.1402],[-107.7528,37.1392]]},"properties":{"source_id":"co_named_stream_115395","name":"Salt Creek","display_name":"Salt Creek","mapped_name":"Salt Creek","source_name":"Salt Creek","state":"CO","atlas_class":"named_natural_stream","huc8":"14080104","huc8Name":"Animas","huc8States":"CO,NM","lineageKey":"sanJuan","lineage":"sanJuan","historic":"sanJuan","current":"sanJuan","recovery":"recoveryWatch","lineageLabel":"San Juan lineage","lineageBasin":"Animas","lineageNote":"San Juan lineage context","atlas_context":"cutthroat_lineage_context","confidence":"Watershed-level lineage context; expert review recommended","geometryStatus":"Named natural stream segment from statewide hydrography","note":"This named natural stream falls within a HUC8 assigned to a cutthroat lineage context.","source_segment_id":"co_named_stream_115395","water_id":"co_salt_creek_14080104_sanJuan_002","occurrence_id":"co_salt_creek_14080104_sanJuan_002","occurrence_number":"002","segment_count":19,"disambiguator":"Animas · San Juan lineage · occurrence 002","basin":"Animas","atlas_layer":"named_water_occurrence","object_role":"named_water_occurrence","historic_label":"San Juan lineage","current_label":"San Juan lineage","recovery_label":"Recovery watch / review area","tier":"tier3","minZoom":14,"confidence_public":"Watershed-level lineage context; expert review recommended","geometry_status_public":"Named natural stream occurrence from statewide hydrography","geometry_source_public":"Grouped public hydrography segments","trout_source_public":"Compiled public recovery and lineage context; expert review recommended","public_notes":"Salt Creek is shown as a named-water occurrence within watershed-level cutthroat lineage context. This is not a precise biological boundary."}},{"type":"Feature","geometry":{"type":"LineString","coordinates":[[-107.7567,37.1388],[-107.7572,37.1378],[-107.7582,37.1381],[-107.7652,37.1352],[-107.7666,37.1353],[-107.7665,37.1346],[-107.7692,37.1345],[-107.7688,37.1337],[-107.7705,37.1332],[-107.7701,37.1324]]},"properties":{"source_id":"co_named_stream_115398","name":"Salt Creek","display_name":"Salt Creek","mapped_name":"Salt Creek","source_name":"Salt Creek","state":"CO","atlas_class":"named_natural_stream","huc8":"14080104","huc8Name":"Animas","huc8States":"CO,NM","lineageKey":"sanJuan","lineage":"sanJuan","historic":"sanJuan","current":"sanJuan","recovery":"recoveryWatch","lineageLabel":"San Juan lineage","lineageBasin":"Animas","lineageNote":"San Juan lineage context","atlas_context":"cutthroat_lineage_context","confidence":"Watershed-level lineage context; expert review recommended","geometryStatus":"Named natural stream segment from statewide hydrography","note":"This named natural stream falls within a HUC8 assigned to a cutthroat lineage context.","source_segment_id":"co_named_stream_115398","water_id":"co_salt_creek_14080104_sanJuan_002","occurrence_id":"co_salt_creek_14080104_sanJuan_002","occurrence_number":"002","segment_count":19,"disambiguator":"Animas · San Juan lineage · occurrence 002","basin":"Animas","atlas_layer":"named_water_occurrence","object_role":"named_water_occurrence","historic_label":"San Juan lineage","current_label":"San Juan lineage","recovery_label":"Recovery watch / review area","tier":"tier3","minZoom":14,"confidence_public":"Watershed-level lineage context; expert review recommended","geometry_status_public":"Named natural stream occurrence from statewide hydrography","geometry_source_public":"Grouped public hydrography segments","trout_source_public":"Compiled public recovery and lineage context; expert review recommended","public_notes":"Salt Creek is shown as a named-water occurrence within watershed-level cutthroat lineage context. This is not a precise biological boundary."}},{"type":"Feature","geometry":{"type":"LineString","coordinates":[[-107.7444,37.1446],[-107.747,37.1439],[-107.7502,37.1395],[-107.7522,37.1402]]},"properties":{"source_id":"co_named_stream_115399","name":"Salt Creek","display_name":"Salt Creek","mapped_name":"Salt Creek","source_name":"Salt Creek","state":"CO","atlas_class":"named_natural_stream","huc8":"14080104","huc8Name":"Animas","huc8States":"CO,NM","lineageKey":"sanJuan","lineage":"sanJuan","historic":"sanJuan","current":"sanJuan","recovery":"recoveryWatch","lineageLabel":"San Juan lineage","lineageBasin":"Animas","lineageNote":"San Juan lineage context","atlas_context":"cutthroat_lineage_context","confidence":"Watershed-level lineage context; expert review recommended","geometryStatus":"Named natural stream segment from statewide hydrography","note":"This named natural stream falls within a HUC8 assigned to a cutthroat lineage context.","source_segment_id":"co_named_stream_115399","water_id":"co_salt_creek_14080104_sanJuan_002","occurrence_id":"co_salt_creek_14080104_sanJuan_002","occurrence_number":"002","segment_count":19,"disambiguator":"Animas · San Juan lineage · occurrence 002","basin":"Animas","atlas_layer":"named_water_occurrence","object_role":"named_water_occurrence","historic_label":"San Juan lineage","current_label":"San Juan lineage","recovery_label":"Recovery watch / review area","tier":"tier3","minZoom":14,"confidence_public":"Watershed-level lineage context; expert review recommended","geometry_status_public":"Named natural stream occurrence from statewide hydrography","geometry_source_public":"Grouped public hydrography segments","trout_source_public":"Compiled public recovery and lineage context; expert review recommended","public_notes":"Salt Creek is shown as a named-water occurrence within watershed-level cutthroat lineage context. This is not a precise biological boundary."}},{"type":"Feature","geometry":{"type":"LineString","coordinates":[[-107.7528,37.1392],[-107.7547,37.1403],[-107.7544,37.1394],[-107.7567,37.1388]]},"properties":{"source_id":"co_named_stream_115402","name":"Salt Creek","display_name":"Salt Creek","mapped_name":"Salt Creek","source_name":"Salt Creek","state":"CO","atlas_class":"named_natural_stream","huc8":"14080104","huc8Name":"Animas","huc8States":"CO,NM","lineageKey":"sanJuan","lineage":"sanJuan","historic":"sanJuan","current":"sanJuan","recovery":"recoveryWatch","lineageLabel":"San Juan lineage","lineageBasin":"Animas","lineageNote":"San Juan lineage context","atlas_context":"cutthroat_lineage_context","confidence":"Watershed-level lineage context; expert review recommended","geometryStatus":"Named natural stream segment from statewide hydrography","note":"This named natural stream falls within a HUC8 assigned to a cutthroat lineage context.","source_segment_id":"co_named_stream_115402","water_id":"co_salt_creek_14080104_sanJuan_002","occurrence_id":"co_salt_creek_14080104_sanJuan_002","occurrence_number":"002","segment_count":19,"disambiguator":"Animas · San Juan lineage · occurrence 002","basin":"Animas","atlas_layer":"named_water_occurrence","object_role":"named_water_occurrence","historic_label":"San Juan lineage","current_label":"San Juan lineage","recovery_label":"Recovery watch / review area","tier":"tier3","minZoom":14,"confidence_public":"Watershed-level lineage context; expert review recommended","geometry_status_public":"Named natural stream occurrence from statewide hydrography","geometry_source_public":"Grouped public hydrography segments","trout_source_public":"Compiled public recovery and lineage context; expert review recommended","public_notes":"Salt Creek is shown as a named-water occurrence within watershed-level cutthroat lineage context. This is not a precise biological boundary."}},{"type":"Feature","geometry":{"type":"LineString","coordinates":[[-107.8101,37.1604],[-107.8105,37.1589],[-107.8082,37.1563],[-107.8096,37.151],[-107.8115,37.1484],[-107.8153,37.1466],[-107.8235,37.1401]]},"properties":{"source_id":"co_named_stream_114981","name":"Dry Creek","display_name":"Dry Creek","mapped_name":"Dry Creek","source_name":"Dry Creek","state":"CO","atlas_class":"named_natural_stream","huc8":"14080104","huc8Name":"Animas","huc8States":"CO,NM","lineageKey":"sanJuan","lineage":"sanJuan","historic":"sanJuan","current":"sanJuan","recovery":"recoveryWatch","lineageLabel":"San Juan lineage","lineageBasin":"Animas","lineageNote":"San Juan lineage context","atlas_context":"cutthroat_lineage_context","confidence":"Watershed-level lineage context; expert review recommended","geometryStatus":"Named natural stream segment from statewide hydrography","note":"This named natural stream falls within a HUC8 assigned to a cutthroat lineage context.","source_segment_id":"co_named_stream_114981","water_id":"co_dry_creek_14080104_sanJuan_001","occurrence_id":"co_dry_creek_14080104_sanJuan_001","occurrence_number":"001","segment_count":6,"disambiguator":"Animas · San Juan lineage · occurrence 001","basin":"Animas","atlas_layer":"named_water_occurrence","object_role":"named_water_occurrence","historic_label":"San Juan lineage","current_label":"San Juan lineage","recovery_label":"Recovery watch / review area","tier":"tier3","minZoom":14,"confidence_public":"Watershed-level lineage context; expert review recommended","geometry_status_public":"Named natural stream occurrence from statewide hydrography","geometry_source_public":"Grouped public hydrography segments","trout_source_public":"Compiled public recovery and lineage context; expert review recommended","public_notes":"Dry Creek is shown as a named-water occurrence within watershed-level cutthroat lineage context. This is not a precise biological boundary."}},{"type":"Feature","geometry":{"type":"LineString","coordinates":[[-107.8115,37.1743],[-107.8067,37.1704],[-107.8066,37.1661],[-107.8057,37.1645],[-107.8066,37.1624],[-107.8101,37.1604]]},"properties":{"source_id":"co_named_stream_115772","name":"Dry Creek","display_name":"Dry Creek","mapped_name":"Dry Creek","source_name":"Dry Creek","state":"CO","atlas_class":"named_natural_stream","huc8":"14080104","huc8Name":"Animas","huc8States":"CO,NM","lineageKey":"sanJuan","lineage":"sanJuan","historic":"sanJuan","current":"sanJuan","recovery":"recoveryWatch","lineageLabel":"San Juan lineage","lineageBasin":"Animas","lineageNote":"San Juan lineage context","atlas_context":"cutthroat_lineage_context","confidence":"Watershed-level lineage context; expert review recommended","geometryStatus":"Named natural stream segment from statewide hydrography","note":"This named natural stream falls within a HUC8 assigned to a cutthroat lineage context.","source_segment_id":"co_named_stream_115772","water_id":"co_dry_creek_14080104_sanJuan_001","occurrence_id":"co_dry_creek_14080104_sanJuan_001","occurrence_number":"001","segment_count":6,"disambiguator":"Animas · San Juan lineage · occurrence 001","basin":"Animas","atlas_layer":"named_water_occurrence","object_role":"named_water_occurrence","historic_label":"San Juan lineage","current_label":"San Juan lineage","recovery_label":"Recovery watch / review area","tier":"tier3","minZoom":14,"confidence_public":"Watershed-level lineage context; expert review recommended","geometry_status_public":"Named natural stream occurrence from statewide hydrography","geometry_source_public":"Grouped public hydrography segments","trout_source_public":"Compiled public recovery and lineage context; expert review recommended","public_notes":"Dry Creek is shown as a named-water occurrence within watershed-level cutthroat lineage context. This is not a precise biological boundary."}},{"type":"Feature","geometry":{"type":"LineString","coordinates":[[-107.8166,37.1912],[-107.8162,37.1859],[-107.8119,37.1747]]},"properties":{"source_id":"co_named_stream_115774","name":"Dry Creek","display_name":"Dry Creek","mapped_name":"Dry Creek","source_name":"Dry Creek","state":"CO","atlas_class":"named_natural_stream","huc8":"14080104","huc8Name":"Animas","huc8States":"CO,NM","lineageKey":"sanJuan","lineage":"sanJuan","historic":"sanJuan","current":"sanJuan","recovery":"recoveryWatch","lineageLabel":"San Juan lineage","lineageBasin":"Animas","lineageNote":"San Juan lineage context","atlas_context":"cutthroat_lineage_context","confidence":"Watershed-level lineage context; expert review recommended","geometryStatus":"Named natural stream segment from statewide hydrography","note":"This named natural stream falls within a HUC8 assigned to a cutthroat lineage context.","source_segment_id":"co_named_stream_115774","water_id":"co_dry_creek_14080104_sanJuan_001","occurrence_id":"co_dry_creek_14080104_sanJuan_001","occurrence_number":"001","segment_count":6,"disambiguator":"Animas · San Juan lineage · occurrence 001","basin":"Animas","atlas_layer":"named_water_occurrence","object_role":"named_water_occurrence","historic_label":"San Juan lineage","current_label":"San Juan lineage","recovery_label":"Recovery watch / review area","tier":"tier3","minZoom":14,"confidence_public":"Watershed-level lineage context; expert review recommended","geometry_status_public":"Named natural stream occurrence from statewide hydrography","geometry_source_public":"Grouped public hydrography segments","trout_source_public":"Compiled public recovery and lineage context; expert review recommended","public_notes":"Dry Creek is shown as a named-water occurrence within watershed-level cutthroat lineage context. This is not a precise biological boundary."}},{"type":"Feature","geometry":{"type":"LineString","coordinates":[[-107.8187,37.1983],[-107.819,37.1965],[-107.8168,37.1916]]},"properties":{"source_id":"co_named_stream_122506","name":"Dry Creek","display_name":"Dry Creek","mapped_name":"Dry Creek","source_name":"Dry Creek","state":"CO","atlas_class":"named_natural_stream","huc8":"14080104","huc8Name":"Animas","huc8States":"CO,NM","lineageKey":"sanJuan","lineage":"sanJuan","historic":"sanJuan","current":"sanJuan","recovery":"recoveryWatch","lineageLabel":"San Juan lineage","lineageBasin":"Animas","lineageNote":"San Juan lineage context","atlas_context":"cutthroat_lineage_context","confidence":"Watershed-level lineage context; expert review recommended","geometryStatus":"Named natural stream segment from statewide hydrography","note":"This named natural stream falls within a HUC8 assigned to a cutthroat lineage context.","source_segment_id":"co_named_stream_122506","water_id":"co_dry_creek_14080104_sanJuan_001","occurrence_id":"co_dry_creek_14080104_sanJuan_001","occurrence_number":"001","segment_count":6,"disambiguator":"Animas · San Juan lineage · occurrence 001","basin":"Animas","atlas_layer":"named_water_occurrence","object_role":"named_water_occurrence","historic_label":"San Juan lineage","current_label":"San Juan lineage","recovery_label":"Recovery watch / review area","tier":"tier3","minZoom":14,"confidence_public":"Watershed-level lineage context; expert review recommended","geometry_status_public":"Named natural stream occurrence from statewide hydrography","geometry_source_public":"Grouped public hydrography segments","trout_source_public":"Compiled public recovery and lineage context; expert review recommended","public_notes":"Dry Creek is shown as a named-water occurrence within watershed-level cutthroat lineage context. This is not a precise biological boundary."}},{"type":"Feature","geometry":{"type":"LineString","coordinates":[[-107.8187,37.2018],[-107.818,37.2005],[-107.8187,37.1983]]},"properties":{"source_id":"co_named_stream_122513","name":"Dry Creek","display_name":"Dry Creek","mapped_name":"Dry Creek","source_name":"Dry Creek","state":"CO","atlas_class":"named_natural_stream","huc8":"14080104","huc8Name":"Animas","huc8States":"CO,NM","lineageKey":"sanJuan","lineage":"sanJuan","historic":"sanJuan","current":"sanJuan","recovery":"recoveryWatch","lineageLabel":"San Juan lineage","lineageBasin":"Animas","lineageNote":"San Juan lineage context","atlas_context":"cutthroat_lineage_context","confidence":"Watershed-level lineage context; expert review recommended","geometryStatus":"Named natural stream segment from statewide hydrography","note":"This named natural stream falls within a HUC8 assigned to a cutthroat lineage context.","source_segment_id":"co_named_stream_122513","water_id":"co_dry_creek_14080104_sanJuan_001","occurrence_id":"co_dry_creek_14080104_sanJuan_001","occurrence_number":"001","segment_count":6,"disambiguator":"Animas · San Juan lineage · occurrence 001","basin":"Animas","atlas_layer":"named_water_occurrence","object_role":"named_water_occurrence","historic_label":"San Juan lineage","current_label":"San Juan lineage","recovery_label":"Recovery watch / review area","tier":"tier3","minZoom":14,"confidence_public":"Watershed-level lineage context; expert review recommended","geometry_status_public":"Named natural stream occurrence from statewide hydrography","geometry_source_public":"Grouped public hydrography segments","trout_source_public":"Compiled public recovery and lineage context; expert review recommended","public_notes":"Dry Creek is shown as a named-water occurrence within watershed-level cutthroat lineage context. This is not a precise biological boundary."}},{"type":"Feature","geometry":{"type":"LineString","coordinates":[[-107.8235,37.1401],[-107.823,37.1341],[-107.8193,37.1307]]},"properties":{"source_id":"co_named_stream_122971","name":"Dry Creek","display_name":"Dry Creek","mapped_name":"Dry Creek","source_name":"Dry Creek","state":"CO","atlas_class":"named_natural_stream","huc8":"14080104","huc8Name":"Animas","huc8States":"CO,NM","lineageKey":"sanJuan","lineage":"sanJuan","historic":"sanJuan","current":"sanJuan","recovery":"recoveryWatch","lineageLabel":"San Juan lineage","lineageBasin":"Animas","lineageNote":"San Juan lineage context","atlas_context":"cutthroat_lineage_context","confidence":"Watershed-level lineage context; expert review recommended","geometryStatus":"Named natural stream segment from statewide hydrography","note":"This named natural stream falls within a HUC8 assigned to a cutthroat lineage context.","source_segment_id":"co_named_stream_122971","water_id":"co_dry_creek_14080104_sanJuan_001","occurrence_id":"co_dry_creek_14080104_sanJuan_001","occurrence_number":"001","segment_count":6,"disambiguator":"Animas · San Juan lineage · occurrence 001","basin":"Animas","atlas_layer":"named_water_occurrence","object_role":"named_water_occurrence","historic_label":"San Juan lineage","current_label":"San Juan lineage","recovery_label":"Recovery watch / review area","tier":"tier3","minZoom":14,"confidence_public":"Watershed-level lineage context; expert review recommended","geometry_status_public":"Named natural stream occurrence from statewide hydrography","geometry_source_public":"Grouped public hydrography segments","trout_source_public":"Compiled public recovery and lineage context; expert review recommended","public_notes":"Dry Creek is shown as a named-water occurrence within watershed-level cutthroat lineage context. This is not a precise biological boundary."}},{"type":"Feature","geometry":{"type":"LineString","coordinates":[[-107.981,37.2186],[-107.9807,37.2203],[-107.9781,37.2225]]},"properties":{"source_id":"co_named_stream_123568","name":"Basin Creek","display_name":"Basin Creek","mapped_name":"Basin Creek","source_name":"Basin Creek","state":"CO","atlas_class":"named_natural_stream","huc8":"14080104","huc8Name":"Animas","huc8States":"CO,NM","lineageKey":"sanJuan","lineage":"sanJuan","historic":"sanJuan","current":"sanJuan","recovery":"recoveryWatch","lineageLabel":"San Juan lineage","lineageBasin":"Animas","lineageNote":"San Juan lineage context","atlas_context":"cutthroat_lineage_context","confidence":"Watershed-level lineage context; expert review recommended","geometryStatus":"Named natural stream segment from statewide hydrography","note":"This named natural stream falls within a HUC8 assigned to a cutthroat lineage context.","source_segment_id":"co_named_stream_123568","water_id":"co_basin_creek_14080104_sanJuan_002","occurrence_id":"co_basin_creek_14080104_sanJuan_002","occurrence_number":"002","segment_count":4,"disambiguator":"Animas · San Juan lineage · occurrence 002","basin":"Animas","atlas_layer":"named_water_occurrence","object_role":"named_water_occurrence","historic_label":"San Juan lineage","current_label":"San Juan lineage","recovery_label":"Recovery watch / review area","tier":"tier3","minZoom":14,"confidence_public":"Watershed-level lineage context; expert review recommended","geometry_status_public":"Named natural stream occurrence from statewide hydrography","geometry_source_public":"Grouped public hydrography segments","trout_source_public":"Compiled public recovery and lineage context; expert review recommended","public_notes":"Basin Creek is shown as a named-water occurrence within watershed-level cutthroat lineage context. This is not a precise biological boundary."}},{"type":"Feature","geometry":{"type":"LineString","coordinates":[[-107.9849,37.217],[-107.983,37.2168]]},"properties":{"source_id":"co_named_stream_123569","name":"Basin Creek","display_name":"Basin Creek","mapped_name":"Basin Creek","source_name":"Basin Creek","state":"CO","atlas_class":"named_natural_stream","huc8":"14080104","huc8Name":"Animas","huc8States":"CO,NM","lineageKey":"sanJuan","lineage":"sanJuan","historic":"sanJuan","current":"sanJuan","recovery":"recoveryWatch","lineageLabel":"San Juan lineage","lineageBasin":"Animas","lineageNote":"San Juan lineage context","atlas_context":"cutthroat_lineage_context","confidence":"Watershed-level lineage context; expert review recommended","geometryStatus":"Named natural stream segment from statewide hydrography","note":"This named natural stream falls within a HUC8 assigned to a cutthroat lineage context.","source_segment_id":"co_named_stream_123569","water_id":"co_basin_creek_14080104_sanJuan_002","occurrence_id":"co_basin_creek_14080104_sanJuan_002","occurrence_number":"002","segment_count":4,"disambiguator":"Animas · San Juan lineage · occurrence 002","basin":"Animas","atlas_layer":"named_water_occurrence","object_role":"named_water_occurrence","historic_label":"San Juan lineage","current_label":"San Juan lineage","recovery_label":"Recovery watch / review area","tier":"tier3","minZoom":14,"confidence_public":"Watershed-level lineage context; expert review recommended","geometry_status_public":"Named natural stream occurrence from statewide hydrography","geometry_source_public":"Grouped public hydrography segments","trout_source_public":"Compiled public recovery and lineage context; expert review recommended","public_notes":"Basin Creek is shown as a named-water occurrence within watershed-level cutthroat lineage context. This is not a precise biological boundary."}},{"type":"Feature","geometry":{"type":"LineString","coordinates":[[-107.9906,37.2166],[-107.989,37.2162],[-107.9875,37.2177],[-107.9849,37.217]]},"properties":{"source_id":"co_named_stream_123571","name":"Basin Creek","display_name":"Basin Creek","mapped_name":"Basin Creek","source_name":"Basin Creek","state":"CO","atlas_class":"named_natural_stream","huc8":"14080104","huc8Name":"Animas","huc8States":"CO,NM","lineageKey":"sanJuan","lineage":"sanJuan","historic":"sanJuan","current":"sanJuan","recovery":"recoveryWatch","lineageLabel":"San Juan lineage","lineageBasin":"Animas","lineageNote":"San Juan lineage context","atlas_context":"cutthroat_lineage_context","confidence":"Watershed-level lineage context; expert review recommended","geometryStatus":"Named natural stream segment from statewide hydrography","note":"This named natural stream falls within a HUC8 assigned to a cutthroat lineage context.","source_segment_id":"co_named_stream_123571","water_id":"co_basin_creek_14080104_sanJuan_002","occurrence_id":"co_basin_creek_14080104_sanJuan_002","occurrence_number":"002","segment_count":4,"disambiguator":"Animas · San Juan lineage · occurrence 002","basin":"Animas","atlas_layer":"named_water_occurrence","object_role":"named_water_occurrence","historic_label":"San Juan lineage","current_label":"San Juan lineage","recovery_label":"Recovery watch / review area","tier":"tier3","minZoom":14,"confidence_public":"Watershed-level lineage context; expert review recommended","geometry_status_public":"Named natural stream occurrence from statewide hydrography","geometry_source_public":"Grouped public hydrography segments","trout_source_public":"Compiled public recovery and lineage context; expert review recommended","public_notes":"Basin Creek is shown as a named-water occurrence within watershed-level cutthroat lineage context. This is not a precise biological boundary."}},{"type":"Feature","geometry":{"type":"LineString","coordinates":[[-107.9972,37.1972],[-107.9946,37.1997],[-107.9958,37.2027],[-107.9953,37.2045]]},"properties":{"source_id":"co_named_stream_123572","name":"Basin Creek","display_name":"Basin Creek","mapped_name":"Basin Creek","source_name":"Basin Creek","state":"CO","atlas_class":"named_natural_stream","huc8":"14080104","huc8Name":"Animas","huc8States":"CO,NM","lineageKey":"sanJuan","lineage":"sanJuan","historic":"sanJuan","current":"sanJuan","recovery":"recoveryWatch","lineageLabel":"San Juan lineage","lineageBasin":"Animas","lineageNote":"San Juan lineage context","atlas_context":"cutthroat_lineage_context","confidence":"Watershed-level lineage context; expert review recommended","geometryStatus":"Named natural stream segment from statewide hydrography","note":"This named natural stream falls within a HUC8 assigned to a cutthroat lineage context.","source_segment_id":"co_named_stream_123572","water_id":"co_basin_creek_14080104_sanJuan_002","occurrence_id":"co_basin_creek_14080104_sanJuan_002","occurrence_number":"002","segment_count":4,"disambiguator":"Animas · San Juan lineage · occurrence 002","basin":"Animas","atlas_layer":"named_water_occurrence","object_role":"named_water_occurrence","historic_label":"San Juan lineage","current_label":"San Juan lineage","recovery_label":"Recovery watch / review area","tier":"tier3","minZoom":14,"confidence_public":"Watershed-level lineage context; expert review recommended","geometry_status_public":"Named natural stream occurrence from statewide hydrography","geometry_source_public":"Grouped public hydrography segments","trout_source_public":"Compiled public recovery and lineage context; expert review recommended","public_notes":"Basin Creek is shown as a named-water occurrence within watershed-level cutthroat lineage context. This is not a precise biological boundary."}},{"type":"Feature","geometry":{"type":"LineString","coordinates":[[-107.8816,37.179],[-107.8782,37.1785],[-107.877,37.1794]]},"properties":{"source_id":"co_named_stream_122505","name":"Indian Creek","display_name":"Indian Creek","mapped_name":"Indian Creek","source_name":"Indian Creek","state":"CO","atlas_class":"named_natural_stream","huc8":"14080104","huc8Name":"Animas","huc8States":"CO,NM","lineageKey":"sanJuan","lineage":"sanJuan","historic":"sanJuan","current":"sanJuan","recovery":"recoveryWatch","lineageLabel":"San Juan lineage","lineageBasin":"Animas","lineageNote":"San Juan lineage context","atlas_context":"cutthroat_lineage_context","confidence":"Watershed-level lineage context; expert review recommended","geometryStatus":"Named natural stream segment from statewide hydrography","note":"This named natural stream falls within a HUC8 assigned to a cutthroat lineage context.","source_segment_id":"co_named_stream_122505","water_id":"co_indian_creek_14080104_sanJuan_001","occurrence_id":"co_indian_creek_14080104_sanJuan_001","occurrence_number":"001","segment_count":10,"disambiguator":"Animas · San Juan lineage · occurrence 001","basin":"Animas","atlas_layer":"named_water_occurrence","object_role":"named_water_occurrence","historic_label":"San Juan lineage","current_label":"San Juan lineage","recovery_label":"Recovery watch / review area","tier":"tier3","minZoom":14,"confidence_public":"Watershed-level lineage context; expert review recommended","geometry_status_public":"Named natural stream occurrence from statewide hydrography","geometry_source_public":"Grouped public hydrography segments","trout_source_public":"Compiled public recovery and lineage context; expert review recommended","public_notes":"Indian Creek is shown as a named-water occurrence within watershed-level cutthroat lineage context. This is not a precise biological boundary."}},{"type":"Feature","geometry":{"type":"LineString","coordinates":[[-107.9266,37.1863],[-107.919,37.185],[-107.9158,37.1854],[-107.9083,37.183],[-107.9043,37.1836]]},"properties":{"source_id":"co_named_stream_122508","name":"Indian Creek","display_name":"Indian Creek","mapped_name":"Indian Creek","source_name":"Indian Creek","state":"CO","atlas_class":"named_natural_stream","huc8":"14080104","huc8Name":"Animas","huc8States":"CO,NM","lineageKey":"sanJuan","lineage":"sanJuan","historic":"sanJuan","current":"sanJuan","recovery":"recoveryWatch","lineageLabel":"San Juan lineage","lineageBasin":"Animas","lineageNote":"San Juan lineage context","atlas_context":"cutthroat_lineage_context","confidence":"Watershed-level lineage context; expert review recommended","geometryStatus":"Named natural stream segment from statewide hydrography","note":"This named natural stream falls within a HUC8 assigned to a cutthroat lineage context.","source_segment_id":"co_named_stream_122508","water_id":"co_indian_creek_14080104_sanJuan_001","occurrence_id":"co_indian_creek_14080104_sanJuan_001","occurrence_number":"001","segment_count":10,"disambiguator":"Animas · San Juan lineage · occurrence 001","basin":"Animas","atlas_layer":"named_water_occurrence","object_role":"named_water_occurrence","historic_label":"San Juan lineage","current_label":"San Juan lineage","recovery_label":"Recovery watch / review area","tier":"tier3","minZoom":14,"confidence_public":"Watershed-level lineage context; expert review recommended","geometry_status_public":"Named natural stream occurrence from statewide hydrography","geometry_source_public":"Grouped public hydrography segments","trout_source_public":"Compiled public recovery and lineage context; expert review recommended","public_notes":"Indian Creek is shown as a named-water occurrence within watershed-level cutthroat lineage context. This is not a precise biological boundary."}},{"type":"Feature","geometry":{"type":"LineString","coordinates":[[-107.9043,37.1836],[-107.9002,37.1805],[-107.8989,37.1803],[-107.8984,37.1788],[-107.896,37.1788],[-107.8946,37.1774],[-107.8929,37.1783],[-107.888,37.177],[-107.8854,37.178],[-107.8855,37.1789],[-107.8837,37.1789],[-107.8833,37.1779],[-107.8816,37.179]]},"properties":{"source_id":"co_named_stream_122512","name":"Indian Creek","display_name":"Indian Creek","mapped_name":"Indian Creek","source_name":"Indian Creek","state":"CO","atlas_class":"named_natural_stream","huc8":"14080104","huc8Name":"Animas","huc8States":"CO,NM","lineageKey":"sanJuan","lineage":"sanJuan","historic":"sanJuan","current":"sanJuan","recovery":"recoveryWatch","lineageLabel":"San Juan lineage","lineageBasin":"Animas","lineageNote":"San Juan lineage context","atlas_context":"cutthroat_lineage_context","confidence":"Watershed-level lineage context; expert review recommended","geometryStatus":"Named natural stream segment from statewide hydrography","note":"This named natural stream falls within a HUC8 assigned to a cutthroat lineage context.","source_segment_id":"co_named_stream_122512","water_id":"co_indian_creek_14080104_sanJuan_001","occurrence_id":"co_indian_creek_14080104_sanJuan_001","occurrence_number":"001","segment_count":10,"disambiguator":"Animas · San Juan lineage · occurrence 001","basin":"Animas","atlas_layer":"named_water_occurrence","object_role":"named_water_occurrence","historic_label":"San Juan lineage","current_label":"San Juan lineage","recovery_label":"Recovery watch / review area","tier":"tier3","minZoom":14,"confidence_public":"Watershed-level lineage context; expert review recommended","geometry_status_public":"Named natural stream occurrence from statewide hydrography","geometry_source_public":"Grouped public hydrography segments","trout_source_public":"Compiled public recovery and lineage context; expert review recommended","public_notes":"Indian Creek is shown as a named-water occurrence within watershed-level cutthroat lineage context. This is not a precise biological boundary."}},{"type":"Feature","geometry":{"type":"LineString","coordinates":[[-107.931,37.1848],[-107.9266,37.1863]]},"properties":{"source_id":"co_named_stream_123558","name":"Indian Creek","display_name":"Indian Creek","mapped_name":"Indian Creek","source_name":"Indian Creek","state":"CO","atlas_class":"named_natural_stream","huc8":"14080104","huc8Name":"Animas","huc8States":"CO,NM","lineageKey":"sanJuan","lineage":"sanJuan","historic":"sanJuan","current":"sanJuan","recovery":"recoveryWatch","lineageLabel":"San Juan lineage","lineageBasin":"Animas","lineageNote":"San Juan lineage context","atlas_context":"cutthroat_lineage_context","confidence":"Watershed-level lineage context; expert review recommended","geometryStatus":"Named natural stream segment from statewide hydrography","note":"This named natural stream falls within a HUC8 assigned to a cutthroat lineage context.","source_segment_id":"co_named_stream_123558","water_id":"co_indian_creek_14080104_sanJuan_001","occurrence_id":"co_indian_creek_14080104_sanJuan_001","occurrence_number":"001","segment_count":10,"disambiguator":"Animas · San Juan lineage · occurrence 001","basin":"Animas","atlas_layer":"named_water_occurrence","object_role":"named_water_occurrence","historic_label":"San Juan lineage","current_label":"San Juan lineage","recovery_label":"Recovery watch / review area","tier":"tier3","minZoom":14,"confidence_public":"Watershed-level lineage context; expert review recommended","geometry_status_public":"Named natural stream occurrence from statewide hydrography","geometry_source_public":"Grouped public hydrography segments","trout_source_public":"Compiled public recovery and lineage context; expert review recommended","public_notes":"Indian Creek is shown as a named-water occurrence within watershed-level cutthroat lineage context. This is not a precise biological boundary."}},{"type":"Feature","geometry":{"type":"LineString","coordinates":[[-107.9321,37.1845],[-107.9315,37.1846]]},"properties":{"source_id":"co_named_stream_123559","name":"Indian Creek","display_name":"Indian Creek","mapped_name":"Indian Creek","source_name":"Indian Creek","state":"CO","atlas_class":"named_natural_stream","huc8":"14080104","huc8Name":"Animas","huc8States":"CO,NM","lineageKey":"sanJuan","lineage":"sanJuan","historic":"sanJuan","current":"sanJuan","recovery":"recoveryWatch","lineageLabel":"San Juan lineage","lineageBasin":"Animas","lineageNote":"San Juan lineage context","atlas_context":"cutthroat_lineage_context","confidence":"Watershed-level lineage context; expert review recommended","geometryStatus":"Named natural stream segment from statewide hydrography","note":"This named natural stream falls within a HUC8 assigned to a cutthroat lineage context.","source_segment_id":"co_named_stream_123559","water_id":"co_indian_creek_14080104_sanJuan_001","occurrence_id":"co_indian_creek_14080104_sanJuan_001","occurrence_number":"001","segment_count":10,"disambiguator":"Animas · San Juan lineage · occurrence 001","basin":"Animas","atlas_layer":"named_water_occurrence","object_role":"named_water_occurrence","historic_label":"San Juan lineage","current_label":"San Juan lineage","recovery_label":"Recovery watch / review area","tier":"tier3","minZoom":14,"confidence_public":"Watershed-level lineage context; expert review recommended","geometry_status_public":"Named natural stream occurrence from statewide hydrography","geometry_source_public":"Grouped public hydrography segments","trout_source_public":"Compiled public recovery and lineage context; expert review recommended","public_notes":"Indian Creek is shown as a named-water occurrence within watershed-level cutthroat lineage context. This is not a precise biological boundary."}},{"type":"Feature","geometry":{"type":"LineString","coordinates":[[-107.964,37.1873],[-107.9599,37.1848],[-107.9498,37.184]]},"properties":{"source_id":"co_named_stream_123567","name":"Indian Creek","display_name":"Indian Creek","mapped_name":"Indian Creek","source_name":"Indian Creek","state":"CO","atlas_class":"named_natural_stream","huc8":"14080104","huc8Name":"Animas","huc8States":"CO,NM","lineageKey":"sanJuan","lineage":"sanJuan","historic":"sanJuan","current":"sanJuan","recovery":"recoveryWatch","lineageLabel":"San Juan lineage","lineageBasin":"Animas","lineageNote":"San Juan lineage context","atlas_context":"cutthroat_lineage_context","confidence":"Watershed-level lineage context; expert review recommended","geometryStatus":"Named natural stream segment from statewide hydrography","note":"This named natural stream falls within a HUC8 assigned to a cutthroat lineage context.","source_segment_id":"co_named_stream_123567","water_id":"co_indian_creek_14080104_sanJuan_001","occurrence_id":"co_indian_creek_14080104_sanJuan_001","occurrence_number":"001","segment_count":10,"disambiguator":"Animas · San Juan lineage · occurrence 001","basin":"Animas","atlas_layer":"named_water_occurrence","object_role":"named_water_occurrence","historic_label":"San Juan lineage","current_label":"San Juan lineage","recovery_label":"Recovery watch / review area","tier":"tier3","minZoom":14,"confidence_public":"Watershed-level lineage context; expert review recommended","geometry_status_public":"Named natural stream occurrence from statewide hydrography","geometry_source_public":"Grouped public hydrography segments","trout_source_public":"Compiled public recovery and lineage context; expert review recommended","public_notes":"Indian Creek is shown as a named-water occurrence within watershed-level cutthroat lineage context. This is not a precise biological boundary."}},{"type":"Feature","geometry":{"type":"LineString","coordinates":[[-107.9892,37.1886],[-107.9817,37.1928],[-107.9722,37.1891]]},"properties":{"source_id":"co_named_stream_123570","name":"Indian Creek","display_name":"Indian Creek","mapped_name":"Indian Creek","source_name":"Indian Creek","state":"CO","atlas_class":"named_natural_stream","huc8":"14080104","huc8Name":"Animas","huc8States":"CO,NM","lineageKey":"sanJuan","lineage":"sanJuan","historic":"sanJuan","current":"sanJuan","recovery":"recoveryWatch","lineageLabel":"San Juan lineage","lineageBasin":"Animas","lineageNote":"San Juan lineage context","atlas_context":"cutthroat_lineage_context","confidence":"Watershed-level lineage context; expert review recommended","geometryStatus":"Named natural stream segment from statewide hydrography","note":"This named natural stream falls within a HUC8 assigned to a cutthroat lineage context.","source_segment_id":"co_named_stream_123570","water_id":"co_indian_creek_14080104_sanJuan_001","occurrence_id":"co_indian_creek_14080104_sanJuan_001","occurrence_number":"001","segment_count":10,"disambiguator":"Animas · San Juan lineage · occurrence 001","basin":"Animas","atlas_layer":"named_water_occurrence","object_role":"named_water_occurrence","historic_label":"San Juan lineage","current_label":"San Juan lineage","recovery_label":"Recovery watch / review area","tier":"tier3","minZoom":14,"confidence_public":"Watershed-level lineage context; expert review recommended","geometry_status_public":"Named natural stream occurrence from statewide hydrography","geometry_source_public":"Grouped public hydrography segments","trout_source_public":"Compiled public recovery and lineage context; expert review recommended","public_notes":"Indian Creek is shown as a named-water occurrence within watershed-level cutthroat lineage context. This is not a precise biological boundary."}},{"type":"Feature","geometry":{"type":"LineString","coordinates":[[-107.9394,37.1853],[-107.9321,37.1845]]},"properties":{"source_id":"co_named_stream_123573","name":"Indian Creek","display_name":"Indian Creek","mapped_name":"Indian Creek","source_name":"Indian Creek","state":"CO","atlas_class":"named_natural_stream","huc8":"14080104","huc8Name":"Animas","huc8States":"CO,NM","lineageKey":"sanJuan","lineage":"sanJuan","historic":"sanJuan","current":"sanJuan","recovery":"recoveryWatch","lineageLabel":"San Juan lineage","lineageBasin":"Animas","lineageNote":"San Juan lineage context","atlas_context":"cutthroat_lineage_context","confidence":"Watershed-level lineage context; expert review recommended","geometryStatus":"Named natural stream segment from statewide hydrography","note":"This named natural stream falls within a HUC8 assigned to a cutthroat lineage context.","source_segment_id":"co_named_stream_123573","water_id":"co_indian_creek_14080104_sanJuan_001","occurrence_id":"co_indian_creek_14080104_sanJuan_001","occurrence_number":"001","segment_count":10,"disambiguator":"Animas · San Juan lineage · occurrence 001","basin":"Animas","atlas_layer":"named_water_occurrence","object_role":"named_water_occurrence","historic_label":"San Juan lineage","current_label":"San Juan lineage","recovery_label":"Recovery watch / review area","tier":"tier3","minZoom":14,"confidence_public":"Watershed-level lineage context; expert review recommended","geometry_status_public":"Named natural stream occurrence from statewide hydrography","geometry_source_public":"Grouped public hydrography segments","trout_source_public":"Compiled public recovery and lineage context; expert review recommended","public_notes":"Indian Creek is shown as a named-water occurrence within watershed-level cutthroat lineage context. This is not a precise biological boundary."}},{"type":"Feature","geometry":{"type":"LineString","coordinates":[[-107.9498,37.184],[-107.9434,37.1839],[-107.9394,37.1853]]},"properties":{"source_id":"co_named_stream_123579","name":"Indian Creek","display_name":"Indian Creek","mapped_name":"Indian Creek","source_name":"Indian Creek","state":"CO","atlas_class":"named_natural_stream","huc8":"14080104","huc8Name":"Animas","huc8States":"CO,NM","lineageKey":"sanJuan","lineage":"sanJuan","historic":"sanJuan","current":"sanJuan","recovery":"recoveryWatch","lineageLabel":"San Juan lineage","lineageBasin":"Animas","lineageNote":"San Juan lineage context","atlas_context":"cutthroat_lineage_context","confidence":"Watershed-level lineage context; expert review recommended","geometryStatus":"Named natural stream segment from statewide hydrography","note":"This named natural stream falls within a HUC8 assigned to a cutthroat lineage context.","source_segment_id":"co_named_stream_123579","water_id":"co_indian_creek_14080104_sanJuan_001","occurrence_id":"co_indian_creek_14080104_sanJuan_001","occurrence_number":"001","segment_count":10,"disambiguator":"Animas · San Juan lineage · occurrence 001","basin":"Animas","atlas_layer":"named_water_occurrence","object_role":"named_water_occurrence","historic_label":"San Juan lineage","current_label":"San Juan lineage","recovery_label":"Recovery watch / review area","tier":"tier3","minZoom":14,"confidence_public":"Watershed-level lineage context; expert review recommended","geometry_status_public":"Named natural stream occurrence from statewide hydrography","geometry_source_public":"Grouped public hydrography segments","trout_source_public":"Compiled public recovery and lineage context; expert review recommended","public_notes":"Indian Creek is shown as a named-water occurrence within watershed-level cutthroat lineage context. This is not a precise biological boundary."}},{"type":"Feature","geometry":{"type":"LineString","coordinates":[[-107.9722,37.1891],[-107.9683,37.1873],[-107.964,37.1873]]},"properties":{"source_id":"co_named_stream_123588","name":"Indian Creek","display_name":"Indian Creek","mapped_name":"Indian Creek","source_name":"Indian Creek","state":"CO","atlas_class":"named_natural_stream","huc8":"14080104","huc8Name":"Animas","huc8States":"CO,NM","lineageKey":"sanJuan","lineage":"sanJuan","historic":"sanJuan","current":"sanJuan","recovery":"recoveryWatch","lineageLabel":"San Juan lineage","lineageBasin":"Animas","lineageNote":"San Juan lineage context","atlas_context":"cutthroat_lineage_context","confidence":"Watershed-level lineage context; expert review recommended","geometryStatus":"Named natural stream segment from statewide hydrography","note":"This named natural stream falls within a HUC8 assigned to a cutthroat lineage context.","source_segment_id":"co_named_stream_123588","water_id":"co_indian_creek_14080104_sanJuan_001","occurrence_id":"co_indian_creek_14080104_sanJuan_001","occurrence_number":"001","segment_count":10,"disambiguator":"Animas · San Juan lineage · occurrence 001","basin":"Animas","atlas_layer":"named_water_occurrence","object_role":"named_water_occurrence","historic_label":"San Juan lineage","current_label":"San Juan lineage","recovery_label":"Recovery watch / review area","tier":"tier3","minZoom":14,"confidence_public":"Watershed-level lineage context; expert review recommended","geometry_status_public":"Named natural stream occurrence from statewide hydrography","geometry_source_public":"Grouped public hydrography segments","trout_source_public":"Compiled public recovery and lineage context; expert review recommended","public_notes":"Indian Creek is shown as a named-water occurrence within watershed-level cutthroat lineage context. This is not a precise biological boundary."}},{"type":"Feature","geometry":{"type":"LineString","coordinates":[[-107.9972,37],[-107.9974,37.0033],[-107.9985,37.0053],[-108.002,37.0076]]},"properties":{"source_id":"co_named_stream_123236","name":"Godby Wash","display_name":"Godby Wash","mapped_name":"Godby Wash","source_name":"Godby Wash","state":"CO","atlas_class":"named_natural_stream","huc8":"14080105","huc8Name":"Middle San Juan","huc8States":"AZ,CO,NM","lineageKey":"sanJuan","lineage":"sanJuan","historic":"sanJuan","current":"sanJuan","recovery":"recoveryWatch","lineageLabel":"San Juan lineage","lineageBasin":"Middle San Juan","lineageNote":"San Juan lineage context; review needed","atlas_context":"cutthroat_lineage_context","confidence":"Watershed-level lineage context; expert review recommended","geometryStatus":"Named natural stream segment from statewide hydrography","note":"This named natural stream falls within a HUC8 assigned to a cutthroat lineage context.","source_segment_id":"co_named_stream_123236","water_id":"co_godby_wash_14080105_sanJuan_001","occurrence_id":"co_godby_wash_14080105_sanJuan_001","occurrence_number":"001","segment_count":7,"disambiguator":"Middle San Juan · San Juan lineage · occurrence 001","basin":"Middle San Juan","atlas_layer":"named_water_occurrence","object_role":"named_water_occurrence","historic_label":"San Juan lineage","current_label":"San Juan lineage","recovery_label":"Recovery watch / review area","tier":"tier3","minZoom":14,"confidence_public":"Watershed-level lineage context; expert review recommended","geometry_status_public":"Named natural stream occurrence from statewide hydrography","geometry_source_public":"Grouped public hydrography segments","trout_source_public":"Compiled public recovery and lineage context; expert review recommended","public_notes":"Godby Wash is shown as a named-water occurrence within watershed-level cutthroat lineage context. This is not a precise biological boundary."}}]}