{"type":"FeatureCollection","metadata":{"source":"C:\\ct-atlas-data\\processed\\geojson\\interpreted\\colorado_named_natural_streams_complete_v1.geojson","tier":"tier3","tile_size_degrees":0.25,"x":-425,"y":151,"bounds":{"west":-106.25,"south":37.75,"east":-106,"north":38}},"features":[{"type":"Feature","geometry":{"type":"LineString","coordinates":[[-106.2233,37.9381],[-106.2197,37.9342],[-106.2121,37.9322],[-106.2076,37.9324],[-106.2027,37.9312],[-106.1951,37.9332],[-106.1921,37.9328]]},"properties":{"source_id":"co_named_stream_052641","name":"Cottonwood Creek","display_name":"Cottonwood Creek","mapped_name":"Cottonwood Creek","source_name":"Cottonwood Creek","state":"CO","atlas_class":"named_natural_stream","huc8":"13010004","huc8Name":"Saguache","huc8States":"CO","lineageKey":"rioGrande","lineage":"rioGrande","historic":"rioGrande","current":"rioGrande","recovery":"recoveryWatch","lineageLabel":"Rio Grande lineage","lineageBasin":"Saguache","lineageNote":"Generalized Rio Grande cutthroat drainage context","atlas_context":"cutthroat_lineage_context","confidence":"Watershed-level lineage context; expert review recommended","geometryStatus":"Named natural stream segment from statewide hydrography","note":"This named natural stream falls within a HUC8 assigned to a cutthroat lineage context.","source_segment_id":"co_named_stream_052641","water_id":"co_cottonwood_creek_13010004_rioGrande_002","occurrence_id":"co_cottonwood_creek_13010004_rioGrande_002","occurrence_number":"002","segment_count":1,"disambiguator":"Saguache · Rio Grande lineage · occurrence 002","basin":"Saguache","atlas_layer":"named_water_occurrence","object_role":"named_water_occurrence","historic_label":"Rio Grande lineage","current_label":"Rio Grande lineage","recovery_label":"Recovery watch / review area","tier":"tier3","minZoom":14,"confidence_public":"Watershed-level lineage context; expert review recommended","geometry_status_public":"Named natural stream occurrence from statewide hydrography","geometry_source_public":"Grouped public hydrography segments","trout_source_public":"Compiled public recovery and lineage context; expert review recommended","public_notes":"Cottonwood Creek is shown as a named-water occurrence within watershed-level cutthroat lineage context. This is not a precise biological boundary."}},{"type":"Feature","geometry":{"type":"LineString","coordinates":[[-106.1383,37.8375],[-106.1362,37.8387],[-106.132,37.8392],[-106.1322,37.8402],[-106.1311,37.8412],[-106.1289,37.8417]]},"properties":{"source_id":"co_named_stream_053158","name":"La Garita Creek","display_name":"La Garita Creek","mapped_name":"La Garita Creek","source_name":"La Garita Creek","state":"CO","atlas_class":"named_natural_stream","huc8":"13010004","huc8Name":"Saguache","huc8States":"CO","lineageKey":"rioGrande","lineage":"rioGrande","historic":"rioGrande","current":"rioGrande","recovery":"recoveryWatch","lineageLabel":"Rio Grande lineage","lineageBasin":"Saguache","lineageNote":"Generalized Rio Grande cutthroat drainage context","atlas_context":"cutthroat_lineage_context","confidence":"Watershed-level lineage context; expert review recommended","geometryStatus":"Named natural stream segment from statewide hydrography","note":"This named natural stream falls within a HUC8 assigned to a cutthroat lineage context.","source_segment_id":"co_named_stream_053158","water_id":"co_la_garita_creek_13010004_rioGrande_004","occurrence_id":"co_la_garita_creek_13010004_rioGrande_004","occurrence_number":"004","segment_count":3,"disambiguator":"Saguache · Rio Grande lineage · occurrence 004","basin":"Saguache","atlas_layer":"named_water_occurrence","object_role":"named_water_occurrence","historic_label":"Rio Grande lineage","current_label":"Rio Grande lineage","recovery_label":"Recovery watch / review area","tier":"tier3","minZoom":14,"confidence_public":"Watershed-level lineage context; expert review recommended","geometry_status_public":"Named natural stream occurrence from statewide hydrography","geometry_source_public":"Grouped public hydrography segments","trout_source_public":"Compiled public recovery and lineage context; expert review recommended","public_notes":"La Garita Creek is shown as a named-water occurrence within watershed-level cutthroat lineage context. This is not a precise biological boundary."}},{"type":"Feature","geometry":{"type":"LineString","coordinates":[[-106.0954,37.8575],[-106.0914,37.8576]]},"properties":{"source_id":"co_named_stream_054528","name":"La Garita Creek","display_name":"La Garita Creek","mapped_name":"La Garita Creek","source_name":"La Garita Creek","state":"CO","atlas_class":"named_natural_stream","huc8":"13010004","huc8Name":"Saguache","huc8States":"CO","lineageKey":"rioGrande","lineage":"rioGrande","historic":"rioGrande","current":"rioGrande","recovery":"recoveryWatch","lineageLabel":"Rio Grande lineage","lineageBasin":"Saguache","lineageNote":"Generalized Rio Grande cutthroat drainage context","atlas_context":"cutthroat_lineage_context","confidence":"Watershed-level lineage context; expert review recommended","geometryStatus":"Named natural stream segment from statewide hydrography","note":"This named natural stream falls within a HUC8 assigned to a cutthroat lineage context.","source_segment_id":"co_named_stream_054528","water_id":"co_la_garita_creek_13010004_rioGrande_004","occurrence_id":"co_la_garita_creek_13010004_rioGrande_004","occurrence_number":"004","segment_count":3,"disambiguator":"Saguache · Rio Grande lineage · occurrence 004","basin":"Saguache","atlas_layer":"named_water_occurrence","object_role":"named_water_occurrence","historic_label":"Rio Grande lineage","current_label":"Rio Grande lineage","recovery_label":"Recovery watch / review area","tier":"tier3","minZoom":14,"confidence_public":"Watershed-level lineage context; expert review recommended","geometry_status_public":"Named natural stream occurrence from statewide hydrography","geometry_source_public":"Grouped public hydrography segments","trout_source_public":"Compiled public recovery and lineage context; expert review recommended","public_notes":"La Garita Creek is shown as a named-water occurrence within watershed-level cutthroat lineage context. This is not a precise biological boundary."}},{"type":"Feature","geometry":{"type":"LineString","coordinates":[[-106.1423,37.8353],[-106.1415,37.8364],[-106.1386,37.8372]]},"properties":{"source_id":"co_named_stream_054861","name":"La Garita Creek","display_name":"La Garita Creek","mapped_name":"La Garita Creek","source_name":"La Garita Creek","state":"CO","atlas_class":"named_natural_stream","huc8":"13010004","huc8Name":"Saguache","huc8States":"CO","lineageKey":"rioGrande","lineage":"rioGrande","historic":"rioGrande","current":"rioGrande","recovery":"recoveryWatch","lineageLabel":"Rio Grande lineage","lineageBasin":"Saguache","lineageNote":"Generalized Rio Grande cutthroat drainage context","atlas_context":"cutthroat_lineage_context","confidence":"Watershed-level lineage context; expert review recommended","geometryStatus":"Named natural stream segment from statewide hydrography","note":"This named natural stream falls within a HUC8 assigned to a cutthroat lineage context.","source_segment_id":"co_named_stream_054861","water_id":"co_la_garita_creek_13010004_rioGrande_004","occurrence_id":"co_la_garita_creek_13010004_rioGrande_004","occurrence_number":"004","segment_count":3,"disambiguator":"Saguache · Rio Grande lineage · occurrence 004","basin":"Saguache","atlas_layer":"named_water_occurrence","object_role":"named_water_occurrence","historic_label":"Rio Grande lineage","current_label":"Rio Grande lineage","recovery_label":"Recovery watch / review area","tier":"tier3","minZoom":14,"confidence_public":"Watershed-level lineage context; expert review recommended","geometry_status_public":"Named natural stream occurrence from statewide hydrography","geometry_source_public":"Grouped public hydrography segments","trout_source_public":"Compiled public recovery and lineage context; expert review recommended","public_notes":"La Garita Creek is shown as a named-water occurrence within watershed-level cutthroat lineage context. This is not a precise biological boundary."}},{"type":"Feature","geometry":{"type":"LineString","coordinates":[[-106.0816,38.0007],[-106.0789,37.9996],[-106.0785,37.9975],[-106.0766,37.9977],[-106.0749,37.9964],[-106.0746,37.9948],[-106.0709,37.9917],[-106.07,37.9878],[-106.0664,37.9839],[-106.0666,37.9822],[-106.0687,37.9801],[-106.0677,37.9755],[-106.0662,37.973],[-106.0635,37.9718],[-106.0619,37.9694],[-106.0561,37.9683],[-106.0562,37.9659],[-106.0528,37.9627],[-106.0544,37.9594],[-106.0519,37.9591],[-106.0531,37.9556],[-106.0523,37.955]]},"properties":{"source_id":"co_named_stream_062711","name":"Werner Arroyo","display_name":"Werner Arroyo","mapped_name":"Werner Arroyo","source_name":"Werner Arroyo","state":"CO","atlas_class":"named_natural_stream","huc8":"13010004","huc8Name":"Saguache","huc8States":"CO","lineageKey":"rioGrande","lineage":"rioGrande","historic":"rioGrande","current":"rioGrande","recovery":"recoveryWatch","lineageLabel":"Rio Grande lineage","lineageBasin":"Saguache","lineageNote":"Generalized Rio Grande cutthroat drainage context","atlas_context":"cutthroat_lineage_context","confidence":"Watershed-level lineage context; expert review recommended","geometryStatus":"Named natural stream segment from statewide hydrography","note":"This named natural stream falls within a HUC8 assigned to a cutthroat lineage context.","source_segment_id":"co_named_stream_062711","water_id":"co_werner_arroyo_13010004_rioGrande_001","occurrence_id":"co_werner_arroyo_13010004_rioGrande_001","occurrence_number":"001","segment_count":11,"disambiguator":"Saguache · Rio Grande lineage · occurrence 001","basin":"Saguache","atlas_layer":"named_water_occurrence","object_role":"named_water_occurrence","historic_label":"Rio Grande lineage","current_label":"Rio Grande lineage","recovery_label":"Recovery watch / review area","tier":"tier3","minZoom":14,"confidence_public":"Watershed-level lineage context; expert review recommended","geometry_status_public":"Named natural stream occurrence from statewide hydrography","geometry_source_public":"Grouped public hydrography segments","trout_source_public":"Compiled public recovery and lineage context; expert review recommended","public_notes":"Werner Arroyo is shown as a named-water occurrence within watershed-level cutthroat lineage context. This is not a precise biological boundary."}},{"type":"Feature","geometry":{"type":"LineString","coordinates":[[-106.051,37.9526],[-106.0414,37.948],[-106.0381,37.9454],[-106.0301,37.945],[-106.0254,37.9405],[-106.0199,37.9401],[-106.018,37.9383],[-106.0153,37.9374],[-106.0133,37.9348],[-106.0094,37.9345],[-106.0073,37.9313],[-105.9999,37.9279],[-105.9967,37.9281],[-105.9948,37.9242],[-105.9959,37.9221],[-105.9942,37.9214],[-105.9926,37.9226],[-105.9899,37.9203]]},"properties":{"source_id":"co_named_stream_058515","name":"Werner Arroyo","display_name":"Werner Arroyo","mapped_name":"Werner Arroyo","source_name":"Werner Arroyo","state":"CO","atlas_class":"named_natural_stream","huc8":"13010004","huc8Name":"Saguache","huc8States":"CO","lineageKey":"rioGrande","lineage":"rioGrande","historic":"rioGrande","current":"rioGrande","recovery":"recoveryWatch","lineageLabel":"Rio Grande lineage","lineageBasin":"Saguache","lineageNote":"Generalized Rio Grande cutthroat drainage context","atlas_context":"cutthroat_lineage_context","confidence":"Watershed-level lineage context; expert review recommended","geometryStatus":"Named natural stream segment from statewide hydrography","note":"This named natural stream falls within a HUC8 assigned to a cutthroat lineage context.","source_segment_id":"co_named_stream_058515","water_id":"co_werner_arroyo_13010004_rioGrande_002","occurrence_id":"co_werner_arroyo_13010004_rioGrande_002","occurrence_number":"002","segment_count":2,"disambiguator":"Saguache · Rio Grande lineage · occurrence 002","basin":"Saguache","atlas_layer":"named_water_occurrence","object_role":"named_water_occurrence","historic_label":"Rio Grande lineage","current_label":"Rio Grande lineage","recovery_label":"Recovery watch / review area","tier":"tier3","minZoom":14,"confidence_public":"Watershed-level lineage context; expert review recommended","geometry_status_public":"Named natural stream occurrence from statewide hydrography","geometry_source_public":"Grouped public hydrography segments","trout_source_public":"Compiled public recovery and lineage context; expert review recommended","public_notes":"Werner Arroyo is shown as a named-water occurrence within watershed-level cutthroat lineage context. This is not a precise biological boundary."}},{"type":"Feature","geometry":{"type":"LineString","coordinates":[[-106.052,37.9541],[-106.052,37.9539]]},"properties":{"source_id":"co_named_stream_060880","name":"Werner Arroyo","display_name":"Werner Arroyo","mapped_name":"Werner Arroyo","source_name":"Werner Arroyo","state":"CO","atlas_class":"named_natural_stream","huc8":"13010004","huc8Name":"Saguache","huc8States":"CO","lineageKey":"rioGrande","lineage":"rioGrande","historic":"rioGrande","current":"rioGrande","recovery":"recoveryWatch","lineageLabel":"Rio Grande lineage","lineageBasin":"Saguache","lineageNote":"Generalized Rio Grande cutthroat drainage context","atlas_context":"cutthroat_lineage_context","confidence":"Watershed-level lineage context; expert review recommended","geometryStatus":"Named natural stream segment from statewide hydrography","note":"This named natural stream falls within a HUC8 assigned to a cutthroat lineage context.","source_segment_id":"co_named_stream_060880","water_id":"co_werner_arroyo_13010004_rioGrande_002","occurrence_id":"co_werner_arroyo_13010004_rioGrande_002","occurrence_number":"002","segment_count":2,"disambiguator":"Saguache · Rio Grande lineage · occurrence 002","basin":"Saguache","atlas_layer":"named_water_occurrence","object_role":"named_water_occurrence","historic_label":"Rio Grande lineage","current_label":"Rio Grande lineage","recovery_label":"Recovery watch / review area","tier":"tier3","minZoom":14,"confidence_public":"Watershed-level lineage context; expert review recommended","geometry_status_public":"Named natural stream occurrence from statewide hydrography","geometry_source_public":"Grouped public hydrography segments","trout_source_public":"Compiled public recovery and lineage context; expert review recommended","public_notes":"Werner Arroyo is shown as a named-water occurrence within watershed-level cutthroat lineage context. This is not a precise biological boundary."}},{"type":"Feature","geometry":{"type":"LineString","coordinates":[[-106.2274,37.8705],[-106.2175,37.8741],[-106.2101,37.8785]]},"properties":{"source_id":"co_named_stream_052737","name":"Mogotas Arroyo","display_name":"Mogotas Arroyo","mapped_name":"Mogotas Arroyo","source_name":"Mogotas Arroyo","state":"CO","atlas_class":"named_natural_stream","huc8":"13010004","huc8Name":"Saguache","huc8States":"CO","lineageKey":"rioGrande","lineage":"rioGrande","historic":"rioGrande","current":"rioGrande","recovery":"recoveryWatch","lineageLabel":"Rio Grande lineage","lineageBasin":"Saguache","lineageNote":"Generalized Rio Grande cutthroat drainage context","atlas_context":"cutthroat_lineage_context","confidence":"Watershed-level lineage context; expert review recommended","geometryStatus":"Named natural stream segment from statewide hydrography","note":"This named natural stream falls within a HUC8 assigned to a cutthroat lineage context.","source_segment_id":"co_named_stream_052737","water_id":"co_mogotas_arroyo_13010004_rioGrande_001","occurrence_id":"co_mogotas_arroyo_13010004_rioGrande_001","occurrence_number":"001","segment_count":15,"disambiguator":"Saguache · Rio Grande lineage · occurrence 001","basin":"Saguache","atlas_layer":"named_water_occurrence","object_role":"named_water_occurrence","historic_label":"Rio Grande lineage","current_label":"Rio Grande lineage","recovery_label":"Recovery watch / review area","tier":"tier3","minZoom":14,"confidence_public":"Watershed-level lineage context; expert review recommended","geometry_status_public":"Named natural stream occurrence from statewide hydrography","geometry_source_public":"Grouped public hydrography segments","trout_source_public":"Compiled public recovery and lineage context; expert review recommended","public_notes":"Mogotas Arroyo is shown as a named-water occurrence within watershed-level cutthroat lineage context. This is not a precise biological boundary."}},{"type":"Feature","geometry":{"type":"LineString","coordinates":[[-106.1952,37.8796],[-106.1898,37.883],[-106.1835,37.8832],[-106.1794,37.886]]},"properties":{"source_id":"co_named_stream_052900","name":"Mogotas Arroyo","display_name":"Mogotas Arroyo","mapped_name":"Mogotas Arroyo","source_name":"Mogotas Arroyo","state":"CO","atlas_class":"named_natural_stream","huc8":"13010004","huc8Name":"Saguache","huc8States":"CO","lineageKey":"rioGrande","lineage":"rioGrande","historic":"rioGrande","current":"rioGrande","recovery":"recoveryWatch","lineageLabel":"Rio Grande lineage","lineageBasin":"Saguache","lineageNote":"Generalized Rio Grande cutthroat drainage context","atlas_context":"cutthroat_lineage_context","confidence":"Watershed-level lineage context; expert review recommended","geometryStatus":"Named natural stream segment from statewide hydrography","note":"This named natural stream falls within a HUC8 assigned to a cutthroat lineage context.","source_segment_id":"co_named_stream_052900","water_id":"co_mogotas_arroyo_13010004_rioGrande_001","occurrence_id":"co_mogotas_arroyo_13010004_rioGrande_001","occurrence_number":"001","segment_count":15,"disambiguator":"Saguache · Rio Grande lineage · occurrence 001","basin":"Saguache","atlas_layer":"named_water_occurrence","object_role":"named_water_occurrence","historic_label":"Rio Grande lineage","current_label":"Rio Grande lineage","recovery_label":"Recovery watch / review area","tier":"tier3","minZoom":14,"confidence_public":"Watershed-level lineage context; expert review recommended","geometry_status_public":"Named natural stream occurrence from statewide hydrography","geometry_source_public":"Grouped public hydrography segments","trout_source_public":"Compiled public recovery and lineage context; expert review recommended","public_notes":"Mogotas Arroyo is shown as a named-water occurrence within watershed-level cutthroat lineage context. This is not a precise biological boundary."}},{"type":"Feature","geometry":{"type":"LineString","coordinates":[[-106.1954,37.8794],[-106.1952,37.8796]]},"properties":{"source_id":"co_named_stream_054538","name":"Mogotas Arroyo","display_name":"Mogotas Arroyo","mapped_name":"Mogotas Arroyo","source_name":"Mogotas Arroyo","state":"CO","atlas_class":"named_natural_stream","huc8":"13010004","huc8Name":"Saguache","huc8States":"CO","lineageKey":"rioGrande","lineage":"rioGrande","historic":"rioGrande","current":"rioGrande","recovery":"recoveryWatch","lineageLabel":"Rio Grande lineage","lineageBasin":"Saguache","lineageNote":"Generalized Rio Grande cutthroat drainage context","atlas_context":"cutthroat_lineage_context","confidence":"Watershed-level lineage context; expert review recommended","geometryStatus":"Named natural stream segment from statewide hydrography","note":"This named natural stream falls within a HUC8 assigned to a cutthroat lineage context.","source_segment_id":"co_named_stream_054538","water_id":"co_mogotas_arroyo_13010004_rioGrande_001","occurrence_id":"co_mogotas_arroyo_13010004_rioGrande_001","occurrence_number":"001","segment_count":15,"disambiguator":"Saguache · Rio Grande lineage · occurrence 001","basin":"Saguache","atlas_layer":"named_water_occurrence","object_role":"named_water_occurrence","historic_label":"Rio Grande lineage","current_label":"Rio Grande lineage","recovery_label":"Recovery watch / review area","tier":"tier3","minZoom":14,"confidence_public":"Watershed-level lineage context; expert review recommended","geometry_status_public":"Named natural stream occurrence from statewide hydrography","geometry_source_public":"Grouped public hydrography segments","trout_source_public":"Compiled public recovery and lineage context; expert review recommended","public_notes":"Mogotas Arroyo is shown as a named-water occurrence within watershed-level cutthroat lineage context. This is not a precise biological boundary."}},{"type":"Feature","geometry":{"type":"LineString","coordinates":[[-106.2403,37.8666],[-106.2274,37.8705]]},"properties":{"source_id":"co_named_stream_055001","name":"Mogotas Arroyo","display_name":"Mogotas Arroyo","mapped_name":"Mogotas Arroyo","source_name":"Mogotas Arroyo","state":"CO","atlas_class":"named_natural_stream","huc8":"13010004","huc8Name":"Saguache","huc8States":"CO","lineageKey":"rioGrande","lineage":"rioGrande","historic":"rioGrande","current":"rioGrande","recovery":"recoveryWatch","lineageLabel":"Rio Grande lineage","lineageBasin":"Saguache","lineageNote":"Generalized Rio Grande cutthroat drainage context","atlas_context":"cutthroat_lineage_context","confidence":"Watershed-level lineage context; expert review recommended","geometryStatus":"Named natural stream segment from statewide hydrography","note":"This named natural stream falls within a HUC8 assigned to a cutthroat lineage context.","source_segment_id":"co_named_stream_055001","water_id":"co_mogotas_arroyo_13010004_rioGrande_001","occurrence_id":"co_mogotas_arroyo_13010004_rioGrande_001","occurrence_number":"001","segment_count":15,"disambiguator":"Saguache · Rio Grande lineage · occurrence 001","basin":"Saguache","atlas_layer":"named_water_occurrence","object_role":"named_water_occurrence","historic_label":"Rio Grande lineage","current_label":"Rio Grande lineage","recovery_label":"Recovery watch / review area","tier":"tier3","minZoom":14,"confidence_public":"Watershed-level lineage context; expert review recommended","geometry_status_public":"Named natural stream occurrence from statewide hydrography","geometry_source_public":"Grouped public hydrography segments","trout_source_public":"Compiled public recovery and lineage context; expert review recommended","public_notes":"Mogotas Arroyo is shown as a named-water occurrence within watershed-level cutthroat lineage context. This is not a precise biological boundary."}},{"type":"Feature","geometry":{"type":"LineString","coordinates":[[-106.1794,37.886],[-106.1769,37.8855],[-106.1744,37.8866],[-106.1652,37.8865],[-106.1641,37.8876],[-106.1577,37.8883]]},"properties":{"source_id":"co_named_stream_055369","name":"Mogotas Arroyo","display_name":"Mogotas Arroyo","mapped_name":"Mogotas Arroyo","source_name":"Mogotas Arroyo","state":"CO","atlas_class":"named_natural_stream","huc8":"13010004","huc8Name":"Saguache","huc8States":"CO","lineageKey":"rioGrande","lineage":"rioGrande","historic":"rioGrande","current":"rioGrande","recovery":"recoveryWatch","lineageLabel":"Rio Grande lineage","lineageBasin":"Saguache","lineageNote":"Generalized Rio Grande cutthroat drainage context","atlas_context":"cutthroat_lineage_context","confidence":"Watershed-level lineage context; expert review recommended","geometryStatus":"Named natural stream segment from statewide hydrography","note":"This named natural stream falls within a HUC8 assigned to a cutthroat lineage context.","source_segment_id":"co_named_stream_055369","water_id":"co_mogotas_arroyo_13010004_rioGrande_001","occurrence_id":"co_mogotas_arroyo_13010004_rioGrande_001","occurrence_number":"001","segment_count":15,"disambiguator":"Saguache · Rio Grande lineage · occurrence 001","basin":"Saguache","atlas_layer":"named_water_occurrence","object_role":"named_water_occurrence","historic_label":"Rio Grande lineage","current_label":"Rio Grande lineage","recovery_label":"Recovery watch / review area","tier":"tier3","minZoom":14,"confidence_public":"Watershed-level lineage context; expert review recommended","geometry_status_public":"Named natural stream occurrence from statewide hydrography","geometry_source_public":"Grouped public hydrography segments","trout_source_public":"Compiled public recovery and lineage context; expert review recommended","public_notes":"Mogotas Arroyo is shown as a named-water occurrence within watershed-level cutthroat lineage context. This is not a precise biological boundary."}},{"type":"Feature","geometry":{"type":"LineString","coordinates":[[-106.2517,37.8626],[-106.2403,37.8666]]},"properties":{"source_id":"co_named_stream_055986","name":"Mogotas Arroyo","display_name":"Mogotas Arroyo","mapped_name":"Mogotas Arroyo","source_name":"Mogotas Arroyo","state":"CO","atlas_class":"named_natural_stream","huc8":"13010004","huc8Name":"Saguache","huc8States":"CO","lineageKey":"rioGrande","lineage":"rioGrande","historic":"rioGrande","current":"rioGrande","recovery":"recoveryWatch","lineageLabel":"Rio Grande lineage","lineageBasin":"Saguache","lineageNote":"Generalized Rio Grande cutthroat drainage context","atlas_context":"cutthroat_lineage_context","confidence":"Watershed-level lineage context; expert review recommended","geometryStatus":"Named natural stream segment from statewide hydrography","note":"This named natural stream falls within a HUC8 assigned to a cutthroat lineage context.","source_segment_id":"co_named_stream_055986","water_id":"co_mogotas_arroyo_13010004_rioGrande_001","occurrence_id":"co_mogotas_arroyo_13010004_rioGrande_001","occurrence_number":"001","segment_count":15,"disambiguator":"Saguache · Rio Grande lineage · occurrence 001","basin":"Saguache","atlas_layer":"named_water_occurrence","object_role":"named_water_occurrence","historic_label":"Rio Grande lineage","current_label":"Rio Grande lineage","recovery_label":"Recovery watch / review area","tier":"tier3","minZoom":14,"confidence_public":"Watershed-level lineage context; expert review recommended","geometry_status_public":"Named natural stream occurrence from statewide hydrography","geometry_source_public":"Grouped public hydrography segments","trout_source_public":"Compiled public recovery and lineage context; expert review recommended","public_notes":"Mogotas Arroyo is shown as a named-water occurrence within watershed-level cutthroat lineage context. This is not a precise biological boundary."}},{"type":"Feature","geometry":{"type":"LineString","coordinates":[[-106.2101,37.8785],[-106.2081,37.8787]]},"properties":{"source_id":"co_named_stream_058453","name":"Mogotas Arroyo","display_name":"Mogotas Arroyo","mapped_name":"Mogotas Arroyo","source_name":"Mogotas Arroyo","state":"CO","atlas_class":"named_natural_stream","huc8":"13010004","huc8Name":"Saguache","huc8States":"CO","lineageKey":"rioGrande","lineage":"rioGrande","historic":"rioGrande","current":"rioGrande","recovery":"recoveryWatch","lineageLabel":"Rio Grande lineage","lineageBasin":"Saguache","lineageNote":"Generalized Rio Grande cutthroat drainage context","atlas_context":"cutthroat_lineage_context","confidence":"Watershed-level lineage context; expert review recommended","geometryStatus":"Named natural stream segment from statewide hydrography","note":"This named natural stream falls within a HUC8 assigned to a cutthroat lineage context.","source_segment_id":"co_named_stream_058453","water_id":"co_mogotas_arroyo_13010004_rioGrande_001","occurrence_id":"co_mogotas_arroyo_13010004_rioGrande_001","occurrence_number":"001","segment_count":15,"disambiguator":"Saguache · Rio Grande lineage · occurrence 001","basin":"Saguache","atlas_layer":"named_water_occurrence","object_role":"named_water_occurrence","historic_label":"Rio Grande lineage","current_label":"Rio Grande lineage","recovery_label":"Recovery watch / review area","tier":"tier3","minZoom":14,"confidence_public":"Watershed-level lineage context; expert review recommended","geometry_status_public":"Named natural stream occurrence from statewide hydrography","geometry_source_public":"Grouped public hydrography segments","trout_source_public":"Compiled public recovery and lineage context; expert review recommended","public_notes":"Mogotas Arroyo is shown as a named-water occurrence within watershed-level cutthroat lineage context. This is not a precise biological boundary."}},{"type":"Feature","geometry":{"type":"LineString","coordinates":[[-106.2081,37.8787],[-106.205,37.8792],[-106.201,37.8781],[-106.1954,37.8794]]},"properties":{"source_id":"co_named_stream_061962","name":"Mogotas Arroyo","display_name":"Mogotas Arroyo","mapped_name":"Mogotas Arroyo","source_name":"Mogotas Arroyo","state":"CO","atlas_class":"named_natural_stream","huc8":"13010004","huc8Name":"Saguache","huc8States":"CO","lineageKey":"rioGrande","lineage":"rioGrande","historic":"rioGrande","current":"rioGrande","recovery":"recoveryWatch","lineageLabel":"Rio Grande lineage","lineageBasin":"Saguache","lineageNote":"Generalized Rio Grande cutthroat drainage context","atlas_context":"cutthroat_lineage_context","confidence":"Watershed-level lineage context; expert review recommended","geometryStatus":"Named natural stream segment from statewide hydrography","note":"This named natural stream falls within a HUC8 assigned to a cutthroat lineage context.","source_segment_id":"co_named_stream_061962","water_id":"co_mogotas_arroyo_13010004_rioGrande_001","occurrence_id":"co_mogotas_arroyo_13010004_rioGrande_001","occurrence_number":"001","segment_count":15,"disambiguator":"Saguache · Rio Grande lineage · occurrence 001","basin":"Saguache","atlas_layer":"named_water_occurrence","object_role":"named_water_occurrence","historic_label":"Rio Grande lineage","current_label":"Rio Grande lineage","recovery_label":"Recovery watch / review area","tier":"tier3","minZoom":14,"confidence_public":"Watershed-level lineage context; expert review recommended","geometry_status_public":"Named natural stream occurrence from statewide hydrography","geometry_source_public":"Grouped public hydrography segments","trout_source_public":"Compiled public recovery and lineage context; expert review recommended","public_notes":"Mogotas Arroyo is shown as a named-water occurrence within watershed-level cutthroat lineage context. This is not a precise biological boundary."}},{"type":"Feature","geometry":{"type":"LineString","coordinates":[[-106.2142,37.9619],[-106.2139,37.9621]]},"properties":{"source_id":"co_named_stream_052964","name":"San Juan Creek","display_name":"San Juan Creek","mapped_name":"San Juan Creek","source_name":"San Juan Creek","state":"CO","atlas_class":"named_natural_stream","huc8":"13010004","huc8Name":"Saguache","huc8States":"CO","lineageKey":"rioGrande","lineage":"rioGrande","historic":"rioGrande","current":"rioGrande","recovery":"recoveryWatch","lineageLabel":"Rio Grande lineage","lineageBasin":"Saguache","lineageNote":"Generalized Rio Grande cutthroat drainage context","atlas_context":"cutthroat_lineage_context","confidence":"Watershed-level lineage context; expert review recommended","geometryStatus":"Named natural stream segment from statewide hydrography","note":"This named natural stream falls within a HUC8 assigned to a cutthroat lineage context.","source_segment_id":"co_named_stream_052964","water_id":"co_san_juan_creek_13010004_rioGrande_001","occurrence_id":"co_san_juan_creek_13010004_rioGrande_001","occurrence_number":"001","segment_count":15,"disambiguator":"Saguache · Rio Grande lineage · occurrence 001","basin":"Saguache","atlas_layer":"named_water_occurrence","object_role":"named_water_occurrence","historic_label":"Rio Grande lineage","current_label":"Rio Grande lineage","recovery_label":"Recovery watch / review area","tier":"tier3","minZoom":14,"confidence_public":"Watershed-level lineage context; expert review recommended","geometry_status_public":"Named natural stream occurrence from statewide hydrography","geometry_source_public":"Grouped public hydrography segments","trout_source_public":"Compiled public recovery and lineage context; expert review recommended","public_notes":"San Juan Creek is shown as a named-water occurrence within watershed-level cutthroat lineage context. This is not a precise biological boundary."}},{"type":"Feature","geometry":{"type":"LineString","coordinates":[[-106.2578,37.9689],[-106.2511,37.9648],[-106.2347,37.9605],[-106.2221,37.9587],[-106.2164,37.9598],[-106.2142,37.9619]]},"properties":{"source_id":"co_named_stream_055092","name":"San Juan Creek","display_name":"San Juan Creek","mapped_name":"San Juan Creek","source_name":"San Juan Creek","state":"CO","atlas_class":"named_natural_stream","huc8":"13010004","huc8Name":"Saguache","huc8States":"CO","lineageKey":"rioGrande","lineage":"rioGrande","historic":"rioGrande","current":"rioGrande","recovery":"recoveryWatch","lineageLabel":"Rio Grande lineage","lineageBasin":"Saguache","lineageNote":"Generalized Rio Grande cutthroat drainage context","atlas_context":"cutthroat_lineage_context","confidence":"Watershed-level lineage context; expert review recommended","geometryStatus":"Named natural stream segment from statewide hydrography","note":"This named natural stream falls within a HUC8 assigned to a cutthroat lineage context.","source_segment_id":"co_named_stream_055092","water_id":"co_san_juan_creek_13010004_rioGrande_001","occurrence_id":"co_san_juan_creek_13010004_rioGrande_001","occurrence_number":"001","segment_count":15,"disambiguator":"Saguache · Rio Grande lineage · occurrence 001","basin":"Saguache","atlas_layer":"named_water_occurrence","object_role":"named_water_occurrence","historic_label":"Rio Grande lineage","current_label":"Rio Grande lineage","recovery_label":"Recovery watch / review area","tier":"tier3","minZoom":14,"confidence_public":"Watershed-level lineage context; expert review recommended","geometry_status_public":"Named natural stream occurrence from statewide hydrography","geometry_source_public":"Grouped public hydrography segments","trout_source_public":"Compiled public recovery and lineage context; expert review recommended","public_notes":"San Juan Creek is shown as a named-water occurrence within watershed-level cutthroat lineage context. This is not a precise biological boundary."}},{"type":"Feature","geometry":{"type":"LineString","coordinates":[[-106.2139,37.9621],[-106.2101,37.963]]},"properties":{"source_id":"co_named_stream_055953","name":"San Juan Creek","display_name":"San Juan Creek","mapped_name":"San Juan Creek","source_name":"San Juan Creek","state":"CO","atlas_class":"named_natural_stream","huc8":"13010004","huc8Name":"Saguache","huc8States":"CO","lineageKey":"rioGrande","lineage":"rioGrande","historic":"rioGrande","current":"rioGrande","recovery":"recoveryWatch","lineageLabel":"Rio Grande lineage","lineageBasin":"Saguache","lineageNote":"Generalized Rio Grande cutthroat drainage context","atlas_context":"cutthroat_lineage_context","confidence":"Watershed-level lineage context; expert review recommended","geometryStatus":"Named natural stream segment from statewide hydrography","note":"This named natural stream falls within a HUC8 assigned to a cutthroat lineage context.","source_segment_id":"co_named_stream_055953","water_id":"co_san_juan_creek_13010004_rioGrande_001","occurrence_id":"co_san_juan_creek_13010004_rioGrande_001","occurrence_number":"001","segment_count":15,"disambiguator":"Saguache · Rio Grande lineage · occurrence 001","basin":"Saguache","atlas_layer":"named_water_occurrence","object_role":"named_water_occurrence","historic_label":"Rio Grande lineage","current_label":"Rio Grande lineage","recovery_label":"Recovery watch / review area","tier":"tier3","minZoom":14,"confidence_public":"Watershed-level lineage context; expert review recommended","geometry_status_public":"Named natural stream occurrence from statewide hydrography","geometry_source_public":"Grouped public hydrography segments","trout_source_public":"Compiled public recovery and lineage context; expert review recommended","public_notes":"San Juan Creek is shown as a named-water occurrence within watershed-level cutthroat lineage context. This is not a precise biological boundary."}},{"type":"Feature","geometry":{"type":"LineString","coordinates":[[-106.2101,37.963],[-106.2027,37.9642],[-106.1918,37.9621]]},"properties":{"source_id":"co_named_stream_057678","name":"San Juan Creek","display_name":"San Juan Creek","mapped_name":"San Juan Creek","source_name":"San Juan Creek","state":"CO","atlas_class":"named_natural_stream","huc8":"13010004","huc8Name":"Saguache","huc8States":"CO","lineageKey":"rioGrande","lineage":"rioGrande","historic":"rioGrande","current":"rioGrande","recovery":"recoveryWatch","lineageLabel":"Rio Grande lineage","lineageBasin":"Saguache","lineageNote":"Generalized Rio Grande cutthroat drainage context","atlas_context":"cutthroat_lineage_context","confidence":"Watershed-level lineage context; expert review recommended","geometryStatus":"Named natural stream segment from statewide hydrography","note":"This named natural stream falls within a HUC8 assigned to a cutthroat lineage context.","source_segment_id":"co_named_stream_057678","water_id":"co_san_juan_creek_13010004_rioGrande_001","occurrence_id":"co_san_juan_creek_13010004_rioGrande_001","occurrence_number":"001","segment_count":15,"disambiguator":"Saguache · Rio Grande lineage · occurrence 001","basin":"Saguache","atlas_layer":"named_water_occurrence","object_role":"named_water_occurrence","historic_label":"Rio Grande lineage","current_label":"Rio Grande lineage","recovery_label":"Recovery watch / review area","tier":"tier3","minZoom":14,"confidence_public":"Watershed-level lineage context; expert review recommended","geometry_status_public":"Named natural stream occurrence from statewide hydrography","geometry_source_public":"Grouped public hydrography segments","trout_source_public":"Compiled public recovery and lineage context; expert review recommended","public_notes":"San Juan Creek is shown as a named-water occurrence within watershed-level cutthroat lineage context. This is not a precise biological boundary."}},{"type":"Feature","geometry":{"type":"LineString","coordinates":[[-106.2452,37.9533],[-106.2447,37.952]]},"properties":{"source_id":"co_named_stream_054778","name":"Little Cottonwood Creek","display_name":"Little Cottonwood Creek","mapped_name":"Little Cottonwood Creek","source_name":"Little Cottonwood Creek","state":"CO","atlas_class":"named_natural_stream","huc8":"13010004","huc8Name":"Saguache","huc8States":"CO","lineageKey":"rioGrande","lineage":"rioGrande","historic":"rioGrande","current":"rioGrande","recovery":"recoveryWatch","lineageLabel":"Rio Grande lineage","lineageBasin":"Saguache","lineageNote":"Generalized Rio Grande cutthroat drainage context","atlas_context":"cutthroat_lineage_context","confidence":"Watershed-level lineage context; expert review recommended","geometryStatus":"Named natural stream segment from statewide hydrography","note":"This named natural stream falls within a HUC8 assigned to a cutthroat lineage context.","source_segment_id":"co_named_stream_054778","water_id":"co_little_cottonwood_creek_13010004_rioGrande_001","occurrence_id":"co_little_cottonwood_creek_13010004_rioGrande_001","occurrence_number":"001","segment_count":17,"disambiguator":"Saguache · Rio Grande lineage · occurrence 001","basin":"Saguache","atlas_layer":"named_water_occurrence","object_role":"named_water_occurrence","historic_label":"Rio Grande lineage","current_label":"Rio Grande lineage","recovery_label":"Recovery watch / review area","tier":"tier3","minZoom":14,"confidence_public":"Watershed-level lineage context; expert review recommended","geometry_status_public":"Named natural stream occurrence from statewide hydrography","geometry_source_public":"Grouped public hydrography segments","trout_source_public":"Compiled public recovery and lineage context; expert review recommended","public_notes":"Little Cottonwood Creek is shown as a named-water occurrence within watershed-level cutthroat lineage context. This is not a precise biological boundary."}},{"type":"Feature","geometry":{"type":"LineString","coordinates":[[-106.2447,37.952],[-106.2408,37.9503],[-106.2368,37.9471]]},"properties":{"source_id":"co_named_stream_057516","name":"Little Cottonwood Creek","display_name":"Little Cottonwood Creek","mapped_name":"Little Cottonwood Creek","source_name":"Little Cottonwood Creek","state":"CO","atlas_class":"named_natural_stream","huc8":"13010004","huc8Name":"Saguache","huc8States":"CO","lineageKey":"rioGrande","lineage":"rioGrande","historic":"rioGrande","current":"rioGrande","recovery":"recoveryWatch","lineageLabel":"Rio Grande lineage","lineageBasin":"Saguache","lineageNote":"Generalized Rio Grande cutthroat drainage context","atlas_context":"cutthroat_lineage_context","confidence":"Watershed-level lineage context; expert review recommended","geometryStatus":"Named natural stream segment from statewide hydrography","note":"This named natural stream falls within a HUC8 assigned to a cutthroat lineage context.","source_segment_id":"co_named_stream_057516","water_id":"co_little_cottonwood_creek_13010004_rioGrande_001","occurrence_id":"co_little_cottonwood_creek_13010004_rioGrande_001","occurrence_number":"001","segment_count":17,"disambiguator":"Saguache · Rio Grande lineage · occurrence 001","basin":"Saguache","atlas_layer":"named_water_occurrence","object_role":"named_water_occurrence","historic_label":"Rio Grande lineage","current_label":"Rio Grande lineage","recovery_label":"Recovery watch / review area","tier":"tier3","minZoom":14,"confidence_public":"Watershed-level lineage context; expert review recommended","geometry_status_public":"Named natural stream occurrence from statewide hydrography","geometry_source_public":"Grouped public hydrography segments","trout_source_public":"Compiled public recovery and lineage context; expert review recommended","public_notes":"Little Cottonwood Creek is shown as a named-water occurrence within watershed-level cutthroat lineage context. This is not a precise biological boundary."}},{"type":"Feature","geometry":{"type":"LineString","coordinates":[[-106.2507,37.9593],[-106.249,37.9563],[-106.2452,37.9533]]},"properties":{"source_id":"co_named_stream_062466","name":"Little Cottonwood Creek","display_name":"Little Cottonwood Creek","mapped_name":"Little Cottonwood Creek","source_name":"Little Cottonwood Creek","state":"CO","atlas_class":"named_natural_stream","huc8":"13010004","huc8Name":"Saguache","huc8States":"CO","lineageKey":"rioGrande","lineage":"rioGrande","historic":"rioGrande","current":"rioGrande","recovery":"recoveryWatch","lineageLabel":"Rio Grande lineage","lineageBasin":"Saguache","lineageNote":"Generalized Rio Grande cutthroat drainage context","atlas_context":"cutthroat_lineage_context","confidence":"Watershed-level lineage context; expert review recommended","geometryStatus":"Named natural stream segment from statewide hydrography","note":"This named natural stream falls within a HUC8 assigned to a cutthroat lineage context.","source_segment_id":"co_named_stream_062466","water_id":"co_little_cottonwood_creek_13010004_rioGrande_001","occurrence_id":"co_little_cottonwood_creek_13010004_rioGrande_001","occurrence_number":"001","segment_count":17,"disambiguator":"Saguache · Rio Grande lineage · occurrence 001","basin":"Saguache","atlas_layer":"named_water_occurrence","object_role":"named_water_occurrence","historic_label":"Rio Grande lineage","current_label":"Rio Grande lineage","recovery_label":"Recovery watch / review area","tier":"tier3","minZoom":14,"confidence_public":"Watershed-level lineage context; expert review recommended","geometry_status_public":"Named natural stream occurrence from statewide hydrography","geometry_source_public":"Grouped public hydrography segments","trout_source_public":"Compiled public recovery and lineage context; expert review recommended","public_notes":"Little Cottonwood Creek is shown as a named-water occurrence within watershed-level cutthroat lineage context. This is not a precise biological boundary."}},{"type":"Feature","geometry":{"type":"LineString","coordinates":[[-106.0043,37.9982],[-106.0032,37.9959]]},"properties":{"source_id":"co_named_stream_058244","name":"Ball Arroyo","display_name":"Ball Arroyo","mapped_name":"Ball Arroyo","source_name":"Ball Arroyo","state":"CO","atlas_class":"named_natural_stream","huc8":"13010004","huc8Name":"Saguache","huc8States":"CO","lineageKey":"rioGrande","lineage":"rioGrande","historic":"rioGrande","current":"rioGrande","recovery":"recoveryWatch","lineageLabel":"Rio Grande lineage","lineageBasin":"Saguache","lineageNote":"Generalized Rio Grande cutthroat drainage context","atlas_context":"cutthroat_lineage_context","confidence":"Watershed-level lineage context; expert review recommended","geometryStatus":"Named natural stream segment from statewide hydrography","note":"This named natural stream falls within a HUC8 assigned to a cutthroat lineage context.","source_segment_id":"co_named_stream_058244","water_id":"co_ball_arroyo_13010004_rioGrande_001","occurrence_id":"co_ball_arroyo_13010004_rioGrande_001","occurrence_number":"001","segment_count":11,"disambiguator":"Saguache · Rio Grande lineage · occurrence 001","basin":"Saguache","atlas_layer":"named_water_occurrence","object_role":"named_water_occurrence","historic_label":"Rio Grande lineage","current_label":"Rio Grande lineage","recovery_label":"Recovery watch / review area","tier":"tier3","minZoom":14,"confidence_public":"Watershed-level lineage context; expert review recommended","geometry_status_public":"Named natural stream occurrence from statewide hydrography","geometry_source_public":"Grouped public hydrography segments","trout_source_public":"Compiled public recovery and lineage context; expert review recommended","public_notes":"Ball Arroyo is shown as a named-water occurrence within watershed-level cutthroat lineage context. This is not a precise biological boundary."}},{"type":"Feature","geometry":{"type":"LineString","coordinates":[[-106.0173,38.0094],[-106.0152,38.0088],[-106.0146,38.0074],[-106.0102,38.0042],[-106.0097,38.0019],[-106.0088,38.0022],[-106.0075,37.9999],[-106.0043,37.9982]]},"properties":{"source_id":"co_named_stream_058919","name":"Ball Arroyo","display_name":"Ball Arroyo","mapped_name":"Ball Arroyo","source_name":"Ball Arroyo","state":"CO","atlas_class":"named_natural_stream","huc8":"13010004","huc8Name":"Saguache","huc8States":"CO","lineageKey":"rioGrande","lineage":"rioGrande","historic":"rioGrande","current":"rioGrande","recovery":"recoveryWatch","lineageLabel":"Rio Grande lineage","lineageBasin":"Saguache","lineageNote":"Generalized Rio Grande cutthroat drainage context","atlas_context":"cutthroat_lineage_context","confidence":"Watershed-level lineage context; expert review recommended","geometryStatus":"Named natural stream segment from statewide hydrography","note":"This named natural stream falls within a HUC8 assigned to a cutthroat lineage context.","source_segment_id":"co_named_stream_058919","water_id":"co_ball_arroyo_13010004_rioGrande_001","occurrence_id":"co_ball_arroyo_13010004_rioGrande_001","occurrence_number":"001","segment_count":11,"disambiguator":"Saguache · Rio Grande lineage · occurrence 001","basin":"Saguache","atlas_layer":"named_water_occurrence","object_role":"named_water_occurrence","historic_label":"Rio Grande lineage","current_label":"Rio Grande lineage","recovery_label":"Recovery watch / review area","tier":"tier3","minZoom":14,"confidence_public":"Watershed-level lineage context; expert review recommended","geometry_status_public":"Named natural stream occurrence from statewide hydrography","geometry_source_public":"Grouped public hydrography segments","trout_source_public":"Compiled public recovery and lineage context; expert review recommended","public_notes":"Ball Arroyo is shown as a named-water occurrence within watershed-level cutthroat lineage context. This is not a precise biological boundary."}},{"type":"Feature","geometry":{"type":"LineString","coordinates":[[-106.0032,37.9959],[-106.0013,37.9932],[-106.0022,37.9914],[-106.0012,37.9886],[-105.9963,37.987],[-105.9944,37.9847],[-105.9947,37.9837],[-105.9931,37.9838],[-105.9921,37.9829]]},"properties":{"source_id":"co_named_stream_059995","name":"Ball Arroyo","display_name":"Ball Arroyo","mapped_name":"Ball Arroyo","source_name":"Ball Arroyo","state":"CO","atlas_class":"named_natural_stream","huc8":"13010004","huc8Name":"Saguache","huc8States":"CO","lineageKey":"rioGrande","lineage":"rioGrande","historic":"rioGrande","current":"rioGrande","recovery":"recoveryWatch","lineageLabel":"Rio Grande lineage","lineageBasin":"Saguache","lineageNote":"Generalized Rio Grande cutthroat drainage context","atlas_context":"cutthroat_lineage_context","confidence":"Watershed-level lineage context; expert review recommended","geometryStatus":"Named natural stream segment from statewide hydrography","note":"This named natural stream falls within a HUC8 assigned to a cutthroat lineage context.","source_segment_id":"co_named_stream_059995","water_id":"co_ball_arroyo_13010004_rioGrande_001","occurrence_id":"co_ball_arroyo_13010004_rioGrande_001","occurrence_number":"001","segment_count":11,"disambiguator":"Saguache · Rio Grande lineage · occurrence 001","basin":"Saguache","atlas_layer":"named_water_occurrence","object_role":"named_water_occurrence","historic_label":"Rio Grande lineage","current_label":"Rio Grande lineage","recovery_label":"Recovery watch / review area","tier":"tier3","minZoom":14,"confidence_public":"Watershed-level lineage context; expert review recommended","geometry_status_public":"Named natural stream occurrence from statewide hydrography","geometry_source_public":"Grouped public hydrography segments","trout_source_public":"Compiled public recovery and lineage context; expert review recommended","public_notes":"Ball Arroyo is shown as a named-water occurrence within watershed-level cutthroat lineage context. This is not a precise biological boundary."}},{"type":"Feature","geometry":{"type":"LineString","coordinates":[[-106.1663,37.9636],[-106.1614,37.9624],[-106.1602,37.9607],[-106.1583,37.9599]]},"properties":{"source_id":"co_named_stream_055284","name":"Russell Creek","display_name":"Russell Creek","mapped_name":"Russell Creek","source_name":"Russell Creek","state":"CO","atlas_class":"named_natural_stream","huc8":"13010004","huc8Name":"Saguache","huc8States":"CO","lineageKey":"rioGrande","lineage":"rioGrande","historic":"rioGrande","current":"rioGrande","recovery":"recoveryWatch","lineageLabel":"Rio Grande lineage","lineageBasin":"Saguache","lineageNote":"Generalized Rio Grande cutthroat drainage context","atlas_context":"cutthroat_lineage_context","confidence":"Watershed-level lineage context; expert review recommended","geometryStatus":"Named natural stream segment from statewide hydrography","note":"This named natural stream falls within a HUC8 assigned to a cutthroat lineage context.","source_segment_id":"co_named_stream_055284","water_id":"co_russell_creek_13010004_rioGrande_001","occurrence_id":"co_russell_creek_13010004_rioGrande_001","occurrence_number":"001","segment_count":2,"disambiguator":"Saguache · Rio Grande lineage · occurrence 001","basin":"Saguache","atlas_layer":"named_water_occurrence","object_role":"named_water_occurrence","historic_label":"Rio Grande lineage","current_label":"Rio Grande lineage","recovery_label":"Recovery watch / review area","tier":"tier3","minZoom":14,"confidence_public":"Watershed-level lineage context; expert review recommended","geometry_status_public":"Named natural stream occurrence from statewide hydrography","geometry_source_public":"Grouped public hydrography segments","trout_source_public":"Compiled public recovery and lineage context; expert review recommended","public_notes":"Russell Creek is shown as a named-water occurrence within watershed-level cutthroat lineage context. This is not a precise biological boundary."}},{"type":"Feature","geometry":{"type":"LineString","coordinates":[[-106.1353,37.9502],[-106.1342,37.9502]]},"properties":{"source_id":"co_named_stream_056264","name":"Russell Creek","display_name":"Russell Creek","mapped_name":"Russell Creek","source_name":"Russell Creek","state":"CO","atlas_class":"named_natural_stream","huc8":"13010004","huc8Name":"Saguache","huc8States":"CO","lineageKey":"rioGrande","lineage":"rioGrande","historic":"rioGrande","current":"rioGrande","recovery":"recoveryWatch","lineageLabel":"Rio Grande lineage","lineageBasin":"Saguache","lineageNote":"Generalized Rio Grande cutthroat drainage context","atlas_context":"cutthroat_lineage_context","confidence":"Watershed-level lineage context; expert review recommended","geometryStatus":"Named natural stream segment from statewide hydrography","note":"This named natural stream falls within a HUC8 assigned to a cutthroat lineage context.","source_segment_id":"co_named_stream_056264","water_id":"co_russell_creek_13010004_rioGrande_001","occurrence_id":"co_russell_creek_13010004_rioGrande_001","occurrence_number":"001","segment_count":2,"disambiguator":"Saguache · Rio Grande lineage · occurrence 001","basin":"Saguache","atlas_layer":"named_water_occurrence","object_role":"named_water_occurrence","historic_label":"Rio Grande lineage","current_label":"Rio Grande lineage","recovery_label":"Recovery watch / review area","tier":"tier3","minZoom":14,"confidence_public":"Watershed-level lineage context; expert review recommended","geometry_status_public":"Named natural stream occurrence from statewide hydrography","geometry_source_public":"Grouped public hydrography segments","trout_source_public":"Compiled public recovery and lineage context; expert review recommended","public_notes":"Russell Creek is shown as a named-water occurrence within watershed-level cutthroat lineage context. This is not a precise biological boundary."}},{"type":"Feature","geometry":{"type":"LineString","coordinates":[[-106.0675,37.9285],[-106.0667,37.9266],[-106.065,37.927],[-106.0632,37.9255],[-106.0619,37.9257],[-106.0609,37.9251],[-106.0608,37.9235],[-106.0591,37.9236],[-106.0579,37.9225],[-106.0564,37.9241],[-106.0547,37.9239],[-106.0542,37.9249],[-106.0506,37.9247],[-106.049,37.9236],[-106.0428,37.9246],[-106.0429,37.9239],[-106.0405,37.9222],[-106.035,37.9211]]},"properties":{"source_id":"co_named_stream_053590","name":"Russell Creek","display_name":"Russell Creek","mapped_name":"Russell Creek","source_name":"Russell Creek","state":"CO","atlas_class":"named_natural_stream","huc8":"13010004","huc8Name":"Saguache","huc8States":"CO","lineageKey":"rioGrande","lineage":"rioGrande","historic":"rioGrande","current":"rioGrande","recovery":"recoveryWatch","lineageLabel":"Rio Grande lineage","lineageBasin":"Saguache","lineageNote":"Generalized Rio Grande cutthroat drainage context","atlas_context":"cutthroat_lineage_context","confidence":"Watershed-level lineage context; expert review recommended","geometryStatus":"Named natural stream segment from statewide hydrography","note":"This named natural stream falls within a HUC8 assigned to a cutthroat lineage context.","source_segment_id":"co_named_stream_053590","water_id":"co_russell_creek_13010004_rioGrande_002","occurrence_id":"co_russell_creek_13010004_rioGrande_002","occurrence_number":"002","segment_count":17,"disambiguator":"Saguache · Rio Grande lineage · occurrence 002","basin":"Saguache","atlas_layer":"named_water_occurrence","object_role":"named_water_occurrence","historic_label":"Rio Grande lineage","current_label":"Rio Grande lineage","recovery_label":"Recovery watch / review area","tier":"tier3","minZoom":14,"confidence_public":"Watershed-level lineage context; expert review recommended","geometry_status_public":"Named natural stream occurrence from statewide hydrography","geometry_source_public":"Grouped public hydrography segments","trout_source_public":"Compiled public recovery and lineage context; expert review recommended","public_notes":"Russell Creek is shown as a named-water occurrence within watershed-level cutthroat lineage context. This is not a precise biological boundary."}},{"type":"Feature","geometry":{"type":"LineString","coordinates":[[-106.0738,37.9362],[-106.0733,37.9353],[-106.0744,37.9352],[-106.074,37.9332],[-106.0694,37.9323],[-106.0679,37.9306],[-106.0684,37.9292],[-106.0675,37.9285]]},"properties":{"source_id":"co_named_stream_056280","name":"Russell Creek","display_name":"Russell Creek","mapped_name":"Russell Creek","source_name":"Russell Creek","state":"CO","atlas_class":"named_natural_stream","huc8":"13010004","huc8Name":"Saguache","huc8States":"CO","lineageKey":"rioGrande","lineage":"rioGrande","historic":"rioGrande","current":"rioGrande","recovery":"recoveryWatch","lineageLabel":"Rio Grande lineage","lineageBasin":"Saguache","lineageNote":"Generalized Rio Grande cutthroat drainage context","atlas_context":"cutthroat_lineage_context","confidence":"Watershed-level lineage context; expert review recommended","geometryStatus":"Named natural stream segment from statewide hydrography","note":"This named natural stream falls within a HUC8 assigned to a cutthroat lineage context.","source_segment_id":"co_named_stream_056280","water_id":"co_russell_creek_13010004_rioGrande_002","occurrence_id":"co_russell_creek_13010004_rioGrande_002","occurrence_number":"002","segment_count":17,"disambiguator":"Saguache · Rio Grande lineage · occurrence 002","basin":"Saguache","atlas_layer":"named_water_occurrence","object_role":"named_water_occurrence","historic_label":"Rio Grande lineage","current_label":"Rio Grande lineage","recovery_label":"Recovery watch / review area","tier":"tier3","minZoom":14,"confidence_public":"Watershed-level lineage context; expert review recommended","geometry_status_public":"Named natural stream occurrence from statewide hydrography","geometry_source_public":"Grouped public hydrography segments","trout_source_public":"Compiled public recovery and lineage context; expert review recommended","public_notes":"Russell Creek is shown as a named-water occurrence within watershed-level cutthroat lineage context. This is not a precise biological boundary."}},{"type":"Feature","geometry":{"type":"LineString","coordinates":[[-106.1172,37.9467],[-106.117,37.9468]]},"properties":{"source_id":"co_named_stream_056784","name":"Russell Creek","display_name":"Russell Creek","mapped_name":"Russell Creek","source_name":"Russell Creek","state":"CO","atlas_class":"named_natural_stream","huc8":"13010004","huc8Name":"Saguache","huc8States":"CO","lineageKey":"rioGrande","lineage":"rioGrande","historic":"rioGrande","current":"rioGrande","recovery":"recoveryWatch","lineageLabel":"Rio Grande lineage","lineageBasin":"Saguache","lineageNote":"Generalized Rio Grande cutthroat drainage context","atlas_context":"cutthroat_lineage_context","confidence":"Watershed-level lineage context; expert review recommended","geometryStatus":"Named natural stream segment from statewide hydrography","note":"This named natural stream falls within a HUC8 assigned to a cutthroat lineage context.","source_segment_id":"co_named_stream_056784","water_id":"co_russell_creek_13010004_rioGrande_002","occurrence_id":"co_russell_creek_13010004_rioGrande_002","occurrence_number":"002","segment_count":17,"disambiguator":"Saguache · Rio Grande lineage · occurrence 002","basin":"Saguache","atlas_layer":"named_water_occurrence","object_role":"named_water_occurrence","historic_label":"Rio Grande lineage","current_label":"Rio Grande lineage","recovery_label":"Recovery watch / review area","tier":"tier3","minZoom":14,"confidence_public":"Watershed-level lineage context; expert review recommended","geometry_status_public":"Named natural stream occurrence from statewide hydrography","geometry_source_public":"Grouped public hydrography segments","trout_source_public":"Compiled public recovery and lineage context; expert review recommended","public_notes":"Russell Creek is shown as a named-water occurrence within watershed-level cutthroat lineage context. This is not a precise biological boundary."}},{"type":"Feature","geometry":{"type":"LineString","coordinates":[[-106.1342,37.9502],[-106.1303,37.9496]]},"properties":{"source_id":"co_named_stream_060634","name":"Russell Creek","display_name":"Russell Creek","mapped_name":"Russell Creek","source_name":"Russell Creek","state":"CO","atlas_class":"named_natural_stream","huc8":"13010004","huc8Name":"Saguache","huc8States":"CO","lineageKey":"rioGrande","lineage":"rioGrande","historic":"rioGrande","current":"rioGrande","recovery":"recoveryWatch","lineageLabel":"Rio Grande lineage","lineageBasin":"Saguache","lineageNote":"Generalized Rio Grande cutthroat drainage context","atlas_context":"cutthroat_lineage_context","confidence":"Watershed-level lineage context; expert review recommended","geometryStatus":"Named natural stream segment from statewide hydrography","note":"This named natural stream falls within a HUC8 assigned to a cutthroat lineage context.","source_segment_id":"co_named_stream_060634","water_id":"co_russell_creek_13010004_rioGrande_002","occurrence_id":"co_russell_creek_13010004_rioGrande_002","occurrence_number":"002","segment_count":17,"disambiguator":"Saguache · Rio Grande lineage · occurrence 002","basin":"Saguache","atlas_layer":"named_water_occurrence","object_role":"named_water_occurrence","historic_label":"Rio Grande lineage","current_label":"Rio Grande lineage","recovery_label":"Recovery watch / review area","tier":"tier3","minZoom":14,"confidence_public":"Watershed-level lineage context; expert review recommended","geometry_status_public":"Named natural stream occurrence from statewide hydrography","geometry_source_public":"Grouped public hydrography segments","trout_source_public":"Compiled public recovery and lineage context; expert review recommended","public_notes":"Russell Creek is shown as a named-water occurrence within watershed-level cutthroat lineage context. This is not a precise biological boundary."}},{"type":"Feature","geometry":{"type":"LineString","coordinates":[[-106.1044,37.9421],[-106.1026,37.9407],[-106.1015,37.9408],[-106.0986,37.9376],[-106.0957,37.9369]]},"properties":{"source_id":"co_named_stream_060752","name":"Russell Creek","display_name":"Russell Creek","mapped_name":"Russell Creek","source_name":"Russell Creek","state":"CO","atlas_class":"named_natural_stream","huc8":"13010004","huc8Name":"Saguache","huc8States":"CO","lineageKey":"rioGrande","lineage":"rioGrande","historic":"rioGrande","current":"rioGrande","recovery":"recoveryWatch","lineageLabel":"Rio Grande lineage","lineageBasin":"Saguache","lineageNote":"Generalized Rio Grande cutthroat drainage context","atlas_context":"cutthroat_lineage_context","confidence":"Watershed-level lineage context; expert review recommended","geometryStatus":"Named natural stream segment from statewide hydrography","note":"This named natural stream falls within a HUC8 assigned to a cutthroat lineage context.","source_segment_id":"co_named_stream_060752","water_id":"co_russell_creek_13010004_rioGrande_002","occurrence_id":"co_russell_creek_13010004_rioGrande_002","occurrence_number":"002","segment_count":17,"disambiguator":"Saguache · Rio Grande lineage · occurrence 002","basin":"Saguache","atlas_layer":"named_water_occurrence","object_role":"named_water_occurrence","historic_label":"Rio Grande lineage","current_label":"Rio Grande lineage","recovery_label":"Recovery watch / review area","tier":"tier3","minZoom":14,"confidence_public":"Watershed-level lineage context; expert review recommended","geometry_status_public":"Named natural stream occurrence from statewide hydrography","geometry_source_public":"Grouped public hydrography segments","trout_source_public":"Compiled public recovery and lineage context; expert review recommended","public_notes":"Russell Creek is shown as a named-water occurrence within watershed-level cutthroat lineage context. This is not a precise biological boundary."}},{"type":"Feature","geometry":{"type":"LineString","coordinates":[[-106.035,37.9211],[-106.0327,37.921],[-106.0319,37.9223],[-106.028,37.9224],[-106.0244,37.9246],[-106.023,37.9238],[-106.021,37.9245],[-106.0198,37.9235],[-106.0201,37.9226],[-106.0095,37.9219],[-106.0072,37.9206],[-106.0051,37.9214],[-106.0025,37.9207],[-106.0023,37.9193],[-105.9982,37.9185],[-105.9987,37.9161],[-105.9976,37.9156]]},"properties":{"source_id":"co_named_stream_060796","name":"Russell Creek","display_name":"Russell Creek","mapped_name":"Russell Creek","source_name":"Russell Creek","state":"CO","atlas_class":"named_natural_stream","huc8":"13010004","huc8Name":"Saguache","huc8States":"CO","lineageKey":"rioGrande","lineage":"rioGrande","historic":"rioGrande","current":"rioGrande","recovery":"recoveryWatch","lineageLabel":"Rio Grande lineage","lineageBasin":"Saguache","lineageNote":"Generalized Rio Grande cutthroat drainage context","atlas_context":"cutthroat_lineage_context","confidence":"Watershed-level lineage context; expert review recommended","geometryStatus":"Named natural stream segment from statewide hydrography","note":"This named natural stream falls within a HUC8 assigned to a cutthroat lineage context.","source_segment_id":"co_named_stream_060796","water_id":"co_russell_creek_13010004_rioGrande_002","occurrence_id":"co_russell_creek_13010004_rioGrande_002","occurrence_number":"002","segment_count":17,"disambiguator":"Saguache · Rio Grande lineage · occurrence 002","basin":"Saguache","atlas_layer":"named_water_occurrence","object_role":"named_water_occurrence","historic_label":"Rio Grande lineage","current_label":"Rio Grande lineage","recovery_label":"Recovery watch / review area","tier":"tier3","minZoom":14,"confidence_public":"Watershed-level lineage context; expert review recommended","geometry_status_public":"Named natural stream occurrence from statewide hydrography","geometry_source_public":"Grouped public hydrography segments","trout_source_public":"Compiled public recovery and lineage context; expert review recommended","public_notes":"Russell Creek is shown as a named-water occurrence within watershed-level cutthroat lineage context. This is not a precise biological boundary."}},{"type":"Feature","geometry":{"type":"LineString","coordinates":[[-106.1154,37.947],[-106.1123,37.9456]]},"properties":{"source_id":"co_named_stream_061252","name":"Russell Creek","display_name":"Russell Creek","mapped_name":"Russell Creek","source_name":"Russell Creek","state":"CO","atlas_class":"named_natural_stream","huc8":"13010004","huc8Name":"Saguache","huc8States":"CO","lineageKey":"rioGrande","lineage":"rioGrande","historic":"rioGrande","current":"rioGrande","recovery":"recoveryWatch","lineageLabel":"Rio Grande lineage","lineageBasin":"Saguache","lineageNote":"Generalized Rio Grande cutthroat drainage context","atlas_context":"cutthroat_lineage_context","confidence":"Watershed-level lineage context; expert review recommended","geometryStatus":"Named natural stream segment from statewide hydrography","note":"This named natural stream falls within a HUC8 assigned to a cutthroat lineage context.","source_segment_id":"co_named_stream_061252","water_id":"co_russell_creek_13010004_rioGrande_002","occurrence_id":"co_russell_creek_13010004_rioGrande_002","occurrence_number":"002","segment_count":17,"disambiguator":"Saguache · Rio Grande lineage · occurrence 002","basin":"Saguache","atlas_layer":"named_water_occurrence","object_role":"named_water_occurrence","historic_label":"Rio Grande lineage","current_label":"Rio Grande lineage","recovery_label":"Recovery watch / review area","tier":"tier3","minZoom":14,"confidence_public":"Watershed-level lineage context; expert review recommended","geometry_status_public":"Named natural stream occurrence from statewide hydrography","geometry_source_public":"Grouped public hydrography segments","trout_source_public":"Compiled public recovery and lineage context; expert review recommended","public_notes":"Russell Creek is shown as a named-water occurrence within watershed-level cutthroat lineage context. This is not a precise biological boundary."}},{"type":"Feature","geometry":{"type":"LineString","coordinates":[[-106.1583,37.9599],[-106.1531,37.9596],[-106.1442,37.9563],[-106.1383,37.9516],[-106.1353,37.9502]]},"properties":{"source_id":"co_named_stream_061836","name":"Russell Creek","display_name":"Russell Creek","mapped_name":"Russell Creek","source_name":"Russell Creek","state":"CO","atlas_class":"named_natural_stream","huc8":"13010004","huc8Name":"Saguache","huc8States":"CO","lineageKey":"rioGrande","lineage":"rioGrande","historic":"rioGrande","current":"rioGrande","recovery":"recoveryWatch","lineageLabel":"Rio Grande lineage","lineageBasin":"Saguache","lineageNote":"Generalized Rio Grande cutthroat drainage context","atlas_context":"cutthroat_lineage_context","confidence":"Watershed-level lineage context; expert review recommended","geometryStatus":"Named natural stream segment from statewide hydrography","note":"This named natural stream falls within a HUC8 assigned to a cutthroat lineage context.","source_segment_id":"co_named_stream_061836","water_id":"co_russell_creek_13010004_rioGrande_002","occurrence_id":"co_russell_creek_13010004_rioGrande_002","occurrence_number":"002","segment_count":17,"disambiguator":"Saguache · Rio Grande lineage · occurrence 002","basin":"Saguache","atlas_layer":"named_water_occurrence","object_role":"named_water_occurrence","historic_label":"Rio Grande lineage","current_label":"Rio Grande lineage","recovery_label":"Recovery watch / review area","tier":"tier3","minZoom":14,"confidence_public":"Watershed-level lineage context; expert review recommended","geometry_status_public":"Named natural stream occurrence from statewide hydrography","geometry_source_public":"Grouped public hydrography segments","trout_source_public":"Compiled public recovery and lineage context; expert review recommended","public_notes":"Russell Creek is shown as a named-water occurrence within watershed-level cutthroat lineage context. This is not a precise biological boundary."}},{"type":"Feature","geometry":{"type":"LineString","coordinates":[[-106.0747,37.9364],[-106.0738,37.9362]]},"properties":{"source_id":"co_named_stream_062147","name":"Russell Creek","display_name":"Russell Creek","mapped_name":"Russell Creek","source_name":"Russell Creek","state":"CO","atlas_class":"named_natural_stream","huc8":"13010004","huc8Name":"Saguache","huc8States":"CO","lineageKey":"rioGrande","lineage":"rioGrande","historic":"rioGrande","current":"rioGrande","recovery":"recoveryWatch","lineageLabel":"Rio Grande lineage","lineageBasin":"Saguache","lineageNote":"Generalized Rio Grande cutthroat drainage context","atlas_context":"cutthroat_lineage_context","confidence":"Watershed-level lineage context; expert review recommended","geometryStatus":"Named natural stream segment from statewide hydrography","note":"This named natural stream falls within a HUC8 assigned to a cutthroat lineage context.","source_segment_id":"co_named_stream_062147","water_id":"co_russell_creek_13010004_rioGrande_002","occurrence_id":"co_russell_creek_13010004_rioGrande_002","occurrence_number":"002","segment_count":17,"disambiguator":"Saguache · Rio Grande lineage · occurrence 002","basin":"Saguache","atlas_layer":"named_water_occurrence","object_role":"named_water_occurrence","historic_label":"Rio Grande lineage","current_label":"Rio Grande lineage","recovery_label":"Recovery watch / review area","tier":"tier3","minZoom":14,"confidence_public":"Watershed-level lineage context; expert review recommended","geometry_status_public":"Named natural stream occurrence from statewide hydrography","geometry_source_public":"Grouped public hydrography segments","trout_source_public":"Compiled public recovery and lineage context; expert review recommended","public_notes":"Russell Creek is shown as a named-water occurrence within watershed-level cutthroat lineage context. This is not a precise biological boundary."}},{"type":"Feature","geometry":{"type":"LineString","coordinates":[[-106.1098,37.9452],[-106.1048,37.9424]]},"properties":{"source_id":"co_named_stream_062831","name":"Russell Creek","display_name":"Russell Creek","mapped_name":"Russell Creek","source_name":"Russell Creek","state":"CO","atlas_class":"named_natural_stream","huc8":"13010004","huc8Name":"Saguache","huc8States":"CO","lineageKey":"rioGrande","lineage":"rioGrande","historic":"rioGrande","current":"rioGrande","recovery":"recoveryWatch","lineageLabel":"Rio Grande lineage","lineageBasin":"Saguache","lineageNote":"Generalized Rio Grande cutthroat drainage context","atlas_context":"cutthroat_lineage_context","confidence":"Watershed-level lineage context; expert review recommended","geometryStatus":"Named natural stream segment from statewide hydrography","note":"This named natural stream falls within a HUC8 assigned to a cutthroat lineage context.","source_segment_id":"co_named_stream_062831","water_id":"co_russell_creek_13010004_rioGrande_002","occurrence_id":"co_russell_creek_13010004_rioGrande_002","occurrence_number":"002","segment_count":17,"disambiguator":"Saguache · Rio Grande lineage · occurrence 002","basin":"Saguache","atlas_layer":"named_water_occurrence","object_role":"named_water_occurrence","historic_label":"Rio Grande lineage","current_label":"Rio Grande lineage","recovery_label":"Recovery watch / review area","tier":"tier3","minZoom":14,"confidence_public":"Watershed-level lineage context; expert review recommended","geometry_status_public":"Named natural stream occurrence from statewide hydrography","geometry_source_public":"Grouped public hydrography segments","trout_source_public":"Compiled public recovery and lineage context; expert review recommended","public_notes":"Russell Creek is shown as a named-water occurrence within watershed-level cutthroat lineage context. This is not a precise biological boundary."}},{"type":"Feature","geometry":{"type":"LineString","coordinates":[[-106.1255,37.9498],[-106.1239,37.9466]]},"properties":{"source_id":"co_named_stream_063354","name":"Russell Creek","display_name":"Russell Creek","mapped_name":"Russell Creek","source_name":"Russell Creek","state":"CO","atlas_class":"named_natural_stream","huc8":"13010004","huc8Name":"Saguache","huc8States":"CO","lineageKey":"rioGrande","lineage":"rioGrande","historic":"rioGrande","current":"rioGrande","recovery":"recoveryWatch","lineageLabel":"Rio Grande lineage","lineageBasin":"Saguache","lineageNote":"Generalized Rio Grande cutthroat drainage context","atlas_context":"cutthroat_lineage_context","confidence":"Watershed-level lineage context; expert review recommended","geometryStatus":"Named natural stream segment from statewide hydrography","note":"This named natural stream falls within a HUC8 assigned to a cutthroat lineage context.","source_segment_id":"co_named_stream_063354","water_id":"co_russell_creek_13010004_rioGrande_002","occurrence_id":"co_russell_creek_13010004_rioGrande_002","occurrence_number":"002","segment_count":17,"disambiguator":"Saguache · Rio Grande lineage · occurrence 002","basin":"Saguache","atlas_layer":"named_water_occurrence","object_role":"named_water_occurrence","historic_label":"Rio Grande lineage","current_label":"Rio Grande lineage","recovery_label":"Recovery watch / review area","tier":"tier3","minZoom":14,"confidence_public":"Watershed-level lineage context; expert review recommended","geometry_status_public":"Named natural stream occurrence from statewide hydrography","geometry_source_public":"Grouped public hydrography segments","trout_source_public":"Compiled public recovery and lineage context; expert review recommended","public_notes":"Russell Creek is shown as a named-water occurrence within watershed-level cutthroat lineage context. This is not a precise biological boundary."}},{"type":"Feature","geometry":{"type":"LineString","coordinates":[[-106.1303,37.9496],[-106.128,37.9505]]},"properties":{"source_id":"co_named_stream_063449","name":"Russell Creek","display_name":"Russell Creek","mapped_name":"Russell Creek","source_name":"Russell Creek","state":"CO","atlas_class":"named_natural_stream","huc8":"13010004","huc8Name":"Saguache","huc8States":"CO","lineageKey":"rioGrande","lineage":"rioGrande","historic":"rioGrande","current":"rioGrande","recovery":"recoveryWatch","lineageLabel":"Rio Grande lineage","lineageBasin":"Saguache","lineageNote":"Generalized Rio Grande cutthroat drainage context","atlas_context":"cutthroat_lineage_context","confidence":"Watershed-level lineage context; expert review recommended","geometryStatus":"Named natural stream segment from statewide hydrography","note":"This named natural stream falls within a HUC8 assigned to a cutthroat lineage context.","source_segment_id":"co_named_stream_063449","water_id":"co_russell_creek_13010004_rioGrande_002","occurrence_id":"co_russell_creek_13010004_rioGrande_002","occurrence_number":"002","segment_count":17,"disambiguator":"Saguache · Rio Grande lineage · occurrence 002","basin":"Saguache","atlas_layer":"named_water_occurrence","object_role":"named_water_occurrence","historic_label":"Rio Grande lineage","current_label":"Rio Grande lineage","recovery_label":"Recovery watch / review area","tier":"tier3","minZoom":14,"confidence_public":"Watershed-level lineage context; expert review recommended","geometry_status_public":"Named natural stream occurrence from statewide hydrography","geometry_source_public":"Grouped public hydrography segments","trout_source_public":"Compiled public recovery and lineage context; expert review recommended","public_notes":"Russell Creek is shown as a named-water occurrence within watershed-level cutthroat lineage context. This is not a precise biological boundary."}},{"type":"Feature","geometry":{"type":"LineString","coordinates":[[-106.0828,37.9368],[-106.0781,37.9353],[-106.0747,37.9364]]},"properties":{"source_id":"co_named_stream_063480","name":"Russell Creek","display_name":"Russell Creek","mapped_name":"Russell Creek","source_name":"Russell Creek","state":"CO","atlas_class":"named_natural_stream","huc8":"13010004","huc8Name":"Saguache","huc8States":"CO","lineageKey":"rioGrande","lineage":"rioGrande","historic":"rioGrande","current":"rioGrande","recovery":"recoveryWatch","lineageLabel":"Rio Grande lineage","lineageBasin":"Saguache","lineageNote":"Generalized Rio Grande cutthroat drainage context","atlas_context":"cutthroat_lineage_context","confidence":"Watershed-level lineage context; expert review recommended","geometryStatus":"Named natural stream segment from statewide hydrography","note":"This named natural stream falls within a HUC8 assigned to a cutthroat lineage context.","source_segment_id":"co_named_stream_063480","water_id":"co_russell_creek_13010004_rioGrande_002","occurrence_id":"co_russell_creek_13010004_rioGrande_002","occurrence_number":"002","segment_count":17,"disambiguator":"Saguache · Rio Grande lineage · occurrence 002","basin":"Saguache","atlas_layer":"named_water_occurrence","object_role":"named_water_occurrence","historic_label":"Rio Grande lineage","current_label":"Rio Grande lineage","recovery_label":"Recovery watch / review area","tier":"tier3","minZoom":14,"confidence_public":"Watershed-level lineage context; expert review recommended","geometry_status_public":"Named natural stream occurrence from statewide hydrography","geometry_source_public":"Grouped public hydrography segments","trout_source_public":"Compiled public recovery and lineage context; expert review recommended","public_notes":"Russell Creek is shown as a named-water occurrence within watershed-level cutthroat lineage context. This is not a precise biological boundary."}},{"type":"Feature","geometry":{"type":"LineString","coordinates":[[-106.0957,37.9369],[-106.0828,37.9368]]},"properties":{"source_id":"co_named_stream_063497","name":"Russell Creek","display_name":"Russell Creek","mapped_name":"Russell Creek","source_name":"Russell Creek","state":"CO","atlas_class":"named_natural_stream","huc8":"13010004","huc8Name":"Saguache","huc8States":"CO","lineageKey":"rioGrande","lineage":"rioGrande","historic":"rioGrande","current":"rioGrande","recovery":"recoveryWatch","lineageLabel":"Rio Grande lineage","lineageBasin":"Saguache","lineageNote":"Generalized Rio Grande cutthroat drainage context","atlas_context":"cutthroat_lineage_context","confidence":"Watershed-level lineage context; expert review recommended","geometryStatus":"Named natural stream segment from statewide hydrography","note":"This named natural stream falls within a HUC8 assigned to a cutthroat lineage context.","source_segment_id":"co_named_stream_063497","water_id":"co_russell_creek_13010004_rioGrande_002","occurrence_id":"co_russell_creek_13010004_rioGrande_002","occurrence_number":"002","segment_count":17,"disambiguator":"Saguache · Rio Grande lineage · occurrence 002","basin":"Saguache","atlas_layer":"named_water_occurrence","object_role":"named_water_occurrence","historic_label":"Rio Grande lineage","current_label":"Rio Grande lineage","recovery_label":"Recovery watch / review area","tier":"tier3","minZoom":14,"confidence_public":"Watershed-level lineage context; expert review recommended","geometry_status_public":"Named natural stream occurrence from statewide hydrography","geometry_source_public":"Grouped public hydrography segments","trout_source_public":"Compiled public recovery and lineage context; expert review recommended","public_notes":"Russell Creek is shown as a named-water occurrence within watershed-level cutthroat lineage context. This is not a precise biological boundary."}},{"type":"Feature","geometry":{"type":"LineString","coordinates":[[-106.2649,37.8512],[-106.2624,37.8504],[-106.2613,37.8484],[-106.2538,37.8448],[-106.2486,37.8291]]},"properties":{"source_id":"co_named_stream_063991","name":"Wilson Arroyo","display_name":"Wilson Arroyo","mapped_name":"Wilson Arroyo","source_name":"Wilson Arroyo","state":"CO","atlas_class":"named_natural_stream","huc8":"13010004","huc8Name":"Saguache","huc8States":"CO","lineageKey":"rioGrande","lineage":"rioGrande","historic":"rioGrande","current":"rioGrande","recovery":"recoveryWatch","lineageLabel":"Rio Grande lineage","lineageBasin":"Saguache","lineageNote":"Generalized Rio Grande cutthroat drainage context","atlas_context":"cutthroat_lineage_context","confidence":"Watershed-level lineage context; expert review recommended","geometryStatus":"Named natural stream segment from statewide hydrography","note":"This named natural stream falls within a HUC8 assigned to a cutthroat lineage context.","source_segment_id":"co_named_stream_063991","water_id":"co_wilson_arroyo_13010004_rioGrande_001","occurrence_id":"co_wilson_arroyo_13010004_rioGrande_001","occurrence_number":"001","segment_count":1,"disambiguator":"Saguache · Rio Grande lineage · occurrence 001","basin":"Saguache","atlas_layer":"named_water_occurrence","object_role":"named_water_occurrence","historic_label":"Rio Grande lineage","current_label":"Rio Grande lineage","recovery_label":"Recovery watch / review area","tier":"tier3","minZoom":14,"confidence_public":"Watershed-level lineage context; expert review recommended","geometry_status_public":"Named natural stream occurrence from statewide hydrography","geometry_source_public":"Grouped public hydrography segments","trout_source_public":"Compiled public recovery and lineage context; expert review recommended","public_notes":"Wilson Arroyo is shown as a named-water occurrence within watershed-level cutthroat lineage context. This is not a precise biological boundary."}}]}