{"type":"FeatureCollection","metadata":{"source":"C:\\ct-atlas-data\\processed\\geojson\\interpreted\\colorado_named_natural_streams_complete_v1.geojson","tier":"tier3","tile_size_degrees":0.25,"x":-434,"y":164,"bounds":{"west":-108.5,"south":41,"east":-108.25,"north":41.25}},"features":[{"type":"Feature","geometry":{"type":"LineString","coordinates":[[-108.2979,41.0001],[-108.3015,40.9939]]},"properties":{"source_id":"co_named_stream_111585","name":"North Fork Powder Wash","display_name":"North Fork Powder Wash","mapped_name":"North Fork Powder Wash","source_name":"North Fork Powder Wash","state":"CO","atlas_class":"named_natural_stream","huc8":"14050003","huc8Name":"Little Snake","huc8States":"CO,WY","lineageKey":"greenRiverBlue","lineage":"greenRiverBlue","historic":"greenRiverBlue","current":"greenRiverBlue","recovery":"recoveryWatch","lineageLabel":"Green River / blue-lineage CT","lineageBasin":"Little Snake","lineageNote":"Little Snake / Green blue-lineage context","atlas_context":"cutthroat_lineage_context","confidence":"Watershed-level lineage context; expert review recommended","geometryStatus":"Named natural stream segment from statewide hydrography","note":"This named natural stream falls within a HUC8 assigned to a cutthroat lineage context.","source_segment_id":"co_named_stream_111585","water_id":"co_north_fork_powder_wash_14050003_greenRiverBlue_001","occurrence_id":"co_north_fork_powder_wash_14050003_greenRiverBlue_001","occurrence_number":"001","segment_count":4,"disambiguator":"Little Snake · Green River / blue-lineage CT · occurrence 001","basin":"Little Snake","atlas_layer":"named_water_occurrence","object_role":"named_water_occurrence","historic_label":"Green River / blue-lineage CT","current_label":"Green River / blue-lineage CT","recovery_label":"Recovery watch / review area","tier":"tier3","minZoom":14,"confidence_public":"Watershed-level lineage context; expert review recommended","geometry_status_public":"Named natural stream occurrence from statewide hydrography","geometry_source_public":"Grouped public hydrography segments","trout_source_public":"Compiled public recovery and lineage context; expert review recommended","public_notes":"North Fork Powder Wash is shown as a named-water occurrence within watershed-level cutthroat lineage context. This is not a precise biological boundary."}}]}