{"type":"FeatureCollection","metadata":{"source":"C:\\ct-atlas-data\\processed\\geojson\\interpreted\\colorado_named_natural_streams_complete_v1.geojson","tier":"tier3","tile_size_degrees":0.25,"x":-433,"y":161,"bounds":{"west":-108.25,"south":40.25,"east":-108,"north":40.5}},"features":[{"type":"Feature","geometry":{"type":"LineString","coordinates":[[-108.0807,40.4488],[-108.078,40.451],[-108.0766,40.4509],[-108.0775,40.4514],[-108.0765,40.4519],[-108.0764,40.4538],[-108.0741,40.4555],[-108.0741,40.4574],[-108.0735,40.4579],[-108.0732,40.457],[-108.0727,40.458],[-108.0719,40.4615],[-108.0729,40.4624],[-108.0719,40.4625],[-108.0726,40.4638],[-108.0708,40.4653],[-108.0717,40.4666],[-108.0707,40.4679],[-108.0714,40.4685],[-108.0706,40.4689],[-108.0714,40.4693],[-108.0713,40.4704],[-108.0699,40.47],[-108.0713,40.4724],[-108.0689,40.4736],[-108.0692,40.4756],[-108.0711,40.4762],[-108.0709,40.4774],[-108.0699,40.4778],[-108.0711,40.4792],[-108.0702,40.4803]]},"properties":{"source_id":"co_named_stream_103774","name":"Deception Creek","display_name":"Deception Creek","mapped_name":"Deception Creek","source_name":"Deception Creek","state":"CO","atlas_class":"named_natural_stream","huc8":"14050002","huc8Name":"Lower Yampa","huc8States":"CO","lineageKey":"greenRiverBlue","lineage":"greenRiverBlue","historic":"greenRiverBlue","current":"greenRiverBlue","recovery":"recoveryWatch","lineageLabel":"Green River / blue-lineage CT","lineageBasin":"Lower Yampa","lineageNote":"Yampa blue-lineage context","atlas_context":"cutthroat_lineage_context","confidence":"Watershed-level lineage context; expert review recommended","geometryStatus":"Named natural stream segment from statewide hydrography","note":"This named natural stream falls within a HUC8 assigned to a cutthroat lineage context.","source_segment_id":"co_named_stream_103774","water_id":"co_deception_creek_14050002_greenRiverBlue_001","occurrence_id":"co_deception_creek_14050002_greenRiverBlue_001","occurrence_number":"001","segment_count":14,"disambiguator":"Lower Yampa · Green River / blue-lineage CT · occurrence 001","basin":"Lower Yampa","atlas_layer":"named_water_occurrence","object_role":"named_water_occurrence","historic_label":"Green River / blue-lineage CT","current_label":"Green River / blue-lineage CT","recovery_label":"Recovery watch / review area","tier":"tier3","minZoom":14,"confidence_public":"Watershed-level lineage context; expert review recommended","geometry_status_public":"Named natural stream occurrence from statewide hydrography","geometry_source_public":"Grouped public hydrography segments","trout_source_public":"Compiled public recovery and lineage context; expert review recommended","public_notes":"Deception Creek is shown as a named-water occurrence within watershed-level cutthroat lineage context. This is not a precise biological boundary."}},{"type":"Feature","geometry":{"type":"LineString","coordinates":[[-108.0696,40.4845],[-108.0697,40.4856],[-108.0682,40.4873],[-108.0689,40.4882],[-108.0681,40.4895],[-108.0687,40.4906],[-108.0673,40.4922],[-108.0678,40.4927],[-108.0687,40.4915],[-108.0687,40.4941],[-108.067,40.4945],[-108.0676,40.4961],[-108.0657,40.4992],[-108.0664,40.5016],[-108.065,40.5026],[-108.0643,40.505],[-108.0626,40.5067]]},"properties":{"source_id":"co_named_stream_103775","name":"Deception Creek","display_name":"Deception Creek","mapped_name":"Deception Creek","source_name":"Deception Creek","state":"CO","atlas_class":"named_natural_stream","huc8":"14050002","huc8Name":"Lower Yampa","huc8States":"CO","lineageKey":"greenRiverBlue","lineage":"greenRiverBlue","historic":"greenRiverBlue","current":"greenRiverBlue","recovery":"recoveryWatch","lineageLabel":"Green River / blue-lineage CT","lineageBasin":"Lower Yampa","lineageNote":"Yampa blue-lineage context","atlas_context":"cutthroat_lineage_context","confidence":"Watershed-level lineage context; expert review recommended","geometryStatus":"Named natural stream segment from statewide hydrography","note":"This named natural stream falls within a HUC8 assigned to a cutthroat lineage context.","source_segment_id":"co_named_stream_103775","water_id":"co_deception_creek_14050002_greenRiverBlue_001","occurrence_id":"co_deception_creek_14050002_greenRiverBlue_001","occurrence_number":"001","segment_count":14,"disambiguator":"Lower Yampa · Green River / blue-lineage CT · occurrence 001","basin":"Lower Yampa","atlas_layer":"named_water_occurrence","object_role":"named_water_occurrence","historic_label":"Green River / blue-lineage CT","current_label":"Green River / blue-lineage CT","recovery_label":"Recovery watch / review area","tier":"tier3","minZoom":14,"confidence_public":"Watershed-level lineage context; expert review recommended","geometry_status_public":"Named natural stream occurrence from statewide hydrography","geometry_source_public":"Grouped public hydrography segments","trout_source_public":"Compiled public recovery and lineage context; expert review recommended","public_notes":"Deception Creek is shown as a named-water occurrence within watershed-level cutthroat lineage context. This is not a precise biological boundary."}},{"type":"Feature","geometry":{"type":"LineString","coordinates":[[-108.0813,40.4474],[-108.0807,40.4488]]},"properties":{"source_id":"co_named_stream_103777","name":"Deception Creek","display_name":"Deception Creek","mapped_name":"Deception Creek","source_name":"Deception Creek","state":"CO","atlas_class":"named_natural_stream","huc8":"14050002","huc8Name":"Lower Yampa","huc8States":"CO","lineageKey":"greenRiverBlue","lineage":"greenRiverBlue","historic":"greenRiverBlue","current":"greenRiverBlue","recovery":"recoveryWatch","lineageLabel":"Green River / blue-lineage CT","lineageBasin":"Lower Yampa","lineageNote":"Yampa blue-lineage context","atlas_context":"cutthroat_lineage_context","confidence":"Watershed-level lineage context; expert review recommended","geometryStatus":"Named natural stream segment from statewide hydrography","note":"This named natural stream falls within a HUC8 assigned to a cutthroat lineage context.","source_segment_id":"co_named_stream_103777","water_id":"co_deception_creek_14050002_greenRiverBlue_001","occurrence_id":"co_deception_creek_14050002_greenRiverBlue_001","occurrence_number":"001","segment_count":14,"disambiguator":"Lower Yampa · Green River / blue-lineage CT · occurrence 001","basin":"Lower Yampa","atlas_layer":"named_water_occurrence","object_role":"named_water_occurrence","historic_label":"Green River / blue-lineage CT","current_label":"Green River / blue-lineage CT","recovery_label":"Recovery watch / review area","tier":"tier3","minZoom":14,"confidence_public":"Watershed-level lineage context; expert review recommended","geometry_status_public":"Named natural stream occurrence from statewide hydrography","geometry_source_public":"Grouped public hydrography segments","trout_source_public":"Compiled public recovery and lineage context; expert review recommended","public_notes":"Deception Creek is shown as a named-water occurrence within watershed-level cutthroat lineage context. This is not a precise biological boundary."}},{"type":"Feature","geometry":{"type":"LineString","coordinates":[[-108.082,40.4472],[-108.0813,40.4474]]},"properties":{"source_id":"co_named_stream_103778","name":"Deception Creek","display_name":"Deception Creek","mapped_name":"Deception Creek","source_name":"Deception Creek","state":"CO","atlas_class":"named_natural_stream","huc8":"14050002","huc8Name":"Lower Yampa","huc8States":"CO","lineageKey":"greenRiverBlue","lineage":"greenRiverBlue","historic":"greenRiverBlue","current":"greenRiverBlue","recovery":"recoveryWatch","lineageLabel":"Green River / blue-lineage CT","lineageBasin":"Lower Yampa","lineageNote":"Yampa blue-lineage context","atlas_context":"cutthroat_lineage_context","confidence":"Watershed-level lineage context; expert review recommended","geometryStatus":"Named natural stream segment from statewide hydrography","note":"This named natural stream falls within a HUC8 assigned to a cutthroat lineage context.","source_segment_id":"co_named_stream_103778","water_id":"co_deception_creek_14050002_greenRiverBlue_001","occurrence_id":"co_deception_creek_14050002_greenRiverBlue_001","occurrence_number":"001","segment_count":14,"disambiguator":"Lower Yampa · Green River / blue-lineage CT · occurrence 001","basin":"Lower Yampa","atlas_layer":"named_water_occurrence","object_role":"named_water_occurrence","historic_label":"Green River / blue-lineage CT","current_label":"Green River / blue-lineage CT","recovery_label":"Recovery watch / review area","tier":"tier3","minZoom":14,"confidence_public":"Watershed-level lineage context; expert review recommended","geometry_status_public":"Named natural stream occurrence from statewide hydrography","geometry_source_public":"Grouped public hydrography segments","trout_source_public":"Compiled public recovery and lineage context; expert review recommended","public_notes":"Deception Creek is shown as a named-water occurrence within watershed-level cutthroat lineage context. This is not a precise biological boundary."}},{"type":"Feature","geometry":{"type":"LineString","coordinates":[[-108.0702,40.4803],[-108.0695,40.4805],[-108.0702,40.4823],[-108.0685,40.4834]]},"properties":{"source_id":"co_named_stream_103779","name":"Deception Creek","display_name":"Deception Creek","mapped_name":"Deception Creek","source_name":"Deception Creek","state":"CO","atlas_class":"named_natural_stream","huc8":"14050002","huc8Name":"Lower Yampa","huc8States":"CO","lineageKey":"greenRiverBlue","lineage":"greenRiverBlue","historic":"greenRiverBlue","current":"greenRiverBlue","recovery":"recoveryWatch","lineageLabel":"Green River / blue-lineage CT","lineageBasin":"Lower Yampa","lineageNote":"Yampa blue-lineage context","atlas_context":"cutthroat_lineage_context","confidence":"Watershed-level lineage context; expert review recommended","geometryStatus":"Named natural stream segment from statewide hydrography","note":"This named natural stream falls within a HUC8 assigned to a cutthroat lineage context.","source_segment_id":"co_named_stream_103779","water_id":"co_deception_creek_14050002_greenRiverBlue_001","occurrence_id":"co_deception_creek_14050002_greenRiverBlue_001","occurrence_number":"001","segment_count":14,"disambiguator":"Lower Yampa · Green River / blue-lineage CT · occurrence 001","basin":"Lower Yampa","atlas_layer":"named_water_occurrence","object_role":"named_water_occurrence","historic_label":"Green River / blue-lineage CT","current_label":"Green River / blue-lineage CT","recovery_label":"Recovery watch / review area","tier":"tier3","minZoom":14,"confidence_public":"Watershed-level lineage context; expert review recommended","geometry_status_public":"Named natural stream occurrence from statewide hydrography","geometry_source_public":"Grouped public hydrography segments","trout_source_public":"Compiled public recovery and lineage context; expert review recommended","public_notes":"Deception Creek is shown as a named-water occurrence within watershed-level cutthroat lineage context. This is not a precise biological boundary."}},{"type":"Feature","geometry":{"type":"LineString","coordinates":[[-108.0891,40.444],[-108.0823,40.447]]},"properties":{"source_id":"co_named_stream_103782","name":"Deception Creek","display_name":"Deception Creek","mapped_name":"Deception Creek","source_name":"Deception Creek","state":"CO","atlas_class":"named_natural_stream","huc8":"14050002","huc8Name":"Lower Yampa","huc8States":"CO","lineageKey":"greenRiverBlue","lineage":"greenRiverBlue","historic":"greenRiverBlue","current":"greenRiverBlue","recovery":"recoveryWatch","lineageLabel":"Green River / blue-lineage CT","lineageBasin":"Lower Yampa","lineageNote":"Yampa blue-lineage context","atlas_context":"cutthroat_lineage_context","confidence":"Watershed-level lineage context; expert review recommended","geometryStatus":"Named natural stream segment from statewide hydrography","note":"This named natural stream falls within a HUC8 assigned to a cutthroat lineage context.","source_segment_id":"co_named_stream_103782","water_id":"co_deception_creek_14050002_greenRiverBlue_001","occurrence_id":"co_deception_creek_14050002_greenRiverBlue_001","occurrence_number":"001","segment_count":14,"disambiguator":"Lower Yampa · Green River / blue-lineage CT · occurrence 001","basin":"Lower Yampa","atlas_layer":"named_water_occurrence","object_role":"named_water_occurrence","historic_label":"Green River / blue-lineage CT","current_label":"Green River / blue-lineage CT","recovery_label":"Recovery watch / review area","tier":"tier3","minZoom":14,"confidence_public":"Watershed-level lineage context; expert review recommended","geometry_status_public":"Named natural stream occurrence from statewide hydrography","geometry_source_public":"Grouped public hydrography segments","trout_source_public":"Compiled public recovery and lineage context; expert review recommended","public_notes":"Deception Creek is shown as a named-water occurrence within watershed-level cutthroat lineage context. This is not a precise biological boundary."}},{"type":"Feature","geometry":{"type":"LineString","coordinates":[[-108.0685,40.4834],[-108.0701,40.484],[-108.0696,40.4845]]},"properties":{"source_id":"co_named_stream_103783","name":"Deception Creek","display_name":"Deception Creek","mapped_name":"Deception Creek","source_name":"Deception Creek","state":"CO","atlas_class":"named_natural_stream","huc8":"14050002","huc8Name":"Lower Yampa","huc8States":"CO","lineageKey":"greenRiverBlue","lineage":"greenRiverBlue","historic":"greenRiverBlue","current":"greenRiverBlue","recovery":"recoveryWatch","lineageLabel":"Green River / blue-lineage CT","lineageBasin":"Lower Yampa","lineageNote":"Yampa blue-lineage context","atlas_context":"cutthroat_lineage_context","confidence":"Watershed-level lineage context; expert review recommended","geometryStatus":"Named natural stream segment from statewide hydrography","note":"This named natural stream falls within a HUC8 assigned to a cutthroat lineage context.","source_segment_id":"co_named_stream_103783","water_id":"co_deception_creek_14050002_greenRiverBlue_001","occurrence_id":"co_deception_creek_14050002_greenRiverBlue_001","occurrence_number":"001","segment_count":14,"disambiguator":"Lower Yampa · Green River / blue-lineage CT · occurrence 001","basin":"Lower Yampa","atlas_layer":"named_water_occurrence","object_role":"named_water_occurrence","historic_label":"Green River / blue-lineage CT","current_label":"Green River / blue-lineage CT","recovery_label":"Recovery watch / review area","tier":"tier3","minZoom":14,"confidence_public":"Watershed-level lineage context; expert review recommended","geometry_status_public":"Named natural stream occurrence from statewide hydrography","geometry_source_public":"Grouped public hydrography segments","trout_source_public":"Compiled public recovery and lineage context; expert review recommended","public_notes":"Deception Creek is shown as a named-water occurrence within watershed-level cutthroat lineage context. This is not a precise biological boundary."}},{"type":"Feature","geometry":{"type":"LineString","coordinates":[[-108.0975,40.4364],[-108.0938,40.4401]]},"properties":{"source_id":"co_named_stream_103839","name":"Deception Creek","display_name":"Deception Creek","mapped_name":"Deception Creek","source_name":"Deception Creek","state":"CO","atlas_class":"named_natural_stream","huc8":"14050002","huc8Name":"Lower Yampa","huc8States":"CO","lineageKey":"greenRiverBlue","lineage":"greenRiverBlue","historic":"greenRiverBlue","current":"greenRiverBlue","recovery":"recoveryWatch","lineageLabel":"Green River / blue-lineage CT","lineageBasin":"Lower Yampa","lineageNote":"Yampa blue-lineage context","atlas_context":"cutthroat_lineage_context","confidence":"Watershed-level lineage context; expert review recommended","geometryStatus":"Named natural stream segment from statewide hydrography","note":"This named natural stream falls within a HUC8 assigned to a cutthroat lineage context.","source_segment_id":"co_named_stream_103839","water_id":"co_deception_creek_14050002_greenRiverBlue_001","occurrence_id":"co_deception_creek_14050002_greenRiverBlue_001","occurrence_number":"001","segment_count":14,"disambiguator":"Lower Yampa · Green River / blue-lineage CT · occurrence 001","basin":"Lower Yampa","atlas_layer":"named_water_occurrence","object_role":"named_water_occurrence","historic_label":"Green River / blue-lineage CT","current_label":"Green River / blue-lineage CT","recovery_label":"Recovery watch / review area","tier":"tier3","minZoom":14,"confidence_public":"Watershed-level lineage context; expert review recommended","geometry_status_public":"Named natural stream occurrence from statewide hydrography","geometry_source_public":"Grouped public hydrography segments","trout_source_public":"Compiled public recovery and lineage context; expert review recommended","public_notes":"Deception Creek is shown as a named-water occurrence within watershed-level cutthroat lineage context. This is not a precise biological boundary."}},{"type":"Feature","geometry":{"type":"LineString","coordinates":[[-108.0938,40.4401],[-108.0919,40.4432],[-108.0897,40.4441]]},"properties":{"source_id":"co_named_stream_103840","name":"Deception Creek","display_name":"Deception Creek","mapped_name":"Deception Creek","source_name":"Deception Creek","state":"CO","atlas_class":"named_natural_stream","huc8":"14050002","huc8Name":"Lower Yampa","huc8States":"CO","lineageKey":"greenRiverBlue","lineage":"greenRiverBlue","historic":"greenRiverBlue","current":"greenRiverBlue","recovery":"recoveryWatch","lineageLabel":"Green River / blue-lineage CT","lineageBasin":"Lower Yampa","lineageNote":"Yampa blue-lineage context","atlas_context":"cutthroat_lineage_context","confidence":"Watershed-level lineage context; expert review recommended","geometryStatus":"Named natural stream segment from statewide hydrography","note":"This named natural stream falls within a HUC8 assigned to a cutthroat lineage context.","source_segment_id":"co_named_stream_103840","water_id":"co_deception_creek_14050002_greenRiverBlue_001","occurrence_id":"co_deception_creek_14050002_greenRiverBlue_001","occurrence_number":"001","segment_count":14,"disambiguator":"Lower Yampa · Green River / blue-lineage CT · occurrence 001","basin":"Lower Yampa","atlas_layer":"named_water_occurrence","object_role":"named_water_occurrence","historic_label":"Green River / blue-lineage CT","current_label":"Green River / blue-lineage CT","recovery_label":"Recovery watch / review area","tier":"tier3","minZoom":14,"confidence_public":"Watershed-level lineage context; expert review recommended","geometry_status_public":"Named natural stream occurrence from statewide hydrography","geometry_source_public":"Grouped public hydrography segments","trout_source_public":"Compiled public recovery and lineage context; expert review recommended","public_notes":"Deception Creek is shown as a named-water occurrence within watershed-level cutthroat lineage context. This is not a precise biological boundary."}},{"type":"Feature","geometry":{"type":"LineString","coordinates":[[-108.1225,40.4113],[-108.1203,40.4137],[-108.1193,40.418],[-108.1173,40.4211],[-108.118,40.4231],[-108.1198,40.4235],[-108.1211,40.4251]]},"properties":{"source_id":"co_named_stream_104131","name":"Deception Creek","display_name":"Deception Creek","mapped_name":"Deception Creek","source_name":"Deception Creek","state":"CO","atlas_class":"named_natural_stream","huc8":"14050002","huc8Name":"Lower Yampa","huc8States":"CO","lineageKey":"greenRiverBlue","lineage":"greenRiverBlue","historic":"greenRiverBlue","current":"greenRiverBlue","recovery":"recoveryWatch","lineageLabel":"Green River / blue-lineage CT","lineageBasin":"Lower Yampa","lineageNote":"Yampa blue-lineage context","atlas_context":"cutthroat_lineage_context","confidence":"Watershed-level lineage context; expert review recommended","geometryStatus":"Named natural stream segment from statewide hydrography","note":"This named natural stream falls within a HUC8 assigned to a cutthroat lineage context.","source_segment_id":"co_named_stream_104131","water_id":"co_deception_creek_14050002_greenRiverBlue_001","occurrence_id":"co_deception_creek_14050002_greenRiverBlue_001","occurrence_number":"001","segment_count":14,"disambiguator":"Lower Yampa · Green River / blue-lineage CT · occurrence 001","basin":"Lower Yampa","atlas_layer":"named_water_occurrence","object_role":"named_water_occurrence","historic_label":"Green River / blue-lineage CT","current_label":"Green River / blue-lineage CT","recovery_label":"Recovery watch / review area","tier":"tier3","minZoom":14,"confidence_public":"Watershed-level lineage context; expert review recommended","geometry_status_public":"Named natural stream occurrence from statewide hydrography","geometry_source_public":"Grouped public hydrography segments","trout_source_public":"Compiled public recovery and lineage context; expert review recommended","public_notes":"Deception Creek is shown as a named-water occurrence within watershed-level cutthroat lineage context. This is not a precise biological boundary."}},{"type":"Feature","geometry":{"type":"LineString","coordinates":[[-108.1385,40.3935],[-108.1314,40.3976],[-108.129,40.4009],[-108.1284,40.4037],[-108.1225,40.4113]]},"properties":{"source_id":"co_named_stream_104134","name":"Deception Creek","display_name":"Deception Creek","mapped_name":"Deception Creek","source_name":"Deception Creek","state":"CO","atlas_class":"named_natural_stream","huc8":"14050002","huc8Name":"Lower Yampa","huc8States":"CO","lineageKey":"greenRiverBlue","lineage":"greenRiverBlue","historic":"greenRiverBlue","current":"greenRiverBlue","recovery":"recoveryWatch","lineageLabel":"Green River / blue-lineage CT","lineageBasin":"Lower Yampa","lineageNote":"Yampa blue-lineage context","atlas_context":"cutthroat_lineage_context","confidence":"Watershed-level lineage context; expert review recommended","geometryStatus":"Named natural stream segment from statewide hydrography","note":"This named natural stream falls within a HUC8 assigned to a cutthroat lineage context.","source_segment_id":"co_named_stream_104134","water_id":"co_deception_creek_14050002_greenRiverBlue_001","occurrence_id":"co_deception_creek_14050002_greenRiverBlue_001","occurrence_number":"001","segment_count":14,"disambiguator":"Lower Yampa · Green River / blue-lineage CT · occurrence 001","basin":"Lower Yampa","atlas_layer":"named_water_occurrence","object_role":"named_water_occurrence","historic_label":"Green River / blue-lineage CT","current_label":"Green River / blue-lineage CT","recovery_label":"Recovery watch / review area","tier":"tier3","minZoom":14,"confidence_public":"Watershed-level lineage context; expert review recommended","geometry_status_public":"Named natural stream occurrence from statewide hydrography","geometry_source_public":"Grouped public hydrography segments","trout_source_public":"Compiled public recovery and lineage context; expert review recommended","public_notes":"Deception Creek is shown as a named-water occurrence within watershed-level cutthroat lineage context. This is not a precise biological boundary."}},{"type":"Feature","geometry":{"type":"LineString","coordinates":[[-108.1209,40.4286],[-108.1208,40.4294],[-108.1066,40.4297],[-108.104,40.4321],[-108.0992,40.434],[-108.0975,40.4364]]},"properties":{"source_id":"co_named_stream_104136","name":"Deception Creek","display_name":"Deception Creek","mapped_name":"Deception Creek","source_name":"Deception Creek","state":"CO","atlas_class":"named_natural_stream","huc8":"14050002","huc8Name":"Lower Yampa","huc8States":"CO","lineageKey":"greenRiverBlue","lineage":"greenRiverBlue","historic":"greenRiverBlue","current":"greenRiverBlue","recovery":"recoveryWatch","lineageLabel":"Green River / blue-lineage CT","lineageBasin":"Lower Yampa","lineageNote":"Yampa blue-lineage context","atlas_context":"cutthroat_lineage_context","confidence":"Watershed-level lineage context; expert review recommended","geometryStatus":"Named natural stream segment from statewide hydrography","note":"This named natural stream falls within a HUC8 assigned to a cutthroat lineage context.","source_segment_id":"co_named_stream_104136","water_id":"co_deception_creek_14050002_greenRiverBlue_001","occurrence_id":"co_deception_creek_14050002_greenRiverBlue_001","occurrence_number":"001","segment_count":14,"disambiguator":"Lower Yampa · Green River / blue-lineage CT · occurrence 001","basin":"Lower Yampa","atlas_layer":"named_water_occurrence","object_role":"named_water_occurrence","historic_label":"Green River / blue-lineage CT","current_label":"Green River / blue-lineage CT","recovery_label":"Recovery watch / review area","tier":"tier3","minZoom":14,"confidence_public":"Watershed-level lineage context; expert review recommended","geometry_status_public":"Named natural stream occurrence from statewide hydrography","geometry_source_public":"Grouped public hydrography segments","trout_source_public":"Compiled public recovery and lineage context; expert review recommended","public_notes":"Deception Creek is shown as a named-water occurrence within watershed-level cutthroat lineage context. This is not a precise biological boundary."}},{"type":"Feature","geometry":{"type":"LineString","coordinates":[[-108.1519,40.3656],[-108.1513,40.3685]]},"properties":{"source_id":"co_named_stream_104130","name":"Bob Hughes Creek","display_name":"Bob Hughes Creek","mapped_name":"Bob Hughes Creek","source_name":"Bob Hughes Creek","state":"CO","atlas_class":"named_natural_stream","huc8":"14050002","huc8Name":"Lower Yampa","huc8States":"CO","lineageKey":"greenRiverBlue","lineage":"greenRiverBlue","historic":"greenRiverBlue","current":"greenRiverBlue","recovery":"recoveryWatch","lineageLabel":"Green River / blue-lineage CT","lineageBasin":"Lower Yampa","lineageNote":"Yampa blue-lineage context","atlas_context":"cutthroat_lineage_context","confidence":"Watershed-level lineage context; expert review recommended","geometryStatus":"Named natural stream segment from statewide hydrography","note":"This named natural stream falls within a HUC8 assigned to a cutthroat lineage context.","source_segment_id":"co_named_stream_104130","water_id":"co_bob_hughes_creek_14050002_greenRiverBlue_001","occurrence_id":"co_bob_hughes_creek_14050002_greenRiverBlue_001","occurrence_number":"001","segment_count":13,"disambiguator":"Lower Yampa · Green River / blue-lineage CT · occurrence 001","basin":"Lower Yampa","atlas_layer":"named_water_occurrence","object_role":"named_water_occurrence","historic_label":"Green River / blue-lineage CT","current_label":"Green River / blue-lineage CT","recovery_label":"Recovery watch / review area","tier":"tier3","minZoom":14,"confidence_public":"Watershed-level lineage context; expert review recommended","geometry_status_public":"Named natural stream occurrence from statewide hydrography","geometry_source_public":"Grouped public hydrography segments","trout_source_public":"Compiled public recovery and lineage context; expert review recommended","public_notes":"Bob Hughes Creek is shown as a named-water occurrence within watershed-level cutthroat lineage context. This is not a precise biological boundary."}},{"type":"Feature","geometry":{"type":"LineString","coordinates":[[-108.1401,40.3441],[-108.1402,40.345]]},"properties":{"source_id":"co_named_stream_104132","name":"Bob Hughes Creek","display_name":"Bob Hughes Creek","mapped_name":"Bob Hughes Creek","source_name":"Bob Hughes Creek","state":"CO","atlas_class":"named_natural_stream","huc8":"14050002","huc8Name":"Lower Yampa","huc8States":"CO","lineageKey":"greenRiverBlue","lineage":"greenRiverBlue","historic":"greenRiverBlue","current":"greenRiverBlue","recovery":"recoveryWatch","lineageLabel":"Green River / blue-lineage CT","lineageBasin":"Lower Yampa","lineageNote":"Yampa blue-lineage context","atlas_context":"cutthroat_lineage_context","confidence":"Watershed-level lineage context; expert review recommended","geometryStatus":"Named natural stream segment from statewide hydrography","note":"This named natural stream falls within a HUC8 assigned to a cutthroat lineage context.","source_segment_id":"co_named_stream_104132","water_id":"co_bob_hughes_creek_14050002_greenRiverBlue_001","occurrence_id":"co_bob_hughes_creek_14050002_greenRiverBlue_001","occurrence_number":"001","segment_count":13,"disambiguator":"Lower Yampa · Green River / blue-lineage CT · occurrence 001","basin":"Lower Yampa","atlas_layer":"named_water_occurrence","object_role":"named_water_occurrence","historic_label":"Green River / blue-lineage CT","current_label":"Green River / blue-lineage CT","recovery_label":"Recovery watch / review area","tier":"tier3","minZoom":14,"confidence_public":"Watershed-level lineage context; expert review recommended","geometry_status_public":"Named natural stream occurrence from statewide hydrography","geometry_source_public":"Grouped public hydrography segments","trout_source_public":"Compiled public recovery and lineage context; expert review recommended","public_notes":"Bob Hughes Creek is shown as a named-water occurrence within watershed-level cutthroat lineage context. This is not a precise biological boundary."}},{"type":"Feature","geometry":{"type":"LineString","coordinates":[[-108.1519,40.3623],[-108.1512,40.3632],[-108.1519,40.3656]]},"properties":{"source_id":"co_named_stream_104133","name":"Bob Hughes Creek","display_name":"Bob Hughes Creek","mapped_name":"Bob Hughes Creek","source_name":"Bob Hughes Creek","state":"CO","atlas_class":"named_natural_stream","huc8":"14050002","huc8Name":"Lower Yampa","huc8States":"CO","lineageKey":"greenRiverBlue","lineage":"greenRiverBlue","historic":"greenRiverBlue","current":"greenRiverBlue","recovery":"recoveryWatch","lineageLabel":"Green River / blue-lineage CT","lineageBasin":"Lower Yampa","lineageNote":"Yampa blue-lineage context","atlas_context":"cutthroat_lineage_context","confidence":"Watershed-level lineage context; expert review recommended","geometryStatus":"Named natural stream segment from statewide hydrography","note":"This named natural stream falls within a HUC8 assigned to a cutthroat lineage context.","source_segment_id":"co_named_stream_104133","water_id":"co_bob_hughes_creek_14050002_greenRiverBlue_001","occurrence_id":"co_bob_hughes_creek_14050002_greenRiverBlue_001","occurrence_number":"001","segment_count":13,"disambiguator":"Lower Yampa · Green River / blue-lineage CT · occurrence 001","basin":"Lower Yampa","atlas_layer":"named_water_occurrence","object_role":"named_water_occurrence","historic_label":"Green River / blue-lineage CT","current_label":"Green River / blue-lineage CT","recovery_label":"Recovery watch / review area","tier":"tier3","minZoom":14,"confidence_public":"Watershed-level lineage context; expert review recommended","geometry_status_public":"Named natural stream occurrence from statewide hydrography","geometry_source_public":"Grouped public hydrography segments","trout_source_public":"Compiled public recovery and lineage context; expert review recommended","public_notes":"Bob Hughes Creek is shown as a named-water occurrence within watershed-level cutthroat lineage context. This is not a precise biological boundary."}},{"type":"Feature","geometry":{"type":"LineString","coordinates":[[-108.1406,40.3478],[-108.141,40.3498],[-108.1432,40.3526],[-108.1485,40.3555],[-108.1511,40.3581]]},"properties":{"source_id":"co_named_stream_104135","name":"Bob Hughes Creek","display_name":"Bob Hughes Creek","mapped_name":"Bob Hughes Creek","source_name":"Bob Hughes Creek","state":"CO","atlas_class":"named_natural_stream","huc8":"14050002","huc8Name":"Lower Yampa","huc8States":"CO","lineageKey":"greenRiverBlue","lineage":"greenRiverBlue","historic":"greenRiverBlue","current":"greenRiverBlue","recovery":"recoveryWatch","lineageLabel":"Green River / blue-lineage CT","lineageBasin":"Lower Yampa","lineageNote":"Yampa blue-lineage context","atlas_context":"cutthroat_lineage_context","confidence":"Watershed-level lineage context; expert review recommended","geometryStatus":"Named natural stream segment from statewide hydrography","note":"This named natural stream falls within a HUC8 assigned to a cutthroat lineage context.","source_segment_id":"co_named_stream_104135","water_id":"co_bob_hughes_creek_14050002_greenRiverBlue_001","occurrence_id":"co_bob_hughes_creek_14050002_greenRiverBlue_001","occurrence_number":"001","segment_count":13,"disambiguator":"Lower Yampa · Green River / blue-lineage CT · occurrence 001","basin":"Lower Yampa","atlas_layer":"named_water_occurrence","object_role":"named_water_occurrence","historic_label":"Green River / blue-lineage CT","current_label":"Green River / blue-lineage CT","recovery_label":"Recovery watch / review area","tier":"tier3","minZoom":14,"confidence_public":"Watershed-level lineage context; expert review recommended","geometry_status_public":"Named natural stream occurrence from statewide hydrography","geometry_source_public":"Grouped public hydrography segments","trout_source_public":"Compiled public recovery and lineage context; expert review recommended","public_notes":"Bob Hughes Creek is shown as a named-water occurrence within watershed-level cutthroat lineage context. This is not a precise biological boundary."}},{"type":"Feature","geometry":{"type":"LineString","coordinates":[[-108.1513,40.3685],[-108.1475,40.3771],[-108.1477,40.3797],[-108.1496,40.3816],[-108.1466,40.3854],[-108.1472,40.3879],[-108.1437,40.3913],[-108.1385,40.3935]]},"properties":{"source_id":"co_named_stream_104137","name":"Bob Hughes Creek","display_name":"Bob Hughes Creek","mapped_name":"Bob Hughes Creek","source_name":"Bob Hughes Creek","state":"CO","atlas_class":"named_natural_stream","huc8":"14050002","huc8Name":"Lower Yampa","huc8States":"CO","lineageKey":"greenRiverBlue","lineage":"greenRiverBlue","historic":"greenRiverBlue","current":"greenRiverBlue","recovery":"recoveryWatch","lineageLabel":"Green River / blue-lineage CT","lineageBasin":"Lower Yampa","lineageNote":"Yampa blue-lineage context","atlas_context":"cutthroat_lineage_context","confidence":"Watershed-level lineage context; expert review recommended","geometryStatus":"Named natural stream segment from statewide hydrography","note":"This named natural stream falls within a HUC8 assigned to a cutthroat lineage context.","source_segment_id":"co_named_stream_104137","water_id":"co_bob_hughes_creek_14050002_greenRiverBlue_001","occurrence_id":"co_bob_hughes_creek_14050002_greenRiverBlue_001","occurrence_number":"001","segment_count":13,"disambiguator":"Lower Yampa · Green River / blue-lineage CT · occurrence 001","basin":"Lower Yampa","atlas_layer":"named_water_occurrence","object_role":"named_water_occurrence","historic_label":"Green River / blue-lineage CT","current_label":"Green River / blue-lineage CT","recovery_label":"Recovery watch / review area","tier":"tier3","minZoom":14,"confidence_public":"Watershed-level lineage context; expert review recommended","geometry_status_public":"Named natural stream occurrence from statewide hydrography","geometry_source_public":"Grouped public hydrography segments","trout_source_public":"Compiled public recovery and lineage context; expert review recommended","public_notes":"Bob Hughes Creek is shown as a named-water occurrence within watershed-level cutthroat lineage context. This is not a precise biological boundary."}},{"type":"Feature","geometry":{"type":"LineString","coordinates":[[-108.1426,40.3302],[-108.1413,40.3332],[-108.1405,40.3391]]},"properties":{"source_id":"co_named_stream_104138","name":"Bob Hughes Creek","display_name":"Bob Hughes Creek","mapped_name":"Bob Hughes Creek","source_name":"Bob Hughes Creek","state":"CO","atlas_class":"named_natural_stream","huc8":"14050002","huc8Name":"Lower Yampa","huc8States":"CO","lineageKey":"greenRiverBlue","lineage":"greenRiverBlue","historic":"greenRiverBlue","current":"greenRiverBlue","recovery":"recoveryWatch","lineageLabel":"Green River / blue-lineage CT","lineageBasin":"Lower Yampa","lineageNote":"Yampa blue-lineage context","atlas_context":"cutthroat_lineage_context","confidence":"Watershed-level lineage context; expert review recommended","geometryStatus":"Named natural stream segment from statewide hydrography","note":"This named natural stream falls within a HUC8 assigned to a cutthroat lineage context.","source_segment_id":"co_named_stream_104138","water_id":"co_bob_hughes_creek_14050002_greenRiverBlue_001","occurrence_id":"co_bob_hughes_creek_14050002_greenRiverBlue_001","occurrence_number":"001","segment_count":13,"disambiguator":"Lower Yampa · Green River / blue-lineage CT · occurrence 001","basin":"Lower Yampa","atlas_layer":"named_water_occurrence","object_role":"named_water_occurrence","historic_label":"Green River / blue-lineage CT","current_label":"Green River / blue-lineage CT","recovery_label":"Recovery watch / review area","tier":"tier3","minZoom":14,"confidence_public":"Watershed-level lineage context; expert review recommended","geometry_status_public":"Named natural stream occurrence from statewide hydrography","geometry_source_public":"Grouped public hydrography segments","trout_source_public":"Compiled public recovery and lineage context; expert review recommended","public_notes":"Bob Hughes Creek is shown as a named-water occurrence within watershed-level cutthroat lineage context. This is not a precise biological boundary."}},{"type":"Feature","geometry":{"type":"LineString","coordinates":[[-108.1405,40.3391],[-108.1401,40.3441]]},"properties":{"source_id":"co_named_stream_104139","name":"Bob Hughes Creek","display_name":"Bob Hughes Creek","mapped_name":"Bob Hughes Creek","source_name":"Bob Hughes Creek","state":"CO","atlas_class":"named_natural_stream","huc8":"14050002","huc8Name":"Lower Yampa","huc8States":"CO","lineageKey":"greenRiverBlue","lineage":"greenRiverBlue","historic":"greenRiverBlue","current":"greenRiverBlue","recovery":"recoveryWatch","lineageLabel":"Green River / blue-lineage CT","lineageBasin":"Lower Yampa","lineageNote":"Yampa blue-lineage context","atlas_context":"cutthroat_lineage_context","confidence":"Watershed-level lineage context; expert review recommended","geometryStatus":"Named natural stream segment from statewide hydrography","note":"This named natural stream falls within a HUC8 assigned to a cutthroat lineage context.","source_segment_id":"co_named_stream_104139","water_id":"co_bob_hughes_creek_14050002_greenRiverBlue_001","occurrence_id":"co_bob_hughes_creek_14050002_greenRiverBlue_001","occurrence_number":"001","segment_count":13,"disambiguator":"Lower Yampa · Green River / blue-lineage CT · occurrence 001","basin":"Lower Yampa","atlas_layer":"named_water_occurrence","object_role":"named_water_occurrence","historic_label":"Green River / blue-lineage CT","current_label":"Green River / blue-lineage CT","recovery_label":"Recovery watch / review area","tier":"tier3","minZoom":14,"confidence_public":"Watershed-level lineage context; expert review recommended","geometry_status_public":"Named natural stream occurrence from statewide hydrography","geometry_source_public":"Grouped public hydrography segments","trout_source_public":"Compiled public recovery and lineage context; expert review recommended","public_notes":"Bob Hughes Creek is shown as a named-water occurrence within watershed-level cutthroat lineage context. This is not a precise biological boundary."}},{"type":"Feature","geometry":{"type":"LineString","coordinates":[[-108.1511,40.3581],[-108.1526,40.3611],[-108.1519,40.3623]]},"properties":{"source_id":"co_named_stream_104140","name":"Bob Hughes Creek","display_name":"Bob Hughes Creek","mapped_name":"Bob Hughes Creek","source_name":"Bob Hughes Creek","state":"CO","atlas_class":"named_natural_stream","huc8":"14050002","huc8Name":"Lower Yampa","huc8States":"CO","lineageKey":"greenRiverBlue","lineage":"greenRiverBlue","historic":"greenRiverBlue","current":"greenRiverBlue","recovery":"recoveryWatch","lineageLabel":"Green River / blue-lineage CT","lineageBasin":"Lower Yampa","lineageNote":"Yampa blue-lineage context","atlas_context":"cutthroat_lineage_context","confidence":"Watershed-level lineage context; expert review recommended","geometryStatus":"Named natural stream segment from statewide hydrography","note":"This named natural stream falls within a HUC8 assigned to a cutthroat lineage context.","source_segment_id":"co_named_stream_104140","water_id":"co_bob_hughes_creek_14050002_greenRiverBlue_001","occurrence_id":"co_bob_hughes_creek_14050002_greenRiverBlue_001","occurrence_number":"001","segment_count":13,"disambiguator":"Lower Yampa · Green River / blue-lineage CT · occurrence 001","basin":"Lower Yampa","atlas_layer":"named_water_occurrence","object_role":"named_water_occurrence","historic_label":"Green River / blue-lineage CT","current_label":"Green River / blue-lineage CT","recovery_label":"Recovery watch / review area","tier":"tier3","minZoom":14,"confidence_public":"Watershed-level lineage context; expert review recommended","geometry_status_public":"Named natural stream occurrence from statewide hydrography","geometry_source_public":"Grouped public hydrography segments","trout_source_public":"Compiled public recovery and lineage context; expert review recommended","public_notes":"Bob Hughes Creek is shown as a named-water occurrence within watershed-level cutthroat lineage context. This is not a precise biological boundary."}},{"type":"Feature","geometry":{"type":"LineString","coordinates":[[-108.1573,40.31],[-108.1563,40.3124]]},"properties":{"source_id":"co_named_stream_105140","name":"Bob Hughes Creek","display_name":"Bob Hughes Creek","mapped_name":"Bob Hughes Creek","source_name":"Bob Hughes Creek","state":"CO","atlas_class":"named_natural_stream","huc8":"14050002","huc8Name":"Lower Yampa","huc8States":"CO","lineageKey":"greenRiverBlue","lineage":"greenRiverBlue","historic":"greenRiverBlue","current":"greenRiverBlue","recovery":"recoveryWatch","lineageLabel":"Green River / blue-lineage CT","lineageBasin":"Lower Yampa","lineageNote":"Yampa blue-lineage context","atlas_context":"cutthroat_lineage_context","confidence":"Watershed-level lineage context; expert review recommended","geometryStatus":"Named natural stream segment from statewide hydrography","note":"This named natural stream falls within a HUC8 assigned to a cutthroat lineage context.","source_segment_id":"co_named_stream_105140","water_id":"co_bob_hughes_creek_14050002_greenRiverBlue_001","occurrence_id":"co_bob_hughes_creek_14050002_greenRiverBlue_001","occurrence_number":"001","segment_count":13,"disambiguator":"Lower Yampa · Green River / blue-lineage CT · occurrence 001","basin":"Lower Yampa","atlas_layer":"named_water_occurrence","object_role":"named_water_occurrence","historic_label":"Green River / blue-lineage CT","current_label":"Green River / blue-lineage CT","recovery_label":"Recovery watch / review area","tier":"tier3","minZoom":14,"confidence_public":"Watershed-level lineage context; expert review recommended","geometry_status_public":"Named natural stream occurrence from statewide hydrography","geometry_source_public":"Grouped public hydrography segments","trout_source_public":"Compiled public recovery and lineage context; expert review recommended","public_notes":"Bob Hughes Creek is shown as a named-water occurrence within watershed-level cutthroat lineage context. This is not a precise biological boundary."}},{"type":"Feature","geometry":{"type":"LineString","coordinates":[[-108.1527,40.315],[-108.1493,40.3177],[-108.1493,40.3214],[-108.145,40.3276]]},"properties":{"source_id":"co_named_stream_105141","name":"Bob Hughes Creek","display_name":"Bob Hughes Creek","mapped_name":"Bob Hughes Creek","source_name":"Bob Hughes Creek","state":"CO","atlas_class":"named_natural_stream","huc8":"14050002","huc8Name":"Lower Yampa","huc8States":"CO","lineageKey":"greenRiverBlue","lineage":"greenRiverBlue","historic":"greenRiverBlue","current":"greenRiverBlue","recovery":"recoveryWatch","lineageLabel":"Green River / blue-lineage CT","lineageBasin":"Lower Yampa","lineageNote":"Yampa blue-lineage context","atlas_context":"cutthroat_lineage_context","confidence":"Watershed-level lineage context; expert review recommended","geometryStatus":"Named natural stream segment from statewide hydrography","note":"This named natural stream falls within a HUC8 assigned to a cutthroat lineage context.","source_segment_id":"co_named_stream_105141","water_id":"co_bob_hughes_creek_14050002_greenRiverBlue_001","occurrence_id":"co_bob_hughes_creek_14050002_greenRiverBlue_001","occurrence_number":"001","segment_count":13,"disambiguator":"Lower Yampa · Green River / blue-lineage CT · occurrence 001","basin":"Lower Yampa","atlas_layer":"named_water_occurrence","object_role":"named_water_occurrence","historic_label":"Green River / blue-lineage CT","current_label":"Green River / blue-lineage CT","recovery_label":"Recovery watch / review area","tier":"tier3","minZoom":14,"confidence_public":"Watershed-level lineage context; expert review recommended","geometry_status_public":"Named natural stream occurrence from statewide hydrography","geometry_source_public":"Grouped public hydrography segments","trout_source_public":"Compiled public recovery and lineage context; expert review recommended","public_notes":"Bob Hughes Creek is shown as a named-water occurrence within watershed-level cutthroat lineage context. This is not a precise biological boundary."}},{"type":"Feature","geometry":{"type":"LineString","coordinates":[[-108.154,40.3015],[-108.1602,40.3038],[-108.1604,40.3069],[-108.1573,40.31]]},"properties":{"source_id":"co_named_stream_105142","name":"Bob Hughes Creek","display_name":"Bob Hughes Creek","mapped_name":"Bob Hughes Creek","source_name":"Bob Hughes Creek","state":"CO","atlas_class":"named_natural_stream","huc8":"14050002","huc8Name":"Lower Yampa","huc8States":"CO","lineageKey":"greenRiverBlue","lineage":"greenRiverBlue","historic":"greenRiverBlue","current":"greenRiverBlue","recovery":"recoveryWatch","lineageLabel":"Green River / blue-lineage CT","lineageBasin":"Lower Yampa","lineageNote":"Yampa blue-lineage context","atlas_context":"cutthroat_lineage_context","confidence":"Watershed-level lineage context; expert review recommended","geometryStatus":"Named natural stream segment from statewide hydrography","note":"This named natural stream falls within a HUC8 assigned to a cutthroat lineage context.","source_segment_id":"co_named_stream_105142","water_id":"co_bob_hughes_creek_14050002_greenRiverBlue_001","occurrence_id":"co_bob_hughes_creek_14050002_greenRiverBlue_001","occurrence_number":"001","segment_count":13,"disambiguator":"Lower Yampa · Green River / blue-lineage CT · occurrence 001","basin":"Lower Yampa","atlas_layer":"named_water_occurrence","object_role":"named_water_occurrence","historic_label":"Green River / blue-lineage CT","current_label":"Green River / blue-lineage CT","recovery_label":"Recovery watch / review area","tier":"tier3","minZoom":14,"confidence_public":"Watershed-level lineage context; expert review recommended","geometry_status_public":"Named natural stream occurrence from statewide hydrography","geometry_source_public":"Grouped public hydrography segments","trout_source_public":"Compiled public recovery and lineage context; expert review recommended","public_notes":"Bob Hughes Creek is shown as a named-water occurrence within watershed-level cutthroat lineage context. This is not a precise biological boundary."}},{"type":"Feature","geometry":{"type":"LineString","coordinates":[[-108.145,40.3276],[-108.1426,40.3302]]},"properties":{"source_id":"co_named_stream_105144","name":"Bob Hughes Creek","display_name":"Bob Hughes Creek","mapped_name":"Bob Hughes Creek","source_name":"Bob Hughes Creek","state":"CO","atlas_class":"named_natural_stream","huc8":"14050002","huc8Name":"Lower Yampa","huc8States":"CO","lineageKey":"greenRiverBlue","lineage":"greenRiverBlue","historic":"greenRiverBlue","current":"greenRiverBlue","recovery":"recoveryWatch","lineageLabel":"Green River / blue-lineage CT","lineageBasin":"Lower Yampa","lineageNote":"Yampa blue-lineage context","atlas_context":"cutthroat_lineage_context","confidence":"Watershed-level lineage context; expert review recommended","geometryStatus":"Named natural stream segment from statewide hydrography","note":"This named natural stream falls within a HUC8 assigned to a cutthroat lineage context.","source_segment_id":"co_named_stream_105144","water_id":"co_bob_hughes_creek_14050002_greenRiverBlue_001","occurrence_id":"co_bob_hughes_creek_14050002_greenRiverBlue_001","occurrence_number":"001","segment_count":13,"disambiguator":"Lower Yampa · Green River / blue-lineage CT · occurrence 001","basin":"Lower Yampa","atlas_layer":"named_water_occurrence","object_role":"named_water_occurrence","historic_label":"Green River / blue-lineage CT","current_label":"Green River / blue-lineage CT","recovery_label":"Recovery watch / review area","tier":"tier3","minZoom":14,"confidence_public":"Watershed-level lineage context; expert review recommended","geometry_status_public":"Named natural stream occurrence from statewide hydrography","geometry_source_public":"Grouped public hydrography segments","trout_source_public":"Compiled public recovery and lineage context; expert review recommended","public_notes":"Bob Hughes Creek is shown as a named-water occurrence within watershed-level cutthroat lineage context. This is not a precise biological boundary."}},{"type":"Feature","geometry":{"type":"LineString","coordinates":[[-108.1555,40.3127],[-108.1527,40.315]]},"properties":{"source_id":"co_named_stream_105145","name":"Bob Hughes Creek","display_name":"Bob Hughes Creek","mapped_name":"Bob Hughes Creek","source_name":"Bob Hughes Creek","state":"CO","atlas_class":"named_natural_stream","huc8":"14050002","huc8Name":"Lower Yampa","huc8States":"CO","lineageKey":"greenRiverBlue","lineage":"greenRiverBlue","historic":"greenRiverBlue","current":"greenRiverBlue","recovery":"recoveryWatch","lineageLabel":"Green River / blue-lineage CT","lineageBasin":"Lower Yampa","lineageNote":"Yampa blue-lineage context","atlas_context":"cutthroat_lineage_context","confidence":"Watershed-level lineage context; expert review recommended","geometryStatus":"Named natural stream segment from statewide hydrography","note":"This named natural stream falls within a HUC8 assigned to a cutthroat lineage context.","source_segment_id":"co_named_stream_105145","water_id":"co_bob_hughes_creek_14050002_greenRiverBlue_001","occurrence_id":"co_bob_hughes_creek_14050002_greenRiverBlue_001","occurrence_number":"001","segment_count":13,"disambiguator":"Lower Yampa · Green River / blue-lineage CT · occurrence 001","basin":"Lower Yampa","atlas_layer":"named_water_occurrence","object_role":"named_water_occurrence","historic_label":"Green River / blue-lineage CT","current_label":"Green River / blue-lineage CT","recovery_label":"Recovery watch / review area","tier":"tier3","minZoom":14,"confidence_public":"Watershed-level lineage context; expert review recommended","geometry_status_public":"Named natural stream occurrence from statewide hydrography","geometry_source_public":"Grouped public hydrography segments","trout_source_public":"Compiled public recovery and lineage context; expert review recommended","public_notes":"Bob Hughes Creek is shown as a named-water occurrence within watershed-level cutthroat lineage context. This is not a precise biological boundary."}},{"type":"Feature","geometry":{"type":"LineString","coordinates":[[-108.105,40.2757],[-108.105,40.2756]]},"properties":{"source_id":"co_named_stream_105143","name":"Price Creek","display_name":"Price Creek","mapped_name":"Price Creek","source_name":"Price Creek","state":"CO","atlas_class":"named_natural_stream","huc8":"14050005","huc8Name":"Upper White","huc8States":"CO","lineageKey":"greenRiverBlue","lineage":"greenRiverBlue","historic":"greenRiverBlue","current":"greenRiverBlue","recovery":"recoveryWatch","lineageLabel":"Green River / blue-lineage CT","lineageBasin":"Upper White","lineageNote":"White River blue-lineage context","atlas_context":"cutthroat_lineage_context","confidence":"Watershed-level lineage context; expert review recommended","geometryStatus":"Named natural stream segment from statewide hydrography","note":"This named natural stream falls within a HUC8 assigned to a cutthroat lineage context.","source_segment_id":"co_named_stream_105143","water_id":"co_price_creek_14050005_greenRiverBlue_001","occurrence_id":"co_price_creek_14050005_greenRiverBlue_001","occurrence_number":"001","segment_count":17,"disambiguator":"Upper White · Green River / blue-lineage CT · occurrence 001","basin":"Upper White","atlas_layer":"named_water_occurrence","object_role":"named_water_occurrence","historic_label":"Green River / blue-lineage CT","current_label":"Green River / blue-lineage CT","recovery_label":"Recovery watch / review area","tier":"tier3","minZoom":14,"confidence_public":"Watershed-level lineage context; expert review recommended","geometry_status_public":"Named natural stream occurrence from statewide hydrography","geometry_source_public":"Grouped public hydrography segments","trout_source_public":"Compiled public recovery and lineage context; expert review recommended","public_notes":"Price Creek is shown as a named-water occurrence within watershed-level cutthroat lineage context. This is not a precise biological boundary."}},{"type":"Feature","geometry":{"type":"LineString","coordinates":[[-108.0929,40.283],[-108.0947,40.2817]]},"properties":{"source_id":"co_named_stream_105150","name":"Price Creek","display_name":"Price Creek","mapped_name":"Price Creek","source_name":"Price Creek","state":"CO","atlas_class":"named_natural_stream","huc8":"14050005","huc8Name":"Upper White","huc8States":"CO","lineageKey":"greenRiverBlue","lineage":"greenRiverBlue","historic":"greenRiverBlue","current":"greenRiverBlue","recovery":"recoveryWatch","lineageLabel":"Green River / blue-lineage CT","lineageBasin":"Upper White","lineageNote":"White River blue-lineage context","atlas_context":"cutthroat_lineage_context","confidence":"Watershed-level lineage context; expert review recommended","geometryStatus":"Named natural stream segment from statewide hydrography","note":"This named natural stream falls within a HUC8 assigned to a cutthroat lineage context.","source_segment_id":"co_named_stream_105150","water_id":"co_price_creek_14050005_greenRiverBlue_001","occurrence_id":"co_price_creek_14050005_greenRiverBlue_001","occurrence_number":"001","segment_count":17,"disambiguator":"Upper White · Green River / blue-lineage CT · occurrence 001","basin":"Upper White","atlas_layer":"named_water_occurrence","object_role":"named_water_occurrence","historic_label":"Green River / blue-lineage CT","current_label":"Green River / blue-lineage CT","recovery_label":"Recovery watch / review area","tier":"tier3","minZoom":14,"confidence_public":"Watershed-level lineage context; expert review recommended","geometry_status_public":"Named natural stream occurrence from statewide hydrography","geometry_source_public":"Grouped public hydrography segments","trout_source_public":"Compiled public recovery and lineage context; expert review recommended","public_notes":"Price Creek is shown as a named-water occurrence within watershed-level cutthroat lineage context. This is not a precise biological boundary."}},{"type":"Feature","geometry":{"type":"LineString","coordinates":[[-108.0878,40.2858],[-108.0916,40.2844]]},"properties":{"source_id":"co_named_stream_105151","name":"Price Creek","display_name":"Price Creek","mapped_name":"Price Creek","source_name":"Price Creek","state":"CO","atlas_class":"named_natural_stream","huc8":"14050005","huc8Name":"Upper White","huc8States":"CO","lineageKey":"greenRiverBlue","lineage":"greenRiverBlue","historic":"greenRiverBlue","current":"greenRiverBlue","recovery":"recoveryWatch","lineageLabel":"Green River / blue-lineage CT","lineageBasin":"Upper White","lineageNote":"White River blue-lineage context","atlas_context":"cutthroat_lineage_context","confidence":"Watershed-level lineage context; expert review recommended","geometryStatus":"Named natural stream segment from statewide hydrography","note":"This named natural stream falls within a HUC8 assigned to a cutthroat lineage context.","source_segment_id":"co_named_stream_105151","water_id":"co_price_creek_14050005_greenRiverBlue_001","occurrence_id":"co_price_creek_14050005_greenRiverBlue_001","occurrence_number":"001","segment_count":17,"disambiguator":"Upper White · Green River / blue-lineage CT · occurrence 001","basin":"Upper White","atlas_layer":"named_water_occurrence","object_role":"named_water_occurrence","historic_label":"Green River / blue-lineage CT","current_label":"Green River / blue-lineage CT","recovery_label":"Recovery watch / review area","tier":"tier3","minZoom":14,"confidence_public":"Watershed-level lineage context; expert review recommended","geometry_status_public":"Named natural stream occurrence from statewide hydrography","geometry_source_public":"Grouped public hydrography segments","trout_source_public":"Compiled public recovery and lineage context; expert review recommended","public_notes":"Price Creek is shown as a named-water occurrence within watershed-level cutthroat lineage context. This is not a precise biological boundary."}},{"type":"Feature","geometry":{"type":"LineString","coordinates":[[-108.0729,40.2771],[-108.0789,40.2817]]},"properties":{"source_id":"co_named_stream_105153","name":"Price Creek","display_name":"Price Creek","mapped_name":"Price Creek","source_name":"Price Creek","state":"CO","atlas_class":"named_natural_stream","huc8":"14050005","huc8Name":"Upper White","huc8States":"CO","lineageKey":"greenRiverBlue","lineage":"greenRiverBlue","historic":"greenRiverBlue","current":"greenRiverBlue","recovery":"recoveryWatch","lineageLabel":"Green River / blue-lineage CT","lineageBasin":"Upper White","lineageNote":"White River blue-lineage context","atlas_context":"cutthroat_lineage_context","confidence":"Watershed-level lineage context; expert review recommended","geometryStatus":"Named natural stream segment from statewide hydrography","note":"This named natural stream falls within a HUC8 assigned to a cutthroat lineage context.","source_segment_id":"co_named_stream_105153","water_id":"co_price_creek_14050005_greenRiverBlue_001","occurrence_id":"co_price_creek_14050005_greenRiverBlue_001","occurrence_number":"001","segment_count":17,"disambiguator":"Upper White · Green River / blue-lineage CT · occurrence 001","basin":"Upper White","atlas_layer":"named_water_occurrence","object_role":"named_water_occurrence","historic_label":"Green River / blue-lineage CT","current_label":"Green River / blue-lineage CT","recovery_label":"Recovery watch / review area","tier":"tier3","minZoom":14,"confidence_public":"Watershed-level lineage context; expert review recommended","geometry_status_public":"Named natural stream occurrence from statewide hydrography","geometry_source_public":"Grouped public hydrography segments","trout_source_public":"Compiled public recovery and lineage context; expert review recommended","public_notes":"Price Creek is shown as a named-water occurrence within watershed-level cutthroat lineage context. This is not a precise biological boundary."}},{"type":"Feature","geometry":{"type":"LineString","coordinates":[[-108.0335,40.2629],[-108.0393,40.2613]]},"properties":{"source_id":"co_named_stream_105172","name":"Price Creek","display_name":"Price Creek","mapped_name":"Price Creek","source_name":"Price Creek","state":"CO","atlas_class":"named_natural_stream","huc8":"14050005","huc8Name":"Upper White","huc8States":"CO","lineageKey":"greenRiverBlue","lineage":"greenRiverBlue","historic":"greenRiverBlue","current":"greenRiverBlue","recovery":"recoveryWatch","lineageLabel":"Green River / blue-lineage CT","lineageBasin":"Upper White","lineageNote":"White River blue-lineage context","atlas_context":"cutthroat_lineage_context","confidence":"Watershed-level lineage context; expert review recommended","geometryStatus":"Named natural stream segment from statewide hydrography","note":"This named natural stream falls within a HUC8 assigned to a cutthroat lineage context.","source_segment_id":"co_named_stream_105172","water_id":"co_price_creek_14050005_greenRiverBlue_001","occurrence_id":"co_price_creek_14050005_greenRiverBlue_001","occurrence_number":"001","segment_count":17,"disambiguator":"Upper White · Green River / blue-lineage CT · occurrence 001","basin":"Upper White","atlas_layer":"named_water_occurrence","object_role":"named_water_occurrence","historic_label":"Green River / blue-lineage CT","current_label":"Green River / blue-lineage CT","recovery_label":"Recovery watch / review area","tier":"tier3","minZoom":14,"confidence_public":"Watershed-level lineage context; expert review recommended","geometry_status_public":"Named natural stream occurrence from statewide hydrography","geometry_source_public":"Grouped public hydrography segments","trout_source_public":"Compiled public recovery and lineage context; expert review recommended","public_notes":"Price Creek is shown as a named-water occurrence within watershed-level cutthroat lineage context. This is not a precise biological boundary."}},{"type":"Feature","geometry":{"type":"LineString","coordinates":[[-108.0393,40.2613],[-108.0462,40.2597],[-108.0516,40.2615]]},"properties":{"source_id":"co_named_stream_109097","name":"Price Creek","display_name":"Price Creek","mapped_name":"Price Creek","source_name":"Price Creek","state":"CO","atlas_class":"named_natural_stream","huc8":"14050005","huc8Name":"Upper White","huc8States":"CO","lineageKey":"greenRiverBlue","lineage":"greenRiverBlue","historic":"greenRiverBlue","current":"greenRiverBlue","recovery":"recoveryWatch","lineageLabel":"Green River / blue-lineage CT","lineageBasin":"Upper White","lineageNote":"White River blue-lineage context","atlas_context":"cutthroat_lineage_context","confidence":"Watershed-level lineage context; expert review recommended","geometryStatus":"Named natural stream segment from statewide hydrography","note":"This named natural stream falls within a HUC8 assigned to a cutthroat lineage context.","source_segment_id":"co_named_stream_109097","water_id":"co_price_creek_14050005_greenRiverBlue_001","occurrence_id":"co_price_creek_14050005_greenRiverBlue_001","occurrence_number":"001","segment_count":17,"disambiguator":"Upper White · Green River / blue-lineage CT · occurrence 001","basin":"Upper White","atlas_layer":"named_water_occurrence","object_role":"named_water_occurrence","historic_label":"Green River / blue-lineage CT","current_label":"Green River / blue-lineage CT","recovery_label":"Recovery watch / review area","tier":"tier3","minZoom":14,"confidence_public":"Watershed-level lineage context; expert review recommended","geometry_status_public":"Named natural stream occurrence from statewide hydrography","geometry_source_public":"Grouped public hydrography segments","trout_source_public":"Compiled public recovery and lineage context; expert review recommended","public_notes":"Price Creek is shown as a named-water occurrence within watershed-level cutthroat lineage context. This is not a precise biological boundary."}},{"type":"Feature","geometry":{"type":"LineString","coordinates":[[-108.1081,40.2732],[-108.1158,40.2712]]},"properties":{"source_id":"co_named_stream_109098","name":"Price Creek","display_name":"Price Creek","mapped_name":"Price Creek","source_name":"Price Creek","state":"CO","atlas_class":"named_natural_stream","huc8":"14050005","huc8Name":"Upper White","huc8States":"CO","lineageKey":"greenRiverBlue","lineage":"greenRiverBlue","historic":"greenRiverBlue","current":"greenRiverBlue","recovery":"recoveryWatch","lineageLabel":"Green River / blue-lineage CT","lineageBasin":"Upper White","lineageNote":"White River blue-lineage context","atlas_context":"cutthroat_lineage_context","confidence":"Watershed-level lineage context; expert review recommended","geometryStatus":"Named natural stream segment from statewide hydrography","note":"This named natural stream falls within a HUC8 assigned to a cutthroat lineage context.","source_segment_id":"co_named_stream_109098","water_id":"co_price_creek_14050005_greenRiverBlue_001","occurrence_id":"co_price_creek_14050005_greenRiverBlue_001","occurrence_number":"001","segment_count":17,"disambiguator":"Upper White · Green River / blue-lineage CT · occurrence 001","basin":"Upper White","atlas_layer":"named_water_occurrence","object_role":"named_water_occurrence","historic_label":"Green River / blue-lineage CT","current_label":"Green River / blue-lineage CT","recovery_label":"Recovery watch / review area","tier":"tier3","minZoom":14,"confidence_public":"Watershed-level lineage context; expert review recommended","geometry_status_public":"Named natural stream occurrence from statewide hydrography","geometry_source_public":"Grouped public hydrography segments","trout_source_public":"Compiled public recovery and lineage context; expert review recommended","public_notes":"Price Creek is shown as a named-water occurrence within watershed-level cutthroat lineage context. This is not a precise biological boundary."}},{"type":"Feature","geometry":{"type":"LineString","coordinates":[[-108.0789,40.2817],[-108.0878,40.2858]]},"properties":{"source_id":"co_named_stream_109099","name":"Price Creek","display_name":"Price Creek","mapped_name":"Price Creek","source_name":"Price Creek","state":"CO","atlas_class":"named_natural_stream","huc8":"14050005","huc8Name":"Upper White","huc8States":"CO","lineageKey":"greenRiverBlue","lineage":"greenRiverBlue","historic":"greenRiverBlue","current":"greenRiverBlue","recovery":"recoveryWatch","lineageLabel":"Green River / blue-lineage CT","lineageBasin":"Upper White","lineageNote":"White River blue-lineage context","atlas_context":"cutthroat_lineage_context","confidence":"Watershed-level lineage context; expert review recommended","geometryStatus":"Named natural stream segment from statewide hydrography","note":"This named natural stream falls within a HUC8 assigned to a cutthroat lineage context.","source_segment_id":"co_named_stream_109099","water_id":"co_price_creek_14050005_greenRiverBlue_001","occurrence_id":"co_price_creek_14050005_greenRiverBlue_001","occurrence_number":"001","segment_count":17,"disambiguator":"Upper White · Green River / blue-lineage CT · occurrence 001","basin":"Upper White","atlas_layer":"named_water_occurrence","object_role":"named_water_occurrence","historic_label":"Green River / blue-lineage CT","current_label":"Green River / blue-lineage CT","recovery_label":"Recovery watch / review area","tier":"tier3","minZoom":14,"confidence_public":"Watershed-level lineage context; expert review recommended","geometry_status_public":"Named natural stream occurrence from statewide hydrography","geometry_source_public":"Grouped public hydrography segments","trout_source_public":"Compiled public recovery and lineage context; expert review recommended","public_notes":"Price Creek is shown as a named-water occurrence within watershed-level cutthroat lineage context. This is not a precise biological boundary."}},{"type":"Feature","geometry":{"type":"LineString","coordinates":[[-108.0916,40.2844],[-108.0926,40.2833]]},"properties":{"source_id":"co_named_stream_109100","name":"Price Creek","display_name":"Price Creek","mapped_name":"Price Creek","source_name":"Price Creek","state":"CO","atlas_class":"named_natural_stream","huc8":"14050005","huc8Name":"Upper White","huc8States":"CO","lineageKey":"greenRiverBlue","lineage":"greenRiverBlue","historic":"greenRiverBlue","current":"greenRiverBlue","recovery":"recoveryWatch","lineageLabel":"Green River / blue-lineage CT","lineageBasin":"Upper White","lineageNote":"White River blue-lineage context","atlas_context":"cutthroat_lineage_context","confidence":"Watershed-level lineage context; expert review recommended","geometryStatus":"Named natural stream segment from statewide hydrography","note":"This named natural stream falls within a HUC8 assigned to a cutthroat lineage context.","source_segment_id":"co_named_stream_109100","water_id":"co_price_creek_14050005_greenRiverBlue_001","occurrence_id":"co_price_creek_14050005_greenRiverBlue_001","occurrence_number":"001","segment_count":17,"disambiguator":"Upper White · Green River / blue-lineage CT · occurrence 001","basin":"Upper White","atlas_layer":"named_water_occurrence","object_role":"named_water_occurrence","historic_label":"Green River / blue-lineage CT","current_label":"Green River / blue-lineage CT","recovery_label":"Recovery watch / review area","tier":"tier3","minZoom":14,"confidence_public":"Watershed-level lineage context; expert review recommended","geometry_status_public":"Named natural stream occurrence from statewide hydrography","geometry_source_public":"Grouped public hydrography segments","trout_source_public":"Compiled public recovery and lineage context; expert review recommended","public_notes":"Price Creek is shown as a named-water occurrence within watershed-level cutthroat lineage context. This is not a precise biological boundary."}},{"type":"Feature","geometry":{"type":"LineString","coordinates":[[-108.0516,40.2615],[-108.0546,40.262],[-108.057,40.264]]},"properties":{"source_id":"co_named_stream_109101","name":"Price Creek","display_name":"Price Creek","mapped_name":"Price Creek","source_name":"Price Creek","state":"CO","atlas_class":"named_natural_stream","huc8":"14050005","huc8Name":"Upper White","huc8States":"CO","lineageKey":"greenRiverBlue","lineage":"greenRiverBlue","historic":"greenRiverBlue","current":"greenRiverBlue","recovery":"recoveryWatch","lineageLabel":"Green River / blue-lineage CT","lineageBasin":"Upper White","lineageNote":"White River blue-lineage context","atlas_context":"cutthroat_lineage_context","confidence":"Watershed-level lineage context; expert review recommended","geometryStatus":"Named natural stream segment from statewide hydrography","note":"This named natural stream falls within a HUC8 assigned to a cutthroat lineage context.","source_segment_id":"co_named_stream_109101","water_id":"co_price_creek_14050005_greenRiverBlue_001","occurrence_id":"co_price_creek_14050005_greenRiverBlue_001","occurrence_number":"001","segment_count":17,"disambiguator":"Upper White · Green River / blue-lineage CT · occurrence 001","basin":"Upper White","atlas_layer":"named_water_occurrence","object_role":"named_water_occurrence","historic_label":"Green River / blue-lineage CT","current_label":"Green River / blue-lineage CT","recovery_label":"Recovery watch / review area","tier":"tier3","minZoom":14,"confidence_public":"Watershed-level lineage context; expert review recommended","geometry_status_public":"Named natural stream occurrence from statewide hydrography","geometry_source_public":"Grouped public hydrography segments","trout_source_public":"Compiled public recovery and lineage context; expert review recommended","public_notes":"Price Creek is shown as a named-water occurrence within watershed-level cutthroat lineage context. This is not a precise biological boundary."}},{"type":"Feature","geometry":{"type":"LineString","coordinates":[[-108.0572,40.2642],[-108.0593,40.265],[-108.0622,40.2684]]},"properties":{"source_id":"co_named_stream_109102","name":"Price Creek","display_name":"Price Creek","mapped_name":"Price Creek","source_name":"Price Creek","state":"CO","atlas_class":"named_natural_stream","huc8":"14050005","huc8Name":"Upper White","huc8States":"CO","lineageKey":"greenRiverBlue","lineage":"greenRiverBlue","historic":"greenRiverBlue","current":"greenRiverBlue","recovery":"recoveryWatch","lineageLabel":"Green River / blue-lineage CT","lineageBasin":"Upper White","lineageNote":"White River blue-lineage context","atlas_context":"cutthroat_lineage_context","confidence":"Watershed-level lineage context; expert review recommended","geometryStatus":"Named natural stream segment from statewide hydrography","note":"This named natural stream falls within a HUC8 assigned to a cutthroat lineage context.","source_segment_id":"co_named_stream_109102","water_id":"co_price_creek_14050005_greenRiverBlue_001","occurrence_id":"co_price_creek_14050005_greenRiverBlue_001","occurrence_number":"001","segment_count":17,"disambiguator":"Upper White · Green River / blue-lineage CT · occurrence 001","basin":"Upper White","atlas_layer":"named_water_occurrence","object_role":"named_water_occurrence","historic_label":"Green River / blue-lineage CT","current_label":"Green River / blue-lineage CT","recovery_label":"Recovery watch / review area","tier":"tier3","minZoom":14,"confidence_public":"Watershed-level lineage context; expert review recommended","geometry_status_public":"Named natural stream occurrence from statewide hydrography","geometry_source_public":"Grouped public hydrography segments","trout_source_public":"Compiled public recovery and lineage context; expert review recommended","public_notes":"Price Creek is shown as a named-water occurrence within watershed-level cutthroat lineage context. This is not a precise biological boundary."}},{"type":"Feature","geometry":{"type":"LineString","coordinates":[[-108.0622,40.2684],[-108.069,40.2731]]},"properties":{"source_id":"co_named_stream_109103","name":"Price Creek","display_name":"Price Creek","mapped_name":"Price Creek","source_name":"Price Creek","state":"CO","atlas_class":"named_natural_stream","huc8":"14050005","huc8Name":"Upper White","huc8States":"CO","lineageKey":"greenRiverBlue","lineage":"greenRiverBlue","historic":"greenRiverBlue","current":"greenRiverBlue","recovery":"recoveryWatch","lineageLabel":"Green River / blue-lineage CT","lineageBasin":"Upper White","lineageNote":"White River blue-lineage context","atlas_context":"cutthroat_lineage_context","confidence":"Watershed-level lineage context; expert review recommended","geometryStatus":"Named natural stream segment from statewide hydrography","note":"This named natural stream falls within a HUC8 assigned to a cutthroat lineage context.","source_segment_id":"co_named_stream_109103","water_id":"co_price_creek_14050005_greenRiverBlue_001","occurrence_id":"co_price_creek_14050005_greenRiverBlue_001","occurrence_number":"001","segment_count":17,"disambiguator":"Upper White · Green River / blue-lineage CT · occurrence 001","basin":"Upper White","atlas_layer":"named_water_occurrence","object_role":"named_water_occurrence","historic_label":"Green River / blue-lineage CT","current_label":"Green River / blue-lineage CT","recovery_label":"Recovery watch / review area","tier":"tier3","minZoom":14,"confidence_public":"Watershed-level lineage context; expert review recommended","geometry_status_public":"Named natural stream occurrence from statewide hydrography","geometry_source_public":"Grouped public hydrography segments","trout_source_public":"Compiled public recovery and lineage context; expert review recommended","public_notes":"Price Creek is shown as a named-water occurrence within watershed-level cutthroat lineage context. This is not a precise biological boundary."}},{"type":"Feature","geometry":{"type":"LineString","coordinates":[[-108.1076,40.2737],[-108.1081,40.2732]]},"properties":{"source_id":"co_named_stream_109105","name":"Price Creek","display_name":"Price Creek","mapped_name":"Price Creek","source_name":"Price Creek","state":"CO","atlas_class":"named_natural_stream","huc8":"14050005","huc8Name":"Upper White","huc8States":"CO","lineageKey":"greenRiverBlue","lineage":"greenRiverBlue","historic":"greenRiverBlue","current":"greenRiverBlue","recovery":"recoveryWatch","lineageLabel":"Green River / blue-lineage CT","lineageBasin":"Upper White","lineageNote":"White River blue-lineage context","atlas_context":"cutthroat_lineage_context","confidence":"Watershed-level lineage context; expert review recommended","geometryStatus":"Named natural stream segment from statewide hydrography","note":"This named natural stream falls within a HUC8 assigned to a cutthroat lineage context.","source_segment_id":"co_named_stream_109105","water_id":"co_price_creek_14050005_greenRiverBlue_001","occurrence_id":"co_price_creek_14050005_greenRiverBlue_001","occurrence_number":"001","segment_count":17,"disambiguator":"Upper White · Green River / blue-lineage CT · occurrence 001","basin":"Upper White","atlas_layer":"named_water_occurrence","object_role":"named_water_occurrence","historic_label":"Green River / blue-lineage CT","current_label":"Green River / blue-lineage CT","recovery_label":"Recovery watch / review area","tier":"tier3","minZoom":14,"confidence_public":"Watershed-level lineage context; expert review recommended","geometry_status_public":"Named natural stream occurrence from statewide hydrography","geometry_source_public":"Grouped public hydrography segments","trout_source_public":"Compiled public recovery and lineage context; expert review recommended","public_notes":"Price Creek is shown as a named-water occurrence within watershed-level cutthroat lineage context. This is not a precise biological boundary."}},{"type":"Feature","geometry":{"type":"LineString","coordinates":[[-108.0284,40.2598],[-108.0311,40.2602],[-108.0332,40.2629]]},"properties":{"source_id":"co_named_stream_109106","name":"Price Creek","display_name":"Price Creek","mapped_name":"Price Creek","source_name":"Price Creek","state":"CO","atlas_class":"named_natural_stream","huc8":"14050005","huc8Name":"Upper White","huc8States":"CO","lineageKey":"greenRiverBlue","lineage":"greenRiverBlue","historic":"greenRiverBlue","current":"greenRiverBlue","recovery":"recoveryWatch","lineageLabel":"Green River / blue-lineage CT","lineageBasin":"Upper White","lineageNote":"White River blue-lineage context","atlas_context":"cutthroat_lineage_context","confidence":"Watershed-level lineage context; expert review recommended","geometryStatus":"Named natural stream segment from statewide hydrography","note":"This named natural stream falls within a HUC8 assigned to a cutthroat lineage context.","source_segment_id":"co_named_stream_109106","water_id":"co_price_creek_14050005_greenRiverBlue_001","occurrence_id":"co_price_creek_14050005_greenRiverBlue_001","occurrence_number":"001","segment_count":17,"disambiguator":"Upper White · Green River / blue-lineage CT · occurrence 001","basin":"Upper White","atlas_layer":"named_water_occurrence","object_role":"named_water_occurrence","historic_label":"Green River / blue-lineage CT","current_label":"Green River / blue-lineage CT","recovery_label":"Recovery watch / review area","tier":"tier3","minZoom":14,"confidence_public":"Watershed-level lineage context; expert review recommended","geometry_status_public":"Named natural stream occurrence from statewide hydrography","geometry_source_public":"Grouped public hydrography segments","trout_source_public":"Compiled public recovery and lineage context; expert review recommended","public_notes":"Price Creek is shown as a named-water occurrence within watershed-level cutthroat lineage context. This is not a precise biological boundary."}},{"type":"Feature","geometry":{"type":"LineString","coordinates":[[-108.069,40.2731],[-108.0729,40.2771]]},"properties":{"source_id":"co_named_stream_109107","name":"Price Creek","display_name":"Price Creek","mapped_name":"Price Creek","source_name":"Price Creek","state":"CO","atlas_class":"named_natural_stream","huc8":"14050005","huc8Name":"Upper White","huc8States":"CO","lineageKey":"greenRiverBlue","lineage":"greenRiverBlue","historic":"greenRiverBlue","current":"greenRiverBlue","recovery":"recoveryWatch","lineageLabel":"Green River / blue-lineage CT","lineageBasin":"Upper White","lineageNote":"White River blue-lineage context","atlas_context":"cutthroat_lineage_context","confidence":"Watershed-level lineage context; expert review recommended","geometryStatus":"Named natural stream segment from statewide hydrography","note":"This named natural stream falls within a HUC8 assigned to a cutthroat lineage context.","source_segment_id":"co_named_stream_109107","water_id":"co_price_creek_14050005_greenRiverBlue_001","occurrence_id":"co_price_creek_14050005_greenRiverBlue_001","occurrence_number":"001","segment_count":17,"disambiguator":"Upper White · Green River / blue-lineage CT · occurrence 001","basin":"Upper White","atlas_layer":"named_water_occurrence","object_role":"named_water_occurrence","historic_label":"Green River / blue-lineage CT","current_label":"Green River / blue-lineage CT","recovery_label":"Recovery watch / review area","tier":"tier3","minZoom":14,"confidence_public":"Watershed-level lineage context; expert review recommended","geometry_status_public":"Named natural stream occurrence from statewide hydrography","geometry_source_public":"Grouped public hydrography segments","trout_source_public":"Compiled public recovery and lineage context; expert review recommended","public_notes":"Price Creek is shown as a named-water occurrence within watershed-level cutthroat lineage context. This is not a precise biological boundary."}},{"type":"Feature","geometry":{"type":"LineString","coordinates":[[-108.1013,40.2767],[-108.1024,40.2758],[-108.105,40.2757]]},"properties":{"source_id":"co_named_stream_109108","name":"Price Creek","display_name":"Price Creek","mapped_name":"Price Creek","source_name":"Price Creek","state":"CO","atlas_class":"named_natural_stream","huc8":"14050005","huc8Name":"Upper White","huc8States":"CO","lineageKey":"greenRiverBlue","lineage":"greenRiverBlue","historic":"greenRiverBlue","current":"greenRiverBlue","recovery":"recoveryWatch","lineageLabel":"Green River / blue-lineage CT","lineageBasin":"Upper White","lineageNote":"White River blue-lineage context","atlas_context":"cutthroat_lineage_context","confidence":"Watershed-level lineage context; expert review recommended","geometryStatus":"Named natural stream segment from statewide hydrography","note":"This named natural stream falls within a HUC8 assigned to a cutthroat lineage context.","source_segment_id":"co_named_stream_109108","water_id":"co_price_creek_14050005_greenRiverBlue_001","occurrence_id":"co_price_creek_14050005_greenRiverBlue_001","occurrence_number":"001","segment_count":17,"disambiguator":"Upper White · Green River / blue-lineage CT · occurrence 001","basin":"Upper White","atlas_layer":"named_water_occurrence","object_role":"named_water_occurrence","historic_label":"Green River / blue-lineage CT","current_label":"Green River / blue-lineage CT","recovery_label":"Recovery watch / review area","tier":"tier3","minZoom":14,"confidence_public":"Watershed-level lineage context; expert review recommended","geometry_status_public":"Named natural stream occurrence from statewide hydrography","geometry_source_public":"Grouped public hydrography segments","trout_source_public":"Compiled public recovery and lineage context; expert review recommended","public_notes":"Price Creek is shown as a named-water occurrence within watershed-level cutthroat lineage context. This is not a precise biological boundary."}},{"type":"Feature","geometry":{"type":"LineString","coordinates":[[-108.0947,40.2817],[-108.0994,40.2763],[-108.1008,40.2767]]},"properties":{"source_id":"co_named_stream_109110","name":"Price Creek","display_name":"Price Creek","mapped_name":"Price Creek","source_name":"Price Creek","state":"CO","atlas_class":"named_natural_stream","huc8":"14050005","huc8Name":"Upper White","huc8States":"CO","lineageKey":"greenRiverBlue","lineage":"greenRiverBlue","historic":"greenRiverBlue","current":"greenRiverBlue","recovery":"recoveryWatch","lineageLabel":"Green River / blue-lineage CT","lineageBasin":"Upper White","lineageNote":"White River blue-lineage context","atlas_context":"cutthroat_lineage_context","confidence":"Watershed-level lineage context; expert review recommended","geometryStatus":"Named natural stream segment from statewide hydrography","note":"This named natural stream falls within a HUC8 assigned to a cutthroat lineage context.","source_segment_id":"co_named_stream_109110","water_id":"co_price_creek_14050005_greenRiverBlue_001","occurrence_id":"co_price_creek_14050005_greenRiverBlue_001","occurrence_number":"001","segment_count":17,"disambiguator":"Upper White · Green River / blue-lineage CT · occurrence 001","basin":"Upper White","atlas_layer":"named_water_occurrence","object_role":"named_water_occurrence","historic_label":"Green River / blue-lineage CT","current_label":"Green River / blue-lineage CT","recovery_label":"Recovery watch / review area","tier":"tier3","minZoom":14,"confidence_public":"Watershed-level lineage context; expert review recommended","geometry_status_public":"Named natural stream occurrence from statewide hydrography","geometry_source_public":"Grouped public hydrography segments","trout_source_public":"Compiled public recovery and lineage context; expert review recommended","public_notes":"Price Creek is shown as a named-water occurrence within watershed-level cutthroat lineage context. This is not a precise biological boundary."}}]}