{"type":"FeatureCollection","metadata":{"source":"C:\\ct-atlas-data\\processed\\geojson\\interpreted\\colorado_named_natural_streams_complete_v1.geojson","tier":"tier3","tile_size_degrees":0.25,"x":-418,"y":147,"bounds":{"west":-104.5,"south":36.75,"east":-104.25,"north":37}},"features":[{"type":"Feature","geometry":{"type":"LineString","coordinates":[[-104.2748,36.9961],[-104.274,36.9943]]},"properties":{"source_id":"co_named_stream_040486","name":"Bear Canyon","display_name":"Bear Canyon","mapped_name":"Bear Canyon","source_name":"Bear Canyon","state":"CO","atlas_class":"named_natural_stream","huc8":"11020010","huc8Name":"Purgatoire","huc8States":"CO,NM","lineageKey":"yellowfin","lineage":"yellowfin","historic":"yellowfin","current":"yellowfin","recovery":"recoveryWatch","lineageLabel":"Yellowfin / Arkansas headwaters historical form","lineageBasin":"Purgatoire","lineageNote":"Arkansas basin historical Yellowfin context; review needed","atlas_context":"cutthroat_lineage_context","confidence":"Watershed-level lineage context; expert review recommended","geometryStatus":"Named natural stream segment from statewide hydrography","note":"This named natural stream falls within a HUC8 assigned to a cutthroat lineage context.","source_segment_id":"co_named_stream_040486","water_id":"co_bear_canyon_11020010_yellowfin_001","occurrence_id":"co_bear_canyon_11020010_yellowfin_001","occurrence_number":"001","segment_count":2,"disambiguator":"Purgatoire · Yellowfin / Arkansas headwaters historical form · occurrence 001","basin":"Purgatoire","atlas_layer":"named_water_occurrence","object_role":"named_water_occurrence","historic_label":"Yellowfin / Arkansas headwaters historical form","current_label":"Yellowfin / Arkansas headwaters historical form","recovery_label":"Recovery watch / review area","tier":"tier3","minZoom":14,"confidence_public":"Watershed-level lineage context; expert review recommended","geometry_status_public":"Named natural stream occurrence from statewide hydrography","geometry_source_public":"Grouped public hydrography segments","trout_source_public":"Compiled public recovery and lineage context; expert review recommended","public_notes":"Bear Canyon is shown as a named-water occurrence within watershed-level cutthroat lineage context. This is not a precise biological boundary."}},{"type":"Feature","geometry":{"type":"LineString","coordinates":[[-104.3103,37.0047],[-104.3069,37.0036],[-104.3043,37.004],[-104.2972,37.0017],[-104.2935,37.0018],[-104.2918,37.0007],[-104.2873,37.0009],[-104.284,36.9987],[-104.2787,36.9979],[-104.2748,36.9961]]},"properties":{"source_id":"co_named_stream_049260","name":"Bear Canyon","display_name":"Bear Canyon","mapped_name":"Bear Canyon","source_name":"Bear Canyon","state":"CO","atlas_class":"named_natural_stream","huc8":"11020010","huc8Name":"Purgatoire","huc8States":"CO,NM","lineageKey":"yellowfin","lineage":"yellowfin","historic":"yellowfin","current":"yellowfin","recovery":"recoveryWatch","lineageLabel":"Yellowfin / Arkansas headwaters historical form","lineageBasin":"Purgatoire","lineageNote":"Arkansas basin historical Yellowfin context; review needed","atlas_context":"cutthroat_lineage_context","confidence":"Watershed-level lineage context; expert review recommended","geometryStatus":"Named natural stream segment from statewide hydrography","note":"This named natural stream falls within a HUC8 assigned to a cutthroat lineage context.","source_segment_id":"co_named_stream_049260","water_id":"co_bear_canyon_11020010_yellowfin_001","occurrence_id":"co_bear_canyon_11020010_yellowfin_001","occurrence_number":"001","segment_count":2,"disambiguator":"Purgatoire · Yellowfin / Arkansas headwaters historical form · occurrence 001","basin":"Purgatoire","atlas_layer":"named_water_occurrence","object_role":"named_water_occurrence","historic_label":"Yellowfin / Arkansas headwaters historical form","current_label":"Yellowfin / Arkansas headwaters historical form","recovery_label":"Recovery watch / review area","tier":"tier3","minZoom":14,"confidence_public":"Watershed-level lineage context; expert review recommended","geometry_status_public":"Named natural stream occurrence from statewide hydrography","geometry_source_public":"Grouped public hydrography segments","trout_source_public":"Compiled public recovery and lineage context; expert review recommended","public_notes":"Bear Canyon is shown as a named-water occurrence within watershed-level cutthroat lineage context. This is not a precise biological boundary."}}]}