{"type":"FeatureCollection","metadata":{"source":"C:\\ct-atlas-data\\processed\\geojson\\interpreted\\colorado_named_natural_streams_complete_v1.geojson","tier":"tier3","tile_size_degrees":0.25,"x":-420,"y":163,"bounds":{"west":-105,"south":40.75,"east":-104.75,"north":41}},"features":[{"type":"Feature","geometry":{"type":"LineString","coordinates":[[-104.9949,40.808],[-104.9937,40.8075],[-104.994,40.8055],[-104.993,40.8047]]},"properties":{"source_id":"co_named_stream_010181","name":"Coal Creek","display_name":"Coal Creek","mapped_name":"Coal Creek","source_name":"Coal Creek","state":"CO","atlas_class":"named_natural_stream","huc8":"10190007","huc8Name":"Cache La Poudre","huc8States":"CO,WY","lineageKey":"greenback","lineage":"greenback","historic":"greenback","current":"greenback","recovery":"recoveryWatch","lineageLabel":"Greenback / South Platte lineage","lineageBasin":"Cache La Poudre","lineageNote":"Front Range South Platte tributary context","atlas_context":"cutthroat_lineage_context","confidence":"Watershed-level lineage context; expert review recommended","geometryStatus":"Named natural stream segment from statewide hydrography","note":"This named natural stream falls within a HUC8 assigned to a cutthroat lineage context.","source_segment_id":"co_named_stream_010181","water_id":"co_coal_creek_10190007_greenback_001","occurrence_id":"co_coal_creek_10190007_greenback_001","occurrence_number":"001","segment_count":19,"disambiguator":"Cache La Poudre · Greenback / South Platte lineage · occurrence 001","basin":"Cache La Poudre","atlas_layer":"named_water_occurrence","object_role":"named_water_occurrence","historic_label":"Greenback / South Platte lineage","current_label":"Greenback / South Platte lineage","recovery_label":"Recovery watch / review area","tier":"tier3","minZoom":14,"confidence_public":"Watershed-level lineage context; expert review recommended","geometry_status_public":"Named natural stream occurrence from statewide hydrography","geometry_source_public":"Grouped public hydrography segments","trout_source_public":"Compiled public recovery and lineage context; expert review recommended","public_notes":"Coal Creek is shown as a named-water occurrence within watershed-level cutthroat lineage context. This is not a precise biological boundary."}},{"type":"Feature","geometry":{"type":"LineString","coordinates":[[-104.9924,40.8],[-104.9927,40.798],[-104.9937,40.7981],[-104.994,40.7949]]},"properties":{"source_id":"co_named_stream_010182","name":"Coal Creek","display_name":"Coal Creek","mapped_name":"Coal Creek","source_name":"Coal Creek","state":"CO","atlas_class":"named_natural_stream","huc8":"10190007","huc8Name":"Cache La Poudre","huc8States":"CO,WY","lineageKey":"greenback","lineage":"greenback","historic":"greenback","current":"greenback","recovery":"recoveryWatch","lineageLabel":"Greenback / South Platte lineage","lineageBasin":"Cache La Poudre","lineageNote":"Front Range South Platte tributary context","atlas_context":"cutthroat_lineage_context","confidence":"Watershed-level lineage context; expert review recommended","geometryStatus":"Named natural stream segment from statewide hydrography","note":"This named natural stream falls within a HUC8 assigned to a cutthroat lineage context.","source_segment_id":"co_named_stream_010182","water_id":"co_coal_creek_10190007_greenback_001","occurrence_id":"co_coal_creek_10190007_greenback_001","occurrence_number":"001","segment_count":19,"disambiguator":"Cache La Poudre · Greenback / South Platte lineage · occurrence 001","basin":"Cache La Poudre","atlas_layer":"named_water_occurrence","object_role":"named_water_occurrence","historic_label":"Greenback / South Platte lineage","current_label":"Greenback / South Platte lineage","recovery_label":"Recovery watch / review area","tier":"tier3","minZoom":14,"confidence_public":"Watershed-level lineage context; expert review recommended","geometry_status_public":"Named natural stream occurrence from statewide hydrography","geometry_source_public":"Grouped public hydrography segments","trout_source_public":"Compiled public recovery and lineage context; expert review recommended","public_notes":"Coal Creek is shown as a named-water occurrence within watershed-level cutthroat lineage context. This is not a precise biological boundary."}},{"type":"Feature","geometry":{"type":"LineString","coordinates":[[-104.994,40.7949],[-104.9923,40.7939],[-104.9931,40.7924],[-104.9928,40.7896],[-104.9953,40.787],[-104.9927,40.7869],[-104.9959,40.7853]]},"properties":{"source_id":"co_named_stream_010462","name":"Coal Creek","display_name":"Coal Creek","mapped_name":"Coal Creek","source_name":"Coal Creek","state":"CO","atlas_class":"named_natural_stream","huc8":"10190007","huc8Name":"Cache La Poudre","huc8States":"CO,WY","lineageKey":"greenback","lineage":"greenback","historic":"greenback","current":"greenback","recovery":"recoveryWatch","lineageLabel":"Greenback / South Platte lineage","lineageBasin":"Cache La Poudre","lineageNote":"Front Range South Platte tributary context","atlas_context":"cutthroat_lineage_context","confidence":"Watershed-level lineage context; expert review recommended","geometryStatus":"Named natural stream segment from statewide hydrography","note":"This named natural stream falls within a HUC8 assigned to a cutthroat lineage context.","source_segment_id":"co_named_stream_010462","water_id":"co_coal_creek_10190007_greenback_001","occurrence_id":"co_coal_creek_10190007_greenback_001","occurrence_number":"001","segment_count":19,"disambiguator":"Cache La Poudre · Greenback / South Platte lineage · occurrence 001","basin":"Cache La Poudre","atlas_layer":"named_water_occurrence","object_role":"named_water_occurrence","historic_label":"Greenback / South Platte lineage","current_label":"Greenback / South Platte lineage","recovery_label":"Recovery watch / review area","tier":"tier3","minZoom":14,"confidence_public":"Watershed-level lineage context; expert review recommended","geometry_status_public":"Named natural stream occurrence from statewide hydrography","geometry_source_public":"Grouped public hydrography segments","trout_source_public":"Compiled public recovery and lineage context; expert review recommended","public_notes":"Coal Creek is shown as a named-water occurrence within watershed-level cutthroat lineage context. This is not a precise biological boundary."}},{"type":"Feature","geometry":{"type":"LineString","coordinates":[[-104.9941,40.8147],[-104.9956,40.812],[-104.9952,40.8102],[-104.9979,40.8092]]},"properties":{"source_id":"co_named_stream_010463","name":"Coal Creek","display_name":"Coal Creek","mapped_name":"Coal Creek","source_name":"Coal Creek","state":"CO","atlas_class":"named_natural_stream","huc8":"10190007","huc8Name":"Cache La Poudre","huc8States":"CO,WY","lineageKey":"greenback","lineage":"greenback","historic":"greenback","current":"greenback","recovery":"recoveryWatch","lineageLabel":"Greenback / South Platte lineage","lineageBasin":"Cache La Poudre","lineageNote":"Front Range South Platte tributary context","atlas_context":"cutthroat_lineage_context","confidence":"Watershed-level lineage context; expert review recommended","geometryStatus":"Named natural stream segment from statewide hydrography","note":"This named natural stream falls within a HUC8 assigned to a cutthroat lineage context.","source_segment_id":"co_named_stream_010463","water_id":"co_coal_creek_10190007_greenback_001","occurrence_id":"co_coal_creek_10190007_greenback_001","occurrence_number":"001","segment_count":19,"disambiguator":"Cache La Poudre · Greenback / South Platte lineage · occurrence 001","basin":"Cache La Poudre","atlas_layer":"named_water_occurrence","object_role":"named_water_occurrence","historic_label":"Greenback / South Platte lineage","current_label":"Greenback / South Platte lineage","recovery_label":"Recovery watch / review area","tier":"tier3","minZoom":14,"confidence_public":"Watershed-level lineage context; expert review recommended","geometry_status_public":"Named natural stream occurrence from statewide hydrography","geometry_source_public":"Grouped public hydrography segments","trout_source_public":"Compiled public recovery and lineage context; expert review recommended","public_notes":"Coal Creek is shown as a named-water occurrence within watershed-level cutthroat lineage context. This is not a precise biological boundary."}},{"type":"Feature","geometry":{"type":"LineString","coordinates":[[-104.9994,40.8212],[-104.9999,40.8207],[-104.9987,40.8191],[-104.9958,40.8193],[-104.9941,40.8147]]},"properties":{"source_id":"co_named_stream_013702","name":"Coal Creek","display_name":"Coal Creek","mapped_name":"Coal Creek","source_name":"Coal Creek","state":"CO","atlas_class":"named_natural_stream","huc8":"10190007","huc8Name":"Cache La Poudre","huc8States":"CO,WY","lineageKey":"greenback","lineage":"greenback","historic":"greenback","current":"greenback","recovery":"recoveryWatch","lineageLabel":"Greenback / South Platte lineage","lineageBasin":"Cache La Poudre","lineageNote":"Front Range South Platte tributary context","atlas_context":"cutthroat_lineage_context","confidence":"Watershed-level lineage context; expert review recommended","geometryStatus":"Named natural stream segment from statewide hydrography","note":"This named natural stream falls within a HUC8 assigned to a cutthroat lineage context.","source_segment_id":"co_named_stream_013702","water_id":"co_coal_creek_10190007_greenback_001","occurrence_id":"co_coal_creek_10190007_greenback_001","occurrence_number":"001","segment_count":19,"disambiguator":"Cache La Poudre · Greenback / South Platte lineage · occurrence 001","basin":"Cache La Poudre","atlas_layer":"named_water_occurrence","object_role":"named_water_occurrence","historic_label":"Greenback / South Platte lineage","current_label":"Greenback / South Platte lineage","recovery_label":"Recovery watch / review area","tier":"tier3","minZoom":14,"confidence_public":"Watershed-level lineage context; expert review recommended","geometry_status_public":"Named natural stream occurrence from statewide hydrography","geometry_source_public":"Grouped public hydrography segments","trout_source_public":"Compiled public recovery and lineage context; expert review recommended","public_notes":"Coal Creek is shown as a named-water occurrence within watershed-level cutthroat lineage context. This is not a precise biological boundary."}},{"type":"Feature","geometry":{"type":"LineString","coordinates":[[-104.9934,40.8016],[-104.9924,40.8]]},"properties":{"source_id":"co_named_stream_019768","name":"Coal Creek","display_name":"Coal Creek","mapped_name":"Coal Creek","source_name":"Coal Creek","state":"CO","atlas_class":"named_natural_stream","huc8":"10190007","huc8Name":"Cache La Poudre","huc8States":"CO,WY","lineageKey":"greenback","lineage":"greenback","historic":"greenback","current":"greenback","recovery":"recoveryWatch","lineageLabel":"Greenback / South Platte lineage","lineageBasin":"Cache La Poudre","lineageNote":"Front Range South Platte tributary context","atlas_context":"cutthroat_lineage_context","confidence":"Watershed-level lineage context; expert review recommended","geometryStatus":"Named natural stream segment from statewide hydrography","note":"This named natural stream falls within a HUC8 assigned to a cutthroat lineage context.","source_segment_id":"co_named_stream_019768","water_id":"co_coal_creek_10190007_greenback_001","occurrence_id":"co_coal_creek_10190007_greenback_001","occurrence_number":"001","segment_count":19,"disambiguator":"Cache La Poudre · Greenback / South Platte lineage · occurrence 001","basin":"Cache La Poudre","atlas_layer":"named_water_occurrence","object_role":"named_water_occurrence","historic_label":"Greenback / South Platte lineage","current_label":"Greenback / South Platte lineage","recovery_label":"Recovery watch / review area","tier":"tier3","minZoom":14,"confidence_public":"Watershed-level lineage context; expert review recommended","geometry_status_public":"Named natural stream occurrence from statewide hydrography","geometry_source_public":"Grouped public hydrography segments","trout_source_public":"Compiled public recovery and lineage context; expert review recommended","public_notes":"Coal Creek is shown as a named-water occurrence within watershed-level cutthroat lineage context. This is not a precise biological boundary."}},{"type":"Feature","geometry":{"type":"LineString","coordinates":[[-104.9979,40.8092],[-104.9992,40.8089],[-104.9991,40.8073],[-104.9949,40.808]]},"properties":{"source_id":"co_named_stream_021237","name":"Coal Creek","display_name":"Coal Creek","mapped_name":"Coal Creek","source_name":"Coal Creek","state":"CO","atlas_class":"named_natural_stream","huc8":"10190007","huc8Name":"Cache La Poudre","huc8States":"CO,WY","lineageKey":"greenback","lineage":"greenback","historic":"greenback","current":"greenback","recovery":"recoveryWatch","lineageLabel":"Greenback / South Platte lineage","lineageBasin":"Cache La Poudre","lineageNote":"Front Range South Platte tributary context","atlas_context":"cutthroat_lineage_context","confidence":"Watershed-level lineage context; expert review recommended","geometryStatus":"Named natural stream segment from statewide hydrography","note":"This named natural stream falls within a HUC8 assigned to a cutthroat lineage context.","source_segment_id":"co_named_stream_021237","water_id":"co_coal_creek_10190007_greenback_001","occurrence_id":"co_coal_creek_10190007_greenback_001","occurrence_number":"001","segment_count":19,"disambiguator":"Cache La Poudre · Greenback / South Platte lineage · occurrence 001","basin":"Cache La Poudre","atlas_layer":"named_water_occurrence","object_role":"named_water_occurrence","historic_label":"Greenback / South Platte lineage","current_label":"Greenback / South Platte lineage","recovery_label":"Recovery watch / review area","tier":"tier3","minZoom":14,"confidence_public":"Watershed-level lineage context; expert review recommended","geometry_status_public":"Named natural stream occurrence from statewide hydrography","geometry_source_public":"Grouped public hydrography segments","trout_source_public":"Compiled public recovery and lineage context; expert review recommended","public_notes":"Coal Creek is shown as a named-water occurrence within watershed-level cutthroat lineage context. This is not a precise biological boundary."}},{"type":"Feature","geometry":{"type":"LineString","coordinates":[[-105.008,40.8546],[-105.0033,40.8534],[-104.9981,40.8503]]},"properties":{"source_id":"co_named_stream_021257","name":"Coal Creek","display_name":"Coal Creek","mapped_name":"Coal Creek","source_name":"Coal Creek","state":"CO","atlas_class":"named_natural_stream","huc8":"10190007","huc8Name":"Cache La Poudre","huc8States":"CO,WY","lineageKey":"greenback","lineage":"greenback","historic":"greenback","current":"greenback","recovery":"recoveryWatch","lineageLabel":"Greenback / South Platte lineage","lineageBasin":"Cache La Poudre","lineageNote":"Front Range South Platte tributary context","atlas_context":"cutthroat_lineage_context","confidence":"Watershed-level lineage context; expert review recommended","geometryStatus":"Named natural stream segment from statewide hydrography","note":"This named natural stream falls within a HUC8 assigned to a cutthroat lineage context.","source_segment_id":"co_named_stream_021257","water_id":"co_coal_creek_10190007_greenback_001","occurrence_id":"co_coal_creek_10190007_greenback_001","occurrence_number":"001","segment_count":19,"disambiguator":"Cache La Poudre · Greenback / South Platte lineage · occurrence 001","basin":"Cache La Poudre","atlas_layer":"named_water_occurrence","object_role":"named_water_occurrence","historic_label":"Greenback / South Platte lineage","current_label":"Greenback / South Platte lineage","recovery_label":"Recovery watch / review area","tier":"tier3","minZoom":14,"confidence_public":"Watershed-level lineage context; expert review recommended","geometry_status_public":"Named natural stream occurrence from statewide hydrography","geometry_source_public":"Grouped public hydrography segments","trout_source_public":"Compiled public recovery and lineage context; expert review recommended","public_notes":"Coal Creek is shown as a named-water occurrence within watershed-level cutthroat lineage context. This is not a precise biological boundary."}},{"type":"Feature","geometry":{"type":"LineString","coordinates":[[-104.9955,40.7762],[-105.0009,40.7742],[-105.0016,40.773],[-105.0008,40.7701],[-104.9977,40.7673],[-104.9983,40.7653],[-104.9971,40.7636],[-104.9998,40.761],[-105.0024,40.7554]]},"properties":{"source_id":"co_named_stream_024404","name":"Coal Creek","display_name":"Coal Creek","mapped_name":"Coal Creek","source_name":"Coal Creek","state":"CO","atlas_class":"named_natural_stream","huc8":"10190007","huc8Name":"Cache La Poudre","huc8States":"CO,WY","lineageKey":"greenback","lineage":"greenback","historic":"greenback","current":"greenback","recovery":"recoveryWatch","lineageLabel":"Greenback / South Platte lineage","lineageBasin":"Cache La Poudre","lineageNote":"Front Range South Platte tributary context","atlas_context":"cutthroat_lineage_context","confidence":"Watershed-level lineage context; expert review recommended","geometryStatus":"Named natural stream segment from statewide hydrography","note":"This named natural stream falls within a HUC8 assigned to a cutthroat lineage context.","source_segment_id":"co_named_stream_024404","water_id":"co_coal_creek_10190007_greenback_001","occurrence_id":"co_coal_creek_10190007_greenback_001","occurrence_number":"001","segment_count":19,"disambiguator":"Cache La Poudre · Greenback / South Platte lineage · occurrence 001","basin":"Cache La Poudre","atlas_layer":"named_water_occurrence","object_role":"named_water_occurrence","historic_label":"Greenback / South Platte lineage","current_label":"Greenback / South Platte lineage","recovery_label":"Recovery watch / review area","tier":"tier3","minZoom":14,"confidence_public":"Watershed-level lineage context; expert review recommended","geometry_status_public":"Named natural stream occurrence from statewide hydrography","geometry_source_public":"Grouped public hydrography segments","trout_source_public":"Compiled public recovery and lineage context; expert review recommended","public_notes":"Coal Creek is shown as a named-water occurrence within watershed-level cutthroat lineage context. This is not a precise biological boundary."}},{"type":"Feature","geometry":{"type":"LineString","coordinates":[[-104.993,40.8047],[-104.9925,40.8039],[-104.9934,40.8016]]},"properties":{"source_id":"co_named_stream_024405","name":"Coal Creek","display_name":"Coal Creek","mapped_name":"Coal Creek","source_name":"Coal Creek","state":"CO","atlas_class":"named_natural_stream","huc8":"10190007","huc8Name":"Cache La Poudre","huc8States":"CO,WY","lineageKey":"greenback","lineage":"greenback","historic":"greenback","current":"greenback","recovery":"recoveryWatch","lineageLabel":"Greenback / South Platte lineage","lineageBasin":"Cache La Poudre","lineageNote":"Front Range South Platte tributary context","atlas_context":"cutthroat_lineage_context","confidence":"Watershed-level lineage context; expert review recommended","geometryStatus":"Named natural stream segment from statewide hydrography","note":"This named natural stream falls within a HUC8 assigned to a cutthroat lineage context.","source_segment_id":"co_named_stream_024405","water_id":"co_coal_creek_10190007_greenback_001","occurrence_id":"co_coal_creek_10190007_greenback_001","occurrence_number":"001","segment_count":19,"disambiguator":"Cache La Poudre · Greenback / South Platte lineage · occurrence 001","basin":"Cache La Poudre","atlas_layer":"named_water_occurrence","object_role":"named_water_occurrence","historic_label":"Greenback / South Platte lineage","current_label":"Greenback / South Platte lineage","recovery_label":"Recovery watch / review area","tier":"tier3","minZoom":14,"confidence_public":"Watershed-level lineage context; expert review recommended","geometry_status_public":"Named natural stream occurrence from statewide hydrography","geometry_source_public":"Grouped public hydrography segments","trout_source_public":"Compiled public recovery and lineage context; expert review recommended","public_notes":"Coal Creek is shown as a named-water occurrence within watershed-level cutthroat lineage context. This is not a precise biological boundary."}},{"type":"Feature","geometry":{"type":"LineString","coordinates":[[-104.9981,40.8503],[-104.9969,40.849],[-104.9969,40.8473],[-104.9958,40.8467],[-104.9963,40.8454],[-104.9943,40.8441],[-104.9942,40.8418],[-104.9961,40.8403],[-104.9952,40.8392],[-104.9965,40.8384],[-104.9939,40.8374],[-104.993,40.8351],[-104.9893,40.8356],[-104.9879,40.8343],[-104.9893,40.8333],[-104.9916,40.8335],[-104.9922,40.8309],[-104.9947,40.8305],[-104.9934,40.8275],[-104.9969,40.824],[-104.9971,40.822],[-104.9994,40.8212]]},"properties":{"source_id":"co_named_stream_024654","name":"Coal Creek","display_name":"Coal Creek","mapped_name":"Coal Creek","source_name":"Coal Creek","state":"CO","atlas_class":"named_natural_stream","huc8":"10190007","huc8Name":"Cache La Poudre","huc8States":"CO,WY","lineageKey":"greenback","lineage":"greenback","historic":"greenback","current":"greenback","recovery":"recoveryWatch","lineageLabel":"Greenback / South Platte lineage","lineageBasin":"Cache La Poudre","lineageNote":"Front Range South Platte tributary context","atlas_context":"cutthroat_lineage_context","confidence":"Watershed-level lineage context; expert review recommended","geometryStatus":"Named natural stream segment from statewide hydrography","note":"This named natural stream falls within a HUC8 assigned to a cutthroat lineage context.","source_segment_id":"co_named_stream_024654","water_id":"co_coal_creek_10190007_greenback_001","occurrence_id":"co_coal_creek_10190007_greenback_001","occurrence_number":"001","segment_count":19,"disambiguator":"Cache La Poudre · Greenback / South Platte lineage · occurrence 001","basin":"Cache La Poudre","atlas_layer":"named_water_occurrence","object_role":"named_water_occurrence","historic_label":"Greenback / South Platte lineage","current_label":"Greenback / South Platte lineage","recovery_label":"Recovery watch / review area","tier":"tier3","minZoom":14,"confidence_public":"Watershed-level lineage context; expert review recommended","geometry_status_public":"Named natural stream occurrence from statewide hydrography","geometry_source_public":"Grouped public hydrography segments","trout_source_public":"Compiled public recovery and lineage context; expert review recommended","public_notes":"Coal Creek is shown as a named-water occurrence within watershed-level cutthroat lineage context. This is not a precise biological boundary."}},{"type":"Feature","geometry":{"type":"LineString","coordinates":[[-104.9977,40.7832],[-104.9986,40.7821],[-104.9984,40.7806],[-104.996,40.7796]]},"properties":{"source_id":"co_named_stream_010178","name":"Coal Creek","display_name":"Coal Creek","mapped_name":"Coal Creek","source_name":"Coal Creek","state":"CO","atlas_class":"named_natural_stream","huc8":"10190007","huc8Name":"Cache La Poudre","huc8States":"CO,WY","lineageKey":"greenback","lineage":"greenback","historic":"greenback","current":"greenback","recovery":"recoveryWatch","lineageLabel":"Greenback / South Platte lineage","lineageBasin":"Cache La Poudre","lineageNote":"Front Range South Platte tributary context","atlas_context":"cutthroat_lineage_context","confidence":"Watershed-level lineage context; expert review recommended","geometryStatus":"Named natural stream segment from statewide hydrography","note":"This named natural stream falls within a HUC8 assigned to a cutthroat lineage context.","source_segment_id":"co_named_stream_010178","water_id":"co_coal_creek_10190007_greenback_002","occurrence_id":"co_coal_creek_10190007_greenback_002","occurrence_number":"002","segment_count":3,"disambiguator":"Cache La Poudre · Greenback / South Platte lineage · occurrence 002","basin":"Cache La Poudre","atlas_layer":"named_water_occurrence","object_role":"named_water_occurrence","historic_label":"Greenback / South Platte lineage","current_label":"Greenback / South Platte lineage","recovery_label":"Recovery watch / review area","tier":"tier3","minZoom":14,"confidence_public":"Watershed-level lineage context; expert review recommended","geometry_status_public":"Named natural stream occurrence from statewide hydrography","geometry_source_public":"Grouped public hydrography segments","trout_source_public":"Compiled public recovery and lineage context; expert review recommended","public_notes":"Coal Creek is shown as a named-water occurrence within watershed-level cutthroat lineage context. This is not a precise biological boundary."}},{"type":"Feature","geometry":{"type":"LineString","coordinates":[[-104.9959,40.7853],[-104.9977,40.7832]]},"properties":{"source_id":"co_named_stream_010179","name":"Coal Creek","display_name":"Coal Creek","mapped_name":"Coal Creek","source_name":"Coal Creek","state":"CO","atlas_class":"named_natural_stream","huc8":"10190007","huc8Name":"Cache La Poudre","huc8States":"CO,WY","lineageKey":"greenback","lineage":"greenback","historic":"greenback","current":"greenback","recovery":"recoveryWatch","lineageLabel":"Greenback / South Platte lineage","lineageBasin":"Cache La Poudre","lineageNote":"Front Range South Platte tributary context","atlas_context":"cutthroat_lineage_context","confidence":"Watershed-level lineage context; expert review recommended","geometryStatus":"Named natural stream segment from statewide hydrography","note":"This named natural stream falls within a HUC8 assigned to a cutthroat lineage context.","source_segment_id":"co_named_stream_010179","water_id":"co_coal_creek_10190007_greenback_002","occurrence_id":"co_coal_creek_10190007_greenback_002","occurrence_number":"002","segment_count":3,"disambiguator":"Cache La Poudre · Greenback / South Platte lineage · occurrence 002","basin":"Cache La Poudre","atlas_layer":"named_water_occurrence","object_role":"named_water_occurrence","historic_label":"Greenback / South Platte lineage","current_label":"Greenback / South Platte lineage","recovery_label":"Recovery watch / review area","tier":"tier3","minZoom":14,"confidence_public":"Watershed-level lineage context; expert review recommended","geometry_status_public":"Named natural stream occurrence from statewide hydrography","geometry_source_public":"Grouped public hydrography segments","trout_source_public":"Compiled public recovery and lineage context; expert review recommended","public_notes":"Coal Creek is shown as a named-water occurrence within watershed-level cutthroat lineage context. This is not a precise biological boundary."}},{"type":"Feature","geometry":{"type":"LineString","coordinates":[[-104.996,40.7796],[-104.9967,40.7776],[-104.9955,40.7762]]},"properties":{"source_id":"co_named_stream_010180","name":"Coal Creek","display_name":"Coal Creek","mapped_name":"Coal Creek","source_name":"Coal Creek","state":"CO","atlas_class":"named_natural_stream","huc8":"10190007","huc8Name":"Cache La Poudre","huc8States":"CO,WY","lineageKey":"greenback","lineage":"greenback","historic":"greenback","current":"greenback","recovery":"recoveryWatch","lineageLabel":"Greenback / South Platte lineage","lineageBasin":"Cache La Poudre","lineageNote":"Front Range South Platte tributary context","atlas_context":"cutthroat_lineage_context","confidence":"Watershed-level lineage context; expert review recommended","geometryStatus":"Named natural stream segment from statewide hydrography","note":"This named natural stream falls within a HUC8 assigned to a cutthroat lineage context.","source_segment_id":"co_named_stream_010180","water_id":"co_coal_creek_10190007_greenback_002","occurrence_id":"co_coal_creek_10190007_greenback_002","occurrence_number":"002","segment_count":3,"disambiguator":"Cache La Poudre · Greenback / South Platte lineage · occurrence 002","basin":"Cache La Poudre","atlas_layer":"named_water_occurrence","object_role":"named_water_occurrence","historic_label":"Greenback / South Platte lineage","current_label":"Greenback / South Platte lineage","recovery_label":"Recovery watch / review area","tier":"tier3","minZoom":14,"confidence_public":"Watershed-level lineage context; expert review recommended","geometry_status_public":"Named natural stream occurrence from statewide hydrography","geometry_source_public":"Grouped public hydrography segments","trout_source_public":"Compiled public recovery and lineage context; expert review recommended","public_notes":"Coal Creek is shown as a named-water occurrence within watershed-level cutthroat lineage context. This is not a precise biological boundary."}},{"type":"Feature","geometry":{"type":"LineString","coordinates":[[-104.9062,40.7763],[-104.9062,40.7736],[-104.9045,40.7721],[-104.9043,40.7703],[-104.9044,40.7679],[-104.9056,40.7665]]},"properties":{"source_id":"co_named_stream_007584","name":"Coalbank Creek","display_name":"Coalbank Creek","mapped_name":"Coalbank Creek","source_name":"Coalbank Creek","state":"CO","atlas_class":"named_natural_stream","huc8":"10190007","huc8Name":"Cache La Poudre","huc8States":"CO,WY","lineageKey":"greenback","lineage":"greenback","historic":"greenback","current":"greenback","recovery":"recoveryWatch","lineageLabel":"Greenback / South Platte lineage","lineageBasin":"Cache La Poudre","lineageNote":"Front Range South Platte tributary context","atlas_context":"cutthroat_lineage_context","confidence":"Watershed-level lineage context; expert review recommended","geometryStatus":"Named natural stream segment from statewide hydrography","note":"This named natural stream falls within a HUC8 assigned to a cutthroat lineage context.","source_segment_id":"co_named_stream_007584","water_id":"co_coalbank_creek_10190007_greenback_001","occurrence_id":"co_coalbank_creek_10190007_greenback_001","occurrence_number":"001","segment_count":12,"disambiguator":"Cache La Poudre · Greenback / South Platte lineage · occurrence 001","basin":"Cache La Poudre","atlas_layer":"named_water_occurrence","object_role":"named_water_occurrence","historic_label":"Greenback / South Platte lineage","current_label":"Greenback / South Platte lineage","recovery_label":"Recovery watch / review area","tier":"tier3","minZoom":14,"confidence_public":"Watershed-level lineage context; expert review recommended","geometry_status_public":"Named natural stream occurrence from statewide hydrography","geometry_source_public":"Grouped public hydrography segments","trout_source_public":"Compiled public recovery and lineage context; expert review recommended","public_notes":"Coalbank Creek is shown as a named-water occurrence within watershed-level cutthroat lineage context. This is not a precise biological boundary."}},{"type":"Feature","geometry":{"type":"LineString","coordinates":[[-104.9038,40.7568],[-104.9016,40.7564]]},"properties":{"source_id":"co_named_stream_013381","name":"Coalbank Creek","display_name":"Coalbank Creek","mapped_name":"Coalbank Creek","source_name":"Coalbank Creek","state":"CO","atlas_class":"named_natural_stream","huc8":"10190007","huc8Name":"Cache La Poudre","huc8States":"CO,WY","lineageKey":"greenback","lineage":"greenback","historic":"greenback","current":"greenback","recovery":"recoveryWatch","lineageLabel":"Greenback / South Platte lineage","lineageBasin":"Cache La Poudre","lineageNote":"Front Range South Platte tributary context","atlas_context":"cutthroat_lineage_context","confidence":"Watershed-level lineage context; expert review recommended","geometryStatus":"Named natural stream segment from statewide hydrography","note":"This named natural stream falls within a HUC8 assigned to a cutthroat lineage context.","source_segment_id":"co_named_stream_013381","water_id":"co_coalbank_creek_10190007_greenback_001","occurrence_id":"co_coalbank_creek_10190007_greenback_001","occurrence_number":"001","segment_count":12,"disambiguator":"Cache La Poudre · Greenback / South Platte lineage · occurrence 001","basin":"Cache La Poudre","atlas_layer":"named_water_occurrence","object_role":"named_water_occurrence","historic_label":"Greenback / South Platte lineage","current_label":"Greenback / South Platte lineage","recovery_label":"Recovery watch / review area","tier":"tier3","minZoom":14,"confidence_public":"Watershed-level lineage context; expert review recommended","geometry_status_public":"Named natural stream occurrence from statewide hydrography","geometry_source_public":"Grouped public hydrography segments","trout_source_public":"Compiled public recovery and lineage context; expert review recommended","public_notes":"Coalbank Creek is shown as a named-water occurrence within watershed-level cutthroat lineage context. This is not a precise biological boundary."}},{"type":"Feature","geometry":{"type":"LineString","coordinates":[[-104.9046,40.7653],[-104.9051,40.7637]]},"properties":{"source_id":"co_named_stream_014984","name":"Coalbank Creek","display_name":"Coalbank Creek","mapped_name":"Coalbank Creek","source_name":"Coalbank Creek","state":"CO","atlas_class":"named_natural_stream","huc8":"10190007","huc8Name":"Cache La Poudre","huc8States":"CO,WY","lineageKey":"greenback","lineage":"greenback","historic":"greenback","current":"greenback","recovery":"recoveryWatch","lineageLabel":"Greenback / South Platte lineage","lineageBasin":"Cache La Poudre","lineageNote":"Front Range South Platte tributary context","atlas_context":"cutthroat_lineage_context","confidence":"Watershed-level lineage context; expert review recommended","geometryStatus":"Named natural stream segment from statewide hydrography","note":"This named natural stream falls within a HUC8 assigned to a cutthroat lineage context.","source_segment_id":"co_named_stream_014984","water_id":"co_coalbank_creek_10190007_greenback_001","occurrence_id":"co_coalbank_creek_10190007_greenback_001","occurrence_number":"001","segment_count":12,"disambiguator":"Cache La Poudre · Greenback / South Platte lineage · occurrence 001","basin":"Cache La Poudre","atlas_layer":"named_water_occurrence","object_role":"named_water_occurrence","historic_label":"Greenback / South Platte lineage","current_label":"Greenback / South Platte lineage","recovery_label":"Recovery watch / review area","tier":"tier3","minZoom":14,"confidence_public":"Watershed-level lineage context; expert review recommended","geometry_status_public":"Named natural stream occurrence from statewide hydrography","geometry_source_public":"Grouped public hydrography segments","trout_source_public":"Compiled public recovery and lineage context; expert review recommended","public_notes":"Coalbank Creek is shown as a named-water occurrence within watershed-level cutthroat lineage context. This is not a precise biological boundary."}},{"type":"Feature","geometry":{"type":"LineString","coordinates":[[-104.9056,40.7665],[-104.9046,40.7653]]},"properties":{"source_id":"co_named_stream_018013","name":"Coalbank Creek","display_name":"Coalbank Creek","mapped_name":"Coalbank Creek","source_name":"Coalbank Creek","state":"CO","atlas_class":"named_natural_stream","huc8":"10190007","huc8Name":"Cache La Poudre","huc8States":"CO,WY","lineageKey":"greenback","lineage":"greenback","historic":"greenback","current":"greenback","recovery":"recoveryWatch","lineageLabel":"Greenback / South Platte lineage","lineageBasin":"Cache La Poudre","lineageNote":"Front Range South Platte tributary context","atlas_context":"cutthroat_lineage_context","confidence":"Watershed-level lineage context; expert review recommended","geometryStatus":"Named natural stream segment from statewide hydrography","note":"This named natural stream falls within a HUC8 assigned to a cutthroat lineage context.","source_segment_id":"co_named_stream_018013","water_id":"co_coalbank_creek_10190007_greenback_001","occurrence_id":"co_coalbank_creek_10190007_greenback_001","occurrence_number":"001","segment_count":12,"disambiguator":"Cache La Poudre · Greenback / South Platte lineage · occurrence 001","basin":"Cache La Poudre","atlas_layer":"named_water_occurrence","object_role":"named_water_occurrence","historic_label":"Greenback / South Platte lineage","current_label":"Greenback / South Platte lineage","recovery_label":"Recovery watch / review area","tier":"tier3","minZoom":14,"confidence_public":"Watershed-level lineage context; expert review recommended","geometry_status_public":"Named natural stream occurrence from statewide hydrography","geometry_source_public":"Grouped public hydrography segments","trout_source_public":"Compiled public recovery and lineage context; expert review recommended","public_notes":"Coalbank Creek is shown as a named-water occurrence within watershed-level cutthroat lineage context. This is not a precise biological boundary."}},{"type":"Feature","geometry":{"type":"LineString","coordinates":[[-104.9054,40.7605],[-104.9042,40.7589],[-104.9046,40.7571]]},"properties":{"source_id":"co_named_stream_018014","name":"Coalbank Creek","display_name":"Coalbank Creek","mapped_name":"Coalbank Creek","source_name":"Coalbank Creek","state":"CO","atlas_class":"named_natural_stream","huc8":"10190007","huc8Name":"Cache La Poudre","huc8States":"CO,WY","lineageKey":"greenback","lineage":"greenback","historic":"greenback","current":"greenback","recovery":"recoveryWatch","lineageLabel":"Greenback / South Platte lineage","lineageBasin":"Cache La Poudre","lineageNote":"Front Range South Platte tributary context","atlas_context":"cutthroat_lineage_context","confidence":"Watershed-level lineage context; expert review recommended","geometryStatus":"Named natural stream segment from statewide hydrography","note":"This named natural stream falls within a HUC8 assigned to a cutthroat lineage context.","source_segment_id":"co_named_stream_018014","water_id":"co_coalbank_creek_10190007_greenback_001","occurrence_id":"co_coalbank_creek_10190007_greenback_001","occurrence_number":"001","segment_count":12,"disambiguator":"Cache La Poudre · Greenback / South Platte lineage · occurrence 001","basin":"Cache La Poudre","atlas_layer":"named_water_occurrence","object_role":"named_water_occurrence","historic_label":"Greenback / South Platte lineage","current_label":"Greenback / South Platte lineage","recovery_label":"Recovery watch / review area","tier":"tier3","minZoom":14,"confidence_public":"Watershed-level lineage context; expert review recommended","geometry_status_public":"Named natural stream occurrence from statewide hydrography","geometry_source_public":"Grouped public hydrography segments","trout_source_public":"Compiled public recovery and lineage context; expert review recommended","public_notes":"Coalbank Creek is shown as a named-water occurrence within watershed-level cutthroat lineage context. This is not a precise biological boundary."}},{"type":"Feature","geometry":{"type":"LineString","coordinates":[[-104.9051,40.7637],[-104.9041,40.7622],[-104.9054,40.7605]]},"properties":{"source_id":"co_named_stream_018015","name":"Coalbank Creek","display_name":"Coalbank Creek","mapped_name":"Coalbank Creek","source_name":"Coalbank Creek","state":"CO","atlas_class":"named_natural_stream","huc8":"10190007","huc8Name":"Cache La Poudre","huc8States":"CO,WY","lineageKey":"greenback","lineage":"greenback","historic":"greenback","current":"greenback","recovery":"recoveryWatch","lineageLabel":"Greenback / South Platte lineage","lineageBasin":"Cache La Poudre","lineageNote":"Front Range South Platte tributary context","atlas_context":"cutthroat_lineage_context","confidence":"Watershed-level lineage context; expert review recommended","geometryStatus":"Named natural stream segment from statewide hydrography","note":"This named natural stream falls within a HUC8 assigned to a cutthroat lineage context.","source_segment_id":"co_named_stream_018015","water_id":"co_coalbank_creek_10190007_greenback_001","occurrence_id":"co_coalbank_creek_10190007_greenback_001","occurrence_number":"001","segment_count":12,"disambiguator":"Cache La Poudre · Greenback / South Platte lineage · occurrence 001","basin":"Cache La Poudre","atlas_layer":"named_water_occurrence","object_role":"named_water_occurrence","historic_label":"Greenback / South Platte lineage","current_label":"Greenback / South Platte lineage","recovery_label":"Recovery watch / review area","tier":"tier3","minZoom":14,"confidence_public":"Watershed-level lineage context; expert review recommended","geometry_status_public":"Named natural stream occurrence from statewide hydrography","geometry_source_public":"Grouped public hydrography segments","trout_source_public":"Compiled public recovery and lineage context; expert review recommended","public_notes":"Coalbank Creek is shown as a named-water occurrence within watershed-level cutthroat lineage context. This is not a precise biological boundary."}},{"type":"Feature","geometry":{"type":"LineString","coordinates":[[-104.9332,40.8127],[-104.9321,40.8081],[-104.9277,40.8037],[-104.9279,40.8025],[-104.9256,40.8001],[-104.9242,40.7966],[-104.9194,40.7945],[-104.9149,40.7903],[-104.914,40.7879],[-104.9114,40.7861],[-104.9115,40.7849],[-104.907,40.7814],[-104.9056,40.7788],[-104.9062,40.7763]]},"properties":{"source_id":"co_named_stream_020247","name":"Coalbank Creek","display_name":"Coalbank Creek","mapped_name":"Coalbank Creek","source_name":"Coalbank Creek","state":"CO","atlas_class":"named_natural_stream","huc8":"10190007","huc8Name":"Cache La Poudre","huc8States":"CO,WY","lineageKey":"greenback","lineage":"greenback","historic":"greenback","current":"greenback","recovery":"recoveryWatch","lineageLabel":"Greenback / South Platte lineage","lineageBasin":"Cache La Poudre","lineageNote":"Front Range South Platte tributary context","atlas_context":"cutthroat_lineage_context","confidence":"Watershed-level lineage context; expert review recommended","geometryStatus":"Named natural stream segment from statewide hydrography","note":"This named natural stream falls within a HUC8 assigned to a cutthroat lineage context.","source_segment_id":"co_named_stream_020247","water_id":"co_coalbank_creek_10190007_greenback_001","occurrence_id":"co_coalbank_creek_10190007_greenback_001","occurrence_number":"001","segment_count":12,"disambiguator":"Cache La Poudre · Greenback / South Platte lineage · occurrence 001","basin":"Cache La Poudre","atlas_layer":"named_water_occurrence","object_role":"named_water_occurrence","historic_label":"Greenback / South Platte lineage","current_label":"Greenback / South Platte lineage","recovery_label":"Recovery watch / review area","tier":"tier3","minZoom":14,"confidence_public":"Watershed-level lineage context; expert review recommended","geometry_status_public":"Named natural stream occurrence from statewide hydrography","geometry_source_public":"Grouped public hydrography segments","trout_source_public":"Compiled public recovery and lineage context; expert review recommended","public_notes":"Coalbank Creek is shown as a named-water occurrence within watershed-level cutthroat lineage context. This is not a precise biological boundary."}},{"type":"Feature","geometry":{"type":"LineString","coordinates":[[-104.9326,40.8156],[-104.934,40.8134]]},"properties":{"source_id":"co_named_stream_023615","name":"Coalbank Creek","display_name":"Coalbank Creek","mapped_name":"Coalbank Creek","source_name":"Coalbank Creek","state":"CO","atlas_class":"named_natural_stream","huc8":"10190007","huc8Name":"Cache La Poudre","huc8States":"CO,WY","lineageKey":"greenback","lineage":"greenback","historic":"greenback","current":"greenback","recovery":"recoveryWatch","lineageLabel":"Greenback / South Platte lineage","lineageBasin":"Cache La Poudre","lineageNote":"Front Range South Platte tributary context","atlas_context":"cutthroat_lineage_context","confidence":"Watershed-level lineage context; expert review recommended","geometryStatus":"Named natural stream segment from statewide hydrography","note":"This named natural stream falls within a HUC8 assigned to a cutthroat lineage context.","source_segment_id":"co_named_stream_023615","water_id":"co_coalbank_creek_10190007_greenback_001","occurrence_id":"co_coalbank_creek_10190007_greenback_001","occurrence_number":"001","segment_count":12,"disambiguator":"Cache La Poudre · Greenback / South Platte lineage · occurrence 001","basin":"Cache La Poudre","atlas_layer":"named_water_occurrence","object_role":"named_water_occurrence","historic_label":"Greenback / South Platte lineage","current_label":"Greenback / South Platte lineage","recovery_label":"Recovery watch / review area","tier":"tier3","minZoom":14,"confidence_public":"Watershed-level lineage context; expert review recommended","geometry_status_public":"Named natural stream occurrence from statewide hydrography","geometry_source_public":"Grouped public hydrography segments","trout_source_public":"Compiled public recovery and lineage context; expert review recommended","public_notes":"Coalbank Creek is shown as a named-water occurrence within watershed-level cutthroat lineage context. This is not a precise biological boundary."}},{"type":"Feature","geometry":{"type":"LineString","coordinates":[[-104.9016,40.7564],[-104.9007,40.7552],[-104.9015,40.7545],[-104.9008,40.7528],[-104.9017,40.7509],[-104.9001,40.7472],[-104.9023,40.7457],[-104.9018,40.742],[-104.9033,40.7405]]},"properties":{"source_id":"co_named_stream_023988","name":"Coalbank Creek","display_name":"Coalbank Creek","mapped_name":"Coalbank Creek","source_name":"Coalbank Creek","state":"CO","atlas_class":"named_natural_stream","huc8":"10190007","huc8Name":"Cache La Poudre","huc8States":"CO,WY","lineageKey":"greenback","lineage":"greenback","historic":"greenback","current":"greenback","recovery":"recoveryWatch","lineageLabel":"Greenback / South Platte lineage","lineageBasin":"Cache La Poudre","lineageNote":"Front Range South Platte tributary context","atlas_context":"cutthroat_lineage_context","confidence":"Watershed-level lineage context; expert review recommended","geometryStatus":"Named natural stream segment from statewide hydrography","note":"This named natural stream falls within a HUC8 assigned to a cutthroat lineage context.","source_segment_id":"co_named_stream_023988","water_id":"co_coalbank_creek_10190007_greenback_001","occurrence_id":"co_coalbank_creek_10190007_greenback_001","occurrence_number":"001","segment_count":12,"disambiguator":"Cache La Poudre · Greenback / South Platte lineage · occurrence 001","basin":"Cache La Poudre","atlas_layer":"named_water_occurrence","object_role":"named_water_occurrence","historic_label":"Greenback / South Platte lineage","current_label":"Greenback / South Platte lineage","recovery_label":"Recovery watch / review area","tier":"tier3","minZoom":14,"confidence_public":"Watershed-level lineage context; expert review recommended","geometry_status_public":"Named natural stream occurrence from statewide hydrography","geometry_source_public":"Grouped public hydrography segments","trout_source_public":"Compiled public recovery and lineage context; expert review recommended","public_notes":"Coalbank Creek is shown as a named-water occurrence within watershed-level cutthroat lineage context. This is not a precise biological boundary."}}]}