{"type":"FeatureCollection","metadata":{"source":"C:\\ct-atlas-data\\processed\\geojson\\interpreted\\colorado_named_natural_streams_complete_v1.geojson","tier":"tier3","tile_size_degrees":0.25,"x":-431,"y":161,"bounds":{"west":-107.75,"south":40.25,"east":-107.5,"north":40.5}},"features":[{"type":"Feature","geometry":{"type":"LineString","coordinates":[[-107.5626,40.3128],[-107.565,40.3136]]},"properties":{"source_id":"co_named_stream_104185","name":"Badger Creek","display_name":"Badger Creek","mapped_name":"Badger Creek","source_name":"Badger Creek","state":"CO","atlas_class":"named_natural_stream","huc8":"14050001","huc8Name":"Upper Yampa","huc8States":"CO","lineageKey":"greenRiverBlue","lineage":"greenRiverBlue","historic":"greenRiverBlue","current":"greenRiverBlue","recovery":"recoveryWatch","lineageLabel":"Green River / blue-lineage CT","lineageBasin":"Upper Yampa","lineageNote":"Yampa blue-lineage context","atlas_context":"cutthroat_lineage_context","confidence":"Watershed-level lineage context; expert review recommended","geometryStatus":"Named natural stream segment from statewide hydrography","note":"This named natural stream falls within a HUC8 assigned to a cutthroat lineage context.","source_segment_id":"co_named_stream_104185","water_id":"co_badger_creek_14050001_greenRiverBlue_001","occurrence_id":"co_badger_creek_14050001_greenRiverBlue_001","occurrence_number":"001","segment_count":15,"disambiguator":"Upper Yampa · Green River / blue-lineage CT · occurrence 001","basin":"Upper Yampa","atlas_layer":"named_water_occurrence","object_role":"named_water_occurrence","historic_label":"Green River / blue-lineage CT","current_label":"Green River / blue-lineage CT","recovery_label":"Recovery watch / review area","tier":"tier3","minZoom":14,"confidence_public":"Watershed-level lineage context; expert review recommended","geometry_status_public":"Named natural stream occurrence from statewide hydrography","geometry_source_public":"Grouped public hydrography segments","trout_source_public":"Compiled public recovery and lineage context; expert review recommended","public_notes":"Badger Creek is shown as a named-water occurrence within watershed-level cutthroat lineage context. This is not a precise biological boundary."}},{"type":"Feature","geometry":{"type":"LineString","coordinates":[[-107.5632,40.3069],[-107.5631,40.3077]]},"properties":{"source_id":"co_named_stream_104186","name":"Badger Creek","display_name":"Badger Creek","mapped_name":"Badger Creek","source_name":"Badger Creek","state":"CO","atlas_class":"named_natural_stream","huc8":"14050001","huc8Name":"Upper Yampa","huc8States":"CO","lineageKey":"greenRiverBlue","lineage":"greenRiverBlue","historic":"greenRiverBlue","current":"greenRiverBlue","recovery":"recoveryWatch","lineageLabel":"Green River / blue-lineage CT","lineageBasin":"Upper Yampa","lineageNote":"Yampa blue-lineage context","atlas_context":"cutthroat_lineage_context","confidence":"Watershed-level lineage context; expert review recommended","geometryStatus":"Named natural stream segment from statewide hydrography","note":"This named natural stream falls within a HUC8 assigned to a cutthroat lineage context.","source_segment_id":"co_named_stream_104186","water_id":"co_badger_creek_14050001_greenRiverBlue_001","occurrence_id":"co_badger_creek_14050001_greenRiverBlue_001","occurrence_number":"001","segment_count":15,"disambiguator":"Upper Yampa · Green River / blue-lineage CT · occurrence 001","basin":"Upper Yampa","atlas_layer":"named_water_occurrence","object_role":"named_water_occurrence","historic_label":"Green River / blue-lineage CT","current_label":"Green River / blue-lineage CT","recovery_label":"Recovery watch / review area","tier":"tier3","minZoom":14,"confidence_public":"Watershed-level lineage context; expert review recommended","geometry_status_public":"Named natural stream occurrence from statewide hydrography","geometry_source_public":"Grouped public hydrography segments","trout_source_public":"Compiled public recovery and lineage context; expert review recommended","public_notes":"Badger Creek is shown as a named-water occurrence within watershed-level cutthroat lineage context. This is not a precise biological boundary."}},{"type":"Feature","geometry":{"type":"LineString","coordinates":[[-107.5669,40.3152],[-107.5674,40.3195],[-107.5684,40.3208]]},"properties":{"source_id":"co_named_stream_104188","name":"Badger Creek","display_name":"Badger Creek","mapped_name":"Badger Creek","source_name":"Badger Creek","state":"CO","atlas_class":"named_natural_stream","huc8":"14050001","huc8Name":"Upper Yampa","huc8States":"CO","lineageKey":"greenRiverBlue","lineage":"greenRiverBlue","historic":"greenRiverBlue","current":"greenRiverBlue","recovery":"recoveryWatch","lineageLabel":"Green River / blue-lineage CT","lineageBasin":"Upper Yampa","lineageNote":"Yampa blue-lineage context","atlas_context":"cutthroat_lineage_context","confidence":"Watershed-level lineage context; expert review recommended","geometryStatus":"Named natural stream segment from statewide hydrography","note":"This named natural stream falls within a HUC8 assigned to a cutthroat lineage context.","source_segment_id":"co_named_stream_104188","water_id":"co_badger_creek_14050001_greenRiverBlue_001","occurrence_id":"co_badger_creek_14050001_greenRiverBlue_001","occurrence_number":"001","segment_count":15,"disambiguator":"Upper Yampa · Green River / blue-lineage CT · occurrence 001","basin":"Upper Yampa","atlas_layer":"named_water_occurrence","object_role":"named_water_occurrence","historic_label":"Green River / blue-lineage CT","current_label":"Green River / blue-lineage CT","recovery_label":"Recovery watch / review area","tier":"tier3","minZoom":14,"confidence_public":"Watershed-level lineage context; expert review recommended","geometry_status_public":"Named natural stream occurrence from statewide hydrography","geometry_source_public":"Grouped public hydrography segments","trout_source_public":"Compiled public recovery and lineage context; expert review recommended","public_notes":"Badger Creek is shown as a named-water occurrence within watershed-level cutthroat lineage context. This is not a precise biological boundary."}},{"type":"Feature","geometry":{"type":"LineString","coordinates":[[-107.5659,40.3141],[-107.5669,40.3152]]},"properties":{"source_id":"co_named_stream_104190","name":"Badger Creek","display_name":"Badger Creek","mapped_name":"Badger Creek","source_name":"Badger Creek","state":"CO","atlas_class":"named_natural_stream","huc8":"14050001","huc8Name":"Upper Yampa","huc8States":"CO","lineageKey":"greenRiverBlue","lineage":"greenRiverBlue","historic":"greenRiverBlue","current":"greenRiverBlue","recovery":"recoveryWatch","lineageLabel":"Green River / blue-lineage CT","lineageBasin":"Upper Yampa","lineageNote":"Yampa blue-lineage context","atlas_context":"cutthroat_lineage_context","confidence":"Watershed-level lineage context; expert review recommended","geometryStatus":"Named natural stream segment from statewide hydrography","note":"This named natural stream falls within a HUC8 assigned to a cutthroat lineage context.","source_segment_id":"co_named_stream_104190","water_id":"co_badger_creek_14050001_greenRiverBlue_001","occurrence_id":"co_badger_creek_14050001_greenRiverBlue_001","occurrence_number":"001","segment_count":15,"disambiguator":"Upper Yampa · Green River / blue-lineage CT · occurrence 001","basin":"Upper Yampa","atlas_layer":"named_water_occurrence","object_role":"named_water_occurrence","historic_label":"Green River / blue-lineage CT","current_label":"Green River / blue-lineage CT","recovery_label":"Recovery watch / review area","tier":"tier3","minZoom":14,"confidence_public":"Watershed-level lineage context; expert review recommended","geometry_status_public":"Named natural stream occurrence from statewide hydrography","geometry_source_public":"Grouped public hydrography segments","trout_source_public":"Compiled public recovery and lineage context; expert review recommended","public_notes":"Badger Creek is shown as a named-water occurrence within watershed-level cutthroat lineage context. This is not a precise biological boundary."}},{"type":"Feature","geometry":{"type":"LineString","coordinates":[[-107.566,40.3045],[-107.5632,40.3069]]},"properties":{"source_id":"co_named_stream_104191","name":"Badger Creek","display_name":"Badger Creek","mapped_name":"Badger Creek","source_name":"Badger Creek","state":"CO","atlas_class":"named_natural_stream","huc8":"14050001","huc8Name":"Upper Yampa","huc8States":"CO","lineageKey":"greenRiverBlue","lineage":"greenRiverBlue","historic":"greenRiverBlue","current":"greenRiverBlue","recovery":"recoveryWatch","lineageLabel":"Green River / blue-lineage CT","lineageBasin":"Upper Yampa","lineageNote":"Yampa blue-lineage context","atlas_context":"cutthroat_lineage_context","confidence":"Watershed-level lineage context; expert review recommended","geometryStatus":"Named natural stream segment from statewide hydrography","note":"This named natural stream falls within a HUC8 assigned to a cutthroat lineage context.","source_segment_id":"co_named_stream_104191","water_id":"co_badger_creek_14050001_greenRiverBlue_001","occurrence_id":"co_badger_creek_14050001_greenRiverBlue_001","occurrence_number":"001","segment_count":15,"disambiguator":"Upper Yampa · Green River / blue-lineage CT · occurrence 001","basin":"Upper Yampa","atlas_layer":"named_water_occurrence","object_role":"named_water_occurrence","historic_label":"Green River / blue-lineage CT","current_label":"Green River / blue-lineage CT","recovery_label":"Recovery watch / review area","tier":"tier3","minZoom":14,"confidence_public":"Watershed-level lineage context; expert review recommended","geometry_status_public":"Named natural stream occurrence from statewide hydrography","geometry_source_public":"Grouped public hydrography segments","trout_source_public":"Compiled public recovery and lineage context; expert review recommended","public_notes":"Badger Creek is shown as a named-water occurrence within watershed-level cutthroat lineage context. This is not a precise biological boundary."}},{"type":"Feature","geometry":{"type":"LineString","coordinates":[[-107.5731,40.295],[-107.5698,40.3018],[-107.566,40.3045]]},"properties":{"source_id":"co_named_stream_104194","name":"Badger Creek","display_name":"Badger Creek","mapped_name":"Badger Creek","source_name":"Badger Creek","state":"CO","atlas_class":"named_natural_stream","huc8":"14050001","huc8Name":"Upper Yampa","huc8States":"CO","lineageKey":"greenRiverBlue","lineage":"greenRiverBlue","historic":"greenRiverBlue","current":"greenRiverBlue","recovery":"recoveryWatch","lineageLabel":"Green River / blue-lineage CT","lineageBasin":"Upper Yampa","lineageNote":"Yampa blue-lineage context","atlas_context":"cutthroat_lineage_context","confidence":"Watershed-level lineage context; expert review recommended","geometryStatus":"Named natural stream segment from statewide hydrography","note":"This named natural stream falls within a HUC8 assigned to a cutthroat lineage context.","source_segment_id":"co_named_stream_104194","water_id":"co_badger_creek_14050001_greenRiverBlue_001","occurrence_id":"co_badger_creek_14050001_greenRiverBlue_001","occurrence_number":"001","segment_count":15,"disambiguator":"Upper Yampa · Green River / blue-lineage CT · occurrence 001","basin":"Upper Yampa","atlas_layer":"named_water_occurrence","object_role":"named_water_occurrence","historic_label":"Green River / blue-lineage CT","current_label":"Green River / blue-lineage CT","recovery_label":"Recovery watch / review area","tier":"tier3","minZoom":14,"confidence_public":"Watershed-level lineage context; expert review recommended","geometry_status_public":"Named natural stream occurrence from statewide hydrography","geometry_source_public":"Grouped public hydrography segments","trout_source_public":"Compiled public recovery and lineage context; expert review recommended","public_notes":"Badger Creek is shown as a named-water occurrence within watershed-level cutthroat lineage context. This is not a precise biological boundary."}},{"type":"Feature","geometry":{"type":"LineString","coordinates":[[-107.5611,40.3119],[-107.5623,40.3125]]},"properties":{"source_id":"co_named_stream_104196","name":"Badger Creek","display_name":"Badger Creek","mapped_name":"Badger Creek","source_name":"Badger Creek","state":"CO","atlas_class":"named_natural_stream","huc8":"14050001","huc8Name":"Upper Yampa","huc8States":"CO","lineageKey":"greenRiverBlue","lineage":"greenRiverBlue","historic":"greenRiverBlue","current":"greenRiverBlue","recovery":"recoveryWatch","lineageLabel":"Green River / blue-lineage CT","lineageBasin":"Upper Yampa","lineageNote":"Yampa blue-lineage context","atlas_context":"cutthroat_lineage_context","confidence":"Watershed-level lineage context; expert review recommended","geometryStatus":"Named natural stream segment from statewide hydrography","note":"This named natural stream falls within a HUC8 assigned to a cutthroat lineage context.","source_segment_id":"co_named_stream_104196","water_id":"co_badger_creek_14050001_greenRiverBlue_001","occurrence_id":"co_badger_creek_14050001_greenRiverBlue_001","occurrence_number":"001","segment_count":15,"disambiguator":"Upper Yampa · Green River / blue-lineage CT · occurrence 001","basin":"Upper Yampa","atlas_layer":"named_water_occurrence","object_role":"named_water_occurrence","historic_label":"Green River / blue-lineage CT","current_label":"Green River / blue-lineage CT","recovery_label":"Recovery watch / review area","tier":"tier3","minZoom":14,"confidence_public":"Watershed-level lineage context; expert review recommended","geometry_status_public":"Named natural stream occurrence from statewide hydrography","geometry_source_public":"Grouped public hydrography segments","trout_source_public":"Compiled public recovery and lineage context; expert review recommended","public_notes":"Badger Creek is shown as a named-water occurrence within watershed-level cutthroat lineage context. This is not a precise biological boundary."}},{"type":"Feature","geometry":{"type":"LineString","coordinates":[[-107.5628,40.3084],[-107.5612,40.3109]]},"properties":{"source_id":"co_named_stream_104197","name":"Badger Creek","display_name":"Badger Creek","mapped_name":"Badger Creek","source_name":"Badger Creek","state":"CO","atlas_class":"named_natural_stream","huc8":"14050001","huc8Name":"Upper Yampa","huc8States":"CO","lineageKey":"greenRiverBlue","lineage":"greenRiverBlue","historic":"greenRiverBlue","current":"greenRiverBlue","recovery":"recoveryWatch","lineageLabel":"Green River / blue-lineage CT","lineageBasin":"Upper Yampa","lineageNote":"Yampa blue-lineage context","atlas_context":"cutthroat_lineage_context","confidence":"Watershed-level lineage context; expert review recommended","geometryStatus":"Named natural stream segment from statewide hydrography","note":"This named natural stream falls within a HUC8 assigned to a cutthroat lineage context.","source_segment_id":"co_named_stream_104197","water_id":"co_badger_creek_14050001_greenRiverBlue_001","occurrence_id":"co_badger_creek_14050001_greenRiverBlue_001","occurrence_number":"001","segment_count":15,"disambiguator":"Upper Yampa · Green River / blue-lineage CT · occurrence 001","basin":"Upper Yampa","atlas_layer":"named_water_occurrence","object_role":"named_water_occurrence","historic_label":"Green River / blue-lineage CT","current_label":"Green River / blue-lineage CT","recovery_label":"Recovery watch / review area","tier":"tier3","minZoom":14,"confidence_public":"Watershed-level lineage context; expert review recommended","geometry_status_public":"Named natural stream occurrence from statewide hydrography","geometry_source_public":"Grouped public hydrography segments","trout_source_public":"Compiled public recovery and lineage context; expert review recommended","public_notes":"Badger Creek is shown as a named-water occurrence within watershed-level cutthroat lineage context. This is not a precise biological boundary."}},{"type":"Feature","geometry":{"type":"LineString","coordinates":[[-107.563,40.308],[-107.5628,40.3084]]},"properties":{"source_id":"co_named_stream_104198","name":"Badger Creek","display_name":"Badger Creek","mapped_name":"Badger Creek","source_name":"Badger Creek","state":"CO","atlas_class":"named_natural_stream","huc8":"14050001","huc8Name":"Upper Yampa","huc8States":"CO","lineageKey":"greenRiverBlue","lineage":"greenRiverBlue","historic":"greenRiverBlue","current":"greenRiverBlue","recovery":"recoveryWatch","lineageLabel":"Green River / blue-lineage CT","lineageBasin":"Upper Yampa","lineageNote":"Yampa blue-lineage context","atlas_context":"cutthroat_lineage_context","confidence":"Watershed-level lineage context; expert review recommended","geometryStatus":"Named natural stream segment from statewide hydrography","note":"This named natural stream falls within a HUC8 assigned to a cutthroat lineage context.","source_segment_id":"co_named_stream_104198","water_id":"co_badger_creek_14050001_greenRiverBlue_001","occurrence_id":"co_badger_creek_14050001_greenRiverBlue_001","occurrence_number":"001","segment_count":15,"disambiguator":"Upper Yampa · Green River / blue-lineage CT · occurrence 001","basin":"Upper Yampa","atlas_layer":"named_water_occurrence","object_role":"named_water_occurrence","historic_label":"Green River / blue-lineage CT","current_label":"Green River / blue-lineage CT","recovery_label":"Recovery watch / review area","tier":"tier3","minZoom":14,"confidence_public":"Watershed-level lineage context; expert review recommended","geometry_status_public":"Named natural stream occurrence from statewide hydrography","geometry_source_public":"Grouped public hydrography segments","trout_source_public":"Compiled public recovery and lineage context; expert review recommended","public_notes":"Badger Creek is shown as a named-water occurrence within watershed-level cutthroat lineage context. This is not a precise biological boundary."}},{"type":"Feature","geometry":{"type":"LineString","coordinates":[[-107.5612,40.3109],[-107.5611,40.3112]]},"properties":{"source_id":"co_named_stream_104673","name":"Badger Creek","display_name":"Badger Creek","mapped_name":"Badger Creek","source_name":"Badger Creek","state":"CO","atlas_class":"named_natural_stream","huc8":"14050001","huc8Name":"Upper Yampa","huc8States":"CO","lineageKey":"greenRiverBlue","lineage":"greenRiverBlue","historic":"greenRiverBlue","current":"greenRiverBlue","recovery":"recoveryWatch","lineageLabel":"Green River / blue-lineage CT","lineageBasin":"Upper Yampa","lineageNote":"Yampa blue-lineage context","atlas_context":"cutthroat_lineage_context","confidence":"Watershed-level lineage context; expert review recommended","geometryStatus":"Named natural stream segment from statewide hydrography","note":"This named natural stream falls within a HUC8 assigned to a cutthroat lineage context.","source_segment_id":"co_named_stream_104673","water_id":"co_badger_creek_14050001_greenRiverBlue_001","occurrence_id":"co_badger_creek_14050001_greenRiverBlue_001","occurrence_number":"001","segment_count":15,"disambiguator":"Upper Yampa · Green River / blue-lineage CT · occurrence 001","basin":"Upper Yampa","atlas_layer":"named_water_occurrence","object_role":"named_water_occurrence","historic_label":"Green River / blue-lineage CT","current_label":"Green River / blue-lineage CT","recovery_label":"Recovery watch / review area","tier":"tier3","minZoom":14,"confidence_public":"Watershed-level lineage context; expert review recommended","geometry_status_public":"Named natural stream occurrence from statewide hydrography","geometry_source_public":"Grouped public hydrography segments","trout_source_public":"Compiled public recovery and lineage context; expert review recommended","public_notes":"Badger Creek is shown as a named-water occurrence within watershed-level cutthroat lineage context. This is not a precise biological boundary."}},{"type":"Feature","geometry":{"type":"LineString","coordinates":[[-107.5691,40.3259],[-107.5668,40.3312],[-107.5666,40.3337],[-107.569,40.3399],[-107.5688,40.345]]},"properties":{"source_id":"co_named_stream_105097","name":"Badger Creek","display_name":"Badger Creek","mapped_name":"Badger Creek","source_name":"Badger Creek","state":"CO","atlas_class":"named_natural_stream","huc8":"14050001","huc8Name":"Upper Yampa","huc8States":"CO","lineageKey":"greenRiverBlue","lineage":"greenRiverBlue","historic":"greenRiverBlue","current":"greenRiverBlue","recovery":"recoveryWatch","lineageLabel":"Green River / blue-lineage CT","lineageBasin":"Upper Yampa","lineageNote":"Yampa blue-lineage context","atlas_context":"cutthroat_lineage_context","confidence":"Watershed-level lineage context; expert review recommended","geometryStatus":"Named natural stream segment from statewide hydrography","note":"This named natural stream falls within a HUC8 assigned to a cutthroat lineage context.","source_segment_id":"co_named_stream_105097","water_id":"co_badger_creek_14050001_greenRiverBlue_001","occurrence_id":"co_badger_creek_14050001_greenRiverBlue_001","occurrence_number":"001","segment_count":15,"disambiguator":"Upper Yampa · Green River / blue-lineage CT · occurrence 001","basin":"Upper Yampa","atlas_layer":"named_water_occurrence","object_role":"named_water_occurrence","historic_label":"Green River / blue-lineage CT","current_label":"Green River / blue-lineage CT","recovery_label":"Recovery watch / review area","tier":"tier3","minZoom":14,"confidence_public":"Watershed-level lineage context; expert review recommended","geometry_status_public":"Named natural stream occurrence from statewide hydrography","geometry_source_public":"Grouped public hydrography segments","trout_source_public":"Compiled public recovery and lineage context; expert review recommended","public_notes":"Badger Creek is shown as a named-water occurrence within watershed-level cutthroat lineage context. This is not a precise biological boundary."}},{"type":"Feature","geometry":{"type":"LineString","coordinates":[[-107.5688,40.345],[-107.5696,40.3526],[-107.5662,40.3595],[-107.5663,40.3606]]},"properties":{"source_id":"co_named_stream_105098","name":"Badger Creek","display_name":"Badger Creek","mapped_name":"Badger Creek","source_name":"Badger Creek","state":"CO","atlas_class":"named_natural_stream","huc8":"14050001","huc8Name":"Upper Yampa","huc8States":"CO","lineageKey":"greenRiverBlue","lineage":"greenRiverBlue","historic":"greenRiverBlue","current":"greenRiverBlue","recovery":"recoveryWatch","lineageLabel":"Green River / blue-lineage CT","lineageBasin":"Upper Yampa","lineageNote":"Yampa blue-lineage context","atlas_context":"cutthroat_lineage_context","confidence":"Watershed-level lineage context; expert review recommended","geometryStatus":"Named natural stream segment from statewide hydrography","note":"This named natural stream falls within a HUC8 assigned to a cutthroat lineage context.","source_segment_id":"co_named_stream_105098","water_id":"co_badger_creek_14050001_greenRiverBlue_001","occurrence_id":"co_badger_creek_14050001_greenRiverBlue_001","occurrence_number":"001","segment_count":15,"disambiguator":"Upper Yampa · Green River / blue-lineage CT · occurrence 001","basin":"Upper Yampa","atlas_layer":"named_water_occurrence","object_role":"named_water_occurrence","historic_label":"Green River / blue-lineage CT","current_label":"Green River / blue-lineage CT","recovery_label":"Recovery watch / review area","tier":"tier3","minZoom":14,"confidence_public":"Watershed-level lineage context; expert review recommended","geometry_status_public":"Named natural stream occurrence from statewide hydrography","geometry_source_public":"Grouped public hydrography segments","trout_source_public":"Compiled public recovery and lineage context; expert review recommended","public_notes":"Badger Creek is shown as a named-water occurrence within watershed-level cutthroat lineage context. This is not a precise biological boundary."}},{"type":"Feature","geometry":{"type":"LineString","coordinates":[[-107.5684,40.3208],[-107.5691,40.3259]]},"properties":{"source_id":"co_named_stream_105099","name":"Badger Creek","display_name":"Badger Creek","mapped_name":"Badger Creek","source_name":"Badger Creek","state":"CO","atlas_class":"named_natural_stream","huc8":"14050001","huc8Name":"Upper Yampa","huc8States":"CO","lineageKey":"greenRiverBlue","lineage":"greenRiverBlue","historic":"greenRiverBlue","current":"greenRiverBlue","recovery":"recoveryWatch","lineageLabel":"Green River / blue-lineage CT","lineageBasin":"Upper Yampa","lineageNote":"Yampa blue-lineage context","atlas_context":"cutthroat_lineage_context","confidence":"Watershed-level lineage context; expert review recommended","geometryStatus":"Named natural stream segment from statewide hydrography","note":"This named natural stream falls within a HUC8 assigned to a cutthroat lineage context.","source_segment_id":"co_named_stream_105099","water_id":"co_badger_creek_14050001_greenRiverBlue_001","occurrence_id":"co_badger_creek_14050001_greenRiverBlue_001","occurrence_number":"001","segment_count":15,"disambiguator":"Upper Yampa · Green River / blue-lineage CT · occurrence 001","basin":"Upper Yampa","atlas_layer":"named_water_occurrence","object_role":"named_water_occurrence","historic_label":"Green River / blue-lineage CT","current_label":"Green River / blue-lineage CT","recovery_label":"Recovery watch / review area","tier":"tier3","minZoom":14,"confidence_public":"Watershed-level lineage context; expert review recommended","geometry_status_public":"Named natural stream occurrence from statewide hydrography","geometry_source_public":"Grouped public hydrography segments","trout_source_public":"Compiled public recovery and lineage context; expert review recommended","public_notes":"Badger Creek is shown as a named-water occurrence within watershed-level cutthroat lineage context. This is not a precise biological boundary."}},{"type":"Feature","geometry":{"type":"LineString","coordinates":[[-107.5667,40.3609],[-107.5692,40.363],[-107.5667,40.3666]]},"properties":{"source_id":"co_named_stream_105100","name":"Badger Creek","display_name":"Badger Creek","mapped_name":"Badger Creek","source_name":"Badger Creek","state":"CO","atlas_class":"named_natural_stream","huc8":"14050001","huc8Name":"Upper Yampa","huc8States":"CO","lineageKey":"greenRiverBlue","lineage":"greenRiverBlue","historic":"greenRiverBlue","current":"greenRiverBlue","recovery":"recoveryWatch","lineageLabel":"Green River / blue-lineage CT","lineageBasin":"Upper Yampa","lineageNote":"Yampa blue-lineage context","atlas_context":"cutthroat_lineage_context","confidence":"Watershed-level lineage context; expert review recommended","geometryStatus":"Named natural stream segment from statewide hydrography","note":"This named natural stream falls within a HUC8 assigned to a cutthroat lineage context.","source_segment_id":"co_named_stream_105100","water_id":"co_badger_creek_14050001_greenRiverBlue_001","occurrence_id":"co_badger_creek_14050001_greenRiverBlue_001","occurrence_number":"001","segment_count":15,"disambiguator":"Upper Yampa · Green River / blue-lineage CT · occurrence 001","basin":"Upper Yampa","atlas_layer":"named_water_occurrence","object_role":"named_water_occurrence","historic_label":"Green River / blue-lineage CT","current_label":"Green River / blue-lineage CT","recovery_label":"Recovery watch / review area","tier":"tier3","minZoom":14,"confidence_public":"Watershed-level lineage context; expert review recommended","geometry_status_public":"Named natural stream occurrence from statewide hydrography","geometry_source_public":"Grouped public hydrography segments","trout_source_public":"Compiled public recovery and lineage context; expert review recommended","public_notes":"Badger Creek is shown as a named-water occurrence within watershed-level cutthroat lineage context. This is not a precise biological boundary."}},{"type":"Feature","geometry":{"type":"LineString","coordinates":[[-107.5665,40.3669],[-107.5626,40.3702],[-107.5635,40.3714]]},"properties":{"source_id":"co_named_stream_105101","name":"Badger Creek","display_name":"Badger Creek","mapped_name":"Badger Creek","source_name":"Badger Creek","state":"CO","atlas_class":"named_natural_stream","huc8":"14050001","huc8Name":"Upper Yampa","huc8States":"CO","lineageKey":"greenRiverBlue","lineage":"greenRiverBlue","historic":"greenRiverBlue","current":"greenRiverBlue","recovery":"recoveryWatch","lineageLabel":"Green River / blue-lineage CT","lineageBasin":"Upper Yampa","lineageNote":"Yampa blue-lineage context","atlas_context":"cutthroat_lineage_context","confidence":"Watershed-level lineage context; expert review recommended","geometryStatus":"Named natural stream segment from statewide hydrography","note":"This named natural stream falls within a HUC8 assigned to a cutthroat lineage context.","source_segment_id":"co_named_stream_105101","water_id":"co_badger_creek_14050001_greenRiverBlue_001","occurrence_id":"co_badger_creek_14050001_greenRiverBlue_001","occurrence_number":"001","segment_count":15,"disambiguator":"Upper Yampa · Green River / blue-lineage CT · occurrence 001","basin":"Upper Yampa","atlas_layer":"named_water_occurrence","object_role":"named_water_occurrence","historic_label":"Green River / blue-lineage CT","current_label":"Green River / blue-lineage CT","recovery_label":"Recovery watch / review area","tier":"tier3","minZoom":14,"confidence_public":"Watershed-level lineage context; expert review recommended","geometry_status_public":"Named natural stream occurrence from statewide hydrography","geometry_source_public":"Grouped public hydrography segments","trout_source_public":"Compiled public recovery and lineage context; expert review recommended","public_notes":"Badger Creek is shown as a named-water occurrence within watershed-level cutthroat lineage context. This is not a precise biological boundary."}},{"type":"Feature","geometry":{"type":"LineString","coordinates":[[-107.565,40.2613],[-107.5656,40.261]]},"properties":{"source_id":"co_named_stream_104187","name":"North Fork Deer Creek","display_name":"North Fork Deer Creek","mapped_name":"North Fork Deer Creek","source_name":"North Fork Deer Creek","state":"CO","atlas_class":"named_natural_stream","huc8":"14050001","huc8Name":"Upper Yampa","huc8States":"CO","lineageKey":"greenRiverBlue","lineage":"greenRiverBlue","historic":"greenRiverBlue","current":"greenRiverBlue","recovery":"recoveryWatch","lineageLabel":"Green River / blue-lineage CT","lineageBasin":"Upper Yampa","lineageNote":"Yampa blue-lineage context","atlas_context":"cutthroat_lineage_context","confidence":"Watershed-level lineage context; expert review recommended","geometryStatus":"Named natural stream segment from statewide hydrography","note":"This named natural stream falls within a HUC8 assigned to a cutthroat lineage context.","source_segment_id":"co_named_stream_104187","water_id":"co_north_fork_deer_creek_14050001_greenRiverBlue_001","occurrence_id":"co_north_fork_deer_creek_14050001_greenRiverBlue_001","occurrence_number":"001","segment_count":17,"disambiguator":"Upper Yampa · Green River / blue-lineage CT · occurrence 001","basin":"Upper Yampa","atlas_layer":"named_water_occurrence","object_role":"named_water_occurrence","historic_label":"Green River / blue-lineage CT","current_label":"Green River / blue-lineage CT","recovery_label":"Recovery watch / review area","tier":"tier3","minZoom":14,"confidence_public":"Watershed-level lineage context; expert review recommended","geometry_status_public":"Named natural stream occurrence from statewide hydrography","geometry_source_public":"Grouped public hydrography segments","trout_source_public":"Compiled public recovery and lineage context; expert review recommended","public_notes":"North Fork Deer Creek is shown as a named-water occurrence within watershed-level cutthroat lineage context. This is not a precise biological boundary."}},{"type":"Feature","geometry":{"type":"LineString","coordinates":[[-107.5639,40.2615],[-107.565,40.2613]]},"properties":{"source_id":"co_named_stream_104192","name":"North Fork Deer Creek","display_name":"North Fork Deer Creek","mapped_name":"North Fork Deer Creek","source_name":"North Fork Deer Creek","state":"CO","atlas_class":"named_natural_stream","huc8":"14050001","huc8Name":"Upper Yampa","huc8States":"CO","lineageKey":"greenRiverBlue","lineage":"greenRiverBlue","historic":"greenRiverBlue","current":"greenRiverBlue","recovery":"recoveryWatch","lineageLabel":"Green River / blue-lineage CT","lineageBasin":"Upper Yampa","lineageNote":"Yampa blue-lineage context","atlas_context":"cutthroat_lineage_context","confidence":"Watershed-level lineage context; expert review recommended","geometryStatus":"Named natural stream segment from statewide hydrography","note":"This named natural stream falls within a HUC8 assigned to a cutthroat lineage context.","source_segment_id":"co_named_stream_104192","water_id":"co_north_fork_deer_creek_14050001_greenRiverBlue_001","occurrence_id":"co_north_fork_deer_creek_14050001_greenRiverBlue_001","occurrence_number":"001","segment_count":17,"disambiguator":"Upper Yampa · Green River / blue-lineage CT · occurrence 001","basin":"Upper Yampa","atlas_layer":"named_water_occurrence","object_role":"named_water_occurrence","historic_label":"Green River / blue-lineage CT","current_label":"Green River / blue-lineage CT","recovery_label":"Recovery watch / review area","tier":"tier3","minZoom":14,"confidence_public":"Watershed-level lineage context; expert review recommended","geometry_status_public":"Named natural stream occurrence from statewide hydrography","geometry_source_public":"Grouped public hydrography segments","trout_source_public":"Compiled public recovery and lineage context; expert review recommended","public_notes":"North Fork Deer Creek is shown as a named-water occurrence within watershed-level cutthroat lineage context. This is not a precise biological boundary."}},{"type":"Feature","geometry":{"type":"LineString","coordinates":[[-107.5658,40.2609],[-107.5688,40.258]]},"properties":{"source_id":"co_named_stream_104193","name":"North Fork Deer Creek","display_name":"North Fork Deer Creek","mapped_name":"North Fork Deer Creek","source_name":"North Fork Deer Creek","state":"CO","atlas_class":"named_natural_stream","huc8":"14050001","huc8Name":"Upper Yampa","huc8States":"CO","lineageKey":"greenRiverBlue","lineage":"greenRiverBlue","historic":"greenRiverBlue","current":"greenRiverBlue","recovery":"recoveryWatch","lineageLabel":"Green River / blue-lineage CT","lineageBasin":"Upper Yampa","lineageNote":"Yampa blue-lineage context","atlas_context":"cutthroat_lineage_context","confidence":"Watershed-level lineage context; expert review recommended","geometryStatus":"Named natural stream segment from statewide hydrography","note":"This named natural stream falls within a HUC8 assigned to a cutthroat lineage context.","source_segment_id":"co_named_stream_104193","water_id":"co_north_fork_deer_creek_14050001_greenRiverBlue_001","occurrence_id":"co_north_fork_deer_creek_14050001_greenRiverBlue_001","occurrence_number":"001","segment_count":17,"disambiguator":"Upper Yampa · Green River / blue-lineage CT · occurrence 001","basin":"Upper Yampa","atlas_layer":"named_water_occurrence","object_role":"named_water_occurrence","historic_label":"Green River / blue-lineage CT","current_label":"Green River / blue-lineage CT","recovery_label":"Recovery watch / review area","tier":"tier3","minZoom":14,"confidence_public":"Watershed-level lineage context; expert review recommended","geometry_status_public":"Named natural stream occurrence from statewide hydrography","geometry_source_public":"Grouped public hydrography segments","trout_source_public":"Compiled public recovery and lineage context; expert review recommended","public_notes":"North Fork Deer Creek is shown as a named-water occurrence within watershed-level cutthroat lineage context. This is not a precise biological boundary."}},{"type":"Feature","geometry":{"type":"LineString","coordinates":[[-107.5609,40.2621],[-107.5637,40.2615]]},"properties":{"source_id":"co_named_stream_104195","name":"North Fork Deer Creek","display_name":"North Fork Deer Creek","mapped_name":"North Fork Deer Creek","source_name":"North Fork Deer Creek","state":"CO","atlas_class":"named_natural_stream","huc8":"14050001","huc8Name":"Upper Yampa","huc8States":"CO","lineageKey":"greenRiverBlue","lineage":"greenRiverBlue","historic":"greenRiverBlue","current":"greenRiverBlue","recovery":"recoveryWatch","lineageLabel":"Green River / blue-lineage CT","lineageBasin":"Upper Yampa","lineageNote":"Yampa blue-lineage context","atlas_context":"cutthroat_lineage_context","confidence":"Watershed-level lineage context; expert review recommended","geometryStatus":"Named natural stream segment from statewide hydrography","note":"This named natural stream falls within a HUC8 assigned to a cutthroat lineage context.","source_segment_id":"co_named_stream_104195","water_id":"co_north_fork_deer_creek_14050001_greenRiverBlue_001","occurrence_id":"co_north_fork_deer_creek_14050001_greenRiverBlue_001","occurrence_number":"001","segment_count":17,"disambiguator":"Upper Yampa · Green River / blue-lineage CT · occurrence 001","basin":"Upper Yampa","atlas_layer":"named_water_occurrence","object_role":"named_water_occurrence","historic_label":"Green River / blue-lineage CT","current_label":"Green River / blue-lineage CT","recovery_label":"Recovery watch / review area","tier":"tier3","minZoom":14,"confidence_public":"Watershed-level lineage context; expert review recommended","geometry_status_public":"Named natural stream occurrence from statewide hydrography","geometry_source_public":"Grouped public hydrography segments","trout_source_public":"Compiled public recovery and lineage context; expert review recommended","public_notes":"North Fork Deer Creek is shown as a named-water occurrence within watershed-level cutthroat lineage context. This is not a precise biological boundary."}},{"type":"Feature","geometry":{"type":"LineString","coordinates":[[-107.5535,40.2647],[-107.556,40.2639]]},"properties":{"source_id":"co_named_stream_104747","name":"North Fork Deer Creek","display_name":"North Fork Deer Creek","mapped_name":"North Fork Deer Creek","source_name":"North Fork Deer Creek","state":"CO","atlas_class":"named_natural_stream","huc8":"14050001","huc8Name":"Upper Yampa","huc8States":"CO","lineageKey":"greenRiverBlue","lineage":"greenRiverBlue","historic":"greenRiverBlue","current":"greenRiverBlue","recovery":"recoveryWatch","lineageLabel":"Green River / blue-lineage CT","lineageBasin":"Upper Yampa","lineageNote":"Yampa blue-lineage context","atlas_context":"cutthroat_lineage_context","confidence":"Watershed-level lineage context; expert review recommended","geometryStatus":"Named natural stream segment from statewide hydrography","note":"This named natural stream falls within a HUC8 assigned to a cutthroat lineage context.","source_segment_id":"co_named_stream_104747","water_id":"co_north_fork_deer_creek_14050001_greenRiverBlue_001","occurrence_id":"co_north_fork_deer_creek_14050001_greenRiverBlue_001","occurrence_number":"001","segment_count":17,"disambiguator":"Upper Yampa · Green River / blue-lineage CT · occurrence 001","basin":"Upper Yampa","atlas_layer":"named_water_occurrence","object_role":"named_water_occurrence","historic_label":"Green River / blue-lineage CT","current_label":"Green River / blue-lineage CT","recovery_label":"Recovery watch / review area","tier":"tier3","minZoom":14,"confidence_public":"Watershed-level lineage context; expert review recommended","geometry_status_public":"Named natural stream occurrence from statewide hydrography","geometry_source_public":"Grouped public hydrography segments","trout_source_public":"Compiled public recovery and lineage context; expert review recommended","public_notes":"North Fork Deer Creek is shown as a named-water occurrence within watershed-level cutthroat lineage context. This is not a precise biological boundary."}},{"type":"Feature","geometry":{"type":"LineString","coordinates":[[-107.5503,40.2657],[-107.552,40.2651]]},"properties":{"source_id":"co_named_stream_104748","name":"North Fork Deer Creek","display_name":"North Fork Deer Creek","mapped_name":"North Fork Deer Creek","source_name":"North Fork Deer Creek","state":"CO","atlas_class":"named_natural_stream","huc8":"14050001","huc8Name":"Upper Yampa","huc8States":"CO","lineageKey":"greenRiverBlue","lineage":"greenRiverBlue","historic":"greenRiverBlue","current":"greenRiverBlue","recovery":"recoveryWatch","lineageLabel":"Green River / blue-lineage CT","lineageBasin":"Upper Yampa","lineageNote":"Yampa blue-lineage context","atlas_context":"cutthroat_lineage_context","confidence":"Watershed-level lineage context; expert review recommended","geometryStatus":"Named natural stream segment from statewide hydrography","note":"This named natural stream falls within a HUC8 assigned to a cutthroat lineage context.","source_segment_id":"co_named_stream_104748","water_id":"co_north_fork_deer_creek_14050001_greenRiverBlue_001","occurrence_id":"co_north_fork_deer_creek_14050001_greenRiverBlue_001","occurrence_number":"001","segment_count":17,"disambiguator":"Upper Yampa · Green River / blue-lineage CT · occurrence 001","basin":"Upper Yampa","atlas_layer":"named_water_occurrence","object_role":"named_water_occurrence","historic_label":"Green River / blue-lineage CT","current_label":"Green River / blue-lineage CT","recovery_label":"Recovery watch / review area","tier":"tier3","minZoom":14,"confidence_public":"Watershed-level lineage context; expert review recommended","geometry_status_public":"Named natural stream occurrence from statewide hydrography","geometry_source_public":"Grouped public hydrography segments","trout_source_public":"Compiled public recovery and lineage context; expert review recommended","public_notes":"North Fork Deer Creek is shown as a named-water occurrence within watershed-level cutthroat lineage context. This is not a precise biological boundary."}},{"type":"Feature","geometry":{"type":"LineString","coordinates":[[-107.552,40.2651],[-107.5535,40.2647]]},"properties":{"source_id":"co_named_stream_104750","name":"North Fork Deer Creek","display_name":"North Fork Deer Creek","mapped_name":"North Fork Deer Creek","source_name":"North Fork Deer Creek","state":"CO","atlas_class":"named_natural_stream","huc8":"14050001","huc8Name":"Upper Yampa","huc8States":"CO","lineageKey":"greenRiverBlue","lineage":"greenRiverBlue","historic":"greenRiverBlue","current":"greenRiverBlue","recovery":"recoveryWatch","lineageLabel":"Green River / blue-lineage CT","lineageBasin":"Upper Yampa","lineageNote":"Yampa blue-lineage context","atlas_context":"cutthroat_lineage_context","confidence":"Watershed-level lineage context; expert review recommended","geometryStatus":"Named natural stream segment from statewide hydrography","note":"This named natural stream falls within a HUC8 assigned to a cutthroat lineage context.","source_segment_id":"co_named_stream_104750","water_id":"co_north_fork_deer_creek_14050001_greenRiverBlue_001","occurrence_id":"co_north_fork_deer_creek_14050001_greenRiverBlue_001","occurrence_number":"001","segment_count":17,"disambiguator":"Upper Yampa · Green River / blue-lineage CT · occurrence 001","basin":"Upper Yampa","atlas_layer":"named_water_occurrence","object_role":"named_water_occurrence","historic_label":"Green River / blue-lineage CT","current_label":"Green River / blue-lineage CT","recovery_label":"Recovery watch / review area","tier":"tier3","minZoom":14,"confidence_public":"Watershed-level lineage context; expert review recommended","geometry_status_public":"Named natural stream occurrence from statewide hydrography","geometry_source_public":"Grouped public hydrography segments","trout_source_public":"Compiled public recovery and lineage context; expert review recommended","public_notes":"North Fork Deer Creek is shown as a named-water occurrence within watershed-level cutthroat lineage context. This is not a precise biological boundary."}},{"type":"Feature","geometry":{"type":"LineString","coordinates":[[-107.5562,40.2637],[-107.5577,40.263]]},"properties":{"source_id":"co_named_stream_104751","name":"North Fork Deer Creek","display_name":"North Fork Deer Creek","mapped_name":"North Fork Deer Creek","source_name":"North Fork Deer Creek","state":"CO","atlas_class":"named_natural_stream","huc8":"14050001","huc8Name":"Upper Yampa","huc8States":"CO","lineageKey":"greenRiverBlue","lineage":"greenRiverBlue","historic":"greenRiverBlue","current":"greenRiverBlue","recovery":"recoveryWatch","lineageLabel":"Green River / blue-lineage CT","lineageBasin":"Upper Yampa","lineageNote":"Yampa blue-lineage context","atlas_context":"cutthroat_lineage_context","confidence":"Watershed-level lineage context; expert review recommended","geometryStatus":"Named natural stream segment from statewide hydrography","note":"This named natural stream falls within a HUC8 assigned to a cutthroat lineage context.","source_segment_id":"co_named_stream_104751","water_id":"co_north_fork_deer_creek_14050001_greenRiverBlue_001","occurrence_id":"co_north_fork_deer_creek_14050001_greenRiverBlue_001","occurrence_number":"001","segment_count":17,"disambiguator":"Upper Yampa · Green River / blue-lineage CT · occurrence 001","basin":"Upper Yampa","atlas_layer":"named_water_occurrence","object_role":"named_water_occurrence","historic_label":"Green River / blue-lineage CT","current_label":"Green River / blue-lineage CT","recovery_label":"Recovery watch / review area","tier":"tier3","minZoom":14,"confidence_public":"Watershed-level lineage context; expert review recommended","geometry_status_public":"Named natural stream occurrence from statewide hydrography","geometry_source_public":"Grouped public hydrography segments","trout_source_public":"Compiled public recovery and lineage context; expert review recommended","public_notes":"North Fork Deer Creek is shown as a named-water occurrence within watershed-level cutthroat lineage context. This is not a precise biological boundary."}},{"type":"Feature","geometry":{"type":"LineString","coordinates":[[-107.5429,40.2614],[-107.5493,40.266]]},"properties":{"source_id":"co_named_stream_104753","name":"North Fork Deer Creek","display_name":"North Fork Deer Creek","mapped_name":"North Fork Deer Creek","source_name":"North Fork Deer Creek","state":"CO","atlas_class":"named_natural_stream","huc8":"14050001","huc8Name":"Upper Yampa","huc8States":"CO","lineageKey":"greenRiverBlue","lineage":"greenRiverBlue","historic":"greenRiverBlue","current":"greenRiverBlue","recovery":"recoveryWatch","lineageLabel":"Green River / blue-lineage CT","lineageBasin":"Upper Yampa","lineageNote":"Yampa blue-lineage context","atlas_context":"cutthroat_lineage_context","confidence":"Watershed-level lineage context; expert review recommended","geometryStatus":"Named natural stream segment from statewide hydrography","note":"This named natural stream falls within a HUC8 assigned to a cutthroat lineage context.","source_segment_id":"co_named_stream_104753","water_id":"co_north_fork_deer_creek_14050001_greenRiverBlue_001","occurrence_id":"co_north_fork_deer_creek_14050001_greenRiverBlue_001","occurrence_number":"001","segment_count":17,"disambiguator":"Upper Yampa · Green River / blue-lineage CT · occurrence 001","basin":"Upper Yampa","atlas_layer":"named_water_occurrence","object_role":"named_water_occurrence","historic_label":"Green River / blue-lineage CT","current_label":"Green River / blue-lineage CT","recovery_label":"Recovery watch / review area","tier":"tier3","minZoom":14,"confidence_public":"Watershed-level lineage context; expert review recommended","geometry_status_public":"Named natural stream occurrence from statewide hydrography","geometry_source_public":"Grouped public hydrography segments","trout_source_public":"Compiled public recovery and lineage context; expert review recommended","public_notes":"North Fork Deer Creek is shown as a named-water occurrence within watershed-level cutthroat lineage context. This is not a precise biological boundary."}},{"type":"Feature","geometry":{"type":"LineString","coordinates":[[-107.558,40.2629],[-107.5584,40.2627]]},"properties":{"source_id":"co_named_stream_104754","name":"North Fork Deer Creek","display_name":"North Fork Deer Creek","mapped_name":"North Fork Deer Creek","source_name":"North Fork Deer Creek","state":"CO","atlas_class":"named_natural_stream","huc8":"14050001","huc8Name":"Upper Yampa","huc8States":"CO","lineageKey":"greenRiverBlue","lineage":"greenRiverBlue","historic":"greenRiverBlue","current":"greenRiverBlue","recovery":"recoveryWatch","lineageLabel":"Green River / blue-lineage CT","lineageBasin":"Upper Yampa","lineageNote":"Yampa blue-lineage context","atlas_context":"cutthroat_lineage_context","confidence":"Watershed-level lineage context; expert review recommended","geometryStatus":"Named natural stream segment from statewide hydrography","note":"This named natural stream falls within a HUC8 assigned to a cutthroat lineage context.","source_segment_id":"co_named_stream_104754","water_id":"co_north_fork_deer_creek_14050001_greenRiverBlue_001","occurrence_id":"co_north_fork_deer_creek_14050001_greenRiverBlue_001","occurrence_number":"001","segment_count":17,"disambiguator":"Upper Yampa · Green River / blue-lineage CT · occurrence 001","basin":"Upper Yampa","atlas_layer":"named_water_occurrence","object_role":"named_water_occurrence","historic_label":"Green River / blue-lineage CT","current_label":"Green River / blue-lineage CT","recovery_label":"Recovery watch / review area","tier":"tier3","minZoom":14,"confidence_public":"Watershed-level lineage context; expert review recommended","geometry_status_public":"Named natural stream occurrence from statewide hydrography","geometry_source_public":"Grouped public hydrography segments","trout_source_public":"Compiled public recovery and lineage context; expert review recommended","public_notes":"North Fork Deer Creek is shown as a named-water occurrence within watershed-level cutthroat lineage context. This is not a precise biological boundary."}},{"type":"Feature","geometry":{"type":"LineString","coordinates":[[-107.5493,40.266],[-107.5499,40.2659]]},"properties":{"source_id":"co_named_stream_104756","name":"North Fork Deer Creek","display_name":"North Fork Deer Creek","mapped_name":"North Fork Deer Creek","source_name":"North Fork Deer Creek","state":"CO","atlas_class":"named_natural_stream","huc8":"14050001","huc8Name":"Upper Yampa","huc8States":"CO","lineageKey":"greenRiverBlue","lineage":"greenRiverBlue","historic":"greenRiverBlue","current":"greenRiverBlue","recovery":"recoveryWatch","lineageLabel":"Green River / blue-lineage CT","lineageBasin":"Upper Yampa","lineageNote":"Yampa blue-lineage context","atlas_context":"cutthroat_lineage_context","confidence":"Watershed-level lineage context; expert review recommended","geometryStatus":"Named natural stream segment from statewide hydrography","note":"This named natural stream falls within a HUC8 assigned to a cutthroat lineage context.","source_segment_id":"co_named_stream_104756","water_id":"co_north_fork_deer_creek_14050001_greenRiverBlue_001","occurrence_id":"co_north_fork_deer_creek_14050001_greenRiverBlue_001","occurrence_number":"001","segment_count":17,"disambiguator":"Upper Yampa · Green River / blue-lineage CT · occurrence 001","basin":"Upper Yampa","atlas_layer":"named_water_occurrence","object_role":"named_water_occurrence","historic_label":"Green River / blue-lineage CT","current_label":"Green River / blue-lineage CT","recovery_label":"Recovery watch / review area","tier":"tier3","minZoom":14,"confidence_public":"Watershed-level lineage context; expert review recommended","geometry_status_public":"Named natural stream occurrence from statewide hydrography","geometry_source_public":"Grouped public hydrography segments","trout_source_public":"Compiled public recovery and lineage context; expert review recommended","public_notes":"North Fork Deer Creek is shown as a named-water occurrence within watershed-level cutthroat lineage context. This is not a precise biological boundary."}},{"type":"Feature","geometry":{"type":"LineString","coordinates":[[-107.5372,40.2607],[-107.5405,40.2611]]},"properties":{"source_id":"co_named_stream_104760","name":"North Fork Deer Creek","display_name":"North Fork Deer Creek","mapped_name":"North Fork Deer Creek","source_name":"North Fork Deer Creek","state":"CO","atlas_class":"named_natural_stream","huc8":"14050001","huc8Name":"Upper Yampa","huc8States":"CO","lineageKey":"greenRiverBlue","lineage":"greenRiverBlue","historic":"greenRiverBlue","current":"greenRiverBlue","recovery":"recoveryWatch","lineageLabel":"Green River / blue-lineage CT","lineageBasin":"Upper Yampa","lineageNote":"Yampa blue-lineage context","atlas_context":"cutthroat_lineage_context","confidence":"Watershed-level lineage context; expert review recommended","geometryStatus":"Named natural stream segment from statewide hydrography","note":"This named natural stream falls within a HUC8 assigned to a cutthroat lineage context.","source_segment_id":"co_named_stream_104760","water_id":"co_north_fork_deer_creek_14050001_greenRiverBlue_001","occurrence_id":"co_north_fork_deer_creek_14050001_greenRiverBlue_001","occurrence_number":"001","segment_count":17,"disambiguator":"Upper Yampa · Green River / blue-lineage CT · occurrence 001","basin":"Upper Yampa","atlas_layer":"named_water_occurrence","object_role":"named_water_occurrence","historic_label":"Green River / blue-lineage CT","current_label":"Green River / blue-lineage CT","recovery_label":"Recovery watch / review area","tier":"tier3","minZoom":14,"confidence_public":"Watershed-level lineage context; expert review recommended","geometry_status_public":"Named natural stream occurrence from statewide hydrography","geometry_source_public":"Grouped public hydrography segments","trout_source_public":"Compiled public recovery and lineage context; expert review recommended","public_notes":"North Fork Deer Creek is shown as a named-water occurrence within watershed-level cutthroat lineage context. This is not a precise biological boundary."}},{"type":"Feature","geometry":{"type":"LineString","coordinates":[[-107.5346,40.2608],[-107.5372,40.2607]]},"properties":{"source_id":"co_named_stream_104764","name":"North Fork Deer Creek","display_name":"North Fork Deer Creek","mapped_name":"North Fork Deer Creek","source_name":"North Fork Deer Creek","state":"CO","atlas_class":"named_natural_stream","huc8":"14050001","huc8Name":"Upper Yampa","huc8States":"CO","lineageKey":"greenRiverBlue","lineage":"greenRiverBlue","historic":"greenRiverBlue","current":"greenRiverBlue","recovery":"recoveryWatch","lineageLabel":"Green River / blue-lineage CT","lineageBasin":"Upper Yampa","lineageNote":"Yampa blue-lineage context","atlas_context":"cutthroat_lineage_context","confidence":"Watershed-level lineage context; expert review recommended","geometryStatus":"Named natural stream segment from statewide hydrography","note":"This named natural stream falls within a HUC8 assigned to a cutthroat lineage context.","source_segment_id":"co_named_stream_104764","water_id":"co_north_fork_deer_creek_14050001_greenRiverBlue_001","occurrence_id":"co_north_fork_deer_creek_14050001_greenRiverBlue_001","occurrence_number":"001","segment_count":17,"disambiguator":"Upper Yampa · Green River / blue-lineage CT · occurrence 001","basin":"Upper Yampa","atlas_layer":"named_water_occurrence","object_role":"named_water_occurrence","historic_label":"Green River / blue-lineage CT","current_label":"Green River / blue-lineage CT","recovery_label":"Recovery watch / review area","tier":"tier3","minZoom":14,"confidence_public":"Watershed-level lineage context; expert review recommended","geometry_status_public":"Named natural stream occurrence from statewide hydrography","geometry_source_public":"Grouped public hydrography segments","trout_source_public":"Compiled public recovery and lineage context; expert review recommended","public_notes":"North Fork Deer Creek is shown as a named-water occurrence within watershed-level cutthroat lineage context. This is not a precise biological boundary."}},{"type":"Feature","geometry":{"type":"LineString","coordinates":[[-107.559,40.2625],[-107.5607,40.2623]]},"properties":{"source_id":"co_named_stream_109051","name":"North Fork Deer Creek","display_name":"North Fork Deer Creek","mapped_name":"North Fork Deer Creek","source_name":"North Fork Deer Creek","state":"CO","atlas_class":"named_natural_stream","huc8":"14050001","huc8Name":"Upper Yampa","huc8States":"CO","lineageKey":"greenRiverBlue","lineage":"greenRiverBlue","historic":"greenRiverBlue","current":"greenRiverBlue","recovery":"recoveryWatch","lineageLabel":"Green River / blue-lineage CT","lineageBasin":"Upper Yampa","lineageNote":"Yampa blue-lineage context","atlas_context":"cutthroat_lineage_context","confidence":"Watershed-level lineage context; expert review recommended","geometryStatus":"Named natural stream segment from statewide hydrography","note":"This named natural stream falls within a HUC8 assigned to a cutthroat lineage context.","source_segment_id":"co_named_stream_109051","water_id":"co_north_fork_deer_creek_14050001_greenRiverBlue_001","occurrence_id":"co_north_fork_deer_creek_14050001_greenRiverBlue_001","occurrence_number":"001","segment_count":17,"disambiguator":"Upper Yampa · Green River / blue-lineage CT · occurrence 001","basin":"Upper Yampa","atlas_layer":"named_water_occurrence","object_role":"named_water_occurrence","historic_label":"Green River / blue-lineage CT","current_label":"Green River / blue-lineage CT","recovery_label":"Recovery watch / review area","tier":"tier3","minZoom":14,"confidence_public":"Watershed-level lineage context; expert review recommended","geometry_status_public":"Named natural stream occurrence from statewide hydrography","geometry_source_public":"Grouped public hydrography segments","trout_source_public":"Compiled public recovery and lineage context; expert review recommended","public_notes":"North Fork Deer Creek is shown as a named-water occurrence within watershed-level cutthroat lineage context. This is not a precise biological boundary."}},{"type":"Feature","geometry":{"type":"LineString","coordinates":[[-107.5405,40.2611],[-107.5429,40.2614]]},"properties":{"source_id":"co_named_stream_109052","name":"North Fork Deer Creek","display_name":"North Fork Deer Creek","mapped_name":"North Fork Deer Creek","source_name":"North Fork Deer Creek","state":"CO","atlas_class":"named_natural_stream","huc8":"14050001","huc8Name":"Upper Yampa","huc8States":"CO","lineageKey":"greenRiverBlue","lineage":"greenRiverBlue","historic":"greenRiverBlue","current":"greenRiverBlue","recovery":"recoveryWatch","lineageLabel":"Green River / blue-lineage CT","lineageBasin":"Upper Yampa","lineageNote":"Yampa blue-lineage context","atlas_context":"cutthroat_lineage_context","confidence":"Watershed-level lineage context; expert review recommended","geometryStatus":"Named natural stream segment from statewide hydrography","note":"This named natural stream falls within a HUC8 assigned to a cutthroat lineage context.","source_segment_id":"co_named_stream_109052","water_id":"co_north_fork_deer_creek_14050001_greenRiverBlue_001","occurrence_id":"co_north_fork_deer_creek_14050001_greenRiverBlue_001","occurrence_number":"001","segment_count":17,"disambiguator":"Upper Yampa · Green River / blue-lineage CT · occurrence 001","basin":"Upper Yampa","atlas_layer":"named_water_occurrence","object_role":"named_water_occurrence","historic_label":"Green River / blue-lineage CT","current_label":"Green River / blue-lineage CT","recovery_label":"Recovery watch / review area","tier":"tier3","minZoom":14,"confidence_public":"Watershed-level lineage context; expert review recommended","geometry_status_public":"Named natural stream occurrence from statewide hydrography","geometry_source_public":"Grouped public hydrography segments","trout_source_public":"Compiled public recovery and lineage context; expert review recommended","public_notes":"North Fork Deer Creek is shown as a named-water occurrence within watershed-level cutthroat lineage context. This is not a precise biological boundary."}},{"type":"Feature","geometry":{"type":"LineString","coordinates":[[-107.5587,40.2626],[-107.559,40.2625]]},"properties":{"source_id":"co_named_stream_109058","name":"North Fork Deer Creek","display_name":"North Fork Deer Creek","mapped_name":"North Fork Deer Creek","source_name":"North Fork Deer Creek","state":"CO","atlas_class":"named_natural_stream","huc8":"14050001","huc8Name":"Upper Yampa","huc8States":"CO","lineageKey":"greenRiverBlue","lineage":"greenRiverBlue","historic":"greenRiverBlue","current":"greenRiverBlue","recovery":"recoveryWatch","lineageLabel":"Green River / blue-lineage CT","lineageBasin":"Upper Yampa","lineageNote":"Yampa blue-lineage context","atlas_context":"cutthroat_lineage_context","confidence":"Watershed-level lineage context; expert review recommended","geometryStatus":"Named natural stream segment from statewide hydrography","note":"This named natural stream falls within a HUC8 assigned to a cutthroat lineage context.","source_segment_id":"co_named_stream_109058","water_id":"co_north_fork_deer_creek_14050001_greenRiverBlue_001","occurrence_id":"co_north_fork_deer_creek_14050001_greenRiverBlue_001","occurrence_number":"001","segment_count":17,"disambiguator":"Upper Yampa · Green River / blue-lineage CT · occurrence 001","basin":"Upper Yampa","atlas_layer":"named_water_occurrence","object_role":"named_water_occurrence","historic_label":"Green River / blue-lineage CT","current_label":"Green River / blue-lineage CT","recovery_label":"Recovery watch / review area","tier":"tier3","minZoom":14,"confidence_public":"Watershed-level lineage context; expert review recommended","geometry_status_public":"Named natural stream occurrence from statewide hydrography","geometry_source_public":"Grouped public hydrography segments","trout_source_public":"Compiled public recovery and lineage context; expert review recommended","public_notes":"North Fork Deer Creek is shown as a named-water occurrence within watershed-level cutthroat lineage context. This is not a precise biological boundary."}},{"type":"Feature","geometry":{"type":"LineString","coordinates":[[-107.5285,40.2621],[-107.5346,40.2608]]},"properties":{"source_id":"co_named_stream_109150","name":"North Fork Deer Creek","display_name":"North Fork Deer Creek","mapped_name":"North Fork Deer Creek","source_name":"North Fork Deer Creek","state":"CO","atlas_class":"named_natural_stream","huc8":"14050001","huc8Name":"Upper Yampa","huc8States":"CO","lineageKey":"greenRiverBlue","lineage":"greenRiverBlue","historic":"greenRiverBlue","current":"greenRiverBlue","recovery":"recoveryWatch","lineageLabel":"Green River / blue-lineage CT","lineageBasin":"Upper Yampa","lineageNote":"Yampa blue-lineage context","atlas_context":"cutthroat_lineage_context","confidence":"Watershed-level lineage context; expert review recommended","geometryStatus":"Named natural stream segment from statewide hydrography","note":"This named natural stream falls within a HUC8 assigned to a cutthroat lineage context.","source_segment_id":"co_named_stream_109150","water_id":"co_north_fork_deer_creek_14050001_greenRiverBlue_001","occurrence_id":"co_north_fork_deer_creek_14050001_greenRiverBlue_001","occurrence_number":"001","segment_count":17,"disambiguator":"Upper Yampa · Green River / blue-lineage CT · occurrence 001","basin":"Upper Yampa","atlas_layer":"named_water_occurrence","object_role":"named_water_occurrence","historic_label":"Green River / blue-lineage CT","current_label":"Green River / blue-lineage CT","recovery_label":"Recovery watch / review area","tier":"tier3","minZoom":14,"confidence_public":"Watershed-level lineage context; expert review recommended","geometry_status_public":"Named natural stream occurrence from statewide hydrography","geometry_source_public":"Grouped public hydrography segments","trout_source_public":"Compiled public recovery and lineage context; expert review recommended","public_notes":"North Fork Deer Creek is shown as a named-water occurrence within watershed-level cutthroat lineage context. This is not a precise biological boundary."}},{"type":"Feature","geometry":{"type":"LineString","coordinates":[[-107.64,40.4987],[-107.6396,40.4977]]},"properties":{"source_id":"co_named_stream_105048","name":"Bogenschutz Creek","display_name":"Bogenschutz Creek","mapped_name":"Bogenschutz Creek","source_name":"Bogenschutz Creek","state":"CO","atlas_class":"named_natural_stream","huc8":"14050001","huc8Name":"Upper Yampa","huc8States":"CO","lineageKey":"greenRiverBlue","lineage":"greenRiverBlue","historic":"greenRiverBlue","current":"greenRiverBlue","recovery":"recoveryWatch","lineageLabel":"Green River / blue-lineage CT","lineageBasin":"Upper Yampa","lineageNote":"Yampa blue-lineage context","atlas_context":"cutthroat_lineage_context","confidence":"Watershed-level lineage context; expert review recommended","geometryStatus":"Named natural stream segment from statewide hydrography","note":"This named natural stream falls within a HUC8 assigned to a cutthroat lineage context.","source_segment_id":"co_named_stream_105048","water_id":"co_bogenschutz_creek_14050001_greenRiverBlue_001","occurrence_id":"co_bogenschutz_creek_14050001_greenRiverBlue_001","occurrence_number":"001","segment_count":12,"disambiguator":"Upper Yampa · Green River / blue-lineage CT · occurrence 001","basin":"Upper Yampa","atlas_layer":"named_water_occurrence","object_role":"named_water_occurrence","historic_label":"Green River / blue-lineage CT","current_label":"Green River / blue-lineage CT","recovery_label":"Recovery watch / review area","tier":"tier3","minZoom":14,"confidence_public":"Watershed-level lineage context; expert review recommended","geometry_status_public":"Named natural stream occurrence from statewide hydrography","geometry_source_public":"Grouped public hydrography segments","trout_source_public":"Compiled public recovery and lineage context; expert review recommended","public_notes":"Bogenschutz Creek is shown as a named-water occurrence within watershed-level cutthroat lineage context. This is not a precise biological boundary."}},{"type":"Feature","geometry":{"type":"LineString","coordinates":[[-107.6444,40.5019],[-107.64,40.4987]]},"properties":{"source_id":"co_named_stream_105049","name":"Bogenschutz Creek","display_name":"Bogenschutz Creek","mapped_name":"Bogenschutz Creek","source_name":"Bogenschutz Creek","state":"CO","atlas_class":"named_natural_stream","huc8":"14050001","huc8Name":"Upper Yampa","huc8States":"CO","lineageKey":"greenRiverBlue","lineage":"greenRiverBlue","historic":"greenRiverBlue","current":"greenRiverBlue","recovery":"recoveryWatch","lineageLabel":"Green River / blue-lineage CT","lineageBasin":"Upper Yampa","lineageNote":"Yampa blue-lineage context","atlas_context":"cutthroat_lineage_context","confidence":"Watershed-level lineage context; expert review recommended","geometryStatus":"Named natural stream segment from statewide hydrography","note":"This named natural stream falls within a HUC8 assigned to a cutthroat lineage context.","source_segment_id":"co_named_stream_105049","water_id":"co_bogenschutz_creek_14050001_greenRiverBlue_001","occurrence_id":"co_bogenschutz_creek_14050001_greenRiverBlue_001","occurrence_number":"001","segment_count":12,"disambiguator":"Upper Yampa · Green River / blue-lineage CT · occurrence 001","basin":"Upper Yampa","atlas_layer":"named_water_occurrence","object_role":"named_water_occurrence","historic_label":"Green River / blue-lineage CT","current_label":"Green River / blue-lineage CT","recovery_label":"Recovery watch / review area","tier":"tier3","minZoom":14,"confidence_public":"Watershed-level lineage context; expert review recommended","geometry_status_public":"Named natural stream occurrence from statewide hydrography","geometry_source_public":"Grouped public hydrography segments","trout_source_public":"Compiled public recovery and lineage context; expert review recommended","public_notes":"Bogenschutz Creek is shown as a named-water occurrence within watershed-level cutthroat lineage context. This is not a precise biological boundary."}},{"type":"Feature","geometry":{"type":"LineString","coordinates":[[-107.6396,40.4977],[-107.6381,40.4967]]},"properties":{"source_id":"co_named_stream_105053","name":"Bogenschutz Creek","display_name":"Bogenschutz Creek","mapped_name":"Bogenschutz Creek","source_name":"Bogenschutz Creek","state":"CO","atlas_class":"named_natural_stream","huc8":"14050001","huc8Name":"Upper Yampa","huc8States":"CO","lineageKey":"greenRiverBlue","lineage":"greenRiverBlue","historic":"greenRiverBlue","current":"greenRiverBlue","recovery":"recoveryWatch","lineageLabel":"Green River / blue-lineage CT","lineageBasin":"Upper Yampa","lineageNote":"Yampa blue-lineage context","atlas_context":"cutthroat_lineage_context","confidence":"Watershed-level lineage context; expert review recommended","geometryStatus":"Named natural stream segment from statewide hydrography","note":"This named natural stream falls within a HUC8 assigned to a cutthroat lineage context.","source_segment_id":"co_named_stream_105053","water_id":"co_bogenschutz_creek_14050001_greenRiverBlue_001","occurrence_id":"co_bogenschutz_creek_14050001_greenRiverBlue_001","occurrence_number":"001","segment_count":12,"disambiguator":"Upper Yampa · Green River / blue-lineage CT · occurrence 001","basin":"Upper Yampa","atlas_layer":"named_water_occurrence","object_role":"named_water_occurrence","historic_label":"Green River / blue-lineage CT","current_label":"Green River / blue-lineage CT","recovery_label":"Recovery watch / review area","tier":"tier3","minZoom":14,"confidence_public":"Watershed-level lineage context; expert review recommended","geometry_status_public":"Named natural stream occurrence from statewide hydrography","geometry_source_public":"Grouped public hydrography segments","trout_source_public":"Compiled public recovery and lineage context; expert review recommended","public_notes":"Bogenschutz Creek is shown as a named-water occurrence within watershed-level cutthroat lineage context. This is not a precise biological boundary."}},{"type":"Feature","geometry":{"type":"LineString","coordinates":[[-107.633,40.4923],[-107.6283,40.4845],[-107.6282,40.4829],[-107.6267,40.4818],[-107.627,40.4811]]},"properties":{"source_id":"co_named_stream_106806","name":"Bogenschutz Creek","display_name":"Bogenschutz Creek","mapped_name":"Bogenschutz Creek","source_name":"Bogenschutz Creek","state":"CO","atlas_class":"named_natural_stream","huc8":"14050001","huc8Name":"Upper Yampa","huc8States":"CO","lineageKey":"greenRiverBlue","lineage":"greenRiverBlue","historic":"greenRiverBlue","current":"greenRiverBlue","recovery":"recoveryWatch","lineageLabel":"Green River / blue-lineage CT","lineageBasin":"Upper Yampa","lineageNote":"Yampa blue-lineage context","atlas_context":"cutthroat_lineage_context","confidence":"Watershed-level lineage context; expert review recommended","geometryStatus":"Named natural stream segment from statewide hydrography","note":"This named natural stream falls within a HUC8 assigned to a cutthroat lineage context.","source_segment_id":"co_named_stream_106806","water_id":"co_bogenschutz_creek_14050001_greenRiverBlue_001","occurrence_id":"co_bogenschutz_creek_14050001_greenRiverBlue_001","occurrence_number":"001","segment_count":12,"disambiguator":"Upper Yampa · Green River / blue-lineage CT · occurrence 001","basin":"Upper Yampa","atlas_layer":"named_water_occurrence","object_role":"named_water_occurrence","historic_label":"Green River / blue-lineage CT","current_label":"Green River / blue-lineage CT","recovery_label":"Recovery watch / review area","tier":"tier3","minZoom":14,"confidence_public":"Watershed-level lineage context; expert review recommended","geometry_status_public":"Named natural stream occurrence from statewide hydrography","geometry_source_public":"Grouped public hydrography segments","trout_source_public":"Compiled public recovery and lineage context; expert review recommended","public_notes":"Bogenschutz Creek is shown as a named-water occurrence within watershed-level cutthroat lineage context. This is not a precise biological boundary."}},{"type":"Feature","geometry":{"type":"LineString","coordinates":[[-107.627,40.4811],[-107.6242,40.4783],[-107.6235,40.4752]]},"properties":{"source_id":"co_named_stream_106807","name":"Bogenschutz Creek","display_name":"Bogenschutz Creek","mapped_name":"Bogenschutz Creek","source_name":"Bogenschutz Creek","state":"CO","atlas_class":"named_natural_stream","huc8":"14050001","huc8Name":"Upper Yampa","huc8States":"CO","lineageKey":"greenRiverBlue","lineage":"greenRiverBlue","historic":"greenRiverBlue","current":"greenRiverBlue","recovery":"recoveryWatch","lineageLabel":"Green River / blue-lineage CT","lineageBasin":"Upper Yampa","lineageNote":"Yampa blue-lineage context","atlas_context":"cutthroat_lineage_context","confidence":"Watershed-level lineage context; expert review recommended","geometryStatus":"Named natural stream segment from statewide hydrography","note":"This named natural stream falls within a HUC8 assigned to a cutthroat lineage context.","source_segment_id":"co_named_stream_106807","water_id":"co_bogenschutz_creek_14050001_greenRiverBlue_001","occurrence_id":"co_bogenschutz_creek_14050001_greenRiverBlue_001","occurrence_number":"001","segment_count":12,"disambiguator":"Upper Yampa · Green River / blue-lineage CT · occurrence 001","basin":"Upper Yampa","atlas_layer":"named_water_occurrence","object_role":"named_water_occurrence","historic_label":"Green River / blue-lineage CT","current_label":"Green River / blue-lineage CT","recovery_label":"Recovery watch / review area","tier":"tier3","minZoom":14,"confidence_public":"Watershed-level lineage context; expert review recommended","geometry_status_public":"Named natural stream occurrence from statewide hydrography","geometry_source_public":"Grouped public hydrography segments","trout_source_public":"Compiled public recovery and lineage context; expert review recommended","public_notes":"Bogenschutz Creek is shown as a named-water occurrence within watershed-level cutthroat lineage context. This is not a precise biological boundary."}},{"type":"Feature","geometry":{"type":"LineString","coordinates":[[-107.6337,40.4938],[-107.633,40.4923]]},"properties":{"source_id":"co_named_stream_106808","name":"Bogenschutz Creek","display_name":"Bogenschutz Creek","mapped_name":"Bogenschutz Creek","source_name":"Bogenschutz Creek","state":"CO","atlas_class":"named_natural_stream","huc8":"14050001","huc8Name":"Upper Yampa","huc8States":"CO","lineageKey":"greenRiverBlue","lineage":"greenRiverBlue","historic":"greenRiverBlue","current":"greenRiverBlue","recovery":"recoveryWatch","lineageLabel":"Green River / blue-lineage CT","lineageBasin":"Upper Yampa","lineageNote":"Yampa blue-lineage context","atlas_context":"cutthroat_lineage_context","confidence":"Watershed-level lineage context; expert review recommended","geometryStatus":"Named natural stream segment from statewide hydrography","note":"This named natural stream falls within a HUC8 assigned to a cutthroat lineage context.","source_segment_id":"co_named_stream_106808","water_id":"co_bogenschutz_creek_14050001_greenRiverBlue_001","occurrence_id":"co_bogenschutz_creek_14050001_greenRiverBlue_001","occurrence_number":"001","segment_count":12,"disambiguator":"Upper Yampa · Green River / blue-lineage CT · occurrence 001","basin":"Upper Yampa","atlas_layer":"named_water_occurrence","object_role":"named_water_occurrence","historic_label":"Green River / blue-lineage CT","current_label":"Green River / blue-lineage CT","recovery_label":"Recovery watch / review area","tier":"tier3","minZoom":14,"confidence_public":"Watershed-level lineage context; expert review recommended","geometry_status_public":"Named natural stream occurrence from statewide hydrography","geometry_source_public":"Grouped public hydrography segments","trout_source_public":"Compiled public recovery and lineage context; expert review recommended","public_notes":"Bogenschutz Creek is shown as a named-water occurrence within watershed-level cutthroat lineage context. This is not a precise biological boundary."}},{"type":"Feature","geometry":{"type":"LineString","coordinates":[[-107.6381,40.4967],[-107.6337,40.4938]]},"properties":{"source_id":"co_named_stream_106809","name":"Bogenschutz Creek","display_name":"Bogenschutz Creek","mapped_name":"Bogenschutz Creek","source_name":"Bogenschutz Creek","state":"CO","atlas_class":"named_natural_stream","huc8":"14050001","huc8Name":"Upper Yampa","huc8States":"CO","lineageKey":"greenRiverBlue","lineage":"greenRiverBlue","historic":"greenRiverBlue","current":"greenRiverBlue","recovery":"recoveryWatch","lineageLabel":"Green River / blue-lineage CT","lineageBasin":"Upper Yampa","lineageNote":"Yampa blue-lineage context","atlas_context":"cutthroat_lineage_context","confidence":"Watershed-level lineage context; expert review recommended","geometryStatus":"Named natural stream segment from statewide hydrography","note":"This named natural stream falls within a HUC8 assigned to a cutthroat lineage context.","source_segment_id":"co_named_stream_106809","water_id":"co_bogenschutz_creek_14050001_greenRiverBlue_001","occurrence_id":"co_bogenschutz_creek_14050001_greenRiverBlue_001","occurrence_number":"001","segment_count":12,"disambiguator":"Upper Yampa · Green River / blue-lineage CT · occurrence 001","basin":"Upper Yampa","atlas_layer":"named_water_occurrence","object_role":"named_water_occurrence","historic_label":"Green River / blue-lineage CT","current_label":"Green River / blue-lineage CT","recovery_label":"Recovery watch / review area","tier":"tier3","minZoom":14,"confidence_public":"Watershed-level lineage context; expert review recommended","geometry_status_public":"Named natural stream occurrence from statewide hydrography","geometry_source_public":"Grouped public hydrography segments","trout_source_public":"Compiled public recovery and lineage context; expert review recommended","public_notes":"Bogenschutz Creek is shown as a named-water occurrence within watershed-level cutthroat lineage context. This is not a precise biological boundary."}}]}