{"type":"FeatureCollection","metadata":{"source":"C:\\ct-atlas-data\\processed\\geojson\\interpreted\\colorado_named_natural_streams_complete_v1.geojson","tier":"tier3","tile_size_degrees":0.25,"x":-422,"y":152,"bounds":{"west":-105.5,"south":38,"east":-105.25,"north":38.25}},"features":[{"type":"Feature","geometry":{"type":"LineString","coordinates":[[-105.4622,38.0802],[-105.462,38.0803]]},"properties":{"source_id":"co_named_stream_028421","name":"Grape Creek","display_name":"Grape Creek","mapped_name":"Grape Creek","source_name":"Grape Creek","state":"CO","atlas_class":"named_natural_stream","huc8":"11020001","huc8Name":"Arkansas Headwaters","huc8States":"CO","lineageKey":"yellowfin","lineage":"yellowfin","historic":"yellowfin","current":"yellowfin","recovery":"recoveryWatch","lineageLabel":"Yellowfin / Arkansas headwaters historical form","lineageBasin":"Arkansas Headwaters","lineageNote":"Atlas model treats Arkansas watershed as Yellowfin historical context","atlas_context":"cutthroat_lineage_context","confidence":"Watershed-level lineage context; expert review recommended","geometryStatus":"Named natural stream segment from statewide hydrography","note":"This named natural stream falls within a HUC8 assigned to a cutthroat lineage context.","source_segment_id":"co_named_stream_028421","water_id":"co_grape_creek_11020001_yellowfin_004","occurrence_id":"co_grape_creek_11020001_yellowfin_004","occurrence_number":"004","segment_count":3,"disambiguator":"Arkansas Headwaters · Yellowfin / Arkansas headwaters historical form · occurrence 004","basin":"Arkansas Headwaters","atlas_layer":"named_water_occurrence","object_role":"named_water_occurrence","historic_label":"Yellowfin / Arkansas headwaters historical form","current_label":"Yellowfin / Arkansas headwaters historical form","recovery_label":"Recovery watch / review area","tier":"tier3","minZoom":14,"confidence_public":"Watershed-level lineage context; expert review recommended","geometry_status_public":"Named natural stream occurrence from statewide hydrography","geometry_source_public":"Grouped public hydrography segments","trout_source_public":"Compiled public recovery and lineage context; expert review recommended","public_notes":"Grape Creek is shown as a named-water occurrence within watershed-level cutthroat lineage context. This is not a precise biological boundary."}},{"type":"Feature","geometry":{"type":"LineString","coordinates":[[-105.449,38.0709],[-105.4506,38.0716],[-105.4499,38.0727],[-105.4519,38.0728],[-105.4523,38.0719],[-105.4524,38.0732],[-105.4549,38.0734],[-105.4544,38.0758],[-105.4565,38.0756],[-105.4571,38.0763],[-105.4577,38.0756]]},"properties":{"source_id":"co_named_stream_028715","name":"Grape Creek","display_name":"Grape Creek","mapped_name":"Grape Creek","source_name":"Grape Creek","state":"CO","atlas_class":"named_natural_stream","huc8":"11020001","huc8Name":"Arkansas Headwaters","huc8States":"CO","lineageKey":"yellowfin","lineage":"yellowfin","historic":"yellowfin","current":"yellowfin","recovery":"recoveryWatch","lineageLabel":"Yellowfin / Arkansas headwaters historical form","lineageBasin":"Arkansas Headwaters","lineageNote":"Atlas model treats Arkansas watershed as Yellowfin historical context","atlas_context":"cutthroat_lineage_context","confidence":"Watershed-level lineage context; expert review recommended","geometryStatus":"Named natural stream segment from statewide hydrography","note":"This named natural stream falls within a HUC8 assigned to a cutthroat lineage context.","source_segment_id":"co_named_stream_028715","water_id":"co_grape_creek_11020001_yellowfin_004","occurrence_id":"co_grape_creek_11020001_yellowfin_004","occurrence_number":"004","segment_count":3,"disambiguator":"Arkansas Headwaters · Yellowfin / Arkansas headwaters historical form · occurrence 004","basin":"Arkansas Headwaters","atlas_layer":"named_water_occurrence","object_role":"named_water_occurrence","historic_label":"Yellowfin / Arkansas headwaters historical form","current_label":"Yellowfin / Arkansas headwaters historical form","recovery_label":"Recovery watch / review area","tier":"tier3","minZoom":14,"confidence_public":"Watershed-level lineage context; expert review recommended","geometry_status_public":"Named natural stream occurrence from statewide hydrography","geometry_source_public":"Grouped public hydrography segments","trout_source_public":"Compiled public recovery and lineage context; expert review recommended","public_notes":"Grape Creek is shown as a named-water occurrence within watershed-level cutthroat lineage context. This is not a precise biological boundary."}},{"type":"Feature","geometry":{"type":"LineString","coordinates":[[-105.4512,38.0673],[-105.4505,38.0696],[-105.4482,38.0708]]},"properties":{"source_id":"co_named_stream_032615","name":"Grape Creek","display_name":"Grape Creek","mapped_name":"Grape Creek","source_name":"Grape Creek","state":"CO","atlas_class":"named_natural_stream","huc8":"11020001","huc8Name":"Arkansas Headwaters","huc8States":"CO","lineageKey":"yellowfin","lineage":"yellowfin","historic":"yellowfin","current":"yellowfin","recovery":"recoveryWatch","lineageLabel":"Yellowfin / Arkansas headwaters historical form","lineageBasin":"Arkansas Headwaters","lineageNote":"Atlas model treats Arkansas watershed as Yellowfin historical context","atlas_context":"cutthroat_lineage_context","confidence":"Watershed-level lineage context; expert review recommended","geometryStatus":"Named natural stream segment from statewide hydrography","note":"This named natural stream falls within a HUC8 assigned to a cutthroat lineage context.","source_segment_id":"co_named_stream_032615","water_id":"co_grape_creek_11020001_yellowfin_004","occurrence_id":"co_grape_creek_11020001_yellowfin_004","occurrence_number":"004","segment_count":3,"disambiguator":"Arkansas Headwaters · Yellowfin / Arkansas headwaters historical form · occurrence 004","basin":"Arkansas Headwaters","atlas_layer":"named_water_occurrence","object_role":"named_water_occurrence","historic_label":"Yellowfin / Arkansas headwaters historical form","current_label":"Yellowfin / Arkansas headwaters historical form","recovery_label":"Recovery watch / review area","tier":"tier3","minZoom":14,"confidence_public":"Watershed-level lineage context; expert review recommended","geometry_status_public":"Named natural stream occurrence from statewide hydrography","geometry_source_public":"Grouped public hydrography segments","trout_source_public":"Compiled public recovery and lineage context; expert review recommended","public_notes":"Grape Creek is shown as a named-water occurrence within watershed-level cutthroat lineage context. This is not a precise biological boundary."}},{"type":"Feature","geometry":{"type":"LineString","coordinates":[[-105.5104,38.1629],[-105.5002,38.1655],[-105.4983,38.1667]]},"properties":{"source_id":"co_named_stream_036097","name":"Luton Creek","display_name":"Luton Creek","mapped_name":"Luton Creek","source_name":"Luton Creek","state":"CO","atlas_class":"named_natural_stream","huc8":"11020001","huc8Name":"Arkansas Headwaters","huc8States":"CO","lineageKey":"yellowfin","lineage":"yellowfin","historic":"yellowfin","current":"yellowfin","recovery":"recoveryWatch","lineageLabel":"Yellowfin / Arkansas headwaters historical form","lineageBasin":"Arkansas Headwaters","lineageNote":"Atlas model treats Arkansas watershed as Yellowfin historical context","atlas_context":"cutthroat_lineage_context","confidence":"Watershed-level lineage context; expert review recommended","geometryStatus":"Named natural stream segment from statewide hydrography","note":"This named natural stream falls within a HUC8 assigned to a cutthroat lineage context.","source_segment_id":"co_named_stream_036097","water_id":"co_luton_creek_11020001_yellowfin_001","occurrence_id":"co_luton_creek_11020001_yellowfin_001","occurrence_number":"001","segment_count":11,"disambiguator":"Arkansas Headwaters · Yellowfin / Arkansas headwaters historical form · occurrence 001","basin":"Arkansas Headwaters","atlas_layer":"named_water_occurrence","object_role":"named_water_occurrence","historic_label":"Yellowfin / Arkansas headwaters historical form","current_label":"Yellowfin / Arkansas headwaters historical form","recovery_label":"Recovery watch / review area","tier":"tier3","minZoom":14,"confidence_public":"Watershed-level lineage context; expert review recommended","geometry_status_public":"Named natural stream occurrence from statewide hydrography","geometry_source_public":"Grouped public hydrography segments","trout_source_public":"Compiled public recovery and lineage context; expert review recommended","public_notes":"Luton Creek is shown as a named-water occurrence within watershed-level cutthroat lineage context. This is not a precise biological boundary."}},{"type":"Feature","geometry":{"type":"LineString","coordinates":[[-105.2564,38.0111],[-105.2585,38.0108]]},"properties":{"source_id":"co_named_stream_028060","name":"Lapin Creek","display_name":"Lapin Creek","mapped_name":"Lapin Creek","source_name":"Lapin Creek","state":"CO","atlas_class":"named_natural_stream","huc8":"11020001","huc8Name":"Arkansas Headwaters","huc8States":"CO","lineageKey":"yellowfin","lineage":"yellowfin","historic":"yellowfin","current":"yellowfin","recovery":"recoveryWatch","lineageLabel":"Yellowfin / Arkansas headwaters historical form","lineageBasin":"Arkansas Headwaters","lineageNote":"Atlas model treats Arkansas watershed as Yellowfin historical context","atlas_context":"cutthroat_lineage_context","confidence":"Watershed-level lineage context; expert review recommended","geometryStatus":"Named natural stream segment from statewide hydrography","note":"This named natural stream falls within a HUC8 assigned to a cutthroat lineage context.","source_segment_id":"co_named_stream_028060","water_id":"co_lapin_creek_11020001_yellowfin_002","occurrence_id":"co_lapin_creek_11020001_yellowfin_002","occurrence_number":"002","segment_count":1,"disambiguator":"Arkansas Headwaters · Yellowfin / Arkansas headwaters historical form · occurrence 002","basin":"Arkansas Headwaters","atlas_layer":"named_water_occurrence","object_role":"named_water_occurrence","historic_label":"Yellowfin / Arkansas headwaters historical form","current_label":"Yellowfin / Arkansas headwaters historical form","recovery_label":"Recovery watch / review area","tier":"tier3","minZoom":14,"confidence_public":"Watershed-level lineage context; expert review recommended","geometry_status_public":"Named natural stream occurrence from statewide hydrography","geometry_source_public":"Grouped public hydrography segments","trout_source_public":"Compiled public recovery and lineage context; expert review recommended","public_notes":"Lapin Creek is shown as a named-water occurrence within watershed-level cutthroat lineage context. This is not a precise biological boundary."}},{"type":"Feature","geometry":{"type":"LineString","coordinates":[[-105.4737,38.1122],[-105.4768,38.1145],[-105.4776,38.1206],[-105.477,38.1219]]},"properties":{"source_id":"co_named_stream_031879","name":"Spring Creek","display_name":"Spring Creek","mapped_name":"Spring Creek","source_name":"Spring Creek","state":"CO","atlas_class":"named_natural_stream","huc8":"11020001","huc8Name":"Arkansas Headwaters","huc8States":"CO","lineageKey":"yellowfin","lineage":"yellowfin","historic":"yellowfin","current":"yellowfin","recovery":"recoveryWatch","lineageLabel":"Yellowfin / Arkansas headwaters historical form","lineageBasin":"Arkansas Headwaters","lineageNote":"Atlas model treats Arkansas watershed as Yellowfin historical context","atlas_context":"cutthroat_lineage_context","confidence":"Watershed-level lineage context; expert review recommended","geometryStatus":"Named natural stream segment from statewide hydrography","note":"This named natural stream falls within a HUC8 assigned to a cutthroat lineage context.","source_segment_id":"co_named_stream_031879","water_id":"co_spring_creek_11020001_yellowfin_005","occurrence_id":"co_spring_creek_11020001_yellowfin_005","occurrence_number":"005","segment_count":5,"disambiguator":"Arkansas Headwaters · Yellowfin / Arkansas headwaters historical form · occurrence 005","basin":"Arkansas Headwaters","atlas_layer":"named_water_occurrence","object_role":"named_water_occurrence","historic_label":"Yellowfin / Arkansas headwaters historical form","current_label":"Yellowfin / Arkansas headwaters historical form","recovery_label":"Recovery watch / review area","tier":"tier3","minZoom":14,"confidence_public":"Watershed-level lineage context; expert review recommended","geometry_status_public":"Named natural stream occurrence from statewide hydrography","geometry_source_public":"Grouped public hydrography segments","trout_source_public":"Compiled public recovery and lineage context; expert review recommended","public_notes":"Spring Creek is shown as a named-water occurrence within watershed-level cutthroat lineage context. This is not a precise biological boundary."}},{"type":"Feature","geometry":{"type":"LineString","coordinates":[[-105.4848,38.1437],[-105.4861,38.1473],[-105.485,38.1489],[-105.4862,38.1497],[-105.486,38.1504],[-105.4843,38.1501],[-105.4853,38.1525],[-105.4841,38.1523],[-105.4847,38.1532],[-105.4834,38.1532]]},"properties":{"source_id":"co_named_stream_031880","name":"Spring Creek","display_name":"Spring Creek","mapped_name":"Spring Creek","source_name":"Spring Creek","state":"CO","atlas_class":"named_natural_stream","huc8":"11020001","huc8Name":"Arkansas Headwaters","huc8States":"CO","lineageKey":"yellowfin","lineage":"yellowfin","historic":"yellowfin","current":"yellowfin","recovery":"recoveryWatch","lineageLabel":"Yellowfin / Arkansas headwaters historical form","lineageBasin":"Arkansas Headwaters","lineageNote":"Atlas model treats Arkansas watershed as Yellowfin historical context","atlas_context":"cutthroat_lineage_context","confidence":"Watershed-level lineage context; expert review recommended","geometryStatus":"Named natural stream segment from statewide hydrography","note":"This named natural stream falls within a HUC8 assigned to a cutthroat lineage context.","source_segment_id":"co_named_stream_031880","water_id":"co_spring_creek_11020001_yellowfin_005","occurrence_id":"co_spring_creek_11020001_yellowfin_005","occurrence_number":"005","segment_count":5,"disambiguator":"Arkansas Headwaters · Yellowfin / Arkansas headwaters historical form · occurrence 005","basin":"Arkansas Headwaters","atlas_layer":"named_water_occurrence","object_role":"named_water_occurrence","historic_label":"Yellowfin / Arkansas headwaters historical form","current_label":"Yellowfin / Arkansas headwaters historical form","recovery_label":"Recovery watch / review area","tier":"tier3","minZoom":14,"confidence_public":"Watershed-level lineage context; expert review recommended","geometry_status_public":"Named natural stream occurrence from statewide hydrography","geometry_source_public":"Grouped public hydrography segments","trout_source_public":"Compiled public recovery and lineage context; expert review recommended","public_notes":"Spring Creek is shown as a named-water occurrence within watershed-level cutthroat lineage context. This is not a precise biological boundary."}},{"type":"Feature","geometry":{"type":"LineString","coordinates":[[-105.477,38.1219],[-105.4786,38.1237],[-105.4801,38.1239],[-105.4815,38.1264],[-105.4815,38.1306],[-105.4826,38.135]]},"properties":{"source_id":"co_named_stream_047118","name":"Spring Creek","display_name":"Spring Creek","mapped_name":"Spring Creek","source_name":"Spring Creek","state":"CO","atlas_class":"named_natural_stream","huc8":"11020001","huc8Name":"Arkansas Headwaters","huc8States":"CO","lineageKey":"yellowfin","lineage":"yellowfin","historic":"yellowfin","current":"yellowfin","recovery":"recoveryWatch","lineageLabel":"Yellowfin / Arkansas headwaters historical form","lineageBasin":"Arkansas Headwaters","lineageNote":"Atlas model treats Arkansas watershed as Yellowfin historical context","atlas_context":"cutthroat_lineage_context","confidence":"Watershed-level lineage context; expert review recommended","geometryStatus":"Named natural stream segment from statewide hydrography","note":"This named natural stream falls within a HUC8 assigned to a cutthroat lineage context.","source_segment_id":"co_named_stream_047118","water_id":"co_spring_creek_11020001_yellowfin_005","occurrence_id":"co_spring_creek_11020001_yellowfin_005","occurrence_number":"005","segment_count":5,"disambiguator":"Arkansas Headwaters · Yellowfin / Arkansas headwaters historical form · occurrence 005","basin":"Arkansas Headwaters","atlas_layer":"named_water_occurrence","object_role":"named_water_occurrence","historic_label":"Yellowfin / Arkansas headwaters historical form","current_label":"Yellowfin / Arkansas headwaters historical form","recovery_label":"Recovery watch / review area","tier":"tier3","minZoom":14,"confidence_public":"Watershed-level lineage context; expert review recommended","geometry_status_public":"Named natural stream occurrence from statewide hydrography","geometry_source_public":"Grouped public hydrography segments","trout_source_public":"Compiled public recovery and lineage context; expert review recommended","public_notes":"Spring Creek is shown as a named-water occurrence within watershed-level cutthroat lineage context. This is not a precise biological boundary."}},{"type":"Feature","geometry":{"type":"LineString","coordinates":[[-105.4826,38.135],[-105.4818,38.1371],[-105.4822,38.1389],[-105.4815,38.1396],[-105.4831,38.1406],[-105.4836,38.1428],[-105.4848,38.1437]]},"properties":{"source_id":"co_named_stream_047119","name":"Spring Creek","display_name":"Spring Creek","mapped_name":"Spring Creek","source_name":"Spring Creek","state":"CO","atlas_class":"named_natural_stream","huc8":"11020001","huc8Name":"Arkansas Headwaters","huc8States":"CO","lineageKey":"yellowfin","lineage":"yellowfin","historic":"yellowfin","current":"yellowfin","recovery":"recoveryWatch","lineageLabel":"Yellowfin / Arkansas headwaters historical form","lineageBasin":"Arkansas Headwaters","lineageNote":"Atlas model treats Arkansas watershed as Yellowfin historical context","atlas_context":"cutthroat_lineage_context","confidence":"Watershed-level lineage context; expert review recommended","geometryStatus":"Named natural stream segment from statewide hydrography","note":"This named natural stream falls within a HUC8 assigned to a cutthroat lineage context.","source_segment_id":"co_named_stream_047119","water_id":"co_spring_creek_11020001_yellowfin_005","occurrence_id":"co_spring_creek_11020001_yellowfin_005","occurrence_number":"005","segment_count":5,"disambiguator":"Arkansas Headwaters · Yellowfin / Arkansas headwaters historical form · occurrence 005","basin":"Arkansas Headwaters","atlas_layer":"named_water_occurrence","object_role":"named_water_occurrence","historic_label":"Yellowfin / Arkansas headwaters historical form","current_label":"Yellowfin / Arkansas headwaters historical form","recovery_label":"Recovery watch / review area","tier":"tier3","minZoom":14,"confidence_public":"Watershed-level lineage context; expert review recommended","geometry_status_public":"Named natural stream occurrence from statewide hydrography","geometry_source_public":"Grouped public hydrography segments","trout_source_public":"Compiled public recovery and lineage context; expert review recommended","public_notes":"Spring Creek is shown as a named-water occurrence within watershed-level cutthroat lineage context. This is not a precise biological boundary."}},{"type":"Feature","geometry":{"type":"LineString","coordinates":[[-105.4731,38.1117],[-105.4737,38.1122]]},"properties":{"source_id":"co_named_stream_047520","name":"Spring Creek","display_name":"Spring Creek","mapped_name":"Spring Creek","source_name":"Spring Creek","state":"CO","atlas_class":"named_natural_stream","huc8":"11020001","huc8Name":"Arkansas Headwaters","huc8States":"CO","lineageKey":"yellowfin","lineage":"yellowfin","historic":"yellowfin","current":"yellowfin","recovery":"recoveryWatch","lineageLabel":"Yellowfin / Arkansas headwaters historical form","lineageBasin":"Arkansas Headwaters","lineageNote":"Atlas model treats Arkansas watershed as Yellowfin historical context","atlas_context":"cutthroat_lineage_context","confidence":"Watershed-level lineage context; expert review recommended","geometryStatus":"Named natural stream segment from statewide hydrography","note":"This named natural stream falls within a HUC8 assigned to a cutthroat lineage context.","source_segment_id":"co_named_stream_047520","water_id":"co_spring_creek_11020001_yellowfin_005","occurrence_id":"co_spring_creek_11020001_yellowfin_005","occurrence_number":"005","segment_count":5,"disambiguator":"Arkansas Headwaters · Yellowfin / Arkansas headwaters historical form · occurrence 005","basin":"Arkansas Headwaters","atlas_layer":"named_water_occurrence","object_role":"named_water_occurrence","historic_label":"Yellowfin / Arkansas headwaters historical form","current_label":"Yellowfin / Arkansas headwaters historical form","recovery_label":"Recovery watch / review area","tier":"tier3","minZoom":14,"confidence_public":"Watershed-level lineage context; expert review recommended","geometry_status_public":"Named natural stream occurrence from statewide hydrography","geometry_source_public":"Grouped public hydrography segments","trout_source_public":"Compiled public recovery and lineage context; expert review recommended","public_notes":"Spring Creek is shown as a named-water occurrence within watershed-level cutthroat lineage context. This is not a precise biological boundary."}},{"type":"Feature","geometry":{"type":"LineString","coordinates":[[-105.4159,38.0533],[-105.4189,38.0546],[-105.4191,38.0561],[-105.4202,38.0564],[-105.4199,38.0573],[-105.4287,38.0618],[-105.43,38.0644],[-105.4341,38.0671],[-105.4374,38.0708],[-105.4384,38.0702],[-105.4486,38.0718],[-105.449,38.0709]]},"properties":{"source_id":"co_named_stream_029555","name":"Antelope Creek","display_name":"Antelope Creek","mapped_name":"Antelope Creek","source_name":"Antelope Creek","state":"CO","atlas_class":"named_natural_stream","huc8":"11020001","huc8Name":"Arkansas Headwaters","huc8States":"CO","lineageKey":"yellowfin","lineage":"yellowfin","historic":"yellowfin","current":"yellowfin","recovery":"recoveryWatch","lineageLabel":"Yellowfin / Arkansas headwaters historical form","lineageBasin":"Arkansas Headwaters","lineageNote":"Atlas model treats Arkansas watershed as Yellowfin historical context","atlas_context":"cutthroat_lineage_context","confidence":"Watershed-level lineage context; expert review recommended","geometryStatus":"Named natural stream segment from statewide hydrography","note":"This named natural stream falls within a HUC8 assigned to a cutthroat lineage context.","source_segment_id":"co_named_stream_029555","water_id":"co_antelope_creek_11020001_yellowfin_001","occurrence_id":"co_antelope_creek_11020001_yellowfin_001","occurrence_number":"001","segment_count":1,"disambiguator":"Arkansas Headwaters · Yellowfin / Arkansas headwaters historical form · occurrence 001","basin":"Arkansas Headwaters","atlas_layer":"named_water_occurrence","object_role":"named_water_occurrence","historic_label":"Yellowfin / Arkansas headwaters historical form","current_label":"Yellowfin / Arkansas headwaters historical form","recovery_label":"Recovery watch / review area","tier":"tier3","minZoom":14,"confidence_public":"Watershed-level lineage context; expert review recommended","geometry_status_public":"Named natural stream occurrence from statewide hydrography","geometry_source_public":"Grouped public hydrography segments","trout_source_public":"Compiled public recovery and lineage context; expert review recommended","public_notes":"Antelope Creek is shown as a named-water occurrence within watershed-level cutthroat lineage context. This is not a precise biological boundary."}},{"type":"Feature","geometry":{"type":"LineString","coordinates":[[-105.2984,38.1278],[-105.2921,38.1324]]},"properties":{"source_id":"co_named_stream_028381","name":"North Hardscrabble Creek","display_name":"North Hardscrabble Creek","mapped_name":"North Hardscrabble Creek","source_name":"North Hardscrabble Creek","state":"CO","atlas_class":"named_natural_stream","huc8":"11020002","huc8Name":"Upper Arkansas","huc8States":"CO","lineageKey":"yellowfin","lineage":"yellowfin","historic":"yellowfin","current":"yellowfin","recovery":"recoveryWatch","lineageLabel":"Yellowfin / Arkansas headwaters historical form","lineageBasin":"Upper Arkansas","lineageNote":"Atlas model treats Arkansas watershed as Yellowfin historical context","atlas_context":"cutthroat_lineage_context","confidence":"Watershed-level lineage context; expert review recommended","geometryStatus":"Named natural stream segment from statewide hydrography","note":"This named natural stream falls within a HUC8 assigned to a cutthroat lineage context.","source_segment_id":"co_named_stream_028381","water_id":"co_north_hardscrabble_creek_11020002_yellowfin_001","occurrence_id":"co_north_hardscrabble_creek_11020002_yellowfin_001","occurrence_number":"001","segment_count":4,"disambiguator":"Upper Arkansas · Yellowfin / Arkansas headwaters historical form · occurrence 001","basin":"Upper Arkansas","atlas_layer":"named_water_occurrence","object_role":"named_water_occurrence","historic_label":"Yellowfin / Arkansas headwaters historical form","current_label":"Yellowfin / Arkansas headwaters historical form","recovery_label":"Recovery watch / review area","tier":"tier3","minZoom":14,"confidence_public":"Watershed-level lineage context; expert review recommended","geometry_status_public":"Named natural stream occurrence from statewide hydrography","geometry_source_public":"Grouped public hydrography segments","trout_source_public":"Compiled public recovery and lineage context; expert review recommended","public_notes":"North Hardscrabble Creek is shown as a named-water occurrence within watershed-level cutthroat lineage context. This is not a precise biological boundary."}},{"type":"Feature","geometry":{"type":"LineString","coordinates":[[-105.3071,38.1176],[-105.3036,38.1224]]},"properties":{"source_id":"co_named_stream_028455","name":"North Hardscrabble Creek","display_name":"North Hardscrabble Creek","mapped_name":"North Hardscrabble Creek","source_name":"North Hardscrabble Creek","state":"CO","atlas_class":"named_natural_stream","huc8":"11020002","huc8Name":"Upper Arkansas","huc8States":"CO","lineageKey":"yellowfin","lineage":"yellowfin","historic":"yellowfin","current":"yellowfin","recovery":"recoveryWatch","lineageLabel":"Yellowfin / Arkansas headwaters historical form","lineageBasin":"Upper Arkansas","lineageNote":"Atlas model treats Arkansas watershed as Yellowfin historical context","atlas_context":"cutthroat_lineage_context","confidence":"Watershed-level lineage context; expert review recommended","geometryStatus":"Named natural stream segment from statewide hydrography","note":"This named natural stream falls within a HUC8 assigned to a cutthroat lineage context.","source_segment_id":"co_named_stream_028455","water_id":"co_north_hardscrabble_creek_11020002_yellowfin_001","occurrence_id":"co_north_hardscrabble_creek_11020002_yellowfin_001","occurrence_number":"001","segment_count":4,"disambiguator":"Upper Arkansas · Yellowfin / Arkansas headwaters historical form · occurrence 001","basin":"Upper Arkansas","atlas_layer":"named_water_occurrence","object_role":"named_water_occurrence","historic_label":"Yellowfin / Arkansas headwaters historical form","current_label":"Yellowfin / Arkansas headwaters historical form","recovery_label":"Recovery watch / review area","tier":"tier3","minZoom":14,"confidence_public":"Watershed-level lineage context; expert review recommended","geometry_status_public":"Named natural stream occurrence from statewide hydrography","geometry_source_public":"Grouped public hydrography segments","trout_source_public":"Compiled public recovery and lineage context; expert review recommended","public_notes":"North Hardscrabble Creek is shown as a named-water occurrence within watershed-level cutthroat lineage context. This is not a precise biological boundary."}},{"type":"Feature","geometry":{"type":"LineString","coordinates":[[-105.2919,38.1326],[-105.2861,38.1366]]},"properties":{"source_id":"co_named_stream_031787","name":"North Hardscrabble Creek","display_name":"North Hardscrabble Creek","mapped_name":"North Hardscrabble Creek","source_name":"North Hardscrabble Creek","state":"CO","atlas_class":"named_natural_stream","huc8":"11020002","huc8Name":"Upper Arkansas","huc8States":"CO","lineageKey":"yellowfin","lineage":"yellowfin","historic":"yellowfin","current":"yellowfin","recovery":"recoveryWatch","lineageLabel":"Yellowfin / Arkansas headwaters historical form","lineageBasin":"Upper Arkansas","lineageNote":"Atlas model treats Arkansas watershed as Yellowfin historical context","atlas_context":"cutthroat_lineage_context","confidence":"Watershed-level lineage context; expert review recommended","geometryStatus":"Named natural stream segment from statewide hydrography","note":"This named natural stream falls within a HUC8 assigned to a cutthroat lineage context.","source_segment_id":"co_named_stream_031787","water_id":"co_north_hardscrabble_creek_11020002_yellowfin_001","occurrence_id":"co_north_hardscrabble_creek_11020002_yellowfin_001","occurrence_number":"001","segment_count":4,"disambiguator":"Upper Arkansas · Yellowfin / Arkansas headwaters historical form · occurrence 001","basin":"Upper Arkansas","atlas_layer":"named_water_occurrence","object_role":"named_water_occurrence","historic_label":"Yellowfin / Arkansas headwaters historical form","current_label":"Yellowfin / Arkansas headwaters historical form","recovery_label":"Recovery watch / review area","tier":"tier3","minZoom":14,"confidence_public":"Watershed-level lineage context; expert review recommended","geometry_status_public":"Named natural stream occurrence from statewide hydrography","geometry_source_public":"Grouped public hydrography segments","trout_source_public":"Compiled public recovery and lineage context; expert review recommended","public_notes":"North Hardscrabble Creek is shown as a named-water occurrence within watershed-level cutthroat lineage context. This is not a precise biological boundary."}},{"type":"Feature","geometry":{"type":"LineString","coordinates":[[-105.2838,38.1382],[-105.2802,38.1401]]},"properties":{"source_id":"co_named_stream_033410","name":"North Hardscrabble Creek","display_name":"North Hardscrabble Creek","mapped_name":"North Hardscrabble Creek","source_name":"North Hardscrabble Creek","state":"CO","atlas_class":"named_natural_stream","huc8":"11020002","huc8Name":"Upper Arkansas","huc8States":"CO","lineageKey":"yellowfin","lineage":"yellowfin","historic":"yellowfin","current":"yellowfin","recovery":"recoveryWatch","lineageLabel":"Yellowfin / Arkansas headwaters historical form","lineageBasin":"Upper Arkansas","lineageNote":"Atlas model treats Arkansas watershed as Yellowfin historical context","atlas_context":"cutthroat_lineage_context","confidence":"Watershed-level lineage context; expert review recommended","geometryStatus":"Named natural stream segment from statewide hydrography","note":"This named natural stream falls within a HUC8 assigned to a cutthroat lineage context.","source_segment_id":"co_named_stream_033410","water_id":"co_north_hardscrabble_creek_11020002_yellowfin_001","occurrence_id":"co_north_hardscrabble_creek_11020002_yellowfin_001","occurrence_number":"001","segment_count":4,"disambiguator":"Upper Arkansas · Yellowfin / Arkansas headwaters historical form · occurrence 001","basin":"Upper Arkansas","atlas_layer":"named_water_occurrence","object_role":"named_water_occurrence","historic_label":"Yellowfin / Arkansas headwaters historical form","current_label":"Yellowfin / Arkansas headwaters historical form","recovery_label":"Recovery watch / review area","tier":"tier3","minZoom":14,"confidence_public":"Watershed-level lineage context; expert review recommended","geometry_status_public":"Named natural stream occurrence from statewide hydrography","geometry_source_public":"Grouped public hydrography segments","trout_source_public":"Compiled public recovery and lineage context; expert review recommended","public_notes":"North Hardscrabble Creek is shown as a named-water occurrence within watershed-level cutthroat lineage context. This is not a precise biological boundary."}},{"type":"Feature","geometry":{"type":"LineString","coordinates":[[-105.5102,38.0245],[-105.5011,38.0317],[-105.4948,38.0345]]},"properties":{"source_id":"co_named_stream_047805","name":"Hardnack Creek","display_name":"Hardnack Creek","mapped_name":"Hardnack Creek","source_name":"Hardnack Creek","state":"CO","atlas_class":"named_natural_stream","huc8":"11020001","huc8Name":"Arkansas Headwaters","huc8States":"CO","lineageKey":"yellowfin","lineage":"yellowfin","historic":"yellowfin","current":"yellowfin","recovery":"recoveryWatch","lineageLabel":"Yellowfin / Arkansas headwaters historical form","lineageBasin":"Arkansas Headwaters","lineageNote":"Atlas model treats Arkansas watershed as Yellowfin historical context","atlas_context":"cutthroat_lineage_context","confidence":"Watershed-level lineage context; expert review recommended","geometryStatus":"Named natural stream segment from statewide hydrography","note":"This named natural stream falls within a HUC8 assigned to a cutthroat lineage context.","source_segment_id":"co_named_stream_047805","water_id":"co_hardnack_creek_11020001_yellowfin_001","occurrence_id":"co_hardnack_creek_11020001_yellowfin_001","occurrence_number":"001","segment_count":8,"disambiguator":"Arkansas Headwaters · Yellowfin / Arkansas headwaters historical form · occurrence 001","basin":"Arkansas Headwaters","atlas_layer":"named_water_occurrence","object_role":"named_water_occurrence","historic_label":"Yellowfin / Arkansas headwaters historical form","current_label":"Yellowfin / Arkansas headwaters historical form","recovery_label":"Recovery watch / review area","tier":"tier3","minZoom":14,"confidence_public":"Watershed-level lineage context; expert review recommended","geometry_status_public":"Named natural stream occurrence from statewide hydrography","geometry_source_public":"Grouped public hydrography segments","trout_source_public":"Compiled public recovery and lineage context; expert review recommended","public_notes":"Hardnack Creek is shown as a named-water occurrence within watershed-level cutthroat lineage context. This is not a precise biological boundary."}},{"type":"Feature","geometry":{"type":"LineString","coordinates":[[-105.501,38.0512],[-105.4891,38.0573],[-105.4891,38.058],[-105.4868,38.0593],[-105.4772,38.0635],[-105.477,38.0648],[-105.4748,38.0667],[-105.4688,38.0697],[-105.4666,38.0723]]},"properties":{"source_id":"co_named_stream_030142","name":"Stanton Creek","display_name":"Stanton Creek","mapped_name":"Stanton Creek","source_name":"Stanton Creek","state":"CO","atlas_class":"named_natural_stream","huc8":"11020001","huc8Name":"Arkansas Headwaters","huc8States":"CO","lineageKey":"yellowfin","lineage":"yellowfin","historic":"yellowfin","current":"yellowfin","recovery":"recoveryWatch","lineageLabel":"Yellowfin / Arkansas headwaters historical form","lineageBasin":"Arkansas Headwaters","lineageNote":"Atlas model treats Arkansas watershed as Yellowfin historical context","atlas_context":"cutthroat_lineage_context","confidence":"Watershed-level lineage context; expert review recommended","geometryStatus":"Named natural stream segment from statewide hydrography","note":"This named natural stream falls within a HUC8 assigned to a cutthroat lineage context.","source_segment_id":"co_named_stream_030142","water_id":"co_stanton_creek_11020001_yellowfin_001","occurrence_id":"co_stanton_creek_11020001_yellowfin_001","occurrence_number":"001","segment_count":6,"disambiguator":"Arkansas Headwaters · Yellowfin / Arkansas headwaters historical form · occurrence 001","basin":"Arkansas Headwaters","atlas_layer":"named_water_occurrence","object_role":"named_water_occurrence","historic_label":"Yellowfin / Arkansas headwaters historical form","current_label":"Yellowfin / Arkansas headwaters historical form","recovery_label":"Recovery watch / review area","tier":"tier3","minZoom":14,"confidence_public":"Watershed-level lineage context; expert review recommended","geometry_status_public":"Named natural stream occurrence from statewide hydrography","geometry_source_public":"Grouped public hydrography segments","trout_source_public":"Compiled public recovery and lineage context; expert review recommended","public_notes":"Stanton Creek is shown as a named-water occurrence within watershed-level cutthroat lineage context. This is not a precise biological boundary."}},{"type":"Feature","geometry":{"type":"LineString","coordinates":[[-105.4666,38.0723],[-105.4623,38.0768],[-105.4598,38.0775]]},"properties":{"source_id":"co_named_stream_034272","name":"Stanton Creek","display_name":"Stanton Creek","mapped_name":"Stanton Creek","source_name":"Stanton Creek","state":"CO","atlas_class":"named_natural_stream","huc8":"11020001","huc8Name":"Arkansas Headwaters","huc8States":"CO","lineageKey":"yellowfin","lineage":"yellowfin","historic":"yellowfin","current":"yellowfin","recovery":"recoveryWatch","lineageLabel":"Yellowfin / Arkansas headwaters historical form","lineageBasin":"Arkansas Headwaters","lineageNote":"Atlas model treats Arkansas watershed as Yellowfin historical context","atlas_context":"cutthroat_lineage_context","confidence":"Watershed-level lineage context; expert review recommended","geometryStatus":"Named natural stream segment from statewide hydrography","note":"This named natural stream falls within a HUC8 assigned to a cutthroat lineage context.","source_segment_id":"co_named_stream_034272","water_id":"co_stanton_creek_11020001_yellowfin_001","occurrence_id":"co_stanton_creek_11020001_yellowfin_001","occurrence_number":"001","segment_count":6,"disambiguator":"Arkansas Headwaters · Yellowfin / Arkansas headwaters historical form · occurrence 001","basin":"Arkansas Headwaters","atlas_layer":"named_water_occurrence","object_role":"named_water_occurrence","historic_label":"Yellowfin / Arkansas headwaters historical form","current_label":"Yellowfin / Arkansas headwaters historical form","recovery_label":"Recovery watch / review area","tier":"tier3","minZoom":14,"confidence_public":"Watershed-level lineage context; expert review recommended","geometry_status_public":"Named natural stream occurrence from statewide hydrography","geometry_source_public":"Grouped public hydrography segments","trout_source_public":"Compiled public recovery and lineage context; expert review recommended","public_notes":"Stanton Creek is shown as a named-water occurrence within watershed-level cutthroat lineage context. This is not a precise biological boundary."}},{"type":"Feature","geometry":{"type":"LineString","coordinates":[[-105.5143,38.11],[-105.5046,38.1173],[-105.491,38.1301],[-105.4883,38.1322],[-105.4867,38.1325],[-105.4875,38.1327],[-105.4867,38.1341],[-105.4826,38.135]]},"properties":{"source_id":"co_named_stream_032674","name":"Alvarado Creek","display_name":"Alvarado Creek","mapped_name":"Alvarado Creek","source_name":"Alvarado Creek","state":"CO","atlas_class":"named_natural_stream","huc8":"11020001","huc8Name":"Arkansas Headwaters","huc8States":"CO","lineageKey":"yellowfin","lineage":"yellowfin","historic":"yellowfin","current":"yellowfin","recovery":"recoveryWatch","lineageLabel":"Yellowfin / Arkansas headwaters historical form","lineageBasin":"Arkansas Headwaters","lineageNote":"Atlas model treats Arkansas watershed as Yellowfin historical context","atlas_context":"cutthroat_lineage_context","confidence":"Watershed-level lineage context; expert review recommended","geometryStatus":"Named natural stream segment from statewide hydrography","note":"This named natural stream falls within a HUC8 assigned to a cutthroat lineage context.","source_segment_id":"co_named_stream_032674","water_id":"co_alvarado_creek_11020001_yellowfin_001","occurrence_id":"co_alvarado_creek_11020001_yellowfin_001","occurrence_number":"001","segment_count":6,"disambiguator":"Arkansas Headwaters · Yellowfin / Arkansas headwaters historical form · occurrence 001","basin":"Arkansas Headwaters","atlas_layer":"named_water_occurrence","object_role":"named_water_occurrence","historic_label":"Yellowfin / Arkansas headwaters historical form","current_label":"Yellowfin / Arkansas headwaters historical form","recovery_label":"Recovery watch / review area","tier":"tier3","minZoom":14,"confidence_public":"Watershed-level lineage context; expert review recommended","geometry_status_public":"Named natural stream occurrence from statewide hydrography","geometry_source_public":"Grouped public hydrography segments","trout_source_public":"Compiled public recovery and lineage context; expert review recommended","public_notes":"Alvarado Creek is shown as a named-water occurrence within watershed-level cutthroat lineage context. This is not a precise biological boundary."}},{"type":"Feature","geometry":{"type":"LineString","coordinates":[[-105.2457,38.0584],[-105.2475,38.056],[-105.2506,38.055],[-105.2511,38.0526],[-105.2528,38.0506]]},"properties":{"source_id":"co_named_stream_028061","name":"Little Antelope Creek","display_name":"Little Antelope Creek","mapped_name":"Little Antelope Creek","source_name":"Little Antelope Creek","state":"CO","atlas_class":"named_natural_stream","huc8":"11020001","huc8Name":"Arkansas Headwaters","huc8States":"CO","lineageKey":"yellowfin","lineage":"yellowfin","historic":"yellowfin","current":"yellowfin","recovery":"recoveryWatch","lineageLabel":"Yellowfin / Arkansas headwaters historical form","lineageBasin":"Arkansas Headwaters","lineageNote":"Atlas model treats Arkansas watershed as Yellowfin historical context","atlas_context":"cutthroat_lineage_context","confidence":"Watershed-level lineage context; expert review recommended","geometryStatus":"Named natural stream segment from statewide hydrography","note":"This named natural stream falls within a HUC8 assigned to a cutthroat lineage context.","source_segment_id":"co_named_stream_028061","water_id":"co_little_antelope_creek_11020001_yellowfin_001","occurrence_id":"co_little_antelope_creek_11020001_yellowfin_001","occurrence_number":"001","segment_count":7,"disambiguator":"Arkansas Headwaters · Yellowfin / Arkansas headwaters historical form · occurrence 001","basin":"Arkansas Headwaters","atlas_layer":"named_water_occurrence","object_role":"named_water_occurrence","historic_label":"Yellowfin / Arkansas headwaters historical form","current_label":"Yellowfin / Arkansas headwaters historical form","recovery_label":"Recovery watch / review area","tier":"tier3","minZoom":14,"confidence_public":"Watershed-level lineage context; expert review recommended","geometry_status_public":"Named natural stream occurrence from statewide hydrography","geometry_source_public":"Grouped public hydrography segments","trout_source_public":"Compiled public recovery and lineage context; expert review recommended","public_notes":"Little Antelope Creek is shown as a named-water occurrence within watershed-level cutthroat lineage context. This is not a precise biological boundary."}},{"type":"Feature","geometry":{"type":"LineString","coordinates":[[-105.2528,38.0506],[-105.2534,38.0462]]},"properties":{"source_id":"co_named_stream_050098","name":"Little Antelope Creek","display_name":"Little Antelope Creek","mapped_name":"Little Antelope Creek","source_name":"Little Antelope Creek","state":"CO","atlas_class":"named_natural_stream","huc8":"11020001","huc8Name":"Arkansas Headwaters","huc8States":"CO","lineageKey":"yellowfin","lineage":"yellowfin","historic":"yellowfin","current":"yellowfin","recovery":"recoveryWatch","lineageLabel":"Yellowfin / Arkansas headwaters historical form","lineageBasin":"Arkansas Headwaters","lineageNote":"Atlas model treats Arkansas watershed as Yellowfin historical context","atlas_context":"cutthroat_lineage_context","confidence":"Watershed-level lineage context; expert review recommended","geometryStatus":"Named natural stream segment from statewide hydrography","note":"This named natural stream falls within a HUC8 assigned to a cutthroat lineage context.","source_segment_id":"co_named_stream_050098","water_id":"co_little_antelope_creek_11020001_yellowfin_001","occurrence_id":"co_little_antelope_creek_11020001_yellowfin_001","occurrence_number":"001","segment_count":7,"disambiguator":"Arkansas Headwaters · Yellowfin / Arkansas headwaters historical form · occurrence 001","basin":"Arkansas Headwaters","atlas_layer":"named_water_occurrence","object_role":"named_water_occurrence","historic_label":"Yellowfin / Arkansas headwaters historical form","current_label":"Yellowfin / Arkansas headwaters historical form","recovery_label":"Recovery watch / review area","tier":"tier3","minZoom":14,"confidence_public":"Watershed-level lineage context; expert review recommended","geometry_status_public":"Named natural stream occurrence from statewide hydrography","geometry_source_public":"Grouped public hydrography segments","trout_source_public":"Compiled public recovery and lineage context; expert review recommended","public_notes":"Little Antelope Creek is shown as a named-water occurrence within watershed-level cutthroat lineage context. This is not a precise biological boundary."}},{"type":"Feature","geometry":{"type":"LineString","coordinates":[[-105.2673,38.0347],[-105.2691,38.0357],[-105.27,38.0375]]},"properties":{"source_id":"co_named_stream_030276","name":"Breece Creek","display_name":"Breece Creek","mapped_name":"Breece Creek","source_name":"Breece Creek","state":"CO","atlas_class":"named_natural_stream","huc8":"11020001","huc8Name":"Arkansas Headwaters","huc8States":"CO","lineageKey":"yellowfin","lineage":"yellowfin","historic":"yellowfin","current":"yellowfin","recovery":"recoveryWatch","lineageLabel":"Yellowfin / Arkansas headwaters historical form","lineageBasin":"Arkansas Headwaters","lineageNote":"Atlas model treats Arkansas watershed as Yellowfin historical context","atlas_context":"cutthroat_lineage_context","confidence":"Watershed-level lineage context; expert review recommended","geometryStatus":"Named natural stream segment from statewide hydrography","note":"This named natural stream falls within a HUC8 assigned to a cutthroat lineage context.","source_segment_id":"co_named_stream_030276","water_id":"co_breece_creek_11020001_yellowfin_001","occurrence_id":"co_breece_creek_11020001_yellowfin_001","occurrence_number":"001","segment_count":17,"disambiguator":"Arkansas Headwaters · Yellowfin / Arkansas headwaters historical form · occurrence 001","basin":"Arkansas Headwaters","atlas_layer":"named_water_occurrence","object_role":"named_water_occurrence","historic_label":"Yellowfin / Arkansas headwaters historical form","current_label":"Yellowfin / Arkansas headwaters historical form","recovery_label":"Recovery watch / review area","tier":"tier3","minZoom":14,"confidence_public":"Watershed-level lineage context; expert review recommended","geometry_status_public":"Named natural stream occurrence from statewide hydrography","geometry_source_public":"Grouped public hydrography segments","trout_source_public":"Compiled public recovery and lineage context; expert review recommended","public_notes":"Breece Creek is shown as a named-water occurrence within watershed-level cutthroat lineage context. This is not a precise biological boundary."}},{"type":"Feature","geometry":{"type":"LineString","coordinates":[[-105.2611,38.0271],[-105.2618,38.0272]]},"properties":{"source_id":"co_named_stream_033098","name":"Breece Creek","display_name":"Breece Creek","mapped_name":"Breece Creek","source_name":"Breece Creek","state":"CO","atlas_class":"named_natural_stream","huc8":"11020001","huc8Name":"Arkansas Headwaters","huc8States":"CO","lineageKey":"yellowfin","lineage":"yellowfin","historic":"yellowfin","current":"yellowfin","recovery":"recoveryWatch","lineageLabel":"Yellowfin / Arkansas headwaters historical form","lineageBasin":"Arkansas Headwaters","lineageNote":"Atlas model treats Arkansas watershed as Yellowfin historical context","atlas_context":"cutthroat_lineage_context","confidence":"Watershed-level lineage context; expert review recommended","geometryStatus":"Named natural stream segment from statewide hydrography","note":"This named natural stream falls within a HUC8 assigned to a cutthroat lineage context.","source_segment_id":"co_named_stream_033098","water_id":"co_breece_creek_11020001_yellowfin_001","occurrence_id":"co_breece_creek_11020001_yellowfin_001","occurrence_number":"001","segment_count":17,"disambiguator":"Arkansas Headwaters · Yellowfin / Arkansas headwaters historical form · occurrence 001","basin":"Arkansas Headwaters","atlas_layer":"named_water_occurrence","object_role":"named_water_occurrence","historic_label":"Yellowfin / Arkansas headwaters historical form","current_label":"Yellowfin / Arkansas headwaters historical form","recovery_label":"Recovery watch / review area","tier":"tier3","minZoom":14,"confidence_public":"Watershed-level lineage context; expert review recommended","geometry_status_public":"Named natural stream occurrence from statewide hydrography","geometry_source_public":"Grouped public hydrography segments","trout_source_public":"Compiled public recovery and lineage context; expert review recommended","public_notes":"Breece Creek is shown as a named-water occurrence within watershed-level cutthroat lineage context. This is not a precise biological boundary."}},{"type":"Feature","geometry":{"type":"LineString","coordinates":[[-105.2546,38.0278],[-105.2599,38.0271]]},"properties":{"source_id":"co_named_stream_033099","name":"Breece Creek","display_name":"Breece Creek","mapped_name":"Breece Creek","source_name":"Breece Creek","state":"CO","atlas_class":"named_natural_stream","huc8":"11020001","huc8Name":"Arkansas Headwaters","huc8States":"CO","lineageKey":"yellowfin","lineage":"yellowfin","historic":"yellowfin","current":"yellowfin","recovery":"recoveryWatch","lineageLabel":"Yellowfin / Arkansas headwaters historical form","lineageBasin":"Arkansas Headwaters","lineageNote":"Atlas model treats Arkansas watershed as Yellowfin historical context","atlas_context":"cutthroat_lineage_context","confidence":"Watershed-level lineage context; expert review recommended","geometryStatus":"Named natural stream segment from statewide hydrography","note":"This named natural stream falls within a HUC8 assigned to a cutthroat lineage context.","source_segment_id":"co_named_stream_033099","water_id":"co_breece_creek_11020001_yellowfin_001","occurrence_id":"co_breece_creek_11020001_yellowfin_001","occurrence_number":"001","segment_count":17,"disambiguator":"Arkansas Headwaters · Yellowfin / Arkansas headwaters historical form · occurrence 001","basin":"Arkansas Headwaters","atlas_layer":"named_water_occurrence","object_role":"named_water_occurrence","historic_label":"Yellowfin / Arkansas headwaters historical form","current_label":"Yellowfin / Arkansas headwaters historical form","recovery_label":"Recovery watch / review area","tier":"tier3","minZoom":14,"confidence_public":"Watershed-level lineage context; expert review recommended","geometry_status_public":"Named natural stream occurrence from statewide hydrography","geometry_source_public":"Grouped public hydrography segments","trout_source_public":"Compiled public recovery and lineage context; expert review recommended","public_notes":"Breece Creek is shown as a named-water occurrence within watershed-level cutthroat lineage context. This is not a precise biological boundary."}},{"type":"Feature","geometry":{"type":"LineString","coordinates":[[-105.2599,38.0271],[-105.2611,38.0271]]},"properties":{"source_id":"co_named_stream_044424","name":"Breece Creek","display_name":"Breece Creek","mapped_name":"Breece Creek","source_name":"Breece Creek","state":"CO","atlas_class":"named_natural_stream","huc8":"11020001","huc8Name":"Arkansas Headwaters","huc8States":"CO","lineageKey":"yellowfin","lineage":"yellowfin","historic":"yellowfin","current":"yellowfin","recovery":"recoveryWatch","lineageLabel":"Yellowfin / Arkansas headwaters historical form","lineageBasin":"Arkansas Headwaters","lineageNote":"Atlas model treats Arkansas watershed as Yellowfin historical context","atlas_context":"cutthroat_lineage_context","confidence":"Watershed-level lineage context; expert review recommended","geometryStatus":"Named natural stream segment from statewide hydrography","note":"This named natural stream falls within a HUC8 assigned to a cutthroat lineage context.","source_segment_id":"co_named_stream_044424","water_id":"co_breece_creek_11020001_yellowfin_001","occurrence_id":"co_breece_creek_11020001_yellowfin_001","occurrence_number":"001","segment_count":17,"disambiguator":"Arkansas Headwaters · Yellowfin / Arkansas headwaters historical form · occurrence 001","basin":"Arkansas Headwaters","atlas_layer":"named_water_occurrence","object_role":"named_water_occurrence","historic_label":"Yellowfin / Arkansas headwaters historical form","current_label":"Yellowfin / Arkansas headwaters historical form","recovery_label":"Recovery watch / review area","tier":"tier3","minZoom":14,"confidence_public":"Watershed-level lineage context; expert review recommended","geometry_status_public":"Named natural stream occurrence from statewide hydrography","geometry_source_public":"Grouped public hydrography segments","trout_source_public":"Compiled public recovery and lineage context; expert review recommended","public_notes":"Breece Creek is shown as a named-water occurrence within watershed-level cutthroat lineage context. This is not a precise biological boundary."}},{"type":"Feature","geometry":{"type":"LineString","coordinates":[[-105.2437,38.0307],[-105.2546,38.0278]]},"properties":{"source_id":"co_named_stream_044425","name":"Breece Creek","display_name":"Breece Creek","mapped_name":"Breece Creek","source_name":"Breece Creek","state":"CO","atlas_class":"named_natural_stream","huc8":"11020001","huc8Name":"Arkansas Headwaters","huc8States":"CO","lineageKey":"yellowfin","lineage":"yellowfin","historic":"yellowfin","current":"yellowfin","recovery":"recoveryWatch","lineageLabel":"Yellowfin / Arkansas headwaters historical form","lineageBasin":"Arkansas Headwaters","lineageNote":"Atlas model treats Arkansas watershed as Yellowfin historical context","atlas_context":"cutthroat_lineage_context","confidence":"Watershed-level lineage context; expert review recommended","geometryStatus":"Named natural stream segment from statewide hydrography","note":"This named natural stream falls within a HUC8 assigned to a cutthroat lineage context.","source_segment_id":"co_named_stream_044425","water_id":"co_breece_creek_11020001_yellowfin_001","occurrence_id":"co_breece_creek_11020001_yellowfin_001","occurrence_number":"001","segment_count":17,"disambiguator":"Arkansas Headwaters · Yellowfin / Arkansas headwaters historical form · occurrence 001","basin":"Arkansas Headwaters","atlas_layer":"named_water_occurrence","object_role":"named_water_occurrence","historic_label":"Yellowfin / Arkansas headwaters historical form","current_label":"Yellowfin / Arkansas headwaters historical form","recovery_label":"Recovery watch / review area","tier":"tier3","minZoom":14,"confidence_public":"Watershed-level lineage context; expert review recommended","geometry_status_public":"Named natural stream occurrence from statewide hydrography","geometry_source_public":"Grouped public hydrography segments","trout_source_public":"Compiled public recovery and lineage context; expert review recommended","public_notes":"Breece Creek is shown as a named-water occurrence within watershed-level cutthroat lineage context. This is not a precise biological boundary."}},{"type":"Feature","geometry":{"type":"LineString","coordinates":[[-105.2644,38.031],[-105.2665,38.0316],[-105.2673,38.0347]]},"properties":{"source_id":"co_named_stream_046887","name":"Breece Creek","display_name":"Breece Creek","mapped_name":"Breece Creek","source_name":"Breece Creek","state":"CO","atlas_class":"named_natural_stream","huc8":"11020001","huc8Name":"Arkansas Headwaters","huc8States":"CO","lineageKey":"yellowfin","lineage":"yellowfin","historic":"yellowfin","current":"yellowfin","recovery":"recoveryWatch","lineageLabel":"Yellowfin / Arkansas headwaters historical form","lineageBasin":"Arkansas Headwaters","lineageNote":"Atlas model treats Arkansas watershed as Yellowfin historical context","atlas_context":"cutthroat_lineage_context","confidence":"Watershed-level lineage context; expert review recommended","geometryStatus":"Named natural stream segment from statewide hydrography","note":"This named natural stream falls within a HUC8 assigned to a cutthroat lineage context.","source_segment_id":"co_named_stream_046887","water_id":"co_breece_creek_11020001_yellowfin_001","occurrence_id":"co_breece_creek_11020001_yellowfin_001","occurrence_number":"001","segment_count":17,"disambiguator":"Arkansas Headwaters · Yellowfin / Arkansas headwaters historical form · occurrence 001","basin":"Arkansas Headwaters","atlas_layer":"named_water_occurrence","object_role":"named_water_occurrence","historic_label":"Yellowfin / Arkansas headwaters historical form","current_label":"Yellowfin / Arkansas headwaters historical form","recovery_label":"Recovery watch / review area","tier":"tier3","minZoom":14,"confidence_public":"Watershed-level lineage context; expert review recommended","geometry_status_public":"Named natural stream occurrence from statewide hydrography","geometry_source_public":"Grouped public hydrography segments","trout_source_public":"Compiled public recovery and lineage context; expert review recommended","public_notes":"Breece Creek is shown as a named-water occurrence within watershed-level cutthroat lineage context. This is not a precise biological boundary."}},{"type":"Feature","geometry":{"type":"LineString","coordinates":[[-105.2618,38.0272],[-105.2634,38.0278],[-105.2642,38.0301]]},"properties":{"source_id":"co_named_stream_049371","name":"Breece Creek","display_name":"Breece Creek","mapped_name":"Breece Creek","source_name":"Breece Creek","state":"CO","atlas_class":"named_natural_stream","huc8":"11020001","huc8Name":"Arkansas Headwaters","huc8States":"CO","lineageKey":"yellowfin","lineage":"yellowfin","historic":"yellowfin","current":"yellowfin","recovery":"recoveryWatch","lineageLabel":"Yellowfin / Arkansas headwaters historical form","lineageBasin":"Arkansas Headwaters","lineageNote":"Atlas model treats Arkansas watershed as Yellowfin historical context","atlas_context":"cutthroat_lineage_context","confidence":"Watershed-level lineage context; expert review recommended","geometryStatus":"Named natural stream segment from statewide hydrography","note":"This named natural stream falls within a HUC8 assigned to a cutthroat lineage context.","source_segment_id":"co_named_stream_049371","water_id":"co_breece_creek_11020001_yellowfin_001","occurrence_id":"co_breece_creek_11020001_yellowfin_001","occurrence_number":"001","segment_count":17,"disambiguator":"Arkansas Headwaters · Yellowfin / Arkansas headwaters historical form · occurrence 001","basin":"Arkansas Headwaters","atlas_layer":"named_water_occurrence","object_role":"named_water_occurrence","historic_label":"Yellowfin / Arkansas headwaters historical form","current_label":"Yellowfin / Arkansas headwaters historical form","recovery_label":"Recovery watch / review area","tier":"tier3","minZoom":14,"confidence_public":"Watershed-level lineage context; expert review recommended","geometry_status_public":"Named natural stream occurrence from statewide hydrography","geometry_source_public":"Grouped public hydrography segments","trout_source_public":"Compiled public recovery and lineage context; expert review recommended","public_notes":"Breece Creek is shown as a named-water occurrence within watershed-level cutthroat lineage context. This is not a precise biological boundary."}},{"type":"Feature","geometry":{"type":"LineString","coordinates":[[-105.2642,38.0301],[-105.2644,38.031]]},"properties":{"source_id":"co_named_stream_049891","name":"Breece Creek","display_name":"Breece Creek","mapped_name":"Breece Creek","source_name":"Breece Creek","state":"CO","atlas_class":"named_natural_stream","huc8":"11020001","huc8Name":"Arkansas Headwaters","huc8States":"CO","lineageKey":"yellowfin","lineage":"yellowfin","historic":"yellowfin","current":"yellowfin","recovery":"recoveryWatch","lineageLabel":"Yellowfin / Arkansas headwaters historical form","lineageBasin":"Arkansas Headwaters","lineageNote":"Atlas model treats Arkansas watershed as Yellowfin historical context","atlas_context":"cutthroat_lineage_context","confidence":"Watershed-level lineage context; expert review recommended","geometryStatus":"Named natural stream segment from statewide hydrography","note":"This named natural stream falls within a HUC8 assigned to a cutthroat lineage context.","source_segment_id":"co_named_stream_049891","water_id":"co_breece_creek_11020001_yellowfin_001","occurrence_id":"co_breece_creek_11020001_yellowfin_001","occurrence_number":"001","segment_count":17,"disambiguator":"Arkansas Headwaters · Yellowfin / Arkansas headwaters historical form · occurrence 001","basin":"Arkansas Headwaters","atlas_layer":"named_water_occurrence","object_role":"named_water_occurrence","historic_label":"Yellowfin / Arkansas headwaters historical form","current_label":"Yellowfin / Arkansas headwaters historical form","recovery_label":"Recovery watch / review area","tier":"tier3","minZoom":14,"confidence_public":"Watershed-level lineage context; expert review recommended","geometry_status_public":"Named natural stream occurrence from statewide hydrography","geometry_source_public":"Grouped public hydrography segments","trout_source_public":"Compiled public recovery and lineage context; expert review recommended","public_notes":"Breece Creek is shown as a named-water occurrence within watershed-level cutthroat lineage context. This is not a precise biological boundary."}},{"type":"Feature","geometry":{"type":"LineString","coordinates":[[-105.3018,38.1776],[-105.308,38.1782],[-105.3147,38.1758],[-105.3209,38.1768],[-105.333,38.1762]]},"properties":{"source_id":"co_named_stream_028631","name":"Brush Hollow Creek","display_name":"Brush Hollow Creek","mapped_name":"Brush Hollow Creek","source_name":"Brush Hollow Creek","state":"CO","atlas_class":"named_natural_stream","huc8":"11020001","huc8Name":"Arkansas Headwaters","huc8States":"CO","lineageKey":"yellowfin","lineage":"yellowfin","historic":"yellowfin","current":"yellowfin","recovery":"recoveryWatch","lineageLabel":"Yellowfin / Arkansas headwaters historical form","lineageBasin":"Arkansas Headwaters","lineageNote":"Atlas model treats Arkansas watershed as Yellowfin historical context","atlas_context":"cutthroat_lineage_context","confidence":"Watershed-level lineage context; expert review recommended","geometryStatus":"Named natural stream segment from statewide hydrography","note":"This named natural stream falls within a HUC8 assigned to a cutthroat lineage context.","source_segment_id":"co_named_stream_028631","water_id":"co_brush_hollow_creek_11020001_yellowfin_001","occurrence_id":"co_brush_hollow_creek_11020001_yellowfin_001","occurrence_number":"001","segment_count":2,"disambiguator":"Arkansas Headwaters · Yellowfin / Arkansas headwaters historical form · occurrence 001","basin":"Arkansas Headwaters","atlas_layer":"named_water_occurrence","object_role":"named_water_occurrence","historic_label":"Yellowfin / Arkansas headwaters historical form","current_label":"Yellowfin / Arkansas headwaters historical form","recovery_label":"Recovery watch / review area","tier":"tier3","minZoom":14,"confidence_public":"Watershed-level lineage context; expert review recommended","geometry_status_public":"Named natural stream occurrence from statewide hydrography","geometry_source_public":"Grouped public hydrography segments","trout_source_public":"Compiled public recovery and lineage context; expert review recommended","public_notes":"Brush Hollow Creek is shown as a named-water occurrence within watershed-level cutthroat lineage context. This is not a precise biological boundary."}},{"type":"Feature","geometry":{"type":"LineString","coordinates":[[-105.333,38.1762],[-105.3424,38.1749],[-105.3501,38.1729],[-105.3525,38.1729],[-105.3595,38.1761],[-105.362,38.1746]]},"properties":{"source_id":"co_named_stream_032455","name":"Brush Hollow Creek","display_name":"Brush Hollow Creek","mapped_name":"Brush Hollow Creek","source_name":"Brush Hollow Creek","state":"CO","atlas_class":"named_natural_stream","huc8":"11020001","huc8Name":"Arkansas Headwaters","huc8States":"CO","lineageKey":"yellowfin","lineage":"yellowfin","historic":"yellowfin","current":"yellowfin","recovery":"recoveryWatch","lineageLabel":"Yellowfin / Arkansas headwaters historical form","lineageBasin":"Arkansas Headwaters","lineageNote":"Atlas model treats Arkansas watershed as Yellowfin historical context","atlas_context":"cutthroat_lineage_context","confidence":"Watershed-level lineage context; expert review recommended","geometryStatus":"Named natural stream segment from statewide hydrography","note":"This named natural stream falls within a HUC8 assigned to a cutthroat lineage context.","source_segment_id":"co_named_stream_032455","water_id":"co_brush_hollow_creek_11020001_yellowfin_001","occurrence_id":"co_brush_hollow_creek_11020001_yellowfin_001","occurrence_number":"001","segment_count":2,"disambiguator":"Arkansas Headwaters · Yellowfin / Arkansas headwaters historical form · occurrence 001","basin":"Arkansas Headwaters","atlas_layer":"named_water_occurrence","object_role":"named_water_occurrence","historic_label":"Yellowfin / Arkansas headwaters historical form","current_label":"Yellowfin / Arkansas headwaters historical form","recovery_label":"Recovery watch / review area","tier":"tier3","minZoom":14,"confidence_public":"Watershed-level lineage context; expert review recommended","geometry_status_public":"Named natural stream occurrence from statewide hydrography","geometry_source_public":"Grouped public hydrography segments","trout_source_public":"Compiled public recovery and lineage context; expert review recommended","public_notes":"Brush Hollow Creek is shown as a named-water occurrence within watershed-level cutthroat lineage context. This is not a precise biological boundary."}},{"type":"Feature","geometry":{"type":"LineString","coordinates":[[-105.5013,38.1475],[-105.5016,38.148],[-105.4996,38.149],[-105.4988,38.1508],[-105.4992,38.1526],[-105.5002,38.1532],[-105.4992,38.1542]]},"properties":{"source_id":"co_named_stream_029007","name":"Taylor Creek","display_name":"Taylor Creek","mapped_name":"Taylor Creek","source_name":"Taylor Creek","state":"CO","atlas_class":"named_natural_stream","huc8":"11020001","huc8Name":"Arkansas Headwaters","huc8States":"CO","lineageKey":"yellowfin","lineage":"yellowfin","historic":"yellowfin","current":"yellowfin","recovery":"recoveryWatch","lineageLabel":"Yellowfin / Arkansas headwaters historical form","lineageBasin":"Arkansas Headwaters","lineageNote":"Atlas model treats Arkansas watershed as Yellowfin historical context","atlas_context":"cutthroat_lineage_context","confidence":"Watershed-level lineage context; expert review recommended","geometryStatus":"Named natural stream segment from statewide hydrography","note":"This named natural stream falls within a HUC8 assigned to a cutthroat lineage context.","source_segment_id":"co_named_stream_029007","water_id":"co_taylor_creek_11020001_yellowfin_001","occurrence_id":"co_taylor_creek_11020001_yellowfin_001","occurrence_number":"001","segment_count":14,"disambiguator":"Arkansas Headwaters · Yellowfin / Arkansas headwaters historical form · occurrence 001","basin":"Arkansas Headwaters","atlas_layer":"named_water_occurrence","object_role":"named_water_occurrence","historic_label":"Yellowfin / Arkansas headwaters historical form","current_label":"Yellowfin / Arkansas headwaters historical form","recovery_label":"Recovery watch / review area","tier":"tier3","minZoom":14,"confidence_public":"Watershed-level lineage context; expert review recommended","geometry_status_public":"Named natural stream occurrence from statewide hydrography","geometry_source_public":"Grouped public hydrography segments","trout_source_public":"Compiled public recovery and lineage context; expert review recommended","public_notes":"Taylor Creek is shown as a named-water occurrence within watershed-level cutthroat lineage context. This is not a precise biological boundary."}},{"type":"Feature","geometry":{"type":"LineString","coordinates":[[-105.4992,38.1542],[-105.4957,38.1564],[-105.4958,38.1585],[-105.4966,38.1592],[-105.4958,38.1596],[-105.4959,38.1609],[-105.4974,38.1615],[-105.4959,38.1625],[-105.4987,38.1646],[-105.4987,38.1655],[-105.4975,38.1662],[-105.4983,38.1667]]},"properties":{"source_id":"co_named_stream_048825","name":"Taylor Creek","display_name":"Taylor Creek","mapped_name":"Taylor Creek","source_name":"Taylor Creek","state":"CO","atlas_class":"named_natural_stream","huc8":"11020001","huc8Name":"Arkansas Headwaters","huc8States":"CO","lineageKey":"yellowfin","lineage":"yellowfin","historic":"yellowfin","current":"yellowfin","recovery":"recoveryWatch","lineageLabel":"Yellowfin / Arkansas headwaters historical form","lineageBasin":"Arkansas Headwaters","lineageNote":"Atlas model treats Arkansas watershed as Yellowfin historical context","atlas_context":"cutthroat_lineage_context","confidence":"Watershed-level lineage context; expert review recommended","geometryStatus":"Named natural stream segment from statewide hydrography","note":"This named natural stream falls within a HUC8 assigned to a cutthroat lineage context.","source_segment_id":"co_named_stream_048825","water_id":"co_taylor_creek_11020001_yellowfin_001","occurrence_id":"co_taylor_creek_11020001_yellowfin_001","occurrence_number":"001","segment_count":14,"disambiguator":"Arkansas Headwaters · Yellowfin / Arkansas headwaters historical form · occurrence 001","basin":"Arkansas Headwaters","atlas_layer":"named_water_occurrence","object_role":"named_water_occurrence","historic_label":"Yellowfin / Arkansas headwaters historical form","current_label":"Yellowfin / Arkansas headwaters historical form","recovery_label":"Recovery watch / review area","tier":"tier3","minZoom":14,"confidence_public":"Watershed-level lineage context; expert review recommended","geometry_status_public":"Named natural stream occurrence from statewide hydrography","geometry_source_public":"Grouped public hydrography segments","trout_source_public":"Compiled public recovery and lineage context; expert review recommended","public_notes":"Taylor Creek is shown as a named-water occurrence within watershed-level cutthroat lineage context. This is not a precise biological boundary."}},{"type":"Feature","geometry":{"type":"LineString","coordinates":[[-105.4983,38.1667],[-105.4972,38.1668],[-105.4978,38.1676],[-105.4973,38.1682],[-105.4986,38.1692],[-105.4971,38.1692],[-105.4973,38.1703],[-105.4964,38.1702]]},"properties":{"source_id":"co_named_stream_048870","name":"Taylor Creek","display_name":"Taylor Creek","mapped_name":"Taylor Creek","source_name":"Taylor Creek","state":"CO","atlas_class":"named_natural_stream","huc8":"11020001","huc8Name":"Arkansas Headwaters","huc8States":"CO","lineageKey":"yellowfin","lineage":"yellowfin","historic":"yellowfin","current":"yellowfin","recovery":"recoveryWatch","lineageLabel":"Yellowfin / Arkansas headwaters historical form","lineageBasin":"Arkansas Headwaters","lineageNote":"Atlas model treats Arkansas watershed as Yellowfin historical context","atlas_context":"cutthroat_lineage_context","confidence":"Watershed-level lineage context; expert review recommended","geometryStatus":"Named natural stream segment from statewide hydrography","note":"This named natural stream falls within a HUC8 assigned to a cutthroat lineage context.","source_segment_id":"co_named_stream_048870","water_id":"co_taylor_creek_11020001_yellowfin_001","occurrence_id":"co_taylor_creek_11020001_yellowfin_001","occurrence_number":"001","segment_count":14,"disambiguator":"Arkansas Headwaters · Yellowfin / Arkansas headwaters historical form · occurrence 001","basin":"Arkansas Headwaters","atlas_layer":"named_water_occurrence","object_role":"named_water_occurrence","historic_label":"Yellowfin / Arkansas headwaters historical form","current_label":"Yellowfin / Arkansas headwaters historical form","recovery_label":"Recovery watch / review area","tier":"tier3","minZoom":14,"confidence_public":"Watershed-level lineage context; expert review recommended","geometry_status_public":"Named natural stream occurrence from statewide hydrography","geometry_source_public":"Grouped public hydrography segments","trout_source_public":"Compiled public recovery and lineage context; expert review recommended","public_notes":"Taylor Creek is shown as a named-water occurrence within watershed-level cutthroat lineage context. This is not a precise biological boundary."}},{"type":"Feature","geometry":{"type":"LineString","coordinates":[[-105.537,38.1014],[-105.5307,38.1095],[-105.524,38.1136],[-105.522,38.1178],[-105.5143,38.1236],[-105.5121,38.1263],[-105.4916,38.1371],[-105.4884,38.1413],[-105.4848,38.1428],[-105.4848,38.1437]]},"properties":{"source_id":"co_named_stream_029292","name":"Venable Creek","display_name":"Venable Creek","mapped_name":"Venable Creek","source_name":"Venable Creek","state":"CO","atlas_class":"named_natural_stream","huc8":"11020001","huc8Name":"Arkansas Headwaters","huc8States":"CO","lineageKey":"yellowfin","lineage":"yellowfin","historic":"yellowfin","current":"yellowfin","recovery":"recoveryWatch","lineageLabel":"Yellowfin / Arkansas headwaters historical form","lineageBasin":"Arkansas Headwaters","lineageNote":"Atlas model treats Arkansas watershed as Yellowfin historical context","atlas_context":"cutthroat_lineage_context","confidence":"Watershed-level lineage context; expert review recommended","geometryStatus":"Named natural stream segment from statewide hydrography","note":"This named natural stream falls within a HUC8 assigned to a cutthroat lineage context.","source_segment_id":"co_named_stream_029292","water_id":"co_venable_creek_11020001_yellowfin_001","occurrence_id":"co_venable_creek_11020001_yellowfin_001","occurrence_number":"001","segment_count":8,"disambiguator":"Arkansas Headwaters · Yellowfin / Arkansas headwaters historical form · occurrence 001","basin":"Arkansas Headwaters","atlas_layer":"named_water_occurrence","object_role":"named_water_occurrence","historic_label":"Yellowfin / Arkansas headwaters historical form","current_label":"Yellowfin / Arkansas headwaters historical form","recovery_label":"Recovery watch / review area","tier":"tier3","minZoom":14,"confidence_public":"Watershed-level lineage context; expert review recommended","geometry_status_public":"Named natural stream occurrence from statewide hydrography","geometry_source_public":"Grouped public hydrography segments","trout_source_public":"Compiled public recovery and lineage context; expert review recommended","public_notes":"Venable Creek is shown as a named-water occurrence within watershed-level cutthroat lineage context. This is not a precise biological boundary."}},{"type":"Feature","geometry":{"type":"LineString","coordinates":[[-105.4891,38.002],[-105.4865,38.005],[-105.4818,38.0079]]},"properties":{"source_id":"co_named_stream_036408","name":"Middle Colony Creek","display_name":"Middle Colony Creek","mapped_name":"Middle Colony Creek","source_name":"Middle Colony Creek","state":"CO","atlas_class":"named_natural_stream","huc8":"11020001","huc8Name":"Arkansas Headwaters","huc8States":"CO","lineageKey":"yellowfin","lineage":"yellowfin","historic":"yellowfin","current":"yellowfin","recovery":"recoveryWatch","lineageLabel":"Yellowfin / Arkansas headwaters historical form","lineageBasin":"Arkansas Headwaters","lineageNote":"Atlas model treats Arkansas watershed as Yellowfin historical context","atlas_context":"cutthroat_lineage_context","confidence":"Watershed-level lineage context; expert review recommended","geometryStatus":"Named natural stream segment from statewide hydrography","note":"This named natural stream falls within a HUC8 assigned to a cutthroat lineage context.","source_segment_id":"co_named_stream_036408","water_id":"co_middle_colony_creek_11020001_yellowfin_001","occurrence_id":"co_middle_colony_creek_11020001_yellowfin_001","occurrence_number":"001","segment_count":12,"disambiguator":"Arkansas Headwaters · Yellowfin / Arkansas headwaters historical form · occurrence 001","basin":"Arkansas Headwaters","atlas_layer":"named_water_occurrence","object_role":"named_water_occurrence","historic_label":"Yellowfin / Arkansas headwaters historical form","current_label":"Yellowfin / Arkansas headwaters historical form","recovery_label":"Recovery watch / review area","tier":"tier3","minZoom":14,"confidence_public":"Watershed-level lineage context; expert review recommended","geometry_status_public":"Named natural stream occurrence from statewide hydrography","geometry_source_public":"Grouped public hydrography segments","trout_source_public":"Compiled public recovery and lineage context; expert review recommended","public_notes":"Middle Colony Creek is shown as a named-water occurrence within watershed-level cutthroat lineage context. This is not a precise biological boundary."}},{"type":"Feature","geometry":{"type":"LineString","coordinates":[[-105.4815,38.008],[-105.4781,38.0098]]},"properties":{"source_id":"co_named_stream_036409","name":"Middle Colony Creek","display_name":"Middle Colony Creek","mapped_name":"Middle Colony Creek","source_name":"Middle Colony Creek","state":"CO","atlas_class":"named_natural_stream","huc8":"11020001","huc8Name":"Arkansas Headwaters","huc8States":"CO","lineageKey":"yellowfin","lineage":"yellowfin","historic":"yellowfin","current":"yellowfin","recovery":"recoveryWatch","lineageLabel":"Yellowfin / Arkansas headwaters historical form","lineageBasin":"Arkansas Headwaters","lineageNote":"Atlas model treats Arkansas watershed as Yellowfin historical context","atlas_context":"cutthroat_lineage_context","confidence":"Watershed-level lineage context; expert review recommended","geometryStatus":"Named natural stream segment from statewide hydrography","note":"This named natural stream falls within a HUC8 assigned to a cutthroat lineage context.","source_segment_id":"co_named_stream_036409","water_id":"co_middle_colony_creek_11020001_yellowfin_001","occurrence_id":"co_middle_colony_creek_11020001_yellowfin_001","occurrence_number":"001","segment_count":12,"disambiguator":"Arkansas Headwaters · Yellowfin / Arkansas headwaters historical form · occurrence 001","basin":"Arkansas Headwaters","atlas_layer":"named_water_occurrence","object_role":"named_water_occurrence","historic_label":"Yellowfin / Arkansas headwaters historical form","current_label":"Yellowfin / Arkansas headwaters historical form","recovery_label":"Recovery watch / review area","tier":"tier3","minZoom":14,"confidence_public":"Watershed-level lineage context; expert review recommended","geometry_status_public":"Named natural stream occurrence from statewide hydrography","geometry_source_public":"Grouped public hydrography segments","trout_source_public":"Compiled public recovery and lineage context; expert review recommended","public_notes":"Middle Colony Creek is shown as a named-water occurrence within watershed-level cutthroat lineage context. This is not a precise biological boundary."}},{"type":"Feature","geometry":{"type":"LineString","coordinates":[[-105.4906,37.9995],[-105.4891,38.002]]},"properties":{"source_id":"co_named_stream_043943","name":"Middle Colony Creek","display_name":"Middle Colony Creek","mapped_name":"Middle Colony Creek","source_name":"Middle Colony Creek","state":"CO","atlas_class":"named_natural_stream","huc8":"11020001","huc8Name":"Arkansas Headwaters","huc8States":"CO","lineageKey":"yellowfin","lineage":"yellowfin","historic":"yellowfin","current":"yellowfin","recovery":"recoveryWatch","lineageLabel":"Yellowfin / Arkansas headwaters historical form","lineageBasin":"Arkansas Headwaters","lineageNote":"Atlas model treats Arkansas watershed as Yellowfin historical context","atlas_context":"cutthroat_lineage_context","confidence":"Watershed-level lineage context; expert review recommended","geometryStatus":"Named natural stream segment from statewide hydrography","note":"This named natural stream falls within a HUC8 assigned to a cutthroat lineage context.","source_segment_id":"co_named_stream_043943","water_id":"co_middle_colony_creek_11020001_yellowfin_001","occurrence_id":"co_middle_colony_creek_11020001_yellowfin_001","occurrence_number":"001","segment_count":12,"disambiguator":"Arkansas Headwaters · Yellowfin / Arkansas headwaters historical form · occurrence 001","basin":"Arkansas Headwaters","atlas_layer":"named_water_occurrence","object_role":"named_water_occurrence","historic_label":"Yellowfin / Arkansas headwaters historical form","current_label":"Yellowfin / Arkansas headwaters historical form","recovery_label":"Recovery watch / review area","tier":"tier3","minZoom":14,"confidence_public":"Watershed-level lineage context; expert review recommended","geometry_status_public":"Named natural stream occurrence from statewide hydrography","geometry_source_public":"Grouped public hydrography segments","trout_source_public":"Compiled public recovery and lineage context; expert review recommended","public_notes":"Middle Colony Creek is shown as a named-water occurrence within watershed-level cutthroat lineage context. This is not a precise biological boundary."}},{"type":"Feature","geometry":{"type":"LineString","coordinates":[[-105.4781,38.0098],[-105.474,38.0119]]},"properties":{"source_id":"co_named_stream_043944","name":"Middle Colony Creek","display_name":"Middle Colony Creek","mapped_name":"Middle Colony Creek","source_name":"Middle Colony Creek","state":"CO","atlas_class":"named_natural_stream","huc8":"11020001","huc8Name":"Arkansas Headwaters","huc8States":"CO","lineageKey":"yellowfin","lineage":"yellowfin","historic":"yellowfin","current":"yellowfin","recovery":"recoveryWatch","lineageLabel":"Yellowfin / Arkansas headwaters historical form","lineageBasin":"Arkansas Headwaters","lineageNote":"Atlas model treats Arkansas watershed as Yellowfin historical context","atlas_context":"cutthroat_lineage_context","confidence":"Watershed-level lineage context; expert review recommended","geometryStatus":"Named natural stream segment from statewide hydrography","note":"This named natural stream falls within a HUC8 assigned to a cutthroat lineage context.","source_segment_id":"co_named_stream_043944","water_id":"co_middle_colony_creek_11020001_yellowfin_001","occurrence_id":"co_middle_colony_creek_11020001_yellowfin_001","occurrence_number":"001","segment_count":12,"disambiguator":"Arkansas Headwaters · Yellowfin / Arkansas headwaters historical form · occurrence 001","basin":"Arkansas Headwaters","atlas_layer":"named_water_occurrence","object_role":"named_water_occurrence","historic_label":"Yellowfin / Arkansas headwaters historical form","current_label":"Yellowfin / Arkansas headwaters historical form","recovery_label":"Recovery watch / review area","tier":"tier3","minZoom":14,"confidence_public":"Watershed-level lineage context; expert review recommended","geometry_status_public":"Named natural stream occurrence from statewide hydrography","geometry_source_public":"Grouped public hydrography segments","trout_source_public":"Compiled public recovery and lineage context; expert review recommended","public_notes":"Middle Colony Creek is shown as a named-water occurrence within watershed-level cutthroat lineage context. This is not a precise biological boundary."}},{"type":"Feature","geometry":{"type":"LineString","coordinates":[[-105.474,38.0119],[-105.4618,38.0181],[-105.4554,38.0186],[-105.4464,38.0235],[-105.4453,38.0248],[-105.44,38.0267],[-105.4333,38.0327]]},"properties":{"source_id":"co_named_stream_047230","name":"Middle Colony Creek","display_name":"Middle Colony Creek","mapped_name":"Middle Colony Creek","source_name":"Middle Colony Creek","state":"CO","atlas_class":"named_natural_stream","huc8":"11020001","huc8Name":"Arkansas Headwaters","huc8States":"CO","lineageKey":"yellowfin","lineage":"yellowfin","historic":"yellowfin","current":"yellowfin","recovery":"recoveryWatch","lineageLabel":"Yellowfin / Arkansas headwaters historical form","lineageBasin":"Arkansas Headwaters","lineageNote":"Atlas model treats Arkansas watershed as Yellowfin historical context","atlas_context":"cutthroat_lineage_context","confidence":"Watershed-level lineage context; expert review recommended","geometryStatus":"Named natural stream segment from statewide hydrography","note":"This named natural stream falls within a HUC8 assigned to a cutthroat lineage context.","source_segment_id":"co_named_stream_047230","water_id":"co_middle_colony_creek_11020001_yellowfin_001","occurrence_id":"co_middle_colony_creek_11020001_yellowfin_001","occurrence_number":"001","segment_count":12,"disambiguator":"Arkansas Headwaters · Yellowfin / Arkansas headwaters historical form · occurrence 001","basin":"Arkansas Headwaters","atlas_layer":"named_water_occurrence","object_role":"named_water_occurrence","historic_label":"Yellowfin / Arkansas headwaters historical form","current_label":"Yellowfin / Arkansas headwaters historical form","recovery_label":"Recovery watch / review area","tier":"tier3","minZoom":14,"confidence_public":"Watershed-level lineage context; expert review recommended","geometry_status_public":"Named natural stream occurrence from statewide hydrography","geometry_source_public":"Grouped public hydrography segments","trout_source_public":"Compiled public recovery and lineage context; expert review recommended","public_notes":"Middle Colony Creek is shown as a named-water occurrence within watershed-level cutthroat lineage context. This is not a precise biological boundary."}},{"type":"Feature","geometry":{"type":"LineString","coordinates":[[-105.5006,38.1772],[-105.4991,38.1766],[-105.4981,38.1776],[-105.4977,38.1807]]},"properties":{"source_id":"co_named_stream_032751","name":"Spring Run","display_name":"Spring Run","mapped_name":"Spring Run","source_name":"Spring Run","state":"CO","atlas_class":"named_natural_stream","huc8":"11020001","huc8Name":"Arkansas Headwaters","huc8States":"CO","lineageKey":"yellowfin","lineage":"yellowfin","historic":"yellowfin","current":"yellowfin","recovery":"recoveryWatch","lineageLabel":"Yellowfin / Arkansas headwaters historical form","lineageBasin":"Arkansas Headwaters","lineageNote":"Atlas model treats Arkansas watershed as Yellowfin historical context","atlas_context":"cutthroat_lineage_context","confidence":"Watershed-level lineage context; expert review recommended","geometryStatus":"Named natural stream segment from statewide hydrography","note":"This named natural stream falls within a HUC8 assigned to a cutthroat lineage context.","source_segment_id":"co_named_stream_032751","water_id":"co_spring_run_11020001_yellowfin_001","occurrence_id":"co_spring_run_11020001_yellowfin_001","occurrence_number":"001","segment_count":3,"disambiguator":"Arkansas Headwaters · Yellowfin / Arkansas headwaters historical form · occurrence 001","basin":"Arkansas Headwaters","atlas_layer":"named_water_occurrence","object_role":"named_water_occurrence","historic_label":"Yellowfin / Arkansas headwaters historical form","current_label":"Yellowfin / Arkansas headwaters historical form","recovery_label":"Recovery watch / review area","tier":"tier3","minZoom":14,"confidence_public":"Watershed-level lineage context; expert review recommended","geometry_status_public":"Named natural stream occurrence from statewide hydrography","geometry_source_public":"Grouped public hydrography segments","trout_source_public":"Compiled public recovery and lineage context; expert review recommended","public_notes":"Spring Run is shown as a named-water occurrence within watershed-level cutthroat lineage context. This is not a precise biological boundary."}}]}