{"type":"FeatureCollection","metadata":{"source":"C:\\ct-atlas-data\\processed\\geojson\\interpreted\\colorado_named_natural_streams_complete_v1.geojson","tier":"tier3","tile_size_degrees":0.25,"x":-418,"y":151,"bounds":{"west":-104.5,"south":37.75,"east":-104.25,"north":38}},"features":[{"type":"Feature","geometry":{"type":"LineString","coordinates":[[-104.4195,37.7896],[-104.4177,37.7911]]},"properties":{"source_id":"co_named_stream_029997","name":"Doyle Arroyo","display_name":"Doyle Arroyo","mapped_name":"Doyle Arroyo","source_name":"Doyle Arroyo","state":"CO","atlas_class":"named_natural_stream","huc8":"11020006","huc8Name":"Huerfano","huc8States":"CO","lineageKey":"yellowfin","lineage":"yellowfin","historic":"yellowfin","current":"yellowfin","recovery":"recoveryWatch","lineageLabel":"Yellowfin / Arkansas headwaters historical form","lineageBasin":"Huerfano","lineageNote":"Arkansas basin historical Yellowfin context; review needed","atlas_context":"cutthroat_lineage_context","confidence":"Watershed-level lineage context; expert review recommended","geometryStatus":"Named natural stream segment from statewide hydrography","note":"This named natural stream falls within a HUC8 assigned to a cutthroat lineage context.","source_segment_id":"co_named_stream_029997","water_id":"co_doyle_arroyo_11020006_yellowfin_002","occurrence_id":"co_doyle_arroyo_11020006_yellowfin_002","occurrence_number":"002","segment_count":2,"disambiguator":"Huerfano · Yellowfin / Arkansas headwaters historical form · occurrence 002","basin":"Huerfano","atlas_layer":"named_water_occurrence","object_role":"named_water_occurrence","historic_label":"Yellowfin / Arkansas headwaters historical form","current_label":"Yellowfin / Arkansas headwaters historical form","recovery_label":"Recovery watch / review area","tier":"tier3","minZoom":14,"confidence_public":"Watershed-level lineage context; expert review recommended","geometry_status_public":"Named natural stream occurrence from statewide hydrography","geometry_source_public":"Grouped public hydrography segments","trout_source_public":"Compiled public recovery and lineage context; expert review recommended","public_notes":"Doyle Arroyo is shown as a named-water occurrence within watershed-level cutthroat lineage context. This is not a precise biological boundary."}},{"type":"Feature","geometry":{"type":"LineString","coordinates":[[-104.4177,37.7911],[-104.4175,37.7919]]},"properties":{"source_id":"co_named_stream_029998","name":"Doyle Arroyo","display_name":"Doyle Arroyo","mapped_name":"Doyle Arroyo","source_name":"Doyle Arroyo","state":"CO","atlas_class":"named_natural_stream","huc8":"11020006","huc8Name":"Huerfano","huc8States":"CO","lineageKey":"yellowfin","lineage":"yellowfin","historic":"yellowfin","current":"yellowfin","recovery":"recoveryWatch","lineageLabel":"Yellowfin / Arkansas headwaters historical form","lineageBasin":"Huerfano","lineageNote":"Arkansas basin historical Yellowfin context; review needed","atlas_context":"cutthroat_lineage_context","confidence":"Watershed-level lineage context; expert review recommended","geometryStatus":"Named natural stream segment from statewide hydrography","note":"This named natural stream falls within a HUC8 assigned to a cutthroat lineage context.","source_segment_id":"co_named_stream_029998","water_id":"co_doyle_arroyo_11020006_yellowfin_002","occurrence_id":"co_doyle_arroyo_11020006_yellowfin_002","occurrence_number":"002","segment_count":2,"disambiguator":"Huerfano · Yellowfin / Arkansas headwaters historical form · occurrence 002","basin":"Huerfano","atlas_layer":"named_water_occurrence","object_role":"named_water_occurrence","historic_label":"Yellowfin / Arkansas headwaters historical form","current_label":"Yellowfin / Arkansas headwaters historical form","recovery_label":"Recovery watch / review area","tier":"tier3","minZoom":14,"confidence_public":"Watershed-level lineage context; expert review recommended","geometry_status_public":"Named natural stream occurrence from statewide hydrography","geometry_source_public":"Grouped public hydrography segments","trout_source_public":"Compiled public recovery and lineage context; expert review recommended","public_notes":"Doyle Arroyo is shown as a named-water occurrence within watershed-level cutthroat lineage context. This is not a precise biological boundary."}}]}