{"type":"FeatureCollection","metadata":{"source":"C:\\ct-atlas-data\\processed\\geojson\\interpreted\\colorado_named_natural_streams_complete_v1.geojson","tier":"tier3","tile_size_degrees":0.25,"x":-419,"y":149,"bounds":{"west":-104.75,"south":37.25,"east":-104.5,"north":37.5}},"features":[{"type":"Feature","geometry":{"type":"LineString","coordinates":[[-104.5051,37.3567],[-104.5016,37.3587],[-104.4992,37.3591],[-104.4981,37.3605],[-104.4957,37.3606]]},"properties":{"source_id":"co_named_stream_029014","name":"Black Hills Arroyo","display_name":"Black Hills Arroyo","mapped_name":"Black Hills Arroyo","source_name":"Black Hills Arroyo","state":"CO","atlas_class":"named_natural_stream","huc8":"11020010","huc8Name":"Purgatoire","huc8States":"CO,NM","lineageKey":"yellowfin","lineage":"yellowfin","historic":"yellowfin","current":"yellowfin","recovery":"recoveryWatch","lineageLabel":"Yellowfin / Arkansas headwaters historical form","lineageBasin":"Purgatoire","lineageNote":"Arkansas basin historical Yellowfin context; review needed","atlas_context":"cutthroat_lineage_context","confidence":"Watershed-level lineage context; expert review recommended","geometryStatus":"Named natural stream segment from statewide hydrography","note":"This named natural stream falls within a HUC8 assigned to a cutthroat lineage context.","source_segment_id":"co_named_stream_029014","water_id":"co_black_hills_arroyo_11020010_yellowfin_001","occurrence_id":"co_black_hills_arroyo_11020010_yellowfin_001","occurrence_number":"001","segment_count":14,"disambiguator":"Purgatoire · Yellowfin / Arkansas headwaters historical form · occurrence 001","basin":"Purgatoire","atlas_layer":"named_water_occurrence","object_role":"named_water_occurrence","historic_label":"Yellowfin / Arkansas headwaters historical form","current_label":"Yellowfin / Arkansas headwaters historical form","recovery_label":"Recovery watch / review area","tier":"tier3","minZoom":14,"confidence_public":"Watershed-level lineage context; expert review recommended","geometry_status_public":"Named natural stream occurrence from statewide hydrography","geometry_source_public":"Grouped public hydrography segments","trout_source_public":"Compiled public recovery and lineage context; expert review recommended","public_notes":"Black Hills Arroyo is shown as a named-water occurrence within watershed-level cutthroat lineage context. This is not a precise biological boundary."}},{"type":"Feature","geometry":{"type":"LineString","coordinates":[[-104.5273,37.3499],[-104.5153,37.3536],[-104.5146,37.3546],[-104.5117,37.3545],[-104.5099,37.3557],[-104.5051,37.3567]]},"properties":{"source_id":"co_named_stream_039963","name":"Black Hills Arroyo","display_name":"Black Hills Arroyo","mapped_name":"Black Hills Arroyo","source_name":"Black Hills Arroyo","state":"CO","atlas_class":"named_natural_stream","huc8":"11020010","huc8Name":"Purgatoire","huc8States":"CO,NM","lineageKey":"yellowfin","lineage":"yellowfin","historic":"yellowfin","current":"yellowfin","recovery":"recoveryWatch","lineageLabel":"Yellowfin / Arkansas headwaters historical form","lineageBasin":"Purgatoire","lineageNote":"Arkansas basin historical Yellowfin context; review needed","atlas_context":"cutthroat_lineage_context","confidence":"Watershed-level lineage context; expert review recommended","geometryStatus":"Named natural stream segment from statewide hydrography","note":"This named natural stream falls within a HUC8 assigned to a cutthroat lineage context.","source_segment_id":"co_named_stream_039963","water_id":"co_black_hills_arroyo_11020010_yellowfin_001","occurrence_id":"co_black_hills_arroyo_11020010_yellowfin_001","occurrence_number":"001","segment_count":14,"disambiguator":"Purgatoire · Yellowfin / Arkansas headwaters historical form · occurrence 001","basin":"Purgatoire","atlas_layer":"named_water_occurrence","object_role":"named_water_occurrence","historic_label":"Yellowfin / Arkansas headwaters historical form","current_label":"Yellowfin / Arkansas headwaters historical form","recovery_label":"Recovery watch / review area","tier":"tier3","minZoom":14,"confidence_public":"Watershed-level lineage context; expert review recommended","geometry_status_public":"Named natural stream occurrence from statewide hydrography","geometry_source_public":"Grouped public hydrography segments","trout_source_public":"Compiled public recovery and lineage context; expert review recommended","public_notes":"Black Hills Arroyo is shown as a named-water occurrence within watershed-level cutthroat lineage context. This is not a precise biological boundary."}},{"type":"Feature","geometry":{"type":"LineString","coordinates":[[-104.5033,37.2742],[-104.4961,37.2773]]},"properties":{"source_id":"co_named_stream_033399","name":"Leitensdorfer Arroyo","display_name":"Leitensdorfer Arroyo","mapped_name":"Leitensdorfer Arroyo","source_name":"Leitensdorfer Arroyo","state":"CO","atlas_class":"named_natural_stream","huc8":"11020010","huc8Name":"Purgatoire","huc8States":"CO,NM","lineageKey":"yellowfin","lineage":"yellowfin","historic":"yellowfin","current":"yellowfin","recovery":"recoveryWatch","lineageLabel":"Yellowfin / Arkansas headwaters historical form","lineageBasin":"Purgatoire","lineageNote":"Arkansas basin historical Yellowfin context; review needed","atlas_context":"cutthroat_lineage_context","confidence":"Watershed-level lineage context; expert review recommended","geometryStatus":"Named natural stream segment from statewide hydrography","note":"This named natural stream falls within a HUC8 assigned to a cutthroat lineage context.","source_segment_id":"co_named_stream_033399","water_id":"co_leitensdorfer_arroyo_11020010_yellowfin_001","occurrence_id":"co_leitensdorfer_arroyo_11020010_yellowfin_001","occurrence_number":"001","segment_count":14,"disambiguator":"Purgatoire · Yellowfin / Arkansas headwaters historical form · occurrence 001","basin":"Purgatoire","atlas_layer":"named_water_occurrence","object_role":"named_water_occurrence","historic_label":"Yellowfin / Arkansas headwaters historical form","current_label":"Yellowfin / Arkansas headwaters historical form","recovery_label":"Recovery watch / review area","tier":"tier3","minZoom":14,"confidence_public":"Watershed-level lineage context; expert review recommended","geometry_status_public":"Named natural stream occurrence from statewide hydrography","geometry_source_public":"Grouped public hydrography segments","trout_source_public":"Compiled public recovery and lineage context; expert review recommended","public_notes":"Leitensdorfer Arroyo is shown as a named-water occurrence within watershed-level cutthroat lineage context. This is not a precise biological boundary."}},{"type":"Feature","geometry":{"type":"LineString","coordinates":[[-104.5146,37.2671],[-104.5127,37.2688],[-104.5077,37.2702],[-104.5036,37.2737]]},"properties":{"source_id":"co_named_stream_050180","name":"Leitensdorfer Arroyo","display_name":"Leitensdorfer Arroyo","mapped_name":"Leitensdorfer Arroyo","source_name":"Leitensdorfer Arroyo","state":"CO","atlas_class":"named_natural_stream","huc8":"11020010","huc8Name":"Purgatoire","huc8States":"CO,NM","lineageKey":"yellowfin","lineage":"yellowfin","historic":"yellowfin","current":"yellowfin","recovery":"recoveryWatch","lineageLabel":"Yellowfin / Arkansas headwaters historical form","lineageBasin":"Purgatoire","lineageNote":"Arkansas basin historical Yellowfin context; review needed","atlas_context":"cutthroat_lineage_context","confidence":"Watershed-level lineage context; expert review recommended","geometryStatus":"Named natural stream segment from statewide hydrography","note":"This named natural stream falls within a HUC8 assigned to a cutthroat lineage context.","source_segment_id":"co_named_stream_050180","water_id":"co_leitensdorfer_arroyo_11020010_yellowfin_001","occurrence_id":"co_leitensdorfer_arroyo_11020010_yellowfin_001","occurrence_number":"001","segment_count":14,"disambiguator":"Purgatoire · Yellowfin / Arkansas headwaters historical form · occurrence 001","basin":"Purgatoire","atlas_layer":"named_water_occurrence","object_role":"named_water_occurrence","historic_label":"Yellowfin / Arkansas headwaters historical form","current_label":"Yellowfin / Arkansas headwaters historical form","recovery_label":"Recovery watch / review area","tier":"tier3","minZoom":14,"confidence_public":"Watershed-level lineage context; expert review recommended","geometry_status_public":"Named natural stream occurrence from statewide hydrography","geometry_source_public":"Grouped public hydrography segments","trout_source_public":"Compiled public recovery and lineage context; expert review recommended","public_notes":"Leitensdorfer Arroyo is shown as a named-water occurrence within watershed-level cutthroat lineage context. This is not a precise biological boundary."}},{"type":"Feature","geometry":{"type":"LineString","coordinates":[[-104.7124,37.4935],[-104.7101,37.4968]]},"properties":{"source_id":"co_named_stream_029597","name":"Santa Clara Creek","display_name":"Santa Clara Creek","mapped_name":"Santa Clara Creek","source_name":"Santa Clara Creek","state":"CO","atlas_class":"named_natural_stream","huc8":"11020006","huc8Name":"Huerfano","huc8States":"CO","lineageKey":"yellowfin","lineage":"yellowfin","historic":"yellowfin","current":"yellowfin","recovery":"recoveryWatch","lineageLabel":"Yellowfin / Arkansas headwaters historical form","lineageBasin":"Huerfano","lineageNote":"Arkansas basin historical Yellowfin context; review needed","atlas_context":"cutthroat_lineage_context","confidence":"Watershed-level lineage context; expert review recommended","geometryStatus":"Named natural stream segment from statewide hydrography","note":"This named natural stream falls within a HUC8 assigned to a cutthroat lineage context.","source_segment_id":"co_named_stream_029597","water_id":"co_santa_clara_creek_11020006_yellowfin_002","occurrence_id":"co_santa_clara_creek_11020006_yellowfin_002","occurrence_number":"002","segment_count":3,"disambiguator":"Huerfano · Yellowfin / Arkansas headwaters historical form · occurrence 002","basin":"Huerfano","atlas_layer":"named_water_occurrence","object_role":"named_water_occurrence","historic_label":"Yellowfin / Arkansas headwaters historical form","current_label":"Yellowfin / Arkansas headwaters historical form","recovery_label":"Recovery watch / review area","tier":"tier3","minZoom":14,"confidence_public":"Watershed-level lineage context; expert review recommended","geometry_status_public":"Named natural stream occurrence from statewide hydrography","geometry_source_public":"Grouped public hydrography segments","trout_source_public":"Compiled public recovery and lineage context; expert review recommended","public_notes":"Santa Clara Creek is shown as a named-water occurrence within watershed-level cutthroat lineage context. This is not a precise biological boundary."}},{"type":"Feature","geometry":{"type":"LineString","coordinates":[[-104.7165,37.486],[-104.7162,37.4872],[-104.7146,37.4882],[-104.7143,37.4899]]},"properties":{"source_id":"co_named_stream_029695","name":"Santa Clara Creek","display_name":"Santa Clara Creek","mapped_name":"Santa Clara Creek","source_name":"Santa Clara Creek","state":"CO","atlas_class":"named_natural_stream","huc8":"11020006","huc8Name":"Huerfano","huc8States":"CO","lineageKey":"yellowfin","lineage":"yellowfin","historic":"yellowfin","current":"yellowfin","recovery":"recoveryWatch","lineageLabel":"Yellowfin / Arkansas headwaters historical form","lineageBasin":"Huerfano","lineageNote":"Arkansas basin historical Yellowfin context; review needed","atlas_context":"cutthroat_lineage_context","confidence":"Watershed-level lineage context; expert review recommended","geometryStatus":"Named natural stream segment from statewide hydrography","note":"This named natural stream falls within a HUC8 assigned to a cutthroat lineage context.","source_segment_id":"co_named_stream_029695","water_id":"co_santa_clara_creek_11020006_yellowfin_002","occurrence_id":"co_santa_clara_creek_11020006_yellowfin_002","occurrence_number":"002","segment_count":3,"disambiguator":"Huerfano · Yellowfin / Arkansas headwaters historical form · occurrence 002","basin":"Huerfano","atlas_layer":"named_water_occurrence","object_role":"named_water_occurrence","historic_label":"Yellowfin / Arkansas headwaters historical form","current_label":"Yellowfin / Arkansas headwaters historical form","recovery_label":"Recovery watch / review area","tier":"tier3","minZoom":14,"confidence_public":"Watershed-level lineage context; expert review recommended","geometry_status_public":"Named natural stream occurrence from statewide hydrography","geometry_source_public":"Grouped public hydrography segments","trout_source_public":"Compiled public recovery and lineage context; expert review recommended","public_notes":"Santa Clara Creek is shown as a named-water occurrence within watershed-level cutthroat lineage context. This is not a precise biological boundary."}},{"type":"Feature","geometry":{"type":"LineString","coordinates":[[-104.7328,37.4723],[-104.7307,37.4724],[-104.7296,37.474],[-104.7287,37.4735],[-104.7287,37.4746]]},"properties":{"source_id":"co_named_stream_030703","name":"Santa Clara Creek","display_name":"Santa Clara Creek","mapped_name":"Santa Clara Creek","source_name":"Santa Clara Creek","state":"CO","atlas_class":"named_natural_stream","huc8":"11020006","huc8Name":"Huerfano","huc8States":"CO","lineageKey":"yellowfin","lineage":"yellowfin","historic":"yellowfin","current":"yellowfin","recovery":"recoveryWatch","lineageLabel":"Yellowfin / Arkansas headwaters historical form","lineageBasin":"Huerfano","lineageNote":"Arkansas basin historical Yellowfin context; review needed","atlas_context":"cutthroat_lineage_context","confidence":"Watershed-level lineage context; expert review recommended","geometryStatus":"Named natural stream segment from statewide hydrography","note":"This named natural stream falls within a HUC8 assigned to a cutthroat lineage context.","source_segment_id":"co_named_stream_030703","water_id":"co_santa_clara_creek_11020006_yellowfin_002","occurrence_id":"co_santa_clara_creek_11020006_yellowfin_002","occurrence_number":"002","segment_count":3,"disambiguator":"Huerfano · Yellowfin / Arkansas headwaters historical form · occurrence 002","basin":"Huerfano","atlas_layer":"named_water_occurrence","object_role":"named_water_occurrence","historic_label":"Yellowfin / Arkansas headwaters historical form","current_label":"Yellowfin / Arkansas headwaters historical form","recovery_label":"Recovery watch / review area","tier":"tier3","minZoom":14,"confidence_public":"Watershed-level lineage context; expert review recommended","geometry_status_public":"Named natural stream occurrence from statewide hydrography","geometry_source_public":"Grouped public hydrography segments","trout_source_public":"Compiled public recovery and lineage context; expert review recommended","public_notes":"Santa Clara Creek is shown as a named-water occurrence within watershed-level cutthroat lineage context. This is not a precise biological boundary."}},{"type":"Feature","geometry":{"type":"LineString","coordinates":[[-104.7637,37.4547],[-104.7631,37.4543],[-104.7626,37.4552],[-104.758,37.4563],[-104.7574,37.4573],[-104.7524,37.459],[-104.7517,37.4607],[-104.7479,37.4638]]},"properties":{"source_id":"co_named_stream_033980","name":"South Santa Clara Creek","display_name":"South Santa Clara Creek","mapped_name":"South Santa Clara Creek","source_name":"South Santa Clara Creek","state":"CO","atlas_class":"named_natural_stream","huc8":"11020006","huc8Name":"Huerfano","huc8States":"CO","lineageKey":"yellowfin","lineage":"yellowfin","historic":"yellowfin","current":"yellowfin","recovery":"recoveryWatch","lineageLabel":"Yellowfin / Arkansas headwaters historical form","lineageBasin":"Huerfano","lineageNote":"Arkansas basin historical Yellowfin context; review needed","atlas_context":"cutthroat_lineage_context","confidence":"Watershed-level lineage context; expert review recommended","geometryStatus":"Named natural stream segment from statewide hydrography","note":"This named natural stream falls within a HUC8 assigned to a cutthroat lineage context.","source_segment_id":"co_named_stream_033980","water_id":"co_south_santa_clara_creek_11020006_yellowfin_001","occurrence_id":"co_south_santa_clara_creek_11020006_yellowfin_001","occurrence_number":"001","segment_count":16,"disambiguator":"Huerfano · Yellowfin / Arkansas headwaters historical form · occurrence 001","basin":"Huerfano","atlas_layer":"named_water_occurrence","object_role":"named_water_occurrence","historic_label":"Yellowfin / Arkansas headwaters historical form","current_label":"Yellowfin / Arkansas headwaters historical form","recovery_label":"Recovery watch / review area","tier":"tier3","minZoom":14,"confidence_public":"Watershed-level lineage context; expert review recommended","geometry_status_public":"Named natural stream occurrence from statewide hydrography","geometry_source_public":"Grouped public hydrography segments","trout_source_public":"Compiled public recovery and lineage context; expert review recommended","public_notes":"South Santa Clara Creek is shown as a named-water occurrence within watershed-level cutthroat lineage context. This is not a precise biological boundary."}},{"type":"Feature","geometry":{"type":"LineString","coordinates":[[-104.7479,37.4638],[-104.7462,37.466]]},"properties":{"source_id":"co_named_stream_037781","name":"South Santa Clara Creek","display_name":"South Santa Clara Creek","mapped_name":"South Santa Clara Creek","source_name":"South Santa Clara Creek","state":"CO","atlas_class":"named_natural_stream","huc8":"11020006","huc8Name":"Huerfano","huc8States":"CO","lineageKey":"yellowfin","lineage":"yellowfin","historic":"yellowfin","current":"yellowfin","recovery":"recoveryWatch","lineageLabel":"Yellowfin / Arkansas headwaters historical form","lineageBasin":"Huerfano","lineageNote":"Arkansas basin historical Yellowfin context; review needed","atlas_context":"cutthroat_lineage_context","confidence":"Watershed-level lineage context; expert review recommended","geometryStatus":"Named natural stream segment from statewide hydrography","note":"This named natural stream falls within a HUC8 assigned to a cutthroat lineage context.","source_segment_id":"co_named_stream_037781","water_id":"co_south_santa_clara_creek_11020006_yellowfin_001","occurrence_id":"co_south_santa_clara_creek_11020006_yellowfin_001","occurrence_number":"001","segment_count":16,"disambiguator":"Huerfano · Yellowfin / Arkansas headwaters historical form · occurrence 001","basin":"Huerfano","atlas_layer":"named_water_occurrence","object_role":"named_water_occurrence","historic_label":"Yellowfin / Arkansas headwaters historical form","current_label":"Yellowfin / Arkansas headwaters historical form","recovery_label":"Recovery watch / review area","tier":"tier3","minZoom":14,"confidence_public":"Watershed-level lineage context; expert review recommended","geometry_status_public":"Named natural stream occurrence from statewide hydrography","geometry_source_public":"Grouped public hydrography segments","trout_source_public":"Compiled public recovery and lineage context; expert review recommended","public_notes":"South Santa Clara Creek is shown as a named-water occurrence within watershed-level cutthroat lineage context. This is not a precise biological boundary."}},{"type":"Feature","geometry":{"type":"LineString","coordinates":[[-104.7462,37.466],[-104.7463,37.4669],[-104.7437,37.4707]]},"properties":{"source_id":"co_named_stream_049560","name":"South Santa Clara Creek","display_name":"South Santa Clara Creek","mapped_name":"South Santa Clara Creek","source_name":"South Santa Clara Creek","state":"CO","atlas_class":"named_natural_stream","huc8":"11020006","huc8Name":"Huerfano","huc8States":"CO","lineageKey":"yellowfin","lineage":"yellowfin","historic":"yellowfin","current":"yellowfin","recovery":"recoveryWatch","lineageLabel":"Yellowfin / Arkansas headwaters historical form","lineageBasin":"Huerfano","lineageNote":"Arkansas basin historical Yellowfin context; review needed","atlas_context":"cutthroat_lineage_context","confidence":"Watershed-level lineage context; expert review recommended","geometryStatus":"Named natural stream segment from statewide hydrography","note":"This named natural stream falls within a HUC8 assigned to a cutthroat lineage context.","source_segment_id":"co_named_stream_049560","water_id":"co_south_santa_clara_creek_11020006_yellowfin_001","occurrence_id":"co_south_santa_clara_creek_11020006_yellowfin_001","occurrence_number":"001","segment_count":16,"disambiguator":"Huerfano · Yellowfin / Arkansas headwaters historical form · occurrence 001","basin":"Huerfano","atlas_layer":"named_water_occurrence","object_role":"named_water_occurrence","historic_label":"Yellowfin / Arkansas headwaters historical form","current_label":"Yellowfin / Arkansas headwaters historical form","recovery_label":"Recovery watch / review area","tier":"tier3","minZoom":14,"confidence_public":"Watershed-level lineage context; expert review recommended","geometry_status_public":"Named natural stream occurrence from statewide hydrography","geometry_source_public":"Grouped public hydrography segments","trout_source_public":"Compiled public recovery and lineage context; expert review recommended","public_notes":"South Santa Clara Creek is shown as a named-water occurrence within watershed-level cutthroat lineage context. This is not a precise biological boundary."}},{"type":"Feature","geometry":{"type":"LineString","coordinates":[[-104.543,37.3206],[-104.5424,37.3197]]},"properties":{"source_id":"co_named_stream_029334","name":"Berwind Arroyo","display_name":"Berwind Arroyo","mapped_name":"Berwind Arroyo","source_name":"Berwind Arroyo","state":"CO","atlas_class":"named_natural_stream","huc8":"11020010","huc8Name":"Purgatoire","huc8States":"CO,NM","lineageKey":"yellowfin","lineage":"yellowfin","historic":"yellowfin","current":"yellowfin","recovery":"recoveryWatch","lineageLabel":"Yellowfin / Arkansas headwaters historical form","lineageBasin":"Purgatoire","lineageNote":"Arkansas basin historical Yellowfin context; review needed","atlas_context":"cutthroat_lineage_context","confidence":"Watershed-level lineage context; expert review recommended","geometryStatus":"Named natural stream segment from statewide hydrography","note":"This named natural stream falls within a HUC8 assigned to a cutthroat lineage context.","source_segment_id":"co_named_stream_029334","water_id":"co_berwind_arroyo_11020010_yellowfin_001","occurrence_id":"co_berwind_arroyo_11020010_yellowfin_001","occurrence_number":"001","segment_count":15,"disambiguator":"Purgatoire · Yellowfin / Arkansas headwaters historical form · occurrence 001","basin":"Purgatoire","atlas_layer":"named_water_occurrence","object_role":"named_water_occurrence","historic_label":"Yellowfin / Arkansas headwaters historical form","current_label":"Yellowfin / Arkansas headwaters historical form","recovery_label":"Recovery watch / review area","tier":"tier3","minZoom":14,"confidence_public":"Watershed-level lineage context; expert review recommended","geometry_status_public":"Named natural stream occurrence from statewide hydrography","geometry_source_public":"Grouped public hydrography segments","trout_source_public":"Compiled public recovery and lineage context; expert review recommended","public_notes":"Berwind Arroyo is shown as a named-water occurrence within watershed-level cutthroat lineage context. This is not a precise biological boundary."}},{"type":"Feature","geometry":{"type":"LineString","coordinates":[[-104.5378,37.317],[-104.5314,37.3189],[-104.5282,37.3216],[-104.5243,37.3217]]},"properties":{"source_id":"co_named_stream_029335","name":"Berwind Arroyo","display_name":"Berwind Arroyo","mapped_name":"Berwind Arroyo","source_name":"Berwind Arroyo","state":"CO","atlas_class":"named_natural_stream","huc8":"11020010","huc8Name":"Purgatoire","huc8States":"CO,NM","lineageKey":"yellowfin","lineage":"yellowfin","historic":"yellowfin","current":"yellowfin","recovery":"recoveryWatch","lineageLabel":"Yellowfin / Arkansas headwaters historical form","lineageBasin":"Purgatoire","lineageNote":"Arkansas basin historical Yellowfin context; review needed","atlas_context":"cutthroat_lineage_context","confidence":"Watershed-level lineage context; expert review recommended","geometryStatus":"Named natural stream segment from statewide hydrography","note":"This named natural stream falls within a HUC8 assigned to a cutthroat lineage context.","source_segment_id":"co_named_stream_029335","water_id":"co_berwind_arroyo_11020010_yellowfin_001","occurrence_id":"co_berwind_arroyo_11020010_yellowfin_001","occurrence_number":"001","segment_count":15,"disambiguator":"Purgatoire · Yellowfin / Arkansas headwaters historical form · occurrence 001","basin":"Purgatoire","atlas_layer":"named_water_occurrence","object_role":"named_water_occurrence","historic_label":"Yellowfin / Arkansas headwaters historical form","current_label":"Yellowfin / Arkansas headwaters historical form","recovery_label":"Recovery watch / review area","tier":"tier3","minZoom":14,"confidence_public":"Watershed-level lineage context; expert review recommended","geometry_status_public":"Named natural stream occurrence from statewide hydrography","geometry_source_public":"Grouped public hydrography segments","trout_source_public":"Compiled public recovery and lineage context; expert review recommended","public_notes":"Berwind Arroyo is shown as a named-water occurrence within watershed-level cutthroat lineage context. This is not a precise biological boundary."}},{"type":"Feature","geometry":{"type":"LineString","coordinates":[[-104.5719,37.3237],[-104.5714,37.3234]]},"properties":{"source_id":"co_named_stream_031682","name":"Berwind Arroyo","display_name":"Berwind Arroyo","mapped_name":"Berwind Arroyo","source_name":"Berwind Arroyo","state":"CO","atlas_class":"named_natural_stream","huc8":"11020010","huc8Name":"Purgatoire","huc8States":"CO,NM","lineageKey":"yellowfin","lineage":"yellowfin","historic":"yellowfin","current":"yellowfin","recovery":"recoveryWatch","lineageLabel":"Yellowfin / Arkansas headwaters historical form","lineageBasin":"Purgatoire","lineageNote":"Arkansas basin historical Yellowfin context; review needed","atlas_context":"cutthroat_lineage_context","confidence":"Watershed-level lineage context; expert review recommended","geometryStatus":"Named natural stream segment from statewide hydrography","note":"This named natural stream falls within a HUC8 assigned to a cutthroat lineage context.","source_segment_id":"co_named_stream_031682","water_id":"co_berwind_arroyo_11020010_yellowfin_001","occurrence_id":"co_berwind_arroyo_11020010_yellowfin_001","occurrence_number":"001","segment_count":15,"disambiguator":"Purgatoire · Yellowfin / Arkansas headwaters historical form · occurrence 001","basin":"Purgatoire","atlas_layer":"named_water_occurrence","object_role":"named_water_occurrence","historic_label":"Yellowfin / Arkansas headwaters historical form","current_label":"Yellowfin / Arkansas headwaters historical form","recovery_label":"Recovery watch / review area","tier":"tier3","minZoom":14,"confidence_public":"Watershed-level lineage context; expert review recommended","geometry_status_public":"Named natural stream occurrence from statewide hydrography","geometry_source_public":"Grouped public hydrography segments","trout_source_public":"Compiled public recovery and lineage context; expert review recommended","public_notes":"Berwind Arroyo is shown as a named-water occurrence within watershed-level cutthroat lineage context. This is not a precise biological boundary."}},{"type":"Feature","geometry":{"type":"LineString","coordinates":[[-104.5714,37.3234],[-104.5697,37.3241],[-104.5671,37.3231]]},"properties":{"source_id":"co_named_stream_031683","name":"Berwind Arroyo","display_name":"Berwind Arroyo","mapped_name":"Berwind Arroyo","source_name":"Berwind Arroyo","state":"CO","atlas_class":"named_natural_stream","huc8":"11020010","huc8Name":"Purgatoire","huc8States":"CO,NM","lineageKey":"yellowfin","lineage":"yellowfin","historic":"yellowfin","current":"yellowfin","recovery":"recoveryWatch","lineageLabel":"Yellowfin / Arkansas headwaters historical form","lineageBasin":"Purgatoire","lineageNote":"Arkansas basin historical Yellowfin context; review needed","atlas_context":"cutthroat_lineage_context","confidence":"Watershed-level lineage context; expert review recommended","geometryStatus":"Named natural stream segment from statewide hydrography","note":"This named natural stream falls within a HUC8 assigned to a cutthroat lineage context.","source_segment_id":"co_named_stream_031683","water_id":"co_berwind_arroyo_11020010_yellowfin_001","occurrence_id":"co_berwind_arroyo_11020010_yellowfin_001","occurrence_number":"001","segment_count":15,"disambiguator":"Purgatoire · Yellowfin / Arkansas headwaters historical form · occurrence 001","basin":"Purgatoire","atlas_layer":"named_water_occurrence","object_role":"named_water_occurrence","historic_label":"Yellowfin / Arkansas headwaters historical form","current_label":"Yellowfin / Arkansas headwaters historical form","recovery_label":"Recovery watch / review area","tier":"tier3","minZoom":14,"confidence_public":"Watershed-level lineage context; expert review recommended","geometry_status_public":"Named natural stream occurrence from statewide hydrography","geometry_source_public":"Grouped public hydrography segments","trout_source_public":"Compiled public recovery and lineage context; expert review recommended","public_notes":"Berwind Arroyo is shown as a named-water occurrence within watershed-level cutthroat lineage context. This is not a precise biological boundary."}},{"type":"Feature","geometry":{"type":"LineString","coordinates":[[-104.5818,37.326],[-104.5804,37.3262],[-104.5797,37.3249],[-104.5789,37.326],[-104.5767,37.3257],[-104.574,37.3236]]},"properties":{"source_id":"co_named_stream_033500","name":"Berwind Arroyo","display_name":"Berwind Arroyo","mapped_name":"Berwind Arroyo","source_name":"Berwind Arroyo","state":"CO","atlas_class":"named_natural_stream","huc8":"11020010","huc8Name":"Purgatoire","huc8States":"CO,NM","lineageKey":"yellowfin","lineage":"yellowfin","historic":"yellowfin","current":"yellowfin","recovery":"recoveryWatch","lineageLabel":"Yellowfin / Arkansas headwaters historical form","lineageBasin":"Purgatoire","lineageNote":"Arkansas basin historical Yellowfin context; review needed","atlas_context":"cutthroat_lineage_context","confidence":"Watershed-level lineage context; expert review recommended","geometryStatus":"Named natural stream segment from statewide hydrography","note":"This named natural stream falls within a HUC8 assigned to a cutthroat lineage context.","source_segment_id":"co_named_stream_033500","water_id":"co_berwind_arroyo_11020010_yellowfin_001","occurrence_id":"co_berwind_arroyo_11020010_yellowfin_001","occurrence_number":"001","segment_count":15,"disambiguator":"Purgatoire · Yellowfin / Arkansas headwaters historical form · occurrence 001","basin":"Purgatoire","atlas_layer":"named_water_occurrence","object_role":"named_water_occurrence","historic_label":"Yellowfin / Arkansas headwaters historical form","current_label":"Yellowfin / Arkansas headwaters historical form","recovery_label":"Recovery watch / review area","tier":"tier3","minZoom":14,"confidence_public":"Watershed-level lineage context; expert review recommended","geometry_status_public":"Named natural stream occurrence from statewide hydrography","geometry_source_public":"Grouped public hydrography segments","trout_source_public":"Compiled public recovery and lineage context; expert review recommended","public_notes":"Berwind Arroyo is shown as a named-water occurrence within watershed-level cutthroat lineage context. This is not a precise biological boundary."}},{"type":"Feature","geometry":{"type":"LineString","coordinates":[[-104.5135,37.3231],[-104.5014,37.3202],[-104.5001,37.3189],[-104.4931,37.3186]]},"properties":{"source_id":"co_named_stream_034330","name":"Berwind Arroyo","display_name":"Berwind Arroyo","mapped_name":"Berwind Arroyo","source_name":"Berwind Arroyo","state":"CO","atlas_class":"named_natural_stream","huc8":"11020010","huc8Name":"Purgatoire","huc8States":"CO,NM","lineageKey":"yellowfin","lineage":"yellowfin","historic":"yellowfin","current":"yellowfin","recovery":"recoveryWatch","lineageLabel":"Yellowfin / Arkansas headwaters historical form","lineageBasin":"Purgatoire","lineageNote":"Arkansas basin historical Yellowfin context; review needed","atlas_context":"cutthroat_lineage_context","confidence":"Watershed-level lineage context; expert review recommended","geometryStatus":"Named natural stream segment from statewide hydrography","note":"This named natural stream falls within a HUC8 assigned to a cutthroat lineage context.","source_segment_id":"co_named_stream_034330","water_id":"co_berwind_arroyo_11020010_yellowfin_001","occurrence_id":"co_berwind_arroyo_11020010_yellowfin_001","occurrence_number":"001","segment_count":15,"disambiguator":"Purgatoire · Yellowfin / Arkansas headwaters historical form · occurrence 001","basin":"Purgatoire","atlas_layer":"named_water_occurrence","object_role":"named_water_occurrence","historic_label":"Yellowfin / Arkansas headwaters historical form","current_label":"Yellowfin / Arkansas headwaters historical form","recovery_label":"Recovery watch / review area","tier":"tier3","minZoom":14,"confidence_public":"Watershed-level lineage context; expert review recommended","geometry_status_public":"Named natural stream occurrence from statewide hydrography","geometry_source_public":"Grouped public hydrography segments","trout_source_public":"Compiled public recovery and lineage context; expert review recommended","public_notes":"Berwind Arroyo is shown as a named-water occurrence within watershed-level cutthroat lineage context. This is not a precise biological boundary."}},{"type":"Feature","geometry":{"type":"LineString","coordinates":[[-104.574,37.3236],[-104.5719,37.3237]]},"properties":{"source_id":"co_named_stream_038158","name":"Berwind Arroyo","display_name":"Berwind Arroyo","mapped_name":"Berwind Arroyo","source_name":"Berwind Arroyo","state":"CO","atlas_class":"named_natural_stream","huc8":"11020010","huc8Name":"Purgatoire","huc8States":"CO,NM","lineageKey":"yellowfin","lineage":"yellowfin","historic":"yellowfin","current":"yellowfin","recovery":"recoveryWatch","lineageLabel":"Yellowfin / Arkansas headwaters historical form","lineageBasin":"Purgatoire","lineageNote":"Arkansas basin historical Yellowfin context; review needed","atlas_context":"cutthroat_lineage_context","confidence":"Watershed-level lineage context; expert review recommended","geometryStatus":"Named natural stream segment from statewide hydrography","note":"This named natural stream falls within a HUC8 assigned to a cutthroat lineage context.","source_segment_id":"co_named_stream_038158","water_id":"co_berwind_arroyo_11020010_yellowfin_001","occurrence_id":"co_berwind_arroyo_11020010_yellowfin_001","occurrence_number":"001","segment_count":15,"disambiguator":"Purgatoire · Yellowfin / Arkansas headwaters historical form · occurrence 001","basin":"Purgatoire","atlas_layer":"named_water_occurrence","object_role":"named_water_occurrence","historic_label":"Yellowfin / Arkansas headwaters historical form","current_label":"Yellowfin / Arkansas headwaters historical form","recovery_label":"Recovery watch / review area","tier":"tier3","minZoom":14,"confidence_public":"Watershed-level lineage context; expert review recommended","geometry_status_public":"Named natural stream occurrence from statewide hydrography","geometry_source_public":"Grouped public hydrography segments","trout_source_public":"Compiled public recovery and lineage context; expert review recommended","public_notes":"Berwind Arroyo is shown as a named-water occurrence within watershed-level cutthroat lineage context. This is not a precise biological boundary."}},{"type":"Feature","geometry":{"type":"LineString","coordinates":[[-104.517,37.3239],[-104.5159,37.3241]]},"properties":{"source_id":"co_named_stream_039892","name":"Berwind Arroyo","display_name":"Berwind Arroyo","mapped_name":"Berwind Arroyo","source_name":"Berwind Arroyo","state":"CO","atlas_class":"named_natural_stream","huc8":"11020010","huc8Name":"Purgatoire","huc8States":"CO,NM","lineageKey":"yellowfin","lineage":"yellowfin","historic":"yellowfin","current":"yellowfin","recovery":"recoveryWatch","lineageLabel":"Yellowfin / Arkansas headwaters historical form","lineageBasin":"Purgatoire","lineageNote":"Arkansas basin historical Yellowfin context; review needed","atlas_context":"cutthroat_lineage_context","confidence":"Watershed-level lineage context; expert review recommended","geometryStatus":"Named natural stream segment from statewide hydrography","note":"This named natural stream falls within a HUC8 assigned to a cutthroat lineage context.","source_segment_id":"co_named_stream_039892","water_id":"co_berwind_arroyo_11020010_yellowfin_001","occurrence_id":"co_berwind_arroyo_11020010_yellowfin_001","occurrence_number":"001","segment_count":15,"disambiguator":"Purgatoire · Yellowfin / Arkansas headwaters historical form · occurrence 001","basin":"Purgatoire","atlas_layer":"named_water_occurrence","object_role":"named_water_occurrence","historic_label":"Yellowfin / Arkansas headwaters historical form","current_label":"Yellowfin / Arkansas headwaters historical form","recovery_label":"Recovery watch / review area","tier":"tier3","minZoom":14,"confidence_public":"Watershed-level lineage context; expert review recommended","geometry_status_public":"Named natural stream occurrence from statewide hydrography","geometry_source_public":"Grouped public hydrography segments","trout_source_public":"Compiled public recovery and lineage context; expert review recommended","public_notes":"Berwind Arroyo is shown as a named-water occurrence within watershed-level cutthroat lineage context. This is not a precise biological boundary."}},{"type":"Feature","geometry":{"type":"LineString","coordinates":[[-104.5243,37.3217],[-104.517,37.3239]]},"properties":{"source_id":"co_named_stream_040185","name":"Berwind Arroyo","display_name":"Berwind Arroyo","mapped_name":"Berwind Arroyo","source_name":"Berwind Arroyo","state":"CO","atlas_class":"named_natural_stream","huc8":"11020010","huc8Name":"Purgatoire","huc8States":"CO,NM","lineageKey":"yellowfin","lineage":"yellowfin","historic":"yellowfin","current":"yellowfin","recovery":"recoveryWatch","lineageLabel":"Yellowfin / Arkansas headwaters historical form","lineageBasin":"Purgatoire","lineageNote":"Arkansas basin historical Yellowfin context; review needed","atlas_context":"cutthroat_lineage_context","confidence":"Watershed-level lineage context; expert review recommended","geometryStatus":"Named natural stream segment from statewide hydrography","note":"This named natural stream falls within a HUC8 assigned to a cutthroat lineage context.","source_segment_id":"co_named_stream_040185","water_id":"co_berwind_arroyo_11020010_yellowfin_001","occurrence_id":"co_berwind_arroyo_11020010_yellowfin_001","occurrence_number":"001","segment_count":15,"disambiguator":"Purgatoire · Yellowfin / Arkansas headwaters historical form · occurrence 001","basin":"Purgatoire","atlas_layer":"named_water_occurrence","object_role":"named_water_occurrence","historic_label":"Yellowfin / Arkansas headwaters historical form","current_label":"Yellowfin / Arkansas headwaters historical form","recovery_label":"Recovery watch / review area","tier":"tier3","minZoom":14,"confidence_public":"Watershed-level lineage context; expert review recommended","geometry_status_public":"Named natural stream occurrence from statewide hydrography","geometry_source_public":"Grouped public hydrography segments","trout_source_public":"Compiled public recovery and lineage context; expert review recommended","public_notes":"Berwind Arroyo is shown as a named-water occurrence within watershed-level cutthroat lineage context. This is not a precise biological boundary."}},{"type":"Feature","geometry":{"type":"LineString","coordinates":[[-104.5671,37.3231],[-104.5634,37.3229],[-104.5624,37.3238],[-104.5579,37.3243],[-104.5539,37.3236],[-104.553,37.3246],[-104.5486,37.3234],[-104.5456,37.3208],[-104.543,37.3206]]},"properties":{"source_id":"co_named_stream_041442","name":"Berwind Arroyo","display_name":"Berwind Arroyo","mapped_name":"Berwind Arroyo","source_name":"Berwind Arroyo","state":"CO","atlas_class":"named_natural_stream","huc8":"11020010","huc8Name":"Purgatoire","huc8States":"CO,NM","lineageKey":"yellowfin","lineage":"yellowfin","historic":"yellowfin","current":"yellowfin","recovery":"recoveryWatch","lineageLabel":"Yellowfin / Arkansas headwaters historical form","lineageBasin":"Purgatoire","lineageNote":"Arkansas basin historical Yellowfin context; review needed","atlas_context":"cutthroat_lineage_context","confidence":"Watershed-level lineage context; expert review recommended","geometryStatus":"Named natural stream segment from statewide hydrography","note":"This named natural stream falls within a HUC8 assigned to a cutthroat lineage context.","source_segment_id":"co_named_stream_041442","water_id":"co_berwind_arroyo_11020010_yellowfin_001","occurrence_id":"co_berwind_arroyo_11020010_yellowfin_001","occurrence_number":"001","segment_count":15,"disambiguator":"Purgatoire · Yellowfin / Arkansas headwaters historical form · occurrence 001","basin":"Purgatoire","atlas_layer":"named_water_occurrence","object_role":"named_water_occurrence","historic_label":"Yellowfin / Arkansas headwaters historical form","current_label":"Yellowfin / Arkansas headwaters historical form","recovery_label":"Recovery watch / review area","tier":"tier3","minZoom":14,"confidence_public":"Watershed-level lineage context; expert review recommended","geometry_status_public":"Named natural stream occurrence from statewide hydrography","geometry_source_public":"Grouped public hydrography segments","trout_source_public":"Compiled public recovery and lineage context; expert review recommended","public_notes":"Berwind Arroyo is shown as a named-water occurrence within watershed-level cutthroat lineage context. This is not a precise biological boundary."}},{"type":"Feature","geometry":{"type":"LineString","coordinates":[[-104.5424,37.3197],[-104.5413,37.3197],[-104.5378,37.317]]},"properties":{"source_id":"co_named_stream_048993","name":"Berwind Arroyo","display_name":"Berwind Arroyo","mapped_name":"Berwind Arroyo","source_name":"Berwind Arroyo","state":"CO","atlas_class":"named_natural_stream","huc8":"11020010","huc8Name":"Purgatoire","huc8States":"CO,NM","lineageKey":"yellowfin","lineage":"yellowfin","historic":"yellowfin","current":"yellowfin","recovery":"recoveryWatch","lineageLabel":"Yellowfin / Arkansas headwaters historical form","lineageBasin":"Purgatoire","lineageNote":"Arkansas basin historical Yellowfin context; review needed","atlas_context":"cutthroat_lineage_context","confidence":"Watershed-level lineage context; expert review recommended","geometryStatus":"Named natural stream segment from statewide hydrography","note":"This named natural stream falls within a HUC8 assigned to a cutthroat lineage context.","source_segment_id":"co_named_stream_048993","water_id":"co_berwind_arroyo_11020010_yellowfin_001","occurrence_id":"co_berwind_arroyo_11020010_yellowfin_001","occurrence_number":"001","segment_count":15,"disambiguator":"Purgatoire · Yellowfin / Arkansas headwaters historical form · occurrence 001","basin":"Purgatoire","atlas_layer":"named_water_occurrence","object_role":"named_water_occurrence","historic_label":"Yellowfin / Arkansas headwaters historical form","current_label":"Yellowfin / Arkansas headwaters historical form","recovery_label":"Recovery watch / review area","tier":"tier3","minZoom":14,"confidence_public":"Watershed-level lineage context; expert review recommended","geometry_status_public":"Named natural stream occurrence from statewide hydrography","geometry_source_public":"Grouped public hydrography segments","trout_source_public":"Compiled public recovery and lineage context; expert review recommended","public_notes":"Berwind Arroyo is shown as a named-water occurrence within watershed-level cutthroat lineage context. This is not a precise biological boundary."}},{"type":"Feature","geometry":{"type":"LineString","coordinates":[[-104.5156,37.3241],[-104.5135,37.3231]]},"properties":{"source_id":"co_named_stream_050149","name":"Berwind Arroyo","display_name":"Berwind Arroyo","mapped_name":"Berwind Arroyo","source_name":"Berwind Arroyo","state":"CO","atlas_class":"named_natural_stream","huc8":"11020010","huc8Name":"Purgatoire","huc8States":"CO,NM","lineageKey":"yellowfin","lineage":"yellowfin","historic":"yellowfin","current":"yellowfin","recovery":"recoveryWatch","lineageLabel":"Yellowfin / Arkansas headwaters historical form","lineageBasin":"Purgatoire","lineageNote":"Arkansas basin historical Yellowfin context; review needed","atlas_context":"cutthroat_lineage_context","confidence":"Watershed-level lineage context; expert review recommended","geometryStatus":"Named natural stream segment from statewide hydrography","note":"This named natural stream falls within a HUC8 assigned to a cutthroat lineage context.","source_segment_id":"co_named_stream_050149","water_id":"co_berwind_arroyo_11020010_yellowfin_001","occurrence_id":"co_berwind_arroyo_11020010_yellowfin_001","occurrence_number":"001","segment_count":15,"disambiguator":"Purgatoire · Yellowfin / Arkansas headwaters historical form · occurrence 001","basin":"Purgatoire","atlas_layer":"named_water_occurrence","object_role":"named_water_occurrence","historic_label":"Yellowfin / Arkansas headwaters historical form","current_label":"Yellowfin / Arkansas headwaters historical form","recovery_label":"Recovery watch / review area","tier":"tier3","minZoom":14,"confidence_public":"Watershed-level lineage context; expert review recommended","geometry_status_public":"Named natural stream occurrence from statewide hydrography","geometry_source_public":"Grouped public hydrography segments","trout_source_public":"Compiled public recovery and lineage context; expert review recommended","public_notes":"Berwind Arroyo is shown as a named-water occurrence within watershed-level cutthroat lineage context. This is not a precise biological boundary."}},{"type":"Feature","geometry":{"type":"LineString","coordinates":[[-104.5159,37.3241],[-104.5156,37.3241]]},"properties":{"source_id":"co_named_stream_050181","name":"Berwind Arroyo","display_name":"Berwind Arroyo","mapped_name":"Berwind Arroyo","source_name":"Berwind Arroyo","state":"CO","atlas_class":"named_natural_stream","huc8":"11020010","huc8Name":"Purgatoire","huc8States":"CO,NM","lineageKey":"yellowfin","lineage":"yellowfin","historic":"yellowfin","current":"yellowfin","recovery":"recoveryWatch","lineageLabel":"Yellowfin / Arkansas headwaters historical form","lineageBasin":"Purgatoire","lineageNote":"Arkansas basin historical Yellowfin context; review needed","atlas_context":"cutthroat_lineage_context","confidence":"Watershed-level lineage context; expert review recommended","geometryStatus":"Named natural stream segment from statewide hydrography","note":"This named natural stream falls within a HUC8 assigned to a cutthroat lineage context.","source_segment_id":"co_named_stream_050181","water_id":"co_berwind_arroyo_11020010_yellowfin_001","occurrence_id":"co_berwind_arroyo_11020010_yellowfin_001","occurrence_number":"001","segment_count":15,"disambiguator":"Purgatoire · Yellowfin / Arkansas headwaters historical form · occurrence 001","basin":"Purgatoire","atlas_layer":"named_water_occurrence","object_role":"named_water_occurrence","historic_label":"Yellowfin / Arkansas headwaters historical form","current_label":"Yellowfin / Arkansas headwaters historical form","recovery_label":"Recovery watch / review area","tier":"tier3","minZoom":14,"confidence_public":"Watershed-level lineage context; expert review recommended","geometry_status_public":"Named natural stream occurrence from statewide hydrography","geometry_source_public":"Grouped public hydrography segments","trout_source_public":"Compiled public recovery and lineage context; expert review recommended","public_notes":"Berwind Arroyo is shown as a named-water occurrence within watershed-level cutthroat lineage context. This is not a precise biological boundary."}},{"type":"Feature","geometry":{"type":"LineString","coordinates":[[-104.5877,37.323],[-104.5859,37.3231],[-104.5862,37.3241],[-104.5818,37.326]]},"properties":{"source_id":"co_named_stream_050357","name":"Berwind Arroyo","display_name":"Berwind Arroyo","mapped_name":"Berwind Arroyo","source_name":"Berwind Arroyo","state":"CO","atlas_class":"named_natural_stream","huc8":"11020010","huc8Name":"Purgatoire","huc8States":"CO,NM","lineageKey":"yellowfin","lineage":"yellowfin","historic":"yellowfin","current":"yellowfin","recovery":"recoveryWatch","lineageLabel":"Yellowfin / Arkansas headwaters historical form","lineageBasin":"Purgatoire","lineageNote":"Arkansas basin historical Yellowfin context; review needed","atlas_context":"cutthroat_lineage_context","confidence":"Watershed-level lineage context; expert review recommended","geometryStatus":"Named natural stream segment from statewide hydrography","note":"This named natural stream falls within a HUC8 assigned to a cutthroat lineage context.","source_segment_id":"co_named_stream_050357","water_id":"co_berwind_arroyo_11020010_yellowfin_001","occurrence_id":"co_berwind_arroyo_11020010_yellowfin_001","occurrence_number":"001","segment_count":15,"disambiguator":"Purgatoire · Yellowfin / Arkansas headwaters historical form · occurrence 001","basin":"Purgatoire","atlas_layer":"named_water_occurrence","object_role":"named_water_occurrence","historic_label":"Yellowfin / Arkansas headwaters historical form","current_label":"Yellowfin / Arkansas headwaters historical form","recovery_label":"Recovery watch / review area","tier":"tier3","minZoom":14,"confidence_public":"Watershed-level lineage context; expert review recommended","geometry_status_public":"Named natural stream occurrence from statewide hydrography","geometry_source_public":"Grouped public hydrography segments","trout_source_public":"Compiled public recovery and lineage context; expert review recommended","public_notes":"Berwind Arroyo is shown as a named-water occurrence within watershed-level cutthroat lineage context. This is not a precise biological boundary."}},{"type":"Feature","geometry":{"type":"LineString","coordinates":[[-104.7635,37.4697],[-104.7617,37.4699],[-104.7584,37.4683],[-104.7573,37.469],[-104.7525,37.469],[-104.7515,37.4698],[-104.75,37.4687],[-104.7457,37.4705]]},"properties":{"source_id":"co_named_stream_041385","name":"North Santa Clara Creek","display_name":"North Santa Clara Creek","mapped_name":"North Santa Clara Creek","source_name":"North Santa Clara Creek","state":"CO","atlas_class":"named_natural_stream","huc8":"11020006","huc8Name":"Huerfano","huc8States":"CO","lineageKey":"yellowfin","lineage":"yellowfin","historic":"yellowfin","current":"yellowfin","recovery":"recoveryWatch","lineageLabel":"Yellowfin / Arkansas headwaters historical form","lineageBasin":"Huerfano","lineageNote":"Arkansas basin historical Yellowfin context; review needed","atlas_context":"cutthroat_lineage_context","confidence":"Watershed-level lineage context; expert review recommended","geometryStatus":"Named natural stream segment from statewide hydrography","note":"This named natural stream falls within a HUC8 assigned to a cutthroat lineage context.","source_segment_id":"co_named_stream_041385","water_id":"co_north_santa_clara_creek_11020006_yellowfin_002","occurrence_id":"co_north_santa_clara_creek_11020006_yellowfin_002","occurrence_number":"002","segment_count":12,"disambiguator":"Huerfano · Yellowfin / Arkansas headwaters historical form · occurrence 002","basin":"Huerfano","atlas_layer":"named_water_occurrence","object_role":"named_water_occurrence","historic_label":"Yellowfin / Arkansas headwaters historical form","current_label":"Yellowfin / Arkansas headwaters historical form","recovery_label":"Recovery watch / review area","tier":"tier3","minZoom":14,"confidence_public":"Watershed-level lineage context; expert review recommended","geometry_status_public":"Named natural stream occurrence from statewide hydrography","geometry_source_public":"Grouped public hydrography segments","trout_source_public":"Compiled public recovery and lineage context; expert review recommended","public_notes":"North Santa Clara Creek is shown as a named-water occurrence within watershed-level cutthroat lineage context. This is not a precise biological boundary."}},{"type":"Feature","geometry":{"type":"LineString","coordinates":[[-104.7457,37.4705],[-104.7437,37.4707]]},"properties":{"source_id":"co_named_stream_030964","name":"North Santa Clara Creek","display_name":"North Santa Clara Creek","mapped_name":"North Santa Clara Creek","source_name":"North Santa Clara Creek","state":"CO","atlas_class":"named_natural_stream","huc8":"11020006","huc8Name":"Huerfano","huc8States":"CO","lineageKey":"yellowfin","lineage":"yellowfin","historic":"yellowfin","current":"yellowfin","recovery":"recoveryWatch","lineageLabel":"Yellowfin / Arkansas headwaters historical form","lineageBasin":"Huerfano","lineageNote":"Arkansas basin historical Yellowfin context; review needed","atlas_context":"cutthroat_lineage_context","confidence":"Watershed-level lineage context; expert review recommended","geometryStatus":"Named natural stream segment from statewide hydrography","note":"This named natural stream falls within a HUC8 assigned to a cutthroat lineage context.","source_segment_id":"co_named_stream_030964","water_id":"co_north_santa_clara_creek_11020006_yellowfin_003","occurrence_id":"co_north_santa_clara_creek_11020006_yellowfin_003","occurrence_number":"003","segment_count":1,"disambiguator":"Huerfano · Yellowfin / Arkansas headwaters historical form · occurrence 003","basin":"Huerfano","atlas_layer":"named_water_occurrence","object_role":"named_water_occurrence","historic_label":"Yellowfin / Arkansas headwaters historical form","current_label":"Yellowfin / Arkansas headwaters historical form","recovery_label":"Recovery watch / review area","tier":"tier3","minZoom":14,"confidence_public":"Watershed-level lineage context; expert review recommended","geometry_status_public":"Named natural stream occurrence from statewide hydrography","geometry_source_public":"Grouped public hydrography segments","trout_source_public":"Compiled public recovery and lineage context; expert review recommended","public_notes":"North Santa Clara Creek is shown as a named-water occurrence within watershed-level cutthroat lineage context. This is not a precise biological boundary."}}]}