{"type":"FeatureCollection","metadata":{"source":"C:\\ct-atlas-data\\processed\\geojson\\interpreted\\colorado_named_natural_streams_complete_v1.geojson","tier":"tier2","tile_size_degrees":0.25,"x":-420,"y":148,"bounds":{"west":-105,"south":37,"east":-104.75,"north":37.25}},"features":[{"type":"Feature","geometry":{"type":"LineString","coordinates":[[-104.9514,37.067],[-104.9461,37.0667],[-104.9392,37.0684]]},"properties":{"source_id":"co_named_stream_027475","name":"South Fork Purgatoire River","display_name":"South Fork Purgatoire River","mapped_name":"South Fork Purgatoire River","source_name":"South Fork Purgatoire River","state":"CO","atlas_class":"named_natural_stream","huc8":"11020010","huc8Name":"Purgatoire","huc8States":"CO,NM","lineageKey":"yellowfin","lineage":"yellowfin","historic":"yellowfin","current":"yellowfin","recovery":"recoveryWatch","lineageLabel":"Yellowfin / Arkansas headwaters historical form","lineageBasin":"Purgatoire","lineageNote":"Arkansas basin historical Yellowfin context; review needed","atlas_context":"cutthroat_lineage_context","confidence":"Watershed-level lineage context; expert review recommended","geometryStatus":"Named natural stream segment from statewide hydrography","note":"This named natural stream falls within a HUC8 assigned to a cutthroat lineage context.","source_segment_id":"co_named_stream_027475","water_id":"co_south_fork_purgatoire_river_11020010_yellowfin_001","occurrence_id":"co_south_fork_purgatoire_river_11020010_yellowfin_001","occurrence_number":"001","segment_count":46,"disambiguator":"Purgatoire · Yellowfin / Arkansas headwaters historical form · occurrence 001","basin":"Purgatoire","atlas_layer":"named_water_occurrence","object_role":"named_water_occurrence","historic_label":"Yellowfin / Arkansas headwaters historical form","current_label":"Yellowfin / Arkansas headwaters historical form","recovery_label":"Recovery watch / review area","tier":"tier2","minZoom":12,"confidence_public":"Watershed-level lineage context; expert review recommended","geometry_status_public":"Named natural stream occurrence from statewide hydrography","geometry_source_public":"Grouped public hydrography segments","trout_source_public":"Compiled public recovery and lineage context; expert review recommended","public_notes":"South Fork Purgatoire River is shown as a named-water occurrence within watershed-level cutthroat lineage context. This is not a precise biological boundary."}},{"type":"Feature","geometry":{"type":"LineString","coordinates":[[-104.9676,37.0663],[-104.9552,37.0662],[-104.9541,37.0673],[-104.9516,37.0674]]},"properties":{"source_id":"co_named_stream_027506","name":"South Fork Purgatoire River","display_name":"South Fork Purgatoire River","mapped_name":"South Fork Purgatoire River","source_name":"South Fork Purgatoire River","state":"CO","atlas_class":"named_natural_stream","huc8":"11020010","huc8Name":"Purgatoire","huc8States":"CO,NM","lineageKey":"yellowfin","lineage":"yellowfin","historic":"yellowfin","current":"yellowfin","recovery":"recoveryWatch","lineageLabel":"Yellowfin / Arkansas headwaters historical form","lineageBasin":"Purgatoire","lineageNote":"Arkansas basin historical Yellowfin context; review needed","atlas_context":"cutthroat_lineage_context","confidence":"Watershed-level lineage context; expert review recommended","geometryStatus":"Named natural stream segment from statewide hydrography","note":"This named natural stream falls within a HUC8 assigned to a cutthroat lineage context.","source_segment_id":"co_named_stream_027506","water_id":"co_south_fork_purgatoire_river_11020010_yellowfin_001","occurrence_id":"co_south_fork_purgatoire_river_11020010_yellowfin_001","occurrence_number":"001","segment_count":46,"disambiguator":"Purgatoire · Yellowfin / Arkansas headwaters historical form · occurrence 001","basin":"Purgatoire","atlas_layer":"named_water_occurrence","object_role":"named_water_occurrence","historic_label":"Yellowfin / Arkansas headwaters historical form","current_label":"Yellowfin / Arkansas headwaters historical form","recovery_label":"Recovery watch / review area","tier":"tier2","minZoom":12,"confidence_public":"Watershed-level lineage context; expert review recommended","geometry_status_public":"Named natural stream occurrence from statewide hydrography","geometry_source_public":"Grouped public hydrography segments","trout_source_public":"Compiled public recovery and lineage context; expert review recommended","public_notes":"South Fork Purgatoire River is shown as a named-water occurrence within watershed-level cutthroat lineage context. This is not a precise biological boundary."}},{"type":"Feature","geometry":{"type":"LineString","coordinates":[[-104.9018,37.0761],[-104.9011,37.0771]]},"properties":{"source_id":"co_named_stream_029153","name":"South Fork Purgatoire River","display_name":"South Fork Purgatoire River","mapped_name":"South Fork Purgatoire River","source_name":"South Fork Purgatoire River","state":"CO","atlas_class":"named_natural_stream","huc8":"11020010","huc8Name":"Purgatoire","huc8States":"CO,NM","lineageKey":"yellowfin","lineage":"yellowfin","historic":"yellowfin","current":"yellowfin","recovery":"recoveryWatch","lineageLabel":"Yellowfin / Arkansas headwaters historical form","lineageBasin":"Purgatoire","lineageNote":"Arkansas basin historical Yellowfin context; review needed","atlas_context":"cutthroat_lineage_context","confidence":"Watershed-level lineage context; expert review recommended","geometryStatus":"Named natural stream segment from statewide hydrography","note":"This named natural stream falls within a HUC8 assigned to a cutthroat lineage context.","source_segment_id":"co_named_stream_029153","water_id":"co_south_fork_purgatoire_river_11020010_yellowfin_001","occurrence_id":"co_south_fork_purgatoire_river_11020010_yellowfin_001","occurrence_number":"001","segment_count":46,"disambiguator":"Purgatoire · Yellowfin / Arkansas headwaters historical form · occurrence 001","basin":"Purgatoire","atlas_layer":"named_water_occurrence","object_role":"named_water_occurrence","historic_label":"Yellowfin / Arkansas headwaters historical form","current_label":"Yellowfin / Arkansas headwaters historical form","recovery_label":"Recovery watch / review area","tier":"tier2","minZoom":12,"confidence_public":"Watershed-level lineage context; expert review recommended","geometry_status_public":"Named natural stream occurrence from statewide hydrography","geometry_source_public":"Grouped public hydrography segments","trout_source_public":"Compiled public recovery and lineage context; expert review recommended","public_notes":"South Fork Purgatoire River is shown as a named-water occurrence within watershed-level cutthroat lineage context. This is not a precise biological boundary."}},{"type":"Feature","geometry":{"type":"LineString","coordinates":[[-104.9011,37.0771],[-104.8974,37.0783],[-104.8977,37.0792]]},"properties":{"source_id":"co_named_stream_029154","name":"South Fork Purgatoire River","display_name":"South Fork Purgatoire River","mapped_name":"South Fork Purgatoire River","source_name":"South Fork Purgatoire River","state":"CO","atlas_class":"named_natural_stream","huc8":"11020010","huc8Name":"Purgatoire","huc8States":"CO,NM","lineageKey":"yellowfin","lineage":"yellowfin","historic":"yellowfin","current":"yellowfin","recovery":"recoveryWatch","lineageLabel":"Yellowfin / Arkansas headwaters historical form","lineageBasin":"Purgatoire","lineageNote":"Arkansas basin historical Yellowfin context; review needed","atlas_context":"cutthroat_lineage_context","confidence":"Watershed-level lineage context; expert review recommended","geometryStatus":"Named natural stream segment from statewide hydrography","note":"This named natural stream falls within a HUC8 assigned to a cutthroat lineage context.","source_segment_id":"co_named_stream_029154","water_id":"co_south_fork_purgatoire_river_11020010_yellowfin_001","occurrence_id":"co_south_fork_purgatoire_river_11020010_yellowfin_001","occurrence_number":"001","segment_count":46,"disambiguator":"Purgatoire · Yellowfin / Arkansas headwaters historical form · occurrence 001","basin":"Purgatoire","atlas_layer":"named_water_occurrence","object_role":"named_water_occurrence","historic_label":"Yellowfin / Arkansas headwaters historical form","current_label":"Yellowfin / Arkansas headwaters historical form","recovery_label":"Recovery watch / review area","tier":"tier2","minZoom":12,"confidence_public":"Watershed-level lineage context; expert review recommended","geometry_status_public":"Named natural stream occurrence from statewide hydrography","geometry_source_public":"Grouped public hydrography segments","trout_source_public":"Compiled public recovery and lineage context; expert review recommended","public_notes":"South Fork Purgatoire River is shown as a named-water occurrence within watershed-level cutthroat lineage context. This is not a precise biological boundary."}},{"type":"Feature","geometry":{"type":"LineString","coordinates":[[-104.9874,37.0593],[-104.9847,37.0598],[-104.9833,37.0637]]},"properties":{"source_id":"co_named_stream_029566","name":"South Fork Purgatoire River","display_name":"South Fork Purgatoire River","mapped_name":"South Fork Purgatoire River","source_name":"South Fork Purgatoire River","state":"CO","atlas_class":"named_natural_stream","huc8":"11020010","huc8Name":"Purgatoire","huc8States":"CO,NM","lineageKey":"yellowfin","lineage":"yellowfin","historic":"yellowfin","current":"yellowfin","recovery":"recoveryWatch","lineageLabel":"Yellowfin / Arkansas headwaters historical form","lineageBasin":"Purgatoire","lineageNote":"Arkansas basin historical Yellowfin context; review needed","atlas_context":"cutthroat_lineage_context","confidence":"Watershed-level lineage context; expert review recommended","geometryStatus":"Named natural stream segment from statewide hydrography","note":"This named natural stream falls within a HUC8 assigned to a cutthroat lineage context.","source_segment_id":"co_named_stream_029566","water_id":"co_south_fork_purgatoire_river_11020010_yellowfin_001","occurrence_id":"co_south_fork_purgatoire_river_11020010_yellowfin_001","occurrence_number":"001","segment_count":46,"disambiguator":"Purgatoire · Yellowfin / Arkansas headwaters historical form · occurrence 001","basin":"Purgatoire","atlas_layer":"named_water_occurrence","object_role":"named_water_occurrence","historic_label":"Yellowfin / Arkansas headwaters historical form","current_label":"Yellowfin / Arkansas headwaters historical form","recovery_label":"Recovery watch / review area","tier":"tier2","minZoom":12,"confidence_public":"Watershed-level lineage context; expert review recommended","geometry_status_public":"Named natural stream occurrence from statewide hydrography","geometry_source_public":"Grouped public hydrography segments","trout_source_public":"Compiled public recovery and lineage context; expert review recommended","public_notes":"South Fork Purgatoire River is shown as a named-water occurrence within watershed-level cutthroat lineage context. This is not a precise biological boundary."}},{"type":"Feature","geometry":{"type":"LineString","coordinates":[[-104.8697,37.1028],[-104.8692,37.1035]]},"properties":{"source_id":"co_named_stream_029946","name":"South Fork Purgatoire River","display_name":"South Fork Purgatoire River","mapped_name":"South Fork Purgatoire River","source_name":"South Fork Purgatoire River","state":"CO","atlas_class":"named_natural_stream","huc8":"11020010","huc8Name":"Purgatoire","huc8States":"CO,NM","lineageKey":"yellowfin","lineage":"yellowfin","historic":"yellowfin","current":"yellowfin","recovery":"recoveryWatch","lineageLabel":"Yellowfin / Arkansas headwaters historical form","lineageBasin":"Purgatoire","lineageNote":"Arkansas basin historical Yellowfin context; review needed","atlas_context":"cutthroat_lineage_context","confidence":"Watershed-level lineage context; expert review recommended","geometryStatus":"Named natural stream segment from statewide hydrography","note":"This named natural stream falls within a HUC8 assigned to a cutthroat lineage context.","source_segment_id":"co_named_stream_029946","water_id":"co_south_fork_purgatoire_river_11020010_yellowfin_001","occurrence_id":"co_south_fork_purgatoire_river_11020010_yellowfin_001","occurrence_number":"001","segment_count":46,"disambiguator":"Purgatoire · Yellowfin / Arkansas headwaters historical form · occurrence 001","basin":"Purgatoire","atlas_layer":"named_water_occurrence","object_role":"named_water_occurrence","historic_label":"Yellowfin / Arkansas headwaters historical form","current_label":"Yellowfin / Arkansas headwaters historical form","recovery_label":"Recovery watch / review area","tier":"tier2","minZoom":12,"confidence_public":"Watershed-level lineage context; expert review recommended","geometry_status_public":"Named natural stream occurrence from statewide hydrography","geometry_source_public":"Grouped public hydrography segments","trout_source_public":"Compiled public recovery and lineage context; expert review recommended","public_notes":"South Fork Purgatoire River is shown as a named-water occurrence within watershed-level cutthroat lineage context. This is not a precise biological boundary."}},{"type":"Feature","geometry":{"type":"LineString","coordinates":[[-104.9833,37.0637],[-104.9782,37.0644]]},"properties":{"source_id":"co_named_stream_030615","name":"South Fork Purgatoire River","display_name":"South Fork Purgatoire River","mapped_name":"South Fork Purgatoire River","source_name":"South Fork Purgatoire River","state":"CO","atlas_class":"named_natural_stream","huc8":"11020010","huc8Name":"Purgatoire","huc8States":"CO,NM","lineageKey":"yellowfin","lineage":"yellowfin","historic":"yellowfin","current":"yellowfin","recovery":"recoveryWatch","lineageLabel":"Yellowfin / Arkansas headwaters historical form","lineageBasin":"Purgatoire","lineageNote":"Arkansas basin historical Yellowfin context; review needed","atlas_context":"cutthroat_lineage_context","confidence":"Watershed-level lineage context; expert review recommended","geometryStatus":"Named natural stream segment from statewide hydrography","note":"This named natural stream falls within a HUC8 assigned to a cutthroat lineage context.","source_segment_id":"co_named_stream_030615","water_id":"co_south_fork_purgatoire_river_11020010_yellowfin_001","occurrence_id":"co_south_fork_purgatoire_river_11020010_yellowfin_001","occurrence_number":"001","segment_count":46,"disambiguator":"Purgatoire · Yellowfin / Arkansas headwaters historical form · occurrence 001","basin":"Purgatoire","atlas_layer":"named_water_occurrence","object_role":"named_water_occurrence","historic_label":"Yellowfin / Arkansas headwaters historical form","current_label":"Yellowfin / Arkansas headwaters historical form","recovery_label":"Recovery watch / review area","tier":"tier2","minZoom":12,"confidence_public":"Watershed-level lineage context; expert review recommended","geometry_status_public":"Named natural stream occurrence from statewide hydrography","geometry_source_public":"Grouped public hydrography segments","trout_source_public":"Compiled public recovery and lineage context; expert review recommended","public_notes":"South Fork Purgatoire River is shown as a named-water occurrence within watershed-level cutthroat lineage context. This is not a precise biological boundary."}},{"type":"Feature","geometry":{"type":"LineString","coordinates":[[-104.8909,37.0841],[-104.8896,37.0839]]},"properties":{"source_id":"co_named_stream_031641","name":"South Fork Purgatoire River","display_name":"South Fork Purgatoire River","mapped_name":"South Fork Purgatoire River","source_name":"South Fork Purgatoire River","state":"CO","atlas_class":"named_natural_stream","huc8":"11020010","huc8Name":"Purgatoire","huc8States":"CO,NM","lineageKey":"yellowfin","lineage":"yellowfin","historic":"yellowfin","current":"yellowfin","recovery":"recoveryWatch","lineageLabel":"Yellowfin / Arkansas headwaters historical form","lineageBasin":"Purgatoire","lineageNote":"Arkansas basin historical Yellowfin context; review needed","atlas_context":"cutthroat_lineage_context","confidence":"Watershed-level lineage context; expert review recommended","geometryStatus":"Named natural stream segment from statewide hydrography","note":"This named natural stream falls within a HUC8 assigned to a cutthroat lineage context.","source_segment_id":"co_named_stream_031641","water_id":"co_south_fork_purgatoire_river_11020010_yellowfin_001","occurrence_id":"co_south_fork_purgatoire_river_11020010_yellowfin_001","occurrence_number":"001","segment_count":46,"disambiguator":"Purgatoire · Yellowfin / Arkansas headwaters historical form · occurrence 001","basin":"Purgatoire","atlas_layer":"named_water_occurrence","object_role":"named_water_occurrence","historic_label":"Yellowfin / Arkansas headwaters historical form","current_label":"Yellowfin / Arkansas headwaters historical form","recovery_label":"Recovery watch / review area","tier":"tier2","minZoom":12,"confidence_public":"Watershed-level lineage context; expert review recommended","geometry_status_public":"Named natural stream occurrence from statewide hydrography","geometry_source_public":"Grouped public hydrography segments","trout_source_public":"Compiled public recovery and lineage context; expert review recommended","public_notes":"South Fork Purgatoire River is shown as a named-water occurrence within watershed-level cutthroat lineage context. This is not a precise biological boundary."}},{"type":"Feature","geometry":{"type":"LineString","coordinates":[[-104.8896,37.0839],[-104.888,37.0847],[-104.8876,37.086]]},"properties":{"source_id":"co_named_stream_031724","name":"South Fork Purgatoire River","display_name":"South Fork Purgatoire River","mapped_name":"South Fork Purgatoire River","source_name":"South Fork Purgatoire River","state":"CO","atlas_class":"named_natural_stream","huc8":"11020010","huc8Name":"Purgatoire","huc8States":"CO,NM","lineageKey":"yellowfin","lineage":"yellowfin","historic":"yellowfin","current":"yellowfin","recovery":"recoveryWatch","lineageLabel":"Yellowfin / Arkansas headwaters historical form","lineageBasin":"Purgatoire","lineageNote":"Arkansas basin historical Yellowfin context; review needed","atlas_context":"cutthroat_lineage_context","confidence":"Watershed-level lineage context; expert review recommended","geometryStatus":"Named natural stream segment from statewide hydrography","note":"This named natural stream falls within a HUC8 assigned to a cutthroat lineage context.","source_segment_id":"co_named_stream_031724","water_id":"co_south_fork_purgatoire_river_11020010_yellowfin_001","occurrence_id":"co_south_fork_purgatoire_river_11020010_yellowfin_001","occurrence_number":"001","segment_count":46,"disambiguator":"Purgatoire · Yellowfin / Arkansas headwaters historical form · occurrence 001","basin":"Purgatoire","atlas_layer":"named_water_occurrence","object_role":"named_water_occurrence","historic_label":"Yellowfin / Arkansas headwaters historical form","current_label":"Yellowfin / Arkansas headwaters historical form","recovery_label":"Recovery watch / review area","tier":"tier2","minZoom":12,"confidence_public":"Watershed-level lineage context; expert review recommended","geometry_status_public":"Named natural stream occurrence from statewide hydrography","geometry_source_public":"Grouped public hydrography segments","trout_source_public":"Compiled public recovery and lineage context; expert review recommended","public_notes":"South Fork Purgatoire River is shown as a named-water occurrence within watershed-level cutthroat lineage context. This is not a precise biological boundary."}},{"type":"Feature","geometry":{"type":"LineString","coordinates":[[-104.8657,37.112],[-104.8639,37.1119],[-104.8619,37.1143],[-104.8619,37.1158],[-104.8606,37.1165]]},"properties":{"source_id":"co_named_stream_031757","name":"South Fork Purgatoire River","display_name":"South Fork Purgatoire River","mapped_name":"South Fork Purgatoire River","source_name":"South Fork Purgatoire River","state":"CO","atlas_class":"named_natural_stream","huc8":"11020010","huc8Name":"Purgatoire","huc8States":"CO,NM","lineageKey":"yellowfin","lineage":"yellowfin","historic":"yellowfin","current":"yellowfin","recovery":"recoveryWatch","lineageLabel":"Yellowfin / Arkansas headwaters historical form","lineageBasin":"Purgatoire","lineageNote":"Arkansas basin historical Yellowfin context; review needed","atlas_context":"cutthroat_lineage_context","confidence":"Watershed-level lineage context; expert review recommended","geometryStatus":"Named natural stream segment from statewide hydrography","note":"This named natural stream falls within a HUC8 assigned to a cutthroat lineage context.","source_segment_id":"co_named_stream_031757","water_id":"co_south_fork_purgatoire_river_11020010_yellowfin_001","occurrence_id":"co_south_fork_purgatoire_river_11020010_yellowfin_001","occurrence_number":"001","segment_count":46,"disambiguator":"Purgatoire · Yellowfin / Arkansas headwaters historical form · occurrence 001","basin":"Purgatoire","atlas_layer":"named_water_occurrence","object_role":"named_water_occurrence","historic_label":"Yellowfin / Arkansas headwaters historical form","current_label":"Yellowfin / Arkansas headwaters historical form","recovery_label":"Recovery watch / review area","tier":"tier2","minZoom":12,"confidence_public":"Watershed-level lineage context; expert review recommended","geometry_status_public":"Named natural stream occurrence from statewide hydrography","geometry_source_public":"Grouped public hydrography segments","trout_source_public":"Compiled public recovery and lineage context; expert review recommended","public_notes":"South Fork Purgatoire River is shown as a named-water occurrence within watershed-level cutthroat lineage context. This is not a precise biological boundary."}},{"type":"Feature","geometry":{"type":"LineString","coordinates":[[-104.8576,37.1204],[-104.856,37.1226],[-104.8562,37.1237]]},"properties":{"source_id":"co_named_stream_031758","name":"South Fork Purgatoire River","display_name":"South Fork Purgatoire River","mapped_name":"South Fork Purgatoire River","source_name":"South Fork Purgatoire River","state":"CO","atlas_class":"named_natural_stream","huc8":"11020010","huc8Name":"Purgatoire","huc8States":"CO,NM","lineageKey":"yellowfin","lineage":"yellowfin","historic":"yellowfin","current":"yellowfin","recovery":"recoveryWatch","lineageLabel":"Yellowfin / Arkansas headwaters historical form","lineageBasin":"Purgatoire","lineageNote":"Arkansas basin historical Yellowfin context; review needed","atlas_context":"cutthroat_lineage_context","confidence":"Watershed-level lineage context; expert review recommended","geometryStatus":"Named natural stream segment from statewide hydrography","note":"This named natural stream falls within a HUC8 assigned to a cutthroat lineage context.","source_segment_id":"co_named_stream_031758","water_id":"co_south_fork_purgatoire_river_11020010_yellowfin_001","occurrence_id":"co_south_fork_purgatoire_river_11020010_yellowfin_001","occurrence_number":"001","segment_count":46,"disambiguator":"Purgatoire · Yellowfin / Arkansas headwaters historical form · occurrence 001","basin":"Purgatoire","atlas_layer":"named_water_occurrence","object_role":"named_water_occurrence","historic_label":"Yellowfin / Arkansas headwaters historical form","current_label":"Yellowfin / Arkansas headwaters historical form","recovery_label":"Recovery watch / review area","tier":"tier2","minZoom":12,"confidence_public":"Watershed-level lineage context; expert review recommended","geometry_status_public":"Named natural stream occurrence from statewide hydrography","geometry_source_public":"Grouped public hydrography segments","trout_source_public":"Compiled public recovery and lineage context; expert review recommended","public_notes":"South Fork Purgatoire River is shown as a named-water occurrence within watershed-level cutthroat lineage context. This is not a precise biological boundary."}},{"type":"Feature","geometry":{"type":"LineString","coordinates":[[-104.8606,37.1165],[-104.8576,37.1204]]},"properties":{"source_id":"co_named_stream_034408","name":"South Fork Purgatoire River","display_name":"South Fork Purgatoire River","mapped_name":"South Fork Purgatoire River","source_name":"South Fork Purgatoire River","state":"CO","atlas_class":"named_natural_stream","huc8":"11020010","huc8Name":"Purgatoire","huc8States":"CO,NM","lineageKey":"yellowfin","lineage":"yellowfin","historic":"yellowfin","current":"yellowfin","recovery":"recoveryWatch","lineageLabel":"Yellowfin / Arkansas headwaters historical form","lineageBasin":"Purgatoire","lineageNote":"Arkansas basin historical Yellowfin context; review needed","atlas_context":"cutthroat_lineage_context","confidence":"Watershed-level lineage context; expert review recommended","geometryStatus":"Named natural stream segment from statewide hydrography","note":"This named natural stream falls within a HUC8 assigned to a cutthroat lineage context.","source_segment_id":"co_named_stream_034408","water_id":"co_south_fork_purgatoire_river_11020010_yellowfin_001","occurrence_id":"co_south_fork_purgatoire_river_11020010_yellowfin_001","occurrence_number":"001","segment_count":46,"disambiguator":"Purgatoire · Yellowfin / Arkansas headwaters historical form · occurrence 001","basin":"Purgatoire","atlas_layer":"named_water_occurrence","object_role":"named_water_occurrence","historic_label":"Yellowfin / Arkansas headwaters historical form","current_label":"Yellowfin / Arkansas headwaters historical form","recovery_label":"Recovery watch / review area","tier":"tier2","minZoom":12,"confidence_public":"Watershed-level lineage context; expert review recommended","geometry_status_public":"Named natural stream occurrence from statewide hydrography","geometry_source_public":"Grouped public hydrography segments","trout_source_public":"Compiled public recovery and lineage context; expert review recommended","public_notes":"South Fork Purgatoire River is shown as a named-water occurrence within watershed-level cutthroat lineage context. This is not a precise biological boundary."}},{"type":"Feature","geometry":{"type":"LineString","coordinates":[[-104.9278,37.0675],[-104.9266,37.0682]]},"properties":{"source_id":"co_named_stream_035250","name":"South Fork Purgatoire River","display_name":"South Fork Purgatoire River","mapped_name":"South Fork Purgatoire River","source_name":"South Fork Purgatoire River","state":"CO","atlas_class":"named_natural_stream","huc8":"11020010","huc8Name":"Purgatoire","huc8States":"CO,NM","lineageKey":"yellowfin","lineage":"yellowfin","historic":"yellowfin","current":"yellowfin","recovery":"recoveryWatch","lineageLabel":"Yellowfin / Arkansas headwaters historical form","lineageBasin":"Purgatoire","lineageNote":"Arkansas basin historical Yellowfin context; review needed","atlas_context":"cutthroat_lineage_context","confidence":"Watershed-level lineage context; expert review recommended","geometryStatus":"Named natural stream segment from statewide hydrography","note":"This named natural stream falls within a HUC8 assigned to a cutthroat lineage context.","source_segment_id":"co_named_stream_035250","water_id":"co_south_fork_purgatoire_river_11020010_yellowfin_001","occurrence_id":"co_south_fork_purgatoire_river_11020010_yellowfin_001","occurrence_number":"001","segment_count":46,"disambiguator":"Purgatoire · Yellowfin / Arkansas headwaters historical form · occurrence 001","basin":"Purgatoire","atlas_layer":"named_water_occurrence","object_role":"named_water_occurrence","historic_label":"Yellowfin / Arkansas headwaters historical form","current_label":"Yellowfin / Arkansas headwaters historical form","recovery_label":"Recovery watch / review area","tier":"tier2","minZoom":12,"confidence_public":"Watershed-level lineage context; expert review recommended","geometry_status_public":"Named natural stream occurrence from statewide hydrography","geometry_source_public":"Grouped public hydrography segments","trout_source_public":"Compiled public recovery and lineage context; expert review recommended","public_notes":"South Fork Purgatoire River is shown as a named-water occurrence within watershed-level cutthroat lineage context. This is not a precise biological boundary."}},{"type":"Feature","geometry":{"type":"LineString","coordinates":[[-104.8797,37.0944],[-104.8791,37.0965],[-104.8783,37.0958],[-104.8781,37.0966],[-104.8768,37.0964],[-104.8754,37.098]]},"properties":{"source_id":"co_named_stream_035369","name":"South Fork Purgatoire River","display_name":"South Fork Purgatoire River","mapped_name":"South Fork Purgatoire River","source_name":"South Fork Purgatoire River","state":"CO","atlas_class":"named_natural_stream","huc8":"11020010","huc8Name":"Purgatoire","huc8States":"CO,NM","lineageKey":"yellowfin","lineage":"yellowfin","historic":"yellowfin","current":"yellowfin","recovery":"recoveryWatch","lineageLabel":"Yellowfin / Arkansas headwaters historical form","lineageBasin":"Purgatoire","lineageNote":"Arkansas basin historical Yellowfin context; review needed","atlas_context":"cutthroat_lineage_context","confidence":"Watershed-level lineage context; expert review recommended","geometryStatus":"Named natural stream segment from statewide hydrography","note":"This named natural stream falls within a HUC8 assigned to a cutthroat lineage context.","source_segment_id":"co_named_stream_035369","water_id":"co_south_fork_purgatoire_river_11020010_yellowfin_001","occurrence_id":"co_south_fork_purgatoire_river_11020010_yellowfin_001","occurrence_number":"001","segment_count":46,"disambiguator":"Purgatoire · Yellowfin / Arkansas headwaters historical form · occurrence 001","basin":"Purgatoire","atlas_layer":"named_water_occurrence","object_role":"named_water_occurrence","historic_label":"Yellowfin / Arkansas headwaters historical form","current_label":"Yellowfin / Arkansas headwaters historical form","recovery_label":"Recovery watch / review area","tier":"tier2","minZoom":12,"confidence_public":"Watershed-level lineage context; expert review recommended","geometry_status_public":"Named natural stream occurrence from statewide hydrography","geometry_source_public":"Grouped public hydrography segments","trout_source_public":"Compiled public recovery and lineage context; expert review recommended","public_notes":"South Fork Purgatoire River is shown as a named-water occurrence within watershed-level cutthroat lineage context. This is not a precise biological boundary."}},{"type":"Feature","geometry":{"type":"LineString","coordinates":[[-104.8756,37.0991],[-104.871,37.1003],[-104.8697,37.1028]]},"properties":{"source_id":"co_named_stream_035370","name":"South Fork Purgatoire River","display_name":"South Fork Purgatoire River","mapped_name":"South Fork Purgatoire River","source_name":"South Fork Purgatoire River","state":"CO","atlas_class":"named_natural_stream","huc8":"11020010","huc8Name":"Purgatoire","huc8States":"CO,NM","lineageKey":"yellowfin","lineage":"yellowfin","historic":"yellowfin","current":"yellowfin","recovery":"recoveryWatch","lineageLabel":"Yellowfin / Arkansas headwaters historical form","lineageBasin":"Purgatoire","lineageNote":"Arkansas basin historical Yellowfin context; review needed","atlas_context":"cutthroat_lineage_context","confidence":"Watershed-level lineage context; expert review recommended","geometryStatus":"Named natural stream segment from statewide hydrography","note":"This named natural stream falls within a HUC8 assigned to a cutthroat lineage context.","source_segment_id":"co_named_stream_035370","water_id":"co_south_fork_purgatoire_river_11020010_yellowfin_001","occurrence_id":"co_south_fork_purgatoire_river_11020010_yellowfin_001","occurrence_number":"001","segment_count":46,"disambiguator":"Purgatoire · Yellowfin / Arkansas headwaters historical form · occurrence 001","basin":"Purgatoire","atlas_layer":"named_water_occurrence","object_role":"named_water_occurrence","historic_label":"Yellowfin / Arkansas headwaters historical form","current_label":"Yellowfin / Arkansas headwaters historical form","recovery_label":"Recovery watch / review area","tier":"tier2","minZoom":12,"confidence_public":"Watershed-level lineage context; expert review recommended","geometry_status_public":"Named natural stream occurrence from statewide hydrography","geometry_source_public":"Grouped public hydrography segments","trout_source_public":"Compiled public recovery and lineage context; expert review recommended","public_notes":"South Fork Purgatoire River is shown as a named-water occurrence within watershed-level cutthroat lineage context. This is not a precise biological boundary."}},{"type":"Feature","geometry":{"type":"LineString","coordinates":[[-104.9049,37.0756],[-104.9018,37.0761]]},"properties":{"source_id":"co_named_stream_035518","name":"South Fork Purgatoire River","display_name":"South Fork Purgatoire River","mapped_name":"South Fork Purgatoire River","source_name":"South Fork Purgatoire River","state":"CO","atlas_class":"named_natural_stream","huc8":"11020010","huc8Name":"Purgatoire","huc8States":"CO,NM","lineageKey":"yellowfin","lineage":"yellowfin","historic":"yellowfin","current":"yellowfin","recovery":"recoveryWatch","lineageLabel":"Yellowfin / Arkansas headwaters historical form","lineageBasin":"Purgatoire","lineageNote":"Arkansas basin historical Yellowfin context; review needed","atlas_context":"cutthroat_lineage_context","confidence":"Watershed-level lineage context; expert review recommended","geometryStatus":"Named natural stream segment from statewide hydrography","note":"This named natural stream falls within a HUC8 assigned to a cutthroat lineage context.","source_segment_id":"co_named_stream_035518","water_id":"co_south_fork_purgatoire_river_11020010_yellowfin_001","occurrence_id":"co_south_fork_purgatoire_river_11020010_yellowfin_001","occurrence_number":"001","segment_count":46,"disambiguator":"Purgatoire · Yellowfin / Arkansas headwaters historical form · occurrence 001","basin":"Purgatoire","atlas_layer":"named_water_occurrence","object_role":"named_water_occurrence","historic_label":"Yellowfin / Arkansas headwaters historical form","current_label":"Yellowfin / Arkansas headwaters historical form","recovery_label":"Recovery watch / review area","tier":"tier2","minZoom":12,"confidence_public":"Watershed-level lineage context; expert review recommended","geometry_status_public":"Named natural stream occurrence from statewide hydrography","geometry_source_public":"Grouped public hydrography segments","trout_source_public":"Compiled public recovery and lineage context; expert review recommended","public_notes":"South Fork Purgatoire River is shown as a named-water occurrence within watershed-level cutthroat lineage context. This is not a precise biological boundary."}},{"type":"Feature","geometry":{"type":"LineString","coordinates":[[-104.9392,37.0684],[-104.9377,37.0692]]},"properties":{"source_id":"co_named_stream_036099","name":"South Fork Purgatoire River","display_name":"South Fork Purgatoire River","mapped_name":"South Fork Purgatoire River","source_name":"South Fork Purgatoire River","state":"CO","atlas_class":"named_natural_stream","huc8":"11020010","huc8Name":"Purgatoire","huc8States":"CO,NM","lineageKey":"yellowfin","lineage":"yellowfin","historic":"yellowfin","current":"yellowfin","recovery":"recoveryWatch","lineageLabel":"Yellowfin / Arkansas headwaters historical form","lineageBasin":"Purgatoire","lineageNote":"Arkansas basin historical Yellowfin context; review needed","atlas_context":"cutthroat_lineage_context","confidence":"Watershed-level lineage context; expert review recommended","geometryStatus":"Named natural stream segment from statewide hydrography","note":"This named natural stream falls within a HUC8 assigned to a cutthroat lineage context.","source_segment_id":"co_named_stream_036099","water_id":"co_south_fork_purgatoire_river_11020010_yellowfin_001","occurrence_id":"co_south_fork_purgatoire_river_11020010_yellowfin_001","occurrence_number":"001","segment_count":46,"disambiguator":"Purgatoire · Yellowfin / Arkansas headwaters historical form · occurrence 001","basin":"Purgatoire","atlas_layer":"named_water_occurrence","object_role":"named_water_occurrence","historic_label":"Yellowfin / Arkansas headwaters historical form","current_label":"Yellowfin / Arkansas headwaters historical form","recovery_label":"Recovery watch / review area","tier":"tier2","minZoom":12,"confidence_public":"Watershed-level lineage context; expert review recommended","geometry_status_public":"Named natural stream occurrence from statewide hydrography","geometry_source_public":"Grouped public hydrography segments","trout_source_public":"Compiled public recovery and lineage context; expert review recommended","public_notes":"South Fork Purgatoire River is shown as a named-water occurrence within watershed-level cutthroat lineage context. This is not a precise biological boundary."}},{"type":"Feature","geometry":{"type":"LineString","coordinates":[[-104.9377,37.0692],[-104.9311,37.0661],[-104.9278,37.0675]]},"properties":{"source_id":"co_named_stream_036100","name":"South Fork Purgatoire River","display_name":"South Fork Purgatoire River","mapped_name":"South Fork Purgatoire River","source_name":"South Fork Purgatoire River","state":"CO","atlas_class":"named_natural_stream","huc8":"11020010","huc8Name":"Purgatoire","huc8States":"CO,NM","lineageKey":"yellowfin","lineage":"yellowfin","historic":"yellowfin","current":"yellowfin","recovery":"recoveryWatch","lineageLabel":"Yellowfin / Arkansas headwaters historical form","lineageBasin":"Purgatoire","lineageNote":"Arkansas basin historical Yellowfin context; review needed","atlas_context":"cutthroat_lineage_context","confidence":"Watershed-level lineage context; expert review recommended","geometryStatus":"Named natural stream segment from statewide hydrography","note":"This named natural stream falls within a HUC8 assigned to a cutthroat lineage context.","source_segment_id":"co_named_stream_036100","water_id":"co_south_fork_purgatoire_river_11020010_yellowfin_001","occurrence_id":"co_south_fork_purgatoire_river_11020010_yellowfin_001","occurrence_number":"001","segment_count":46,"disambiguator":"Purgatoire · Yellowfin / Arkansas headwaters historical form · occurrence 001","basin":"Purgatoire","atlas_layer":"named_water_occurrence","object_role":"named_water_occurrence","historic_label":"Yellowfin / Arkansas headwaters historical form","current_label":"Yellowfin / Arkansas headwaters historical form","recovery_label":"Recovery watch / review area","tier":"tier2","minZoom":12,"confidence_public":"Watershed-level lineage context; expert review recommended","geometry_status_public":"Named natural stream occurrence from statewide hydrography","geometry_source_public":"Grouped public hydrography segments","trout_source_public":"Compiled public recovery and lineage context; expert review recommended","public_notes":"South Fork Purgatoire River is shown as a named-water occurrence within watershed-level cutthroat lineage context. This is not a precise biological boundary."}},{"type":"Feature","geometry":{"type":"LineString","coordinates":[[-104.9782,37.0644],[-104.9768,37.0643],[-104.9742,37.0663],[-104.968,37.0664]]},"properties":{"source_id":"co_named_stream_037679","name":"South Fork Purgatoire River","display_name":"South Fork Purgatoire River","mapped_name":"South Fork Purgatoire River","source_name":"South Fork Purgatoire River","state":"CO","atlas_class":"named_natural_stream","huc8":"11020010","huc8Name":"Purgatoire","huc8States":"CO,NM","lineageKey":"yellowfin","lineage":"yellowfin","historic":"yellowfin","current":"yellowfin","recovery":"recoveryWatch","lineageLabel":"Yellowfin / Arkansas headwaters historical form","lineageBasin":"Purgatoire","lineageNote":"Arkansas basin historical Yellowfin context; review needed","atlas_context":"cutthroat_lineage_context","confidence":"Watershed-level lineage context; expert review recommended","geometryStatus":"Named natural stream segment from statewide hydrography","note":"This named natural stream falls within a HUC8 assigned to a cutthroat lineage context.","source_segment_id":"co_named_stream_037679","water_id":"co_south_fork_purgatoire_river_11020010_yellowfin_001","occurrence_id":"co_south_fork_purgatoire_river_11020010_yellowfin_001","occurrence_number":"001","segment_count":46,"disambiguator":"Purgatoire · Yellowfin / Arkansas headwaters historical form · occurrence 001","basin":"Purgatoire","atlas_layer":"named_water_occurrence","object_role":"named_water_occurrence","historic_label":"Yellowfin / Arkansas headwaters historical form","current_label":"Yellowfin / Arkansas headwaters historical form","recovery_label":"Recovery watch / review area","tier":"tier2","minZoom":12,"confidence_public":"Watershed-level lineage context; expert review recommended","geometry_status_public":"Named natural stream occurrence from statewide hydrography","geometry_source_public":"Grouped public hydrography segments","trout_source_public":"Compiled public recovery and lineage context; expert review recommended","public_notes":"South Fork Purgatoire River is shown as a named-water occurrence within watershed-level cutthroat lineage context. This is not a precise biological boundary."}},{"type":"Feature","geometry":{"type":"LineString","coordinates":[[-104.9516,37.0674],[-104.9514,37.067]]},"properties":{"source_id":"co_named_stream_037853","name":"South Fork Purgatoire River","display_name":"South Fork Purgatoire River","mapped_name":"South Fork Purgatoire River","source_name":"South Fork Purgatoire River","state":"CO","atlas_class":"named_natural_stream","huc8":"11020010","huc8Name":"Purgatoire","huc8States":"CO,NM","lineageKey":"yellowfin","lineage":"yellowfin","historic":"yellowfin","current":"yellowfin","recovery":"recoveryWatch","lineageLabel":"Yellowfin / Arkansas headwaters historical form","lineageBasin":"Purgatoire","lineageNote":"Arkansas basin historical Yellowfin context; review needed","atlas_context":"cutthroat_lineage_context","confidence":"Watershed-level lineage context; expert review recommended","geometryStatus":"Named natural stream segment from statewide hydrography","note":"This named natural stream falls within a HUC8 assigned to a cutthroat lineage context.","source_segment_id":"co_named_stream_037853","water_id":"co_south_fork_purgatoire_river_11020010_yellowfin_001","occurrence_id":"co_south_fork_purgatoire_river_11020010_yellowfin_001","occurrence_number":"001","segment_count":46,"disambiguator":"Purgatoire · Yellowfin / Arkansas headwaters historical form · occurrence 001","basin":"Purgatoire","atlas_layer":"named_water_occurrence","object_role":"named_water_occurrence","historic_label":"Yellowfin / Arkansas headwaters historical form","current_label":"Yellowfin / Arkansas headwaters historical form","recovery_label":"Recovery watch / review area","tier":"tier2","minZoom":12,"confidence_public":"Watershed-level lineage context; expert review recommended","geometry_status_public":"Named natural stream occurrence from statewide hydrography","geometry_source_public":"Grouped public hydrography segments","trout_source_public":"Compiled public recovery and lineage context; expert review recommended","public_notes":"South Fork Purgatoire River is shown as a named-water occurrence within watershed-level cutthroat lineage context. This is not a precise biological boundary."}},{"type":"Feature","geometry":{"type":"LineString","coordinates":[[-104.993,37.0545],[-104.9874,37.0593]]},"properties":{"source_id":"co_named_stream_037980","name":"South Fork Purgatoire River","display_name":"South Fork Purgatoire River","mapped_name":"South Fork Purgatoire River","source_name":"South Fork Purgatoire River","state":"CO","atlas_class":"named_natural_stream","huc8":"11020010","huc8Name":"Purgatoire","huc8States":"CO,NM","lineageKey":"yellowfin","lineage":"yellowfin","historic":"yellowfin","current":"yellowfin","recovery":"recoveryWatch","lineageLabel":"Yellowfin / Arkansas headwaters historical form","lineageBasin":"Purgatoire","lineageNote":"Arkansas basin historical Yellowfin context; review needed","atlas_context":"cutthroat_lineage_context","confidence":"Watershed-level lineage context; expert review recommended","geometryStatus":"Named natural stream segment from statewide hydrography","note":"This named natural stream falls within a HUC8 assigned to a cutthroat lineage context.","source_segment_id":"co_named_stream_037980","water_id":"co_south_fork_purgatoire_river_11020010_yellowfin_001","occurrence_id":"co_south_fork_purgatoire_river_11020010_yellowfin_001","occurrence_number":"001","segment_count":46,"disambiguator":"Purgatoire · Yellowfin / Arkansas headwaters historical form · occurrence 001","basin":"Purgatoire","atlas_layer":"named_water_occurrence","object_role":"named_water_occurrence","historic_label":"Yellowfin / Arkansas headwaters historical form","current_label":"Yellowfin / Arkansas headwaters historical form","recovery_label":"Recovery watch / review area","tier":"tier2","minZoom":12,"confidence_public":"Watershed-level lineage context; expert review recommended","geometry_status_public":"Named natural stream occurrence from statewide hydrography","geometry_source_public":"Grouped public hydrography segments","trout_source_public":"Compiled public recovery and lineage context; expert review recommended","public_notes":"South Fork Purgatoire River is shown as a named-water occurrence within watershed-level cutthroat lineage context. This is not a precise biological boundary."}},{"type":"Feature","geometry":{"type":"LineString","coordinates":[[-104.9266,37.0682],[-104.9191,37.0694],[-104.9165,37.0708]]},"properties":{"source_id":"co_named_stream_039838","name":"South Fork Purgatoire River","display_name":"South Fork Purgatoire River","mapped_name":"South Fork Purgatoire River","source_name":"South Fork Purgatoire River","state":"CO","atlas_class":"named_natural_stream","huc8":"11020010","huc8Name":"Purgatoire","huc8States":"CO,NM","lineageKey":"yellowfin","lineage":"yellowfin","historic":"yellowfin","current":"yellowfin","recovery":"recoveryWatch","lineageLabel":"Yellowfin / Arkansas headwaters historical form","lineageBasin":"Purgatoire","lineageNote":"Arkansas basin historical Yellowfin context; review needed","atlas_context":"cutthroat_lineage_context","confidence":"Watershed-level lineage context; expert review recommended","geometryStatus":"Named natural stream segment from statewide hydrography","note":"This named natural stream falls within a HUC8 assigned to a cutthroat lineage context.","source_segment_id":"co_named_stream_039838","water_id":"co_south_fork_purgatoire_river_11020010_yellowfin_001","occurrence_id":"co_south_fork_purgatoire_river_11020010_yellowfin_001","occurrence_number":"001","segment_count":46,"disambiguator":"Purgatoire · Yellowfin / Arkansas headwaters historical form · occurrence 001","basin":"Purgatoire","atlas_layer":"named_water_occurrence","object_role":"named_water_occurrence","historic_label":"Yellowfin / Arkansas headwaters historical form","current_label":"Yellowfin / Arkansas headwaters historical form","recovery_label":"Recovery watch / review area","tier":"tier2","minZoom":12,"confidence_public":"Watershed-level lineage context; expert review recommended","geometry_status_public":"Named natural stream occurrence from statewide hydrography","geometry_source_public":"Grouped public hydrography segments","trout_source_public":"Compiled public recovery and lineage context; expert review recommended","public_notes":"South Fork Purgatoire River is shown as a named-water occurrence within watershed-level cutthroat lineage context. This is not a precise biological boundary."}},{"type":"Feature","geometry":{"type":"LineString","coordinates":[[-104.9058,37.0752],[-104.9049,37.0756]]},"properties":{"source_id":"co_named_stream_040073","name":"South Fork Purgatoire River","display_name":"South Fork Purgatoire River","mapped_name":"South Fork Purgatoire River","source_name":"South Fork Purgatoire River","state":"CO","atlas_class":"named_natural_stream","huc8":"11020010","huc8Name":"Purgatoire","huc8States":"CO,NM","lineageKey":"yellowfin","lineage":"yellowfin","historic":"yellowfin","current":"yellowfin","recovery":"recoveryWatch","lineageLabel":"Yellowfin / Arkansas headwaters historical form","lineageBasin":"Purgatoire","lineageNote":"Arkansas basin historical Yellowfin context; review needed","atlas_context":"cutthroat_lineage_context","confidence":"Watershed-level lineage context; expert review recommended","geometryStatus":"Named natural stream segment from statewide hydrography","note":"This named natural stream falls within a HUC8 assigned to a cutthroat lineage context.","source_segment_id":"co_named_stream_040073","water_id":"co_south_fork_purgatoire_river_11020010_yellowfin_001","occurrence_id":"co_south_fork_purgatoire_river_11020010_yellowfin_001","occurrence_number":"001","segment_count":46,"disambiguator":"Purgatoire · Yellowfin / Arkansas headwaters historical form · occurrence 001","basin":"Purgatoire","atlas_layer":"named_water_occurrence","object_role":"named_water_occurrence","historic_label":"Yellowfin / Arkansas headwaters historical form","current_label":"Yellowfin / Arkansas headwaters historical form","recovery_label":"Recovery watch / review area","tier":"tier2","minZoom":12,"confidence_public":"Watershed-level lineage context; expert review recommended","geometry_status_public":"Named natural stream occurrence from statewide hydrography","geometry_source_public":"Grouped public hydrography segments","trout_source_public":"Compiled public recovery and lineage context; expert review recommended","public_notes":"South Fork Purgatoire River is shown as a named-water occurrence within watershed-level cutthroat lineage context. This is not a precise biological boundary."}},{"type":"Feature","geometry":{"type":"LineString","coordinates":[[-104.8977,37.0792],[-104.8958,37.0816],[-104.8909,37.0841]]},"properties":{"source_id":"co_named_stream_040074","name":"South Fork Purgatoire River","display_name":"South Fork Purgatoire River","mapped_name":"South Fork Purgatoire River","source_name":"South Fork Purgatoire River","state":"CO","atlas_class":"named_natural_stream","huc8":"11020010","huc8Name":"Purgatoire","huc8States":"CO,NM","lineageKey":"yellowfin","lineage":"yellowfin","historic":"yellowfin","current":"yellowfin","recovery":"recoveryWatch","lineageLabel":"Yellowfin / Arkansas headwaters historical form","lineageBasin":"Purgatoire","lineageNote":"Arkansas basin historical Yellowfin context; review needed","atlas_context":"cutthroat_lineage_context","confidence":"Watershed-level lineage context; expert review recommended","geometryStatus":"Named natural stream segment from statewide hydrography","note":"This named natural stream falls within a HUC8 assigned to a cutthroat lineage context.","source_segment_id":"co_named_stream_040074","water_id":"co_south_fork_purgatoire_river_11020010_yellowfin_001","occurrence_id":"co_south_fork_purgatoire_river_11020010_yellowfin_001","occurrence_number":"001","segment_count":46,"disambiguator":"Purgatoire · Yellowfin / Arkansas headwaters historical form · occurrence 001","basin":"Purgatoire","atlas_layer":"named_water_occurrence","object_role":"named_water_occurrence","historic_label":"Yellowfin / Arkansas headwaters historical form","current_label":"Yellowfin / Arkansas headwaters historical form","recovery_label":"Recovery watch / review area","tier":"tier2","minZoom":12,"confidence_public":"Watershed-level lineage context; expert review recommended","geometry_status_public":"Named natural stream occurrence from statewide hydrography","geometry_source_public":"Grouped public hydrography segments","trout_source_public":"Compiled public recovery and lineage context; expert review recommended","public_notes":"South Fork Purgatoire River is shown as a named-water occurrence within watershed-level cutthroat lineage context. This is not a precise biological boundary."}},{"type":"Feature","geometry":{"type":"LineString","coordinates":[[-104.8876,37.086],[-104.8856,37.0869],[-104.8843,37.089],[-104.8827,37.0891],[-104.883,37.0903],[-104.8822,37.0903]]},"properties":{"source_id":"co_named_stream_040075","name":"South Fork Purgatoire River","display_name":"South Fork Purgatoire River","mapped_name":"South Fork Purgatoire River","source_name":"South Fork Purgatoire River","state":"CO","atlas_class":"named_natural_stream","huc8":"11020010","huc8Name":"Purgatoire","huc8States":"CO,NM","lineageKey":"yellowfin","lineage":"yellowfin","historic":"yellowfin","current":"yellowfin","recovery":"recoveryWatch","lineageLabel":"Yellowfin / Arkansas headwaters historical form","lineageBasin":"Purgatoire","lineageNote":"Arkansas basin historical Yellowfin context; review needed","atlas_context":"cutthroat_lineage_context","confidence":"Watershed-level lineage context; expert review recommended","geometryStatus":"Named natural stream segment from statewide hydrography","note":"This named natural stream falls within a HUC8 assigned to a cutthroat lineage context.","source_segment_id":"co_named_stream_040075","water_id":"co_south_fork_purgatoire_river_11020010_yellowfin_001","occurrence_id":"co_south_fork_purgatoire_river_11020010_yellowfin_001","occurrence_number":"001","segment_count":46,"disambiguator":"Purgatoire · Yellowfin / Arkansas headwaters historical form · occurrence 001","basin":"Purgatoire","atlas_layer":"named_water_occurrence","object_role":"named_water_occurrence","historic_label":"Yellowfin / Arkansas headwaters historical form","current_label":"Yellowfin / Arkansas headwaters historical form","recovery_label":"Recovery watch / review area","tier":"tier2","minZoom":12,"confidence_public":"Watershed-level lineage context; expert review recommended","geometry_status_public":"Named natural stream occurrence from statewide hydrography","geometry_source_public":"Grouped public hydrography segments","trout_source_public":"Compiled public recovery and lineage context; expert review recommended","public_notes":"South Fork Purgatoire River is shown as a named-water occurrence within watershed-level cutthroat lineage context. This is not a precise biological boundary."}},{"type":"Feature","geometry":{"type":"LineString","coordinates":[[-104.9165,37.0708],[-104.9122,37.0716],[-104.9117,37.0721],[-104.9124,37.0727],[-104.9112,37.0735],[-104.9092,37.0735],[-104.9085,37.075],[-104.9058,37.0752]]},"properties":{"source_id":"co_named_stream_040696","name":"South Fork Purgatoire River","display_name":"South Fork Purgatoire River","mapped_name":"South Fork Purgatoire River","source_name":"South Fork Purgatoire River","state":"CO","atlas_class":"named_natural_stream","huc8":"11020010","huc8Name":"Purgatoire","huc8States":"CO,NM","lineageKey":"yellowfin","lineage":"yellowfin","historic":"yellowfin","current":"yellowfin","recovery":"recoveryWatch","lineageLabel":"Yellowfin / Arkansas headwaters historical form","lineageBasin":"Purgatoire","lineageNote":"Arkansas basin historical Yellowfin context; review needed","atlas_context":"cutthroat_lineage_context","confidence":"Watershed-level lineage context; expert review recommended","geometryStatus":"Named natural stream segment from statewide hydrography","note":"This named natural stream falls within a HUC8 assigned to a cutthroat lineage context.","source_segment_id":"co_named_stream_040696","water_id":"co_south_fork_purgatoire_river_11020010_yellowfin_001","occurrence_id":"co_south_fork_purgatoire_river_11020010_yellowfin_001","occurrence_number":"001","segment_count":46,"disambiguator":"Purgatoire · Yellowfin / Arkansas headwaters historical form · occurrence 001","basin":"Purgatoire","atlas_layer":"named_water_occurrence","object_role":"named_water_occurrence","historic_label":"Yellowfin / Arkansas headwaters historical form","current_label":"Yellowfin / Arkansas headwaters historical form","recovery_label":"Recovery watch / review area","tier":"tier2","minZoom":12,"confidence_public":"Watershed-level lineage context; expert review recommended","geometry_status_public":"Named natural stream occurrence from statewide hydrography","geometry_source_public":"Grouped public hydrography segments","trout_source_public":"Compiled public recovery and lineage context; expert review recommended","public_notes":"South Fork Purgatoire River is shown as a named-water occurrence within watershed-level cutthroat lineage context. This is not a precise biological boundary."}},{"type":"Feature","geometry":{"type":"LineString","coordinates":[[-105.0018,37.0566],[-104.9976,37.0549],[-104.993,37.0545]]},"properties":{"source_id":"co_named_stream_044610","name":"South Fork Purgatoire River","display_name":"South Fork Purgatoire River","mapped_name":"South Fork Purgatoire River","source_name":"South Fork Purgatoire River","state":"CO","atlas_class":"named_natural_stream","huc8":"11020010","huc8Name":"Purgatoire","huc8States":"CO,NM","lineageKey":"yellowfin","lineage":"yellowfin","historic":"yellowfin","current":"yellowfin","recovery":"recoveryWatch","lineageLabel":"Yellowfin / Arkansas headwaters historical form","lineageBasin":"Purgatoire","lineageNote":"Arkansas basin historical Yellowfin context; review needed","atlas_context":"cutthroat_lineage_context","confidence":"Watershed-level lineage context; expert review recommended","geometryStatus":"Named natural stream segment from statewide hydrography","note":"This named natural stream falls within a HUC8 assigned to a cutthroat lineage context.","source_segment_id":"co_named_stream_044610","water_id":"co_south_fork_purgatoire_river_11020010_yellowfin_001","occurrence_id":"co_south_fork_purgatoire_river_11020010_yellowfin_001","occurrence_number":"001","segment_count":46,"disambiguator":"Purgatoire · Yellowfin / Arkansas headwaters historical form · occurrence 001","basin":"Purgatoire","atlas_layer":"named_water_occurrence","object_role":"named_water_occurrence","historic_label":"Yellowfin / Arkansas headwaters historical form","current_label":"Yellowfin / Arkansas headwaters historical form","recovery_label":"Recovery watch / review area","tier":"tier2","minZoom":12,"confidence_public":"Watershed-level lineage context; expert review recommended","geometry_status_public":"Named natural stream occurrence from statewide hydrography","geometry_source_public":"Grouped public hydrography segments","trout_source_public":"Compiled public recovery and lineage context; expert review recommended","public_notes":"South Fork Purgatoire River is shown as a named-water occurrence within watershed-level cutthroat lineage context. This is not a precise biological boundary."}},{"type":"Feature","geometry":{"type":"LineString","coordinates":[[-104.968,37.0664],[-104.9676,37.0663]]},"properties":{"source_id":"co_named_stream_045696","name":"South Fork Purgatoire River","display_name":"South Fork Purgatoire River","mapped_name":"South Fork Purgatoire River","source_name":"South Fork Purgatoire River","state":"CO","atlas_class":"named_natural_stream","huc8":"11020010","huc8Name":"Purgatoire","huc8States":"CO,NM","lineageKey":"yellowfin","lineage":"yellowfin","historic":"yellowfin","current":"yellowfin","recovery":"recoveryWatch","lineageLabel":"Yellowfin / Arkansas headwaters historical form","lineageBasin":"Purgatoire","lineageNote":"Arkansas basin historical Yellowfin context; review needed","atlas_context":"cutthroat_lineage_context","confidence":"Watershed-level lineage context; expert review recommended","geometryStatus":"Named natural stream segment from statewide hydrography","note":"This named natural stream falls within a HUC8 assigned to a cutthroat lineage context.","source_segment_id":"co_named_stream_045696","water_id":"co_south_fork_purgatoire_river_11020010_yellowfin_001","occurrence_id":"co_south_fork_purgatoire_river_11020010_yellowfin_001","occurrence_number":"001","segment_count":46,"disambiguator":"Purgatoire · Yellowfin / Arkansas headwaters historical form · occurrence 001","basin":"Purgatoire","atlas_layer":"named_water_occurrence","object_role":"named_water_occurrence","historic_label":"Yellowfin / Arkansas headwaters historical form","current_label":"Yellowfin / Arkansas headwaters historical form","recovery_label":"Recovery watch / review area","tier":"tier2","minZoom":12,"confidence_public":"Watershed-level lineage context; expert review recommended","geometry_status_public":"Named natural stream occurrence from statewide hydrography","geometry_source_public":"Grouped public hydrography segments","trout_source_public":"Compiled public recovery and lineage context; expert review recommended","public_notes":"South Fork Purgatoire River is shown as a named-water occurrence within watershed-level cutthroat lineage context. This is not a precise biological boundary."}},{"type":"Feature","geometry":{"type":"LineString","coordinates":[[-104.8754,37.098],[-104.8756,37.0991]]},"properties":{"source_id":"co_named_stream_046931","name":"South Fork Purgatoire River","display_name":"South Fork Purgatoire River","mapped_name":"South Fork Purgatoire River","source_name":"South Fork Purgatoire River","state":"CO","atlas_class":"named_natural_stream","huc8":"11020010","huc8Name":"Purgatoire","huc8States":"CO,NM","lineageKey":"yellowfin","lineage":"yellowfin","historic":"yellowfin","current":"yellowfin","recovery":"recoveryWatch","lineageLabel":"Yellowfin / Arkansas headwaters historical form","lineageBasin":"Purgatoire","lineageNote":"Arkansas basin historical Yellowfin context; review needed","atlas_context":"cutthroat_lineage_context","confidence":"Watershed-level lineage context; expert review recommended","geometryStatus":"Named natural stream segment from statewide hydrography","note":"This named natural stream falls within a HUC8 assigned to a cutthroat lineage context.","source_segment_id":"co_named_stream_046931","water_id":"co_south_fork_purgatoire_river_11020010_yellowfin_001","occurrence_id":"co_south_fork_purgatoire_river_11020010_yellowfin_001","occurrence_number":"001","segment_count":46,"disambiguator":"Purgatoire · Yellowfin / Arkansas headwaters historical form · occurrence 001","basin":"Purgatoire","atlas_layer":"named_water_occurrence","object_role":"named_water_occurrence","historic_label":"Yellowfin / Arkansas headwaters historical form","current_label":"Yellowfin / Arkansas headwaters historical form","recovery_label":"Recovery watch / review area","tier":"tier2","minZoom":12,"confidence_public":"Watershed-level lineage context; expert review recommended","geometry_status_public":"Named natural stream occurrence from statewide hydrography","geometry_source_public":"Grouped public hydrography segments","trout_source_public":"Compiled public recovery and lineage context; expert review recommended","public_notes":"South Fork Purgatoire River is shown as a named-water occurrence within watershed-level cutthroat lineage context. This is not a precise biological boundary."}},{"type":"Feature","geometry":{"type":"LineString","coordinates":[[-104.8692,37.1035],[-104.8683,37.104],[-104.869,37.1056],[-104.8669,37.1081],[-104.8674,37.1091],[-104.8657,37.1105],[-104.8657,37.112]]},"properties":{"source_id":"co_named_stream_046932","name":"South Fork Purgatoire River","display_name":"South Fork Purgatoire River","mapped_name":"South Fork Purgatoire River","source_name":"South Fork Purgatoire River","state":"CO","atlas_class":"named_natural_stream","huc8":"11020010","huc8Name":"Purgatoire","huc8States":"CO,NM","lineageKey":"yellowfin","lineage":"yellowfin","historic":"yellowfin","current":"yellowfin","recovery":"recoveryWatch","lineageLabel":"Yellowfin / Arkansas headwaters historical form","lineageBasin":"Purgatoire","lineageNote":"Arkansas basin historical Yellowfin context; review needed","atlas_context":"cutthroat_lineage_context","confidence":"Watershed-level lineage context; expert review recommended","geometryStatus":"Named natural stream segment from statewide hydrography","note":"This named natural stream falls within a HUC8 assigned to a cutthroat lineage context.","source_segment_id":"co_named_stream_046932","water_id":"co_south_fork_purgatoire_river_11020010_yellowfin_001","occurrence_id":"co_south_fork_purgatoire_river_11020010_yellowfin_001","occurrence_number":"001","segment_count":46,"disambiguator":"Purgatoire · Yellowfin / Arkansas headwaters historical form · occurrence 001","basin":"Purgatoire","atlas_layer":"named_water_occurrence","object_role":"named_water_occurrence","historic_label":"Yellowfin / Arkansas headwaters historical form","current_label":"Yellowfin / Arkansas headwaters historical form","recovery_label":"Recovery watch / review area","tier":"tier2","minZoom":12,"confidence_public":"Watershed-level lineage context; expert review recommended","geometry_status_public":"Named natural stream occurrence from statewide hydrography","geometry_source_public":"Grouped public hydrography segments","trout_source_public":"Compiled public recovery and lineage context; expert review recommended","public_notes":"South Fork Purgatoire River is shown as a named-water occurrence within watershed-level cutthroat lineage context. This is not a precise biological boundary."}},{"type":"Feature","geometry":{"type":"LineString","coordinates":[[-104.8562,37.1237],[-104.8549,37.1238],[-104.8542,37.1252],[-104.8526,37.1256],[-104.8526,37.1273],[-104.8492,37.1274],[-104.8448,37.1304],[-104.8445,37.1314]]},"properties":{"source_id":"co_named_stream_049358","name":"South Fork Purgatoire River","display_name":"South Fork Purgatoire River","mapped_name":"South Fork Purgatoire River","source_name":"South Fork Purgatoire River","state":"CO","atlas_class":"named_natural_stream","huc8":"11020010","huc8Name":"Purgatoire","huc8States":"CO,NM","lineageKey":"yellowfin","lineage":"yellowfin","historic":"yellowfin","current":"yellowfin","recovery":"recoveryWatch","lineageLabel":"Yellowfin / Arkansas headwaters historical form","lineageBasin":"Purgatoire","lineageNote":"Arkansas basin historical Yellowfin context; review needed","atlas_context":"cutthroat_lineage_context","confidence":"Watershed-level lineage context; expert review recommended","geometryStatus":"Named natural stream segment from statewide hydrography","note":"This named natural stream falls within a HUC8 assigned to a cutthroat lineage context.","source_segment_id":"co_named_stream_049358","water_id":"co_south_fork_purgatoire_river_11020010_yellowfin_001","occurrence_id":"co_south_fork_purgatoire_river_11020010_yellowfin_001","occurrence_number":"001","segment_count":46,"disambiguator":"Purgatoire · Yellowfin / Arkansas headwaters historical form · occurrence 001","basin":"Purgatoire","atlas_layer":"named_water_occurrence","object_role":"named_water_occurrence","historic_label":"Yellowfin / Arkansas headwaters historical form","current_label":"Yellowfin / Arkansas headwaters historical form","recovery_label":"Recovery watch / review area","tier":"tier2","minZoom":12,"confidence_public":"Watershed-level lineage context; expert review recommended","geometry_status_public":"Named natural stream occurrence from statewide hydrography","geometry_source_public":"Grouped public hydrography segments","trout_source_public":"Compiled public recovery and lineage context; expert review recommended","public_notes":"South Fork Purgatoire River is shown as a named-water occurrence within watershed-level cutthroat lineage context. This is not a precise biological boundary."}},{"type":"Feature","geometry":{"type":"LineString","coordinates":[[-104.8822,37.0903],[-104.8821,37.0925],[-104.8797,37.0944]]},"properties":{"source_id":"co_named_stream_049389","name":"South Fork Purgatoire River","display_name":"South Fork Purgatoire River","mapped_name":"South Fork Purgatoire River","source_name":"South Fork Purgatoire River","state":"CO","atlas_class":"named_natural_stream","huc8":"11020010","huc8Name":"Purgatoire","huc8States":"CO,NM","lineageKey":"yellowfin","lineage":"yellowfin","historic":"yellowfin","current":"yellowfin","recovery":"recoveryWatch","lineageLabel":"Yellowfin / Arkansas headwaters historical form","lineageBasin":"Purgatoire","lineageNote":"Arkansas basin historical Yellowfin context; review needed","atlas_context":"cutthroat_lineage_context","confidence":"Watershed-level lineage context; expert review recommended","geometryStatus":"Named natural stream segment from statewide hydrography","note":"This named natural stream falls within a HUC8 assigned to a cutthroat lineage context.","source_segment_id":"co_named_stream_049389","water_id":"co_south_fork_purgatoire_river_11020010_yellowfin_001","occurrence_id":"co_south_fork_purgatoire_river_11020010_yellowfin_001","occurrence_number":"001","segment_count":46,"disambiguator":"Purgatoire · Yellowfin / Arkansas headwaters historical form · occurrence 001","basin":"Purgatoire","atlas_layer":"named_water_occurrence","object_role":"named_water_occurrence","historic_label":"Yellowfin / Arkansas headwaters historical form","current_label":"Yellowfin / Arkansas headwaters historical form","recovery_label":"Recovery watch / review area","tier":"tier2","minZoom":12,"confidence_public":"Watershed-level lineage context; expert review recommended","geometry_status_public":"Named natural stream occurrence from statewide hydrography","geometry_source_public":"Grouped public hydrography segments","trout_source_public":"Compiled public recovery and lineage context; expert review recommended","public_notes":"South Fork Purgatoire River is shown as a named-water occurrence within watershed-level cutthroat lineage context. This is not a precise biological boundary."}},{"type":"Feature","geometry":{"type":"LineString","coordinates":[[-105.0015,37.2306],[-104.9958,37.2304],[-104.9928,37.2289]]},"properties":{"source_id":"co_named_stream_040987","name":"Coal Creek","display_name":"Coal Creek","mapped_name":"Coal Creek","source_name":"Coal Creek","state":"CO","atlas_class":"named_natural_stream","huc8":"11020010","huc8Name":"Purgatoire","huc8States":"CO,NM","lineageKey":"yellowfin","lineage":"yellowfin","historic":"yellowfin","current":"yellowfin","recovery":"recoveryWatch","lineageLabel":"Yellowfin / Arkansas headwaters historical form","lineageBasin":"Purgatoire","lineageNote":"Arkansas basin historical Yellowfin context; review needed","atlas_context":"cutthroat_lineage_context","confidence":"Watershed-level lineage context; expert review recommended","geometryStatus":"Named natural stream segment from statewide hydrography","note":"This named natural stream falls within a HUC8 assigned to a cutthroat lineage context.","source_segment_id":"co_named_stream_040987","water_id":"co_coal_creek_11020010_yellowfin_001","occurrence_id":"co_coal_creek_11020010_yellowfin_001","occurrence_number":"001","segment_count":20,"disambiguator":"Purgatoire · Yellowfin / Arkansas headwaters historical form · occurrence 001","basin":"Purgatoire","atlas_layer":"named_water_occurrence","object_role":"named_water_occurrence","historic_label":"Yellowfin / Arkansas headwaters historical form","current_label":"Yellowfin / Arkansas headwaters historical form","recovery_label":"Recovery watch / review area","tier":"tier2","minZoom":12,"confidence_public":"Watershed-level lineage context; expert review recommended","geometry_status_public":"Named natural stream occurrence from statewide hydrography","geometry_source_public":"Grouped public hydrography segments","trout_source_public":"Compiled public recovery and lineage context; expert review recommended","public_notes":"Coal Creek is shown as a named-water occurrence within watershed-level cutthroat lineage context. This is not a precise biological boundary."}},{"type":"Feature","geometry":{"type":"LineString","coordinates":[[-104.9656,37.1862],[-104.9639,37.1837],[-104.9649,37.1832],[-104.9648,37.1823],[-104.9637,37.1821],[-104.9629,37.1793],[-104.9589,37.1767],[-104.9589,37.1756],[-104.956,37.1743]]},"properties":{"source_id":"co_named_stream_031275","name":"North Fork Purgatoire River","display_name":"North Fork Purgatoire River","mapped_name":"North Fork Purgatoire River","source_name":"North Fork Purgatoire River","state":"CO","atlas_class":"named_natural_stream","huc8":"11020010","huc8Name":"Purgatoire","huc8States":"CO,NM","lineageKey":"yellowfin","lineage":"yellowfin","historic":"yellowfin","current":"yellowfin","recovery":"recoveryWatch","lineageLabel":"Yellowfin / Arkansas headwaters historical form","lineageBasin":"Purgatoire","lineageNote":"Arkansas basin historical Yellowfin context; review needed","atlas_context":"cutthroat_lineage_context","confidence":"Watershed-level lineage context; expert review recommended","geometryStatus":"Named natural stream segment from statewide hydrography","note":"This named natural stream falls within a HUC8 assigned to a cutthroat lineage context.","source_segment_id":"co_named_stream_031275","water_id":"co_north_fork_purgatoire_river_11020010_yellowfin_001","occurrence_id":"co_north_fork_purgatoire_river_11020010_yellowfin_001","occurrence_number":"001","segment_count":62,"disambiguator":"Purgatoire · Yellowfin / Arkansas headwaters historical form · occurrence 001","basin":"Purgatoire","atlas_layer":"named_water_occurrence","object_role":"named_water_occurrence","historic_label":"Yellowfin / Arkansas headwaters historical form","current_label":"Yellowfin / Arkansas headwaters historical form","recovery_label":"Recovery watch / review area","tier":"tier2","minZoom":12,"confidence_public":"Watershed-level lineage context; expert review recommended","geometry_status_public":"Named natural stream occurrence from statewide hydrography","geometry_source_public":"Grouped public hydrography segments","trout_source_public":"Compiled public recovery and lineage context; expert review recommended","public_notes":"North Fork Purgatoire River is shown as a named-water occurrence within watershed-level cutthroat lineage context. This is not a precise biological boundary."}},{"type":"Feature","geometry":{"type":"LineString","coordinates":[[-104.9724,37.1965],[-104.9723,37.1955]]},"properties":{"source_id":"co_named_stream_033311","name":"North Fork Purgatoire River","display_name":"North Fork Purgatoire River","mapped_name":"North Fork Purgatoire River","source_name":"North Fork Purgatoire River","state":"CO","atlas_class":"named_natural_stream","huc8":"11020010","huc8Name":"Purgatoire","huc8States":"CO,NM","lineageKey":"yellowfin","lineage":"yellowfin","historic":"yellowfin","current":"yellowfin","recovery":"recoveryWatch","lineageLabel":"Yellowfin / Arkansas headwaters historical form","lineageBasin":"Purgatoire","lineageNote":"Arkansas basin historical Yellowfin context; review needed","atlas_context":"cutthroat_lineage_context","confidence":"Watershed-level lineage context; expert review recommended","geometryStatus":"Named natural stream segment from statewide hydrography","note":"This named natural stream falls within a HUC8 assigned to a cutthroat lineage context.","source_segment_id":"co_named_stream_033311","water_id":"co_north_fork_purgatoire_river_11020010_yellowfin_001","occurrence_id":"co_north_fork_purgatoire_river_11020010_yellowfin_001","occurrence_number":"001","segment_count":62,"disambiguator":"Purgatoire · Yellowfin / Arkansas headwaters historical form · occurrence 001","basin":"Purgatoire","atlas_layer":"named_water_occurrence","object_role":"named_water_occurrence","historic_label":"Yellowfin / Arkansas headwaters historical form","current_label":"Yellowfin / Arkansas headwaters historical form","recovery_label":"Recovery watch / review area","tier":"tier2","minZoom":12,"confidence_public":"Watershed-level lineage context; expert review recommended","geometry_status_public":"Named natural stream occurrence from statewide hydrography","geometry_source_public":"Grouped public hydrography segments","trout_source_public":"Compiled public recovery and lineage context; expert review recommended","public_notes":"North Fork Purgatoire River is shown as a named-water occurrence within watershed-level cutthroat lineage context. This is not a precise biological boundary."}},{"type":"Feature","geometry":{"type":"LineString","coordinates":[[-104.9723,37.1955],[-104.9697,37.1928],[-104.97,37.1914],[-104.9688,37.1908],[-104.9691,37.1893],[-104.9679,37.1873],[-104.9656,37.1862]]},"properties":{"source_id":"co_named_stream_033312","name":"North Fork Purgatoire River","display_name":"North Fork Purgatoire River","mapped_name":"North Fork Purgatoire River","source_name":"North Fork Purgatoire River","state":"CO","atlas_class":"named_natural_stream","huc8":"11020010","huc8Name":"Purgatoire","huc8States":"CO,NM","lineageKey":"yellowfin","lineage":"yellowfin","historic":"yellowfin","current":"yellowfin","recovery":"recoveryWatch","lineageLabel":"Yellowfin / Arkansas headwaters historical form","lineageBasin":"Purgatoire","lineageNote":"Arkansas basin historical Yellowfin context; review needed","atlas_context":"cutthroat_lineage_context","confidence":"Watershed-level lineage context; expert review recommended","geometryStatus":"Named natural stream segment from statewide hydrography","note":"This named natural stream falls within a HUC8 assigned to a cutthroat lineage context.","source_segment_id":"co_named_stream_033312","water_id":"co_north_fork_purgatoire_river_11020010_yellowfin_001","occurrence_id":"co_north_fork_purgatoire_river_11020010_yellowfin_001","occurrence_number":"001","segment_count":62,"disambiguator":"Purgatoire · Yellowfin / Arkansas headwaters historical form · occurrence 001","basin":"Purgatoire","atlas_layer":"named_water_occurrence","object_role":"named_water_occurrence","historic_label":"Yellowfin / Arkansas headwaters historical form","current_label":"Yellowfin / Arkansas headwaters historical form","recovery_label":"Recovery watch / review area","tier":"tier2","minZoom":12,"confidence_public":"Watershed-level lineage context; expert review recommended","geometry_status_public":"Named natural stream occurrence from statewide hydrography","geometry_source_public":"Grouped public hydrography segments","trout_source_public":"Compiled public recovery and lineage context; expert review recommended","public_notes":"North Fork Purgatoire River is shown as a named-water occurrence within watershed-level cutthroat lineage context. This is not a precise biological boundary."}},{"type":"Feature","geometry":{"type":"LineString","coordinates":[[-104.9885,37.2038],[-104.9805,37.2009],[-104.977,37.2009]]},"properties":{"source_id":"co_named_stream_033648","name":"North Fork Purgatoire River","display_name":"North Fork Purgatoire River","mapped_name":"North Fork Purgatoire River","source_name":"North Fork Purgatoire River","state":"CO","atlas_class":"named_natural_stream","huc8":"11020010","huc8Name":"Purgatoire","huc8States":"CO,NM","lineageKey":"yellowfin","lineage":"yellowfin","historic":"yellowfin","current":"yellowfin","recovery":"recoveryWatch","lineageLabel":"Yellowfin / Arkansas headwaters historical form","lineageBasin":"Purgatoire","lineageNote":"Arkansas basin historical Yellowfin context; review needed","atlas_context":"cutthroat_lineage_context","confidence":"Watershed-level lineage context; expert review recommended","geometryStatus":"Named natural stream segment from statewide hydrography","note":"This named natural stream falls within a HUC8 assigned to a cutthroat lineage context.","source_segment_id":"co_named_stream_033648","water_id":"co_north_fork_purgatoire_river_11020010_yellowfin_001","occurrence_id":"co_north_fork_purgatoire_river_11020010_yellowfin_001","occurrence_number":"001","segment_count":62,"disambiguator":"Purgatoire · Yellowfin / Arkansas headwaters historical form · occurrence 001","basin":"Purgatoire","atlas_layer":"named_water_occurrence","object_role":"named_water_occurrence","historic_label":"Yellowfin / Arkansas headwaters historical form","current_label":"Yellowfin / Arkansas headwaters historical form","recovery_label":"Recovery watch / review area","tier":"tier2","minZoom":12,"confidence_public":"Watershed-level lineage context; expert review recommended","geometry_status_public":"Named natural stream occurrence from statewide hydrography","geometry_source_public":"Grouped public hydrography segments","trout_source_public":"Compiled public recovery and lineage context; expert review recommended","public_notes":"North Fork Purgatoire River is shown as a named-water occurrence within watershed-level cutthroat lineage context. This is not a precise biological boundary."}},{"type":"Feature","geometry":{"type":"LineString","coordinates":[[-104.956,37.1743],[-104.9563,37.1729],[-104.9554,37.1733],[-104.9547,37.1723],[-104.953,37.1721]]},"properties":{"source_id":"co_named_stream_035773","name":"North Fork Purgatoire River","display_name":"North Fork Purgatoire River","mapped_name":"North Fork Purgatoire River","source_name":"North Fork Purgatoire River","state":"CO","atlas_class":"named_natural_stream","huc8":"11020010","huc8Name":"Purgatoire","huc8States":"CO,NM","lineageKey":"yellowfin","lineage":"yellowfin","historic":"yellowfin","current":"yellowfin","recovery":"recoveryWatch","lineageLabel":"Yellowfin / Arkansas headwaters historical form","lineageBasin":"Purgatoire","lineageNote":"Arkansas basin historical Yellowfin context; review needed","atlas_context":"cutthroat_lineage_context","confidence":"Watershed-level lineage context; expert review recommended","geometryStatus":"Named natural stream segment from statewide hydrography","note":"This named natural stream falls within a HUC8 assigned to a cutthroat lineage context.","source_segment_id":"co_named_stream_035773","water_id":"co_north_fork_purgatoire_river_11020010_yellowfin_001","occurrence_id":"co_north_fork_purgatoire_river_11020010_yellowfin_001","occurrence_number":"001","segment_count":62,"disambiguator":"Purgatoire · Yellowfin / Arkansas headwaters historical form · occurrence 001","basin":"Purgatoire","atlas_layer":"named_water_occurrence","object_role":"named_water_occurrence","historic_label":"Yellowfin / Arkansas headwaters historical form","current_label":"Yellowfin / Arkansas headwaters historical form","recovery_label":"Recovery watch / review area","tier":"tier2","minZoom":12,"confidence_public":"Watershed-level lineage context; expert review recommended","geometry_status_public":"Named natural stream occurrence from statewide hydrography","geometry_source_public":"Grouped public hydrography segments","trout_source_public":"Compiled public recovery and lineage context; expert review recommended","public_notes":"North Fork Purgatoire River is shown as a named-water occurrence within watershed-level cutthroat lineage context. This is not a precise biological boundary."}},{"type":"Feature","geometry":{"type":"LineString","coordinates":[[-104.953,37.1721],[-104.9512,37.1711],[-104.9498,37.1676],[-104.9484,37.1675],[-104.9447,37.1641],[-104.9431,37.16],[-104.9415,37.1592],[-104.9407,37.1573]]},"properties":{"source_id":"co_named_stream_035774","name":"North Fork Purgatoire River","display_name":"North Fork Purgatoire River","mapped_name":"North Fork Purgatoire River","source_name":"North Fork Purgatoire River","state":"CO","atlas_class":"named_natural_stream","huc8":"11020010","huc8Name":"Purgatoire","huc8States":"CO,NM","lineageKey":"yellowfin","lineage":"yellowfin","historic":"yellowfin","current":"yellowfin","recovery":"recoveryWatch","lineageLabel":"Yellowfin / Arkansas headwaters historical form","lineageBasin":"Purgatoire","lineageNote":"Arkansas basin historical Yellowfin context; review needed","atlas_context":"cutthroat_lineage_context","confidence":"Watershed-level lineage context; expert review recommended","geometryStatus":"Named natural stream segment from statewide hydrography","note":"This named natural stream falls within a HUC8 assigned to a cutthroat lineage context.","source_segment_id":"co_named_stream_035774","water_id":"co_north_fork_purgatoire_river_11020010_yellowfin_001","occurrence_id":"co_north_fork_purgatoire_river_11020010_yellowfin_001","occurrence_number":"001","segment_count":62,"disambiguator":"Purgatoire · Yellowfin / Arkansas headwaters historical form · occurrence 001","basin":"Purgatoire","atlas_layer":"named_water_occurrence","object_role":"named_water_occurrence","historic_label":"Yellowfin / Arkansas headwaters historical form","current_label":"Yellowfin / Arkansas headwaters historical form","recovery_label":"Recovery watch / review area","tier":"tier2","minZoom":12,"confidence_public":"Watershed-level lineage context; expert review recommended","geometry_status_public":"Named natural stream occurrence from statewide hydrography","geometry_source_public":"Grouped public hydrography segments","trout_source_public":"Compiled public recovery and lineage context; expert review recommended","public_notes":"North Fork Purgatoire River is shown as a named-water occurrence within watershed-level cutthroat lineage context. This is not a precise biological boundary."}},{"type":"Feature","geometry":{"type":"LineString","coordinates":[[-104.977,37.2009],[-104.9738,37.1991],[-104.9724,37.1965]]},"properties":{"source_id":"co_named_stream_049419","name":"North Fork Purgatoire River","display_name":"North Fork Purgatoire River","mapped_name":"North Fork Purgatoire River","source_name":"North Fork Purgatoire River","state":"CO","atlas_class":"named_natural_stream","huc8":"11020010","huc8Name":"Purgatoire","huc8States":"CO,NM","lineageKey":"yellowfin","lineage":"yellowfin","historic":"yellowfin","current":"yellowfin","recovery":"recoveryWatch","lineageLabel":"Yellowfin / Arkansas headwaters historical form","lineageBasin":"Purgatoire","lineageNote":"Arkansas basin historical Yellowfin context; review needed","atlas_context":"cutthroat_lineage_context","confidence":"Watershed-level lineage context; expert review recommended","geometryStatus":"Named natural stream segment from statewide hydrography","note":"This named natural stream falls within a HUC8 assigned to a cutthroat lineage context.","source_segment_id":"co_named_stream_049419","water_id":"co_north_fork_purgatoire_river_11020010_yellowfin_001","occurrence_id":"co_north_fork_purgatoire_river_11020010_yellowfin_001","occurrence_number":"001","segment_count":62,"disambiguator":"Purgatoire · Yellowfin / Arkansas headwaters historical form · occurrence 001","basin":"Purgatoire","atlas_layer":"named_water_occurrence","object_role":"named_water_occurrence","historic_label":"Yellowfin / Arkansas headwaters historical form","current_label":"Yellowfin / Arkansas headwaters historical form","recovery_label":"Recovery watch / review area","tier":"tier2","minZoom":12,"confidence_public":"Watershed-level lineage context; expert review recommended","geometry_status_public":"Named natural stream occurrence from statewide hydrography","geometry_source_public":"Grouped public hydrography segments","trout_source_public":"Compiled public recovery and lineage context; expert review recommended","public_notes":"North Fork Purgatoire River is shown as a named-water occurrence within watershed-level cutthroat lineage context. This is not a precise biological boundary."}},{"type":"Feature","geometry":{"type":"LineString","coordinates":[[-105.0005,37.2367],[-104.9984,37.2361],[-104.9979,37.2345],[-104.9928,37.2289]]},"properties":{"source_id":"co_named_stream_036363","name":"Guajatoyah Creek","display_name":"Guajatoyah Creek","mapped_name":"Guajatoyah Creek","source_name":"Guajatoyah Creek","state":"CO","atlas_class":"named_natural_stream","huc8":"11020010","huc8Name":"Purgatoire","huc8States":"CO,NM","lineageKey":"yellowfin","lineage":"yellowfin","historic":"yellowfin","current":"yellowfin","recovery":"recoveryWatch","lineageLabel":"Yellowfin / Arkansas headwaters historical form","lineageBasin":"Purgatoire","lineageNote":"Arkansas basin historical Yellowfin context; review needed","atlas_context":"cutthroat_lineage_context","confidence":"Watershed-level lineage context; expert review recommended","geometryStatus":"Named natural stream segment from statewide hydrography","note":"This named natural stream falls within a HUC8 assigned to a cutthroat lineage context.","source_segment_id":"co_named_stream_036363","water_id":"co_guajatoyah_creek_11020010_yellowfin_001","occurrence_id":"co_guajatoyah_creek_11020010_yellowfin_001","occurrence_number":"001","segment_count":47,"disambiguator":"Purgatoire · Yellowfin / Arkansas headwaters historical form · occurrence 001","basin":"Purgatoire","atlas_layer":"named_water_occurrence","object_role":"named_water_occurrence","historic_label":"Yellowfin / Arkansas headwaters historical form","current_label":"Yellowfin / Arkansas headwaters historical form","recovery_label":"Recovery watch / review area","tier":"tier2","minZoom":12,"confidence_public":"Watershed-level lineage context; expert review recommended","geometry_status_public":"Named natural stream occurrence from statewide hydrography","geometry_source_public":"Grouped public hydrography segments","trout_source_public":"Compiled public recovery and lineage context; expert review recommended","public_notes":"Guajatoyah Creek is shown as a named-water occurrence within watershed-level cutthroat lineage context. This is not a precise biological boundary."}},{"type":"Feature","geometry":{"type":"LineString","coordinates":[[-104.9835,37.2131],[-104.9834,37.2111],[-104.9821,37.2098],[-104.9827,37.2093],[-104.9817,37.2092],[-104.9824,37.2085],[-104.9809,37.2068],[-104.9807,37.2038],[-104.977,37.2009]]},"properties":{"source_id":"co_named_stream_036925","name":"Guajatoyah Creek","display_name":"Guajatoyah Creek","mapped_name":"Guajatoyah Creek","source_name":"Guajatoyah Creek","state":"CO","atlas_class":"named_natural_stream","huc8":"11020010","huc8Name":"Purgatoire","huc8States":"CO,NM","lineageKey":"yellowfin","lineage":"yellowfin","historic":"yellowfin","current":"yellowfin","recovery":"recoveryWatch","lineageLabel":"Yellowfin / Arkansas headwaters historical form","lineageBasin":"Purgatoire","lineageNote":"Arkansas basin historical Yellowfin context; review needed","atlas_context":"cutthroat_lineage_context","confidence":"Watershed-level lineage context; expert review recommended","geometryStatus":"Named natural stream segment from statewide hydrography","note":"This named natural stream falls within a HUC8 assigned to a cutthroat lineage context.","source_segment_id":"co_named_stream_036925","water_id":"co_guajatoyah_creek_11020010_yellowfin_001","occurrence_id":"co_guajatoyah_creek_11020010_yellowfin_001","occurrence_number":"001","segment_count":47,"disambiguator":"Purgatoire · Yellowfin / Arkansas headwaters historical form · occurrence 001","basin":"Purgatoire","atlas_layer":"named_water_occurrence","object_role":"named_water_occurrence","historic_label":"Yellowfin / Arkansas headwaters historical form","current_label":"Yellowfin / Arkansas headwaters historical form","recovery_label":"Recovery watch / review area","tier":"tier2","minZoom":12,"confidence_public":"Watershed-level lineage context; expert review recommended","geometry_status_public":"Named natural stream occurrence from statewide hydrography","geometry_source_public":"Grouped public hydrography segments","trout_source_public":"Compiled public recovery and lineage context; expert review recommended","public_notes":"Guajatoyah Creek is shown as a named-water occurrence within watershed-level cutthroat lineage context. This is not a precise biological boundary."}},{"type":"Feature","geometry":{"type":"LineString","coordinates":[[-104.9928,37.2289],[-104.9906,37.2278]]},"properties":{"source_id":"co_named_stream_040988","name":"Guajatoyah Creek","display_name":"Guajatoyah Creek","mapped_name":"Guajatoyah Creek","source_name":"Guajatoyah Creek","state":"CO","atlas_class":"named_natural_stream","huc8":"11020010","huc8Name":"Purgatoire","huc8States":"CO,NM","lineageKey":"yellowfin","lineage":"yellowfin","historic":"yellowfin","current":"yellowfin","recovery":"recoveryWatch","lineageLabel":"Yellowfin / Arkansas headwaters historical form","lineageBasin":"Purgatoire","lineageNote":"Arkansas basin historical Yellowfin context; review needed","atlas_context":"cutthroat_lineage_context","confidence":"Watershed-level lineage context; expert review recommended","geometryStatus":"Named natural stream segment from statewide hydrography","note":"This named natural stream falls within a HUC8 assigned to a cutthroat lineage context.","source_segment_id":"co_named_stream_040988","water_id":"co_guajatoyah_creek_11020010_yellowfin_001","occurrence_id":"co_guajatoyah_creek_11020010_yellowfin_001","occurrence_number":"001","segment_count":47,"disambiguator":"Purgatoire · Yellowfin / Arkansas headwaters historical form · occurrence 001","basin":"Purgatoire","atlas_layer":"named_water_occurrence","object_role":"named_water_occurrence","historic_label":"Yellowfin / Arkansas headwaters historical form","current_label":"Yellowfin / Arkansas headwaters historical form","recovery_label":"Recovery watch / review area","tier":"tier2","minZoom":12,"confidence_public":"Watershed-level lineage context; expert review recommended","geometry_status_public":"Named natural stream occurrence from statewide hydrography","geometry_source_public":"Grouped public hydrography segments","trout_source_public":"Compiled public recovery and lineage context; expert review recommended","public_notes":"Guajatoyah Creek is shown as a named-water occurrence within watershed-level cutthroat lineage context. This is not a precise biological boundary."}},{"type":"Feature","geometry":{"type":"LineString","coordinates":[[-104.9859,37.219],[-104.9848,37.2175],[-104.9855,37.2173],[-104.9845,37.2169],[-104.9852,37.2163],[-104.9826,37.2133],[-104.9835,37.2131]]},"properties":{"source_id":"co_named_stream_045851","name":"Guajatoyah Creek","display_name":"Guajatoyah Creek","mapped_name":"Guajatoyah Creek","source_name":"Guajatoyah Creek","state":"CO","atlas_class":"named_natural_stream","huc8":"11020010","huc8Name":"Purgatoire","huc8States":"CO,NM","lineageKey":"yellowfin","lineage":"yellowfin","historic":"yellowfin","current":"yellowfin","recovery":"recoveryWatch","lineageLabel":"Yellowfin / Arkansas headwaters historical form","lineageBasin":"Purgatoire","lineageNote":"Arkansas basin historical Yellowfin context; review needed","atlas_context":"cutthroat_lineage_context","confidence":"Watershed-level lineage context; expert review recommended","geometryStatus":"Named natural stream segment from statewide hydrography","note":"This named natural stream falls within a HUC8 assigned to a cutthroat lineage context.","source_segment_id":"co_named_stream_045851","water_id":"co_guajatoyah_creek_11020010_yellowfin_001","occurrence_id":"co_guajatoyah_creek_11020010_yellowfin_001","occurrence_number":"001","segment_count":47,"disambiguator":"Purgatoire · Yellowfin / Arkansas headwaters historical form · occurrence 001","basin":"Purgatoire","atlas_layer":"named_water_occurrence","object_role":"named_water_occurrence","historic_label":"Yellowfin / Arkansas headwaters historical form","current_label":"Yellowfin / Arkansas headwaters historical form","recovery_label":"Recovery watch / review area","tier":"tier2","minZoom":12,"confidence_public":"Watershed-level lineage context; expert review recommended","geometry_status_public":"Named natural stream occurrence from statewide hydrography","geometry_source_public":"Grouped public hydrography segments","trout_source_public":"Compiled public recovery and lineage context; expert review recommended","public_notes":"Guajatoyah Creek is shown as a named-water occurrence within watershed-level cutthroat lineage context. This is not a precise biological boundary."}},{"type":"Feature","geometry":{"type":"LineString","coordinates":[[-104.9906,37.2278],[-104.9879,37.223],[-104.988,37.2217],[-104.9867,37.2208],[-104.9873,37.22],[-104.9859,37.219]]},"properties":{"source_id":"co_named_stream_049420","name":"Guajatoyah Creek","display_name":"Guajatoyah Creek","mapped_name":"Guajatoyah Creek","source_name":"Guajatoyah Creek","state":"CO","atlas_class":"named_natural_stream","huc8":"11020010","huc8Name":"Purgatoire","huc8States":"CO,NM","lineageKey":"yellowfin","lineage":"yellowfin","historic":"yellowfin","current":"yellowfin","recovery":"recoveryWatch","lineageLabel":"Yellowfin / Arkansas headwaters historical form","lineageBasin":"Purgatoire","lineageNote":"Arkansas basin historical Yellowfin context; review needed","atlas_context":"cutthroat_lineage_context","confidence":"Watershed-level lineage context; expert review recommended","geometryStatus":"Named natural stream segment from statewide hydrography","note":"This named natural stream falls within a HUC8 assigned to a cutthroat lineage context.","source_segment_id":"co_named_stream_049420","water_id":"co_guajatoyah_creek_11020010_yellowfin_001","occurrence_id":"co_guajatoyah_creek_11020010_yellowfin_001","occurrence_number":"001","segment_count":47,"disambiguator":"Purgatoire · Yellowfin / Arkansas headwaters historical form · occurrence 001","basin":"Purgatoire","atlas_layer":"named_water_occurrence","object_role":"named_water_occurrence","historic_label":"Yellowfin / Arkansas headwaters historical form","current_label":"Yellowfin / Arkansas headwaters historical form","recovery_label":"Recovery watch / review area","tier":"tier2","minZoom":12,"confidence_public":"Watershed-level lineage context; expert review recommended","geometry_status_public":"Named natural stream occurrence from statewide hydrography","geometry_source_public":"Grouped public hydrography segments","trout_source_public":"Compiled public recovery and lineage context; expert review recommended","public_notes":"Guajatoyah Creek is shown as a named-water occurrence within watershed-level cutthroat lineage context. This is not a precise biological boundary."}}]}