{"type":"FeatureCollection","name":"co_natural_stream_detail_0p2_x-541_y184_v1","metadata":{"description":"Colorado natural named stream/rivers close-zoom detail tile. Excludes likely human-altered named linework.","version":"v1","gridSizeDegrees":0.2,"tileX":-541,"tileY":184,"bounds":{"west":-108.2,"south":36.800000000000004,"east":-108,"north":37},"source":"C:\\ct-atlas-data\\processed\\geojson\\interpreted\\colorado_cutthroat_huc8_stream_context_named_v1.geojson"},"features":[{"type":"Feature","properties":{"huc8":"14080105","huc8Name":"Middle San Juan","historic":"sanJuan","current":"introduced","recovery":"recoveryWatch","lineageKey":"sanJuan","lineageLabel":"San Juan lineage","basin":"Middle San Juan","note":"San Juan lineage context; review needed","state":"CO","confidence":"HUC8 drainage context / generalized","geometryStatus":"natural_stream_detail_tile_from_full_interpreted_layer","troutSource":"HUC8 lineage assignment v1 / review needed","sourceName":"McDermott Arroyo","name":"McDermott Arroyo","source_id":"103650865","length_km":1.6682952,"FType":460,"FCode":46003,"atlas_class":"streamriver","display_name":"McDermott Arroyo","stream_role":"natural_stream_detail_context","sourceLayer":"colorado_natural_stream_detail_tiles_v1","sourceLabel":"Colorado natural stream detail tiles v1","sensitivity":"generalized"},"geometry":{"type":"LineString","coordinates":[[-108.1118,37.00338],[-108.11236,37.00212],[-108.10972,37.00106],[-108.11005,36.99969],[-108.11167,37.00087],[-108.11363,36.99955]]}},{"type":"Feature","properties":{"huc8":"14080105","huc8Name":"Middle San Juan","historic":"sanJuan","current":"introduced","recovery":"recoveryWatch","lineageKey":"sanJuan","lineageLabel":"San Juan lineage","basin":"Middle San Juan","note":"San Juan lineage context; review needed","state":"CO","confidence":"HUC8 drainage context / generalized","geometryStatus":"natural_stream_detail_tile_from_full_interpreted_layer","troutSource":"HUC8 lineage assignment v1 / review needed","sourceName":"La Plata River","name":"La Plata River","source_id":"103650565","length_km":1.14282688,"FType":460,"FCode":46006,"atlas_class":"streamriver","display_name":"La Plata River","stream_role":"natural_stream_detail_context","sourceLayer":"colorado_natural_stream_detail_tiles_v1","sourceLabel":"Colorado natural stream detail tiles v1","sensitivity":"generalized"},"geometry":{"type":"LineString","coordinates":[[-108.1892,37.00385],[-108.19053,37.00256],[-108.18997,37.00173],[-108.18887,37.00154],[-108.1902,37.00064],[-108.18898,37.00025],[-108.18859,36.99926]]}}]}