{"type":"FeatureCollection","name":"co_natural_stream_detail_0p2_x-530_y188_v1","metadata":{"description":"Colorado natural named stream/rivers close-zoom detail tile. Excludes likely human-altered named linework.","version":"v1","gridSizeDegrees":0.2,"tileX":-530,"tileY":188,"bounds":{"west":-106,"south":37.6,"east":-105.80000000000001,"north":37.800000000000004},"source":"C:\\ct-atlas-data\\processed\\geojson\\interpreted\\colorado_cutthroat_huc8_stream_context_named_v1.geojson"},"features":[{"type":"Feature","properties":{"huc8":"13010003","huc8Name":"San Luis","historic":"rioGrande","current":"introduced","recovery":"recoveryWatch","lineageKey":"rioGrande","lineageLabel":"Rio Grande lineage","basin":"San Luis","note":"Generalized Rio Grande cutthroat drainage context","state":"CO","confidence":"HUC8 drainage context / generalized","geometryStatus":"natural_stream_detail_tile_from_full_interpreted_layer","troutSource":"HUC8 lineage assignment v1 / review needed","sourceName":"San Luis Creek","name":"San Luis Creek","source_id":"125210451","length_km":4.62786552,"FType":460,"FCode":46003,"atlas_class":"streamriver","display_name":"San Luis Creek","stream_role":"natural_stream_detail_context","sourceLayer":"colorado_natural_stream_detail_tiles_v1","sourceLabel":"Colorado natural stream detail tiles v1","sensitivity":"generalized"},"geometry":{"type":"LineString","coordinates":[[-105.8245,37.79065],[-105.82397,37.78794],[-105.82257,37.7868],[-105.8223,37.78574],[-105.82579,37.78118],[-105.82402,37.77748],[-105.82355,37.77486],[-105.82118,37.77069],[-105.82084,37.76761],[-105.82029,37.76671],[-105.81798,37.76608],[-105.81336,37.76309],[-105.8111,37.75959],[-105.80908,37.75772],[-105.80903,37.75702],[-105.80995,37.75611]]}},{"type":"Feature","properties":{"huc8":"13010003","huc8Name":"San Luis","historic":"rioGrande","current":"introduced","recovery":"recoveryWatch","lineageKey":"rioGrande","lineageLabel":"Rio Grande lineage","basin":"San Luis","note":"Generalized Rio Grande cutthroat drainage context","state":"CO","confidence":"HUC8 drainage context / generalized","geometryStatus":"natural_stream_detail_tile_from_full_interpreted_layer","troutSource":"HUC8 lineage assignment v1 / review needed","sourceName":"San Luis Creek","name":"San Luis Creek","source_id":"125212683","length_km":3.10626299,"FType":460,"FCode":46003,"atlas_class":"streamriver","display_name":"San Luis Creek","stream_role":"natural_stream_detail_context","sourceLayer":"colorado_natural_stream_detail_tiles_v1","sourceLabel":"Colorado natural stream detail tiles v1","sensitivity":"generalized"},"geometry":{"type":"LineString","coordinates":[[-105.80161,37.75695],[-105.80044,37.75726],[-105.79908,37.75615],[-105.79548,37.75162],[-105.79173,37.74819],[-105.78377,37.73631],[-105.78355,37.73447]]}},{"type":"Feature","properties":{"huc8":"13010003","huc8Name":"San Luis","historic":"rioGrande","current":"introduced","recovery":"recoveryWatch","lineageKey":"rioGrande","lineageLabel":"Rio Grande lineage","basin":"San Luis","note":"Generalized Rio Grande cutthroat drainage context","state":"CO","confidence":"HUC8 drainage context / generalized","geometryStatus":"natural_stream_detail_tile_from_full_interpreted_layer","troutSource":"HUC8 lineage assignment v1 / review needed","sourceName":"San Luis Creek","name":"San Luis Creek","source_id":"125210443","length_km":2.03182157,"FType":460,"FCode":46003,"atlas_class":"streamriver","display_name":"San Luis Creek","stream_role":"natural_stream_detail_context","sourceLayer":"colorado_natural_stream_detail_tiles_v1","sourceLabel":"Colorado natural stream detail tiles v1","sensitivity":"generalized"},"geometry":{"type":"LineString","coordinates":[[-105.84697,37.80787],[-105.84453,37.80424],[-105.84341,37.80018],[-105.84024,37.79719],[-105.83595,37.79602],[-105.83552,37.79381]]}},{"type":"Feature","properties":{"huc8":"13010003","huc8Name":"San Luis","historic":"rioGrande","current":"introduced","recovery":"recoveryWatch","lineageKey":"rioGrande","lineageLabel":"Rio Grande lineage","basin":"San Luis","note":"Generalized Rio Grande cutthroat drainage context","state":"CO","confidence":"HUC8 drainage context / generalized","geometryStatus":"natural_stream_detail_tile_from_full_interpreted_layer","troutSource":"HUC8 lineage assignment v1 / review needed","sourceName":"San Luis Creek","name":"San Luis Creek","source_id":"{F8CE0A0C-3089-4ABC-8E96-85F91337AE87}","length_km":1.14982566,"FType":460,"FCode":46003,"atlas_class":"streamriver","display_name":"San Luis Creek","stream_role":"natural_stream_detail_context","sourceLayer":"colorado_natural_stream_detail_tiles_v1","sourceLabel":"Colorado natural stream detail tiles v1","sensitivity":"generalized"},"geometry":{"type":"LineString","coordinates":[[-105.83552,37.79381],[-105.83206,37.79038],[-105.8245,37.79065]]}},{"type":"Feature","properties":{"huc8":"13010003","huc8Name":"San Luis","historic":"rioGrande","current":"introduced","recovery":"recoveryWatch","lineageKey":"rioGrande","lineageLabel":"Rio Grande lineage","basin":"San Luis","note":"Generalized Rio Grande cutthroat drainage context","state":"CO","confidence":"HUC8 drainage context / generalized","geometryStatus":"natural_stream_detail_tile_from_full_interpreted_layer","troutSource":"HUC8 lineage assignment v1 / review needed","sourceName":"San Luis Creek","name":"San Luis Creek","source_id":"125210453","length_km":0.665,"FType":460,"FCode":46003,"atlas_class":"streamriver","display_name":"San Luis Creek","stream_role":"natural_stream_detail_context","sourceLayer":"colorado_natural_stream_detail_tiles_v1","sourceLabel":"Colorado natural stream detail tiles v1","sensitivity":"generalized"},"geometry":{"type":"LineString","coordinates":[[-105.80995,37.75611],[-105.80586,37.75626],[-105.80299,37.75488]]}}]}