{"type":"FeatureCollection","name":"co_natural_stream_detail_0p2_x-517_y189_v1","metadata":{"description":"Colorado natural named stream/rivers close-zoom detail tile. Excludes likely human-altered named linework.","version":"v1","gridSizeDegrees":0.2,"tileX":-517,"tileY":189,"bounds":{"west":-103.4,"south":37.800000000000004,"east":-103.2,"north":38},"source":"C:\\ct-atlas-data\\processed\\geojson\\interpreted\\colorado_cutthroat_huc8_stream_context_named_v1.geojson"},"features":[{"type":"Feature","properties":{"huc8":"11020010","huc8Name":"Purgatoire","historic":"yellowfin","current":"introduced","recovery":"recoveryWatch","lineageKey":"yellowfin","lineageLabel":"Yellowfin / Arkansas headwaters historical form","basin":"Purgatoire","note":"Arkansas basin historical Yellowfin context; review needed","state":"CO","confidence":"HUC8 drainage context / generalized","geometryStatus":"natural_stream_detail_tile_from_full_interpreted_layer","troutSource":"HUC8 lineage assignment v1 / review needed","sourceName":"Alkali Arroyo","name":"Alkali Arroyo","source_id":"158848380","length_km":0.34496809,"FType":460,"FCode":46003,"atlas_class":"streamriver","display_name":"Alkali Arroyo","stream_role":"natural_stream_detail_context","sourceLayer":"colorado_natural_stream_detail_tiles_v1","sourceLabel":"Colorado natural stream detail tiles v1","sensitivity":"generalized"},"geometry":{"type":"LineString","coordinates":[[-103.39607,37.85018],[-103.39462,37.84897],[-103.39285,37.84902]]}},{"type":"Feature","properties":{"huc8":"11020010","huc8Name":"Purgatoire","historic":"yellowfin","current":"introduced","recovery":"recoveryWatch","lineageKey":"yellowfin","lineageLabel":"Yellowfin / Arkansas headwaters historical form","basin":"Purgatoire","note":"Arkansas basin historical Yellowfin context; review needed","state":"CO","confidence":"HUC8 drainage context / generalized","geometryStatus":"natural_stream_detail_tile_from_full_interpreted_layer","troutSource":"HUC8 lineage assignment v1 / review needed","sourceName":"Rock Arroyo","name":"Rock Arroyo","source_id":"131277164","length_km":0.71903069,"FType":460,"FCode":46003,"atlas_class":"streamriver","display_name":"Rock Arroyo","stream_role":"natural_stream_detail_context","sourceLayer":"colorado_natural_stream_detail_tiles_v1","sourceLabel":"Colorado natural stream detail tiles v1","sensitivity":"generalized"},"geometry":{"type":"LineString","coordinates":[[-103.39036,37.91413],[-103.38782,37.91495],[-103.3845,37.91495],[-103.38403,37.9152],[-103.38447,37.91569],[-103.38392,37.91586]]}},{"type":"Feature","properties":{"huc8":"11020010","huc8Name":"Purgatoire","historic":"yellowfin","current":"introduced","recovery":"recoveryWatch","lineageKey":"yellowfin","lineageLabel":"Yellowfin / Arkansas headwaters historical form","basin":"Purgatoire","note":"Arkansas basin historical Yellowfin context; review needed","state":"CO","confidence":"HUC8 drainage context / generalized","geometryStatus":"natural_stream_detail_tile_from_full_interpreted_layer","troutSource":"HUC8 lineage assignment v1 / review needed","sourceName":"Rock Arroyo","name":"Rock Arroyo","source_id":"158847567","length_km":0.50858792,"FType":460,"FCode":46003,"atlas_class":"streamriver","display_name":"Rock Arroyo","stream_role":"natural_stream_detail_context","sourceLayer":"colorado_natural_stream_detail_tiles_v1","sourceLabel":"Colorado natural stream detail tiles v1","sensitivity":"generalized"},"geometry":{"type":"LineString","coordinates":[[-103.38392,37.91586],[-103.3827,37.91524],[-103.38277,37.9142],[-103.38034,37.91346]]}},{"type":"Feature","properties":{"huc8":"11020010","huc8Name":"Purgatoire","historic":"yellowfin","current":"introduced","recovery":"recoveryWatch","lineageKey":"yellowfin","lineageLabel":"Yellowfin / Arkansas headwaters historical form","basin":"Purgatoire","note":"Arkansas basin historical Yellowfin context; review needed","state":"CO","confidence":"HUC8 drainage context / generalized","geometryStatus":"natural_stream_detail_tile_from_full_interpreted_layer","troutSource":"HUC8 lineage assignment v1 / review needed","sourceName":"Tarbox Arroyo","name":"Tarbox Arroyo","source_id":"131243956","length_km":1.61944086,"FType":460,"FCode":46003,"atlas_class":"streamriver","display_name":"Tarbox Arroyo","stream_role":"natural_stream_detail_context","sourceLayer":"colorado_natural_stream_detail_tiles_v1","sourceLabel":"Colorado natural stream detail tiles v1","sensitivity":"generalized"},"geometry":{"type":"LineString","coordinates":[[-103.29292,37.95321],[-103.28696,37.95559],[-103.28659,37.95698],[-103.28567,37.9579],[-103.28377,37.95774],[-103.28138,37.95852],[-103.28017,37.96101]]}},{"type":"Feature","properties":{"huc8":"11020010","huc8Name":"Purgatoire","historic":"yellowfin","current":"introduced","recovery":"recoveryWatch","lineageKey":"yellowfin","lineageLabel":"Yellowfin / Arkansas headwaters historical form","basin":"Purgatoire","note":"Arkansas basin historical Yellowfin context; review needed","state":"CO","confidence":"HUC8 drainage context / generalized","geometryStatus":"natural_stream_detail_tile_from_full_interpreted_layer","troutSource":"HUC8 lineage assignment v1 / review needed","sourceName":"Rock Arroyo","name":"Rock Arroyo","source_id":"131277170","length_km":0.19382028,"FType":460,"FCode":46003,"atlas_class":"streamriver","display_name":"Rock Arroyo","stream_role":"natural_stream_detail_context","sourceLayer":"colorado_natural_stream_detail_tiles_v1","sourceLabel":"Colorado natural stream detail tiles v1","sensitivity":"generalized"},"geometry":{"type":"LineString","coordinates":[[-103.37199,37.90511],[-103.37109,37.90362]]}},{"type":"Feature","properties":{"huc8":"11020010","huc8Name":"Purgatoire","historic":"yellowfin","current":"introduced","recovery":"recoveryWatch","lineageKey":"yellowfin","lineageLabel":"Yellowfin / Arkansas headwaters historical form","basin":"Purgatoire","note":"Arkansas basin historical Yellowfin context; review needed","state":"CO","confidence":"HUC8 drainage context / generalized","geometryStatus":"natural_stream_detail_tile_from_full_interpreted_layer","troutSource":"HUC8 lineage assignment v1 / review needed","sourceName":"Tarbox Arroyo","name":"Tarbox Arroyo","source_id":"131243974","length_km":3.71127371,"FType":460,"FCode":46003,"atlas_class":"streamriver","display_name":"Tarbox Arroyo","stream_role":"natural_stream_detail_context","sourceLayer":"colorado_natural_stream_detail_tiles_v1","sourceLabel":"Colorado natural stream detail tiles v1","sensitivity":"generalized"},"geometry":{"type":"LineString","coordinates":[[-103.36549,37.94861],[-103.36437,37.94788],[-103.3611,37.94814],[-103.36041,37.94933],[-103.35841,37.94987],[-103.3574,37.94886],[-103.35471,37.94831],[-103.35026,37.94869],[-103.34645,37.94822],[-103.3449,37.94604],[-103.34191,37.94616],[-103.33962,37.94562],[-103.33862,37.948],[-103.336,37.94928],[-103.33406,37.94925],[-103.33241,37.95063]]}},{"type":"Feature","properties":{"huc8":"11020010","huc8Name":"Purgatoire","historic":"yellowfin","current":"introduced","recovery":"recoveryWatch","lineageKey":"yellowfin","lineageLabel":"Yellowfin / Arkansas headwaters historical form","basin":"Purgatoire","note":"Arkansas basin historical Yellowfin context; review needed","state":"CO","confidence":"HUC8 drainage context / generalized","geometryStatus":"natural_stream_detail_tile_from_full_interpreted_layer","troutSource":"HUC8 lineage assignment v1 / review needed","sourceName":"Rock Arroyo","name":"Rock Arroyo","source_id":"131277180","length_km":1.55286627,"FType":460,"FCode":46003,"atlas_class":"streamriver","display_name":"Rock Arroyo","stream_role":"natural_stream_detail_context","sourceLayer":"colorado_natural_stream_detail_tiles_v1","sourceLabel":"Colorado natural stream detail tiles v1","sensitivity":"generalized"},"geometry":{"type":"LineString","coordinates":[[-103.31484,37.90063],[-103.31067,37.9009],[-103.30763,37.90043],[-103.30518,37.90172],[-103.30262,37.90208],[-103.30095,37.9034],[-103.29878,37.90371]]}},{"type":"Feature","properties":{"huc8":"11020010","huc8Name":"Purgatoire","historic":"yellowfin","current":"introduced","recovery":"recoveryWatch","lineageKey":"yellowfin","lineageLabel":"Yellowfin / Arkansas headwaters historical form","basin":"Purgatoire","note":"Arkansas basin historical Yellowfin context; review needed","state":"CO","confidence":"HUC8 drainage context / generalized","geometryStatus":"natural_stream_detail_tile_from_full_interpreted_layer","troutSource":"HUC8 lineage assignment v1 / review needed","sourceName":"Rock Arroyo","name":"Rock Arroyo","source_id":"131277176","length_km":1.11488579,"FType":460,"FCode":46003,"atlas_class":"streamriver","display_name":"Rock Arroyo","stream_role":"natural_stream_detail_context","sourceLayer":"colorado_natural_stream_detail_tiles_v1","sourceLabel":"Colorado natural stream detail tiles v1","sensitivity":"generalized"},"geometry":{"type":"LineString","coordinates":[[-103.35012,37.89815],[-103.34369,37.89868],[-103.33758,37.89817]]}},{"type":"Feature","properties":{"huc8":"11020010","huc8Name":"Purgatoire","historic":"yellowfin","current":"introduced","recovery":"recoveryWatch","lineageKey":"yellowfin","lineageLabel":"Yellowfin / Arkansas headwaters historical form","basin":"Purgatoire","note":"Arkansas basin historical Yellowfin context; review needed","state":"CO","confidence":"HUC8 drainage context / generalized","geometryStatus":"natural_stream_detail_tile_from_full_interpreted_layer","troutSource":"HUC8 lineage assignment v1 / review needed","sourceName":"Alkali Arroyo","name":"Alkali Arroyo","source_id":"131243976","length_km":0.55631745,"FType":460,"FCode":46003,"atlas_class":"streamriver","display_name":"Alkali Arroyo","stream_role":"natural_stream_detail_context","sourceLayer":"colorado_natural_stream_detail_tiles_v1","sourceLabel":"Colorado natural stream detail tiles v1","sensitivity":"generalized"},"geometry":{"type":"LineString","coordinates":[[-103.39034,37.84713],[-103.38897,37.84627],[-103.38477,37.84555]]}},{"type":"Feature","properties":{"huc8":"11020010","huc8Name":"Purgatoire","historic":"yellowfin","current":"introduced","recovery":"recoveryWatch","lineageKey":"yellowfin","lineageLabel":"Yellowfin / Arkansas headwaters historical form","basin":"Purgatoire","note":"Arkansas basin historical Yellowfin context; review needed","state":"CO","confidence":"HUC8 drainage context / generalized","geometryStatus":"natural_stream_detail_tile_from_full_interpreted_layer","troutSource":"HUC8 lineage assignment v1 / review needed","sourceName":"Tarbox Arroyo","name":"Tarbox Arroyo","source_id":"131243972","length_km":1.18130025,"FType":460,"FCode":46003,"atlas_class":"streamriver","display_name":"Tarbox Arroyo","stream_role":"natural_stream_detail_context","sourceLayer":"colorado_natural_stream_detail_tiles_v1","sourceLabel":"Colorado natural stream detail tiles v1","sensitivity":"generalized"},"geometry":{"type":"LineString","coordinates":[[-103.37611,37.94368],[-103.3742,37.94513],[-103.3694,37.94629],[-103.36756,37.94742],[-103.36689,37.94847],[-103.36549,37.94861]]}},{"type":"Feature","properties":{"huc8":"11020010","huc8Name":"Purgatoire","historic":"yellowfin","current":"introduced","recovery":"recoveryWatch","lineageKey":"yellowfin","lineageLabel":"Yellowfin / Arkansas headwaters historical form","basin":"Purgatoire","note":"Arkansas basin historical Yellowfin context; review needed","state":"CO","confidence":"HUC8 drainage context / generalized","geometryStatus":"natural_stream_detail_tile_from_full_interpreted_layer","troutSource":"HUC8 lineage assignment v1 / review needed","sourceName":"Tarbox Arroyo","name":"Tarbox Arroyo","source_id":"131243958","length_km":0.22963467,"FType":460,"FCode":46003,"atlas_class":"streamriver","display_name":"Tarbox Arroyo","stream_role":"natural_stream_detail_context","sourceLayer":"colorado_natural_stream_detail_tiles_v1","sourceLabel":"Colorado natural stream detail tiles v1","sensitivity":"generalized"},"geometry":{"type":"LineString","coordinates":[[-103.27732,37.96242],[-103.27671,37.96354],[-103.27713,37.96422]]}},{"type":"Feature","properties":{"huc8":"11020010","huc8Name":"Purgatoire","historic":"yellowfin","current":"introduced","recovery":"recoveryWatch","lineageKey":"yellowfin","lineageLabel":"Yellowfin / Arkansas headwaters historical form","basin":"Purgatoire","note":"Arkansas basin historical Yellowfin context; review needed","state":"CO","confidence":"HUC8 drainage context / generalized","geometryStatus":"natural_stream_detail_tile_from_full_interpreted_layer","troutSource":"HUC8 lineage assignment v1 / review needed","sourceName":"Tarbox Arroyo","name":"Tarbox Arroyo","source_id":"131243966","length_km":0.455804,"FType":460,"FCode":46003,"atlas_class":"streamriver","display_name":"Tarbox Arroyo","stream_role":"natural_stream_detail_context","sourceLayer":"colorado_natural_stream_detail_tiles_v1","sourceLabel":"Colorado natural stream detail tiles v1","sensitivity":"generalized"},"geometry":{"type":"LineString","coordinates":[[-103.38553,37.93895],[-103.38311,37.93985],[-103.38165,37.94133]]}},{"type":"Feature","properties":{"huc8":"11020010","huc8Name":"Purgatoire","historic":"yellowfin","current":"introduced","recovery":"recoveryWatch","lineageKey":"yellowfin","lineageLabel":"Yellowfin / Arkansas headwaters historical form","basin":"Purgatoire","note":"Arkansas basin historical Yellowfin context; review needed","state":"CO","confidence":"HUC8 drainage context / generalized","geometryStatus":"natural_stream_detail_tile_from_full_interpreted_layer","troutSource":"HUC8 lineage assignment v1 / review needed","sourceName":"Alkali Arroyo","name":"Alkali Arroyo","source_id":"158848306","length_km":0.35604304,"FType":460,"FCode":46003,"atlas_class":"streamriver","display_name":"Alkali Arroyo","stream_role":"natural_stream_detail_context","sourceLayer":"colorado_natural_stream_detail_tiles_v1","sourceLabel":"Colorado natural stream detail tiles v1","sensitivity":"generalized"},"geometry":{"type":"LineString","coordinates":[[-103.39285,37.84902],[-103.39087,37.84861],[-103.39034,37.84713]]}},{"type":"Feature","properties":{"huc8":"11020010","huc8Name":"Purgatoire","historic":"yellowfin","current":"introduced","recovery":"recoveryWatch","lineageKey":"yellowfin","lineageLabel":"Yellowfin / Arkansas headwaters historical form","basin":"Purgatoire","note":"Arkansas basin historical Yellowfin context; review needed","state":"CO","confidence":"HUC8 drainage context / generalized","geometryStatus":"natural_stream_detail_tile_from_full_interpreted_layer","troutSource":"HUC8 lineage assignment v1 / review needed","sourceName":"Alkali Arroyo","name":"Alkali Arroyo","source_id":"158848407","length_km":0.10283454,"FType":460,"FCode":46003,"atlas_class":"streamriver","display_name":"Alkali Arroyo","stream_role":"natural_stream_detail_context","sourceLayer":"colorado_natural_stream_detail_tiles_v1","sourceLabel":"Colorado natural stream detail tiles v1","sensitivity":"generalized"},"geometry":{"type":"LineString","coordinates":[[-103.38477,37.84555],[-103.38362,37.8454]]}},{"type":"Feature","properties":{"huc8":"11020010","huc8Name":"Purgatoire","historic":"yellowfin","current":"introduced","recovery":"recoveryWatch","lineageKey":"yellowfin","lineageLabel":"Yellowfin / Arkansas headwaters historical form","basin":"Purgatoire","note":"Arkansas basin historical Yellowfin context; review needed","state":"CO","confidence":"HUC8 drainage context / generalized","geometryStatus":"natural_stream_detail_tile_from_full_interpreted_layer","troutSource":"HUC8 lineage assignment v1 / review needed","sourceName":"Alkali Arroyo","name":"Alkali Arroyo","source_id":"131243990","length_km":3.14165773,"FType":460,"FCode":46003,"atlas_class":"streamriver","display_name":"Alkali Arroyo","stream_role":"natural_stream_detail_context","sourceLayer":"colorado_natural_stream_detail_tiles_v1","sourceLabel":"Colorado natural stream detail tiles v1","sensitivity":"generalized"},"geometry":{"type":"LineString","coordinates":[[-103.41422,37.86884],[-103.41451,37.86808],[-103.41244,37.86714],[-103.41166,37.86539],[-103.40965,37.86424],[-103.40852,37.86433],[-103.40857,37.86276],[-103.40783,37.86173],[-103.40864,37.86128],[-103.40865,37.86054],[-103.40788,37.8607],[-103.40727,37.85996],[-103.40791,37.8583],[-103.40755,37.85667],[-103.40608,37.85661],[-103.40526,37.85508],[-103.40371,37.85505],[-103.40295,37.85424],[-103.40121,37.85477],[-103.39782,37.85252]]}},{"type":"Feature","properties":{"huc8":"11020010","huc8Name":"Purgatoire","historic":"yellowfin","current":"introduced","recovery":"recoveryWatch","lineageKey":"yellowfin","lineageLabel":"Yellowfin / Arkansas headwaters historical form","basin":"Purgatoire","note":"Arkansas basin historical Yellowfin context; review needed","state":"CO","confidence":"HUC8 drainage context / generalized","geometryStatus":"natural_stream_detail_tile_from_full_interpreted_layer","troutSource":"HUC8 lineage assignment v1 / review needed","sourceName":"Alkali Arroyo","name":"Alkali Arroyo","source_id":"131243992","length_km":0.08816147,"FType":460,"FCode":46003,"atlas_class":"streamriver","display_name":"Alkali Arroyo","stream_role":"natural_stream_detail_context","sourceLayer":"colorado_natural_stream_detail_tiles_v1","sourceLabel":"Colorado natural stream detail tiles v1","sensitivity":"generalized"},"geometry":{"type":"LineString","coordinates":[[-103.39782,37.85252],[-103.39761,37.85176]]}},{"type":"Feature","properties":{"huc8":"11020010","huc8Name":"Purgatoire","historic":"yellowfin","current":"introduced","recovery":"recoveryWatch","lineageKey":"yellowfin","lineageLabel":"Yellowfin / Arkansas headwaters historical form","basin":"Purgatoire","note":"Arkansas basin historical Yellowfin context; review needed","state":"CO","confidence":"HUC8 drainage context / generalized","geometryStatus":"natural_stream_detail_tile_from_full_interpreted_layer","troutSource":"HUC8 lineage assignment v1 / review needed","sourceName":"Rock Arroyo","name":"Rock Arroyo","source_id":"131277162","length_km":0.82359959,"FType":460,"FCode":46003,"atlas_class":"streamriver","display_name":"Rock Arroyo","stream_role":"natural_stream_detail_context","sourceLayer":"colorado_natural_stream_detail_tiles_v1","sourceLabel":"Colorado natural stream detail tiles v1","sensitivity":"generalized"},"geometry":{"type":"LineString","coordinates":[[-103.39548,37.90896],[-103.39412,37.90923],[-103.39426,37.9101],[-103.39142,37.91215],[-103.39036,37.91413]]}},{"type":"Feature","properties":{"huc8":"11020010","huc8Name":"Purgatoire","historic":"yellowfin","current":"introduced","recovery":"recoveryWatch","lineageKey":"yellowfin","lineageLabel":"Yellowfin / Arkansas headwaters historical form","basin":"Purgatoire","note":"Arkansas basin historical Yellowfin context; review needed","state":"CO","confidence":"HUC8 drainage context / generalized","geometryStatus":"natural_stream_detail_tile_from_full_interpreted_layer","troutSource":"HUC8 lineage assignment v1 / review needed","sourceName":"Tarbox Arroyo","name":"Tarbox Arroyo","source_id":"131243970","length_km":0.1886389,"FType":460,"FCode":46003,"atlas_class":"streamriver","display_name":"Tarbox Arroyo","stream_role":"natural_stream_detail_context","sourceLayer":"colorado_natural_stream_detail_tiles_v1","sourceLabel":"Colorado natural stream detail tiles v1","sensitivity":"generalized"},"geometry":{"type":"LineString","coordinates":[[-103.37793,37.94284],[-103.37611,37.94368]]}},{"type":"Feature","properties":{"huc8":"11020010","huc8Name":"Purgatoire","historic":"yellowfin","current":"introduced","recovery":"recoveryWatch","lineageKey":"yellowfin","lineageLabel":"Yellowfin / Arkansas headwaters historical form","basin":"Purgatoire","note":"Arkansas basin historical Yellowfin context; review needed","state":"CO","confidence":"HUC8 drainage context / generalized","geometryStatus":"natural_stream_detail_tile_from_full_interpreted_layer","troutSource":"HUC8 lineage assignment v1 / review needed","sourceName":"Tarbox Arroyo","name":"Tarbox Arroyo","source_id":"131243968","length_km":0.16948964,"FType":460,"FCode":46003,"atlas_class":"streamriver","display_name":"Tarbox Arroyo","stream_role":"natural_stream_detail_context","sourceLayer":"colorado_natural_stream_detail_tiles_v1","sourceLabel":"Colorado natural stream detail tiles v1","sensitivity":"generalized"},"geometry":{"type":"LineString","coordinates":[[-103.38165,37.94133],[-103.38028,37.94226]]}},{"type":"Feature","properties":{"huc8":"11020010","huc8Name":"Purgatoire","historic":"yellowfin","current":"introduced","recovery":"recoveryWatch","lineageKey":"yellowfin","lineageLabel":"Yellowfin / Arkansas headwaters historical form","basin":"Purgatoire","note":"Arkansas basin historical Yellowfin context; review needed","state":"CO","confidence":"HUC8 drainage context / generalized","geometryStatus":"natural_stream_detail_tile_from_full_interpreted_layer","troutSource":"HUC8 lineage assignment v1 / review needed","sourceName":"Alkali Arroyo","name":"Alkali Arroyo","source_id":"131243986","length_km":0.25252503,"FType":460,"FCode":46003,"atlas_class":"streamriver","display_name":"Alkali Arroyo","stream_role":"natural_stream_detail_context","sourceLayer":"colorado_natural_stream_detail_tiles_v1","sourceLabel":"Colorado natural stream detail tiles v1","sensitivity":"generalized"},"geometry":{"type":"LineString","coordinates":[[-103.35805,37.84689],[-103.35752,37.84688],[-103.35649,37.8453]]}},{"type":"Feature","properties":{"huc8":"11020010","huc8Name":"Purgatoire","historic":"yellowfin","current":"introduced","recovery":"recoveryWatch","lineageKey":"yellowfin","lineageLabel":"Yellowfin / Arkansas headwaters historical form","basin":"Purgatoire","note":"Arkansas basin historical Yellowfin context; review needed","state":"CO","confidence":"HUC8 drainage context / generalized","geometryStatus":"natural_stream_detail_tile_from_full_interpreted_layer","troutSource":"HUC8 lineage assignment v1 / review needed","sourceName":"Alkali Arroyo","name":"Alkali Arroyo","source_id":"158848409","length_km":0.64142935,"FType":460,"FCode":46003,"atlas_class":"streamriver","display_name":"Alkali Arroyo","stream_role":"natural_stream_detail_context","sourceLayer":"colorado_natural_stream_detail_tiles_v1","sourceLabel":"Colorado natural stream detail tiles v1","sensitivity":"generalized"},"geometry":{"type":"LineString","coordinates":[[-103.38362,37.8454],[-103.38168,37.84605],[-103.38051,37.84748],[-103.37898,37.84707],[-103.37893,37.84791]]}},{"type":"Feature","properties":{"huc8":"11020010","huc8Name":"Purgatoire","historic":"yellowfin","current":"introduced","recovery":"recoveryWatch","lineageKey":"yellowfin","lineageLabel":"Yellowfin / Arkansas headwaters historical form","basin":"Purgatoire","note":"Arkansas basin historical Yellowfin context; review needed","state":"CO","confidence":"HUC8 drainage context / generalized","geometryStatus":"natural_stream_detail_tile_from_full_interpreted_layer","troutSource":"HUC8 lineage assignment v1 / review needed","sourceName":"Rock Arroyo","name":"Rock Arroyo","source_id":"131277160","length_km":0.7719193,"FType":460,"FCode":46003,"atlas_class":"streamriver","display_name":"Rock Arroyo","stream_role":"natural_stream_detail_context","sourceLayer":"colorado_natural_stream_detail_tiles_v1","sourceLabel":"Colorado natural stream detail tiles v1","sensitivity":"generalized"},"geometry":{"type":"LineString","coordinates":[[-103.40401,37.90951],[-103.39548,37.90896]]}},{"type":"Feature","properties":{"huc8":"11020010","huc8Name":"Purgatoire","historic":"yellowfin","current":"introduced","recovery":"recoveryWatch","lineageKey":"yellowfin","lineageLabel":"Yellowfin / Arkansas headwaters historical form","basin":"Purgatoire","note":"Arkansas basin historical Yellowfin context; review needed","state":"CO","confidence":"HUC8 drainage context / generalized","geometryStatus":"natural_stream_detail_tile_from_full_interpreted_layer","troutSource":"HUC8 lineage assignment v1 / review needed","sourceName":"Rock Arroyo","name":"Rock Arroyo","source_id":"131277174","length_km":1.05320007,"FType":460,"FCode":46003,"atlas_class":"streamriver","display_name":"Rock Arroyo","stream_role":"natural_stream_detail_context","sourceLayer":"colorado_natural_stream_detail_tiles_v1","sourceLabel":"Colorado natural stream detail tiles v1","sensitivity":"generalized"},"geometry":{"type":"LineString","coordinates":[[-103.36051,37.89971],[-103.35894,37.90005],[-103.35581,37.89804],[-103.3533,37.89878],[-103.35012,37.89815]]}},{"type":"Feature","properties":{"huc8":"11020010","huc8Name":"Purgatoire","historic":"yellowfin","current":"introduced","recovery":"recoveryWatch","lineageKey":"yellowfin","lineageLabel":"Yellowfin / Arkansas headwaters historical form","basin":"Purgatoire","note":"Arkansas basin historical Yellowfin context; review needed","state":"CO","confidence":"HUC8 drainage context / generalized","geometryStatus":"natural_stream_detail_tile_from_full_interpreted_layer","troutSource":"HUC8 lineage assignment v1 / review needed","sourceName":"Rock Arroyo","name":"Rock Arroyo","source_id":"158847568","length_km":0.54275753,"FType":460,"FCode":46003,"atlas_class":"streamriver","display_name":"Rock Arroyo","stream_role":"natural_stream_detail_context","sourceLayer":"colorado_natural_stream_detail_tiles_v1","sourceLabel":"Colorado natural stream detail tiles v1","sensitivity":"generalized"},"geometry":{"type":"LineString","coordinates":[[-103.38034,37.91346],[-103.37825,37.91186],[-103.37563,37.91085]]}},{"type":"Feature","properties":{"huc8":"11020010","huc8Name":"Purgatoire","historic":"yellowfin","current":"introduced","recovery":"recoveryWatch","lineageKey":"yellowfin","lineageLabel":"Yellowfin / Arkansas headwaters historical form","basin":"Purgatoire","note":"Arkansas basin historical Yellowfin context; review needed","state":"CO","confidence":"HUC8 drainage context / generalized","geometryStatus":"natural_stream_detail_tile_from_full_interpreted_layer","troutSource":"HUC8 lineage assignment v1 / review needed","sourceName":"Tarbox Arroyo","name":"Tarbox Arroyo","source_id":"158847651","length_km":0.42275137,"FType":460,"FCode":46003,"atlas_class":"streamriver","display_name":"Tarbox Arroyo","stream_role":"natural_stream_detail_context","sourceLayer":"colorado_natural_stream_detail_tiles_v1","sourceLabel":"Colorado natural stream detail tiles v1","sensitivity":"generalized"},"geometry":{"type":"LineString","coordinates":[[-103.3941,37.93281],[-103.3902,37.93499]]}},{"type":"Feature","properties":{"huc8":"11020010","huc8Name":"Purgatoire","historic":"yellowfin","current":"introduced","recovery":"recoveryWatch","lineageKey":"yellowfin","lineageLabel":"Yellowfin / Arkansas headwaters historical form","basin":"Purgatoire","note":"Arkansas basin historical Yellowfin context; review needed","state":"CO","confidence":"HUC8 drainage context / generalized","geometryStatus":"natural_stream_detail_tile_from_full_interpreted_layer","troutSource":"HUC8 lineage assignment v1 / review needed","sourceName":"Alkali Arroyo","name":"Alkali Arroyo","source_id":"131243982","length_km":0.95147844,"FType":460,"FCode":46003,"atlas_class":"streamriver","display_name":"Alkali Arroyo","stream_role":"natural_stream_detail_context","sourceLayer":"colorado_natural_stream_detail_tiles_v1","sourceLabel":"Colorado natural stream detail tiles v1","sensitivity":"generalized"},"geometry":{"type":"LineString","coordinates":[[-103.37672,37.84773],[-103.37602,37.84752],[-103.37568,37.84654],[-103.37323,37.8472],[-103.36733,37.8474]]}},{"type":"Feature","properties":{"huc8":"11020010","huc8Name":"Purgatoire","historic":"yellowfin","current":"introduced","recovery":"recoveryWatch","lineageKey":"yellowfin","lineageLabel":"Yellowfin / Arkansas headwaters historical form","basin":"Purgatoire","note":"Arkansas basin historical Yellowfin context; review needed","state":"CO","confidence":"HUC8 drainage context / generalized","geometryStatus":"natural_stream_detail_tile_from_full_interpreted_layer","troutSource":"HUC8 lineage assignment v1 / review needed","sourceName":"Tarbox Arroyo","name":"Tarbox Arroyo","source_id":"131243960","length_km":3.75192793,"FType":460,"FCode":46003,"atlas_class":"streamriver","display_name":"Tarbox Arroyo","stream_role":"natural_stream_detail_context","sourceLayer":"colorado_natural_stream_detail_tiles_v1","sourceLabel":"Colorado natural stream detail tiles v1","sensitivity":"generalized"},"geometry":{"type":"LineString","coordinates":[[-103.33241,37.95063],[-103.33064,37.95085],[-103.33026,37.94997],[-103.32871,37.94982],[-103.32813,37.95078],[-103.3259,37.95212],[-103.32496,37.95129],[-103.32304,37.9511],[-103.32289,37.94948],[-103.32142,37.95004],[-103.32175,37.95066],[-103.31972,37.95213],[-103.31572,37.95221],[-103.31496,37.95324],[-103.31362,37.95172],[-103.31288,37.95186],[-103.31298,37.95283],[-103.31222,37.95305],[-103.31139,37.95283],[-103.3111,37.95206],[-103.30918,37.95159],[-103.30568,37.95193],[-103.30299,37.95293]]}},{"type":"Feature","properties":{"huc8":"11020010","huc8Name":"Purgatoire","historic":"yellowfin","current":"introduced","recovery":"recoveryWatch","lineageKey":"yellowfin","lineageLabel":"Yellowfin / Arkansas headwaters historical form","basin":"Purgatoire","note":"Arkansas basin historical Yellowfin context; review needed","state":"CO","confidence":"HUC8 drainage context / generalized","geometryStatus":"natural_stream_detail_tile_from_full_interpreted_layer","troutSource":"HUC8 lineage assignment v1 / review needed","sourceName":"Rock Arroyo","name":"Rock Arroyo","source_id":"131277178","length_km":2.36857449,"FType":460,"FCode":46003,"atlas_class":"streamriver","display_name":"Rock Arroyo","stream_role":"natural_stream_detail_context","sourceLayer":"colorado_natural_stream_detail_tiles_v1","sourceLabel":"Colorado natural stream detail tiles v1","sensitivity":"generalized"},"geometry":{"type":"LineString","coordinates":[[-103.33758,37.89817],[-103.33516,37.89826],[-103.33277,37.89912],[-103.33076,37.89778],[-103.32476,37.89604],[-103.32334,37.89806],[-103.31484,37.90063]]}},{"type":"Feature","properties":{"huc8":"11020010","huc8Name":"Purgatoire","historic":"yellowfin","current":"introduced","recovery":"recoveryWatch","lineageKey":"yellowfin","lineageLabel":"Yellowfin / Arkansas headwaters historical form","basin":"Purgatoire","note":"Arkansas basin historical Yellowfin context; review needed","state":"CO","confidence":"HUC8 drainage context / generalized","geometryStatus":"natural_stream_detail_tile_from_full_interpreted_layer","troutSource":"HUC8 lineage assignment v1 / review needed","sourceName":"Tarbox Arroyo","name":"Tarbox Arroyo","source_id":"131243964","length_km":0.07892811,"FType":460,"FCode":46003,"atlas_class":"streamriver","display_name":"Tarbox Arroyo","stream_role":"natural_stream_detail_context","sourceLayer":"colorado_natural_stream_detail_tiles_v1","sourceLabel":"Colorado natural stream detail tiles v1","sensitivity":"generalized"},"geometry":{"type":"LineString","coordinates":[[-103.38594,37.93833],[-103.38553,37.93895]]}},{"type":"Feature","properties":{"huc8":"11020010","huc8Name":"Purgatoire","historic":"yellowfin","current":"introduced","recovery":"recoveryWatch","lineageKey":"yellowfin","lineageLabel":"Yellowfin / Arkansas headwaters historical form","basin":"Purgatoire","note":"Arkansas basin historical Yellowfin context; review needed","state":"CO","confidence":"HUC8 drainage context / generalized","geometryStatus":"natural_stream_detail_tile_from_full_interpreted_layer","troutSource":"HUC8 lineage assignment v1 / review needed","sourceName":"Alkali Arroyo","name":"Alkali Arroyo","source_id":"158848378","length_km":0.22933647,"FType":460,"FCode":46003,"atlas_class":"streamriver","display_name":"Alkali Arroyo","stream_role":"natural_stream_detail_context","sourceLayer":"colorado_natural_stream_detail_tiles_v1","sourceLabel":"Colorado natural stream detail tiles v1","sensitivity":"generalized"},"geometry":{"type":"LineString","coordinates":[[-103.39761,37.85176],[-103.39607,37.85018]]}},{"type":"Feature","properties":{"huc8":"11020010","huc8Name":"Purgatoire","historic":"yellowfin","current":"introduced","recovery":"recoveryWatch","lineageKey":"yellowfin","lineageLabel":"Yellowfin / Arkansas headwaters historical form","basin":"Purgatoire","note":"Arkansas basin historical Yellowfin context; review needed","state":"CO","confidence":"HUC8 drainage context / generalized","geometryStatus":"natural_stream_detail_tile_from_full_interpreted_layer","troutSource":"HUC8 lineage assignment v1 / review needed","sourceName":"Alkali Arroyo","name":"Alkali Arroyo","source_id":"131243984","length_km":0.99133709,"FType":460,"FCode":46003,"atlas_class":"streamriver","display_name":"Alkali Arroyo","stream_role":"natural_stream_detail_context","sourceLayer":"colorado_natural_stream_detail_tiles_v1","sourceLabel":"Colorado natural stream detail tiles v1","sensitivity":"generalized"},"geometry":{"type":"LineString","coordinates":[[-103.36733,37.8474],[-103.3647,37.84589],[-103.36197,37.84531],[-103.36106,37.84543],[-103.36027,37.84658],[-103.35805,37.84689]]}},{"type":"Feature","properties":{"huc8":"11020010","huc8Name":"Purgatoire","historic":"yellowfin","current":"introduced","recovery":"recoveryWatch","lineageKey":"yellowfin","lineageLabel":"Yellowfin / Arkansas headwaters historical form","basin":"Purgatoire","note":"Arkansas basin historical Yellowfin context; review needed","state":"CO","confidence":"HUC8 drainage context / generalized","geometryStatus":"natural_stream_detail_tile_from_full_interpreted_layer","troutSource":"HUC8 lineage assignment v1 / review needed","sourceName":"Rock Arroyo","name":"Rock Arroyo","source_id":"131277168","length_km":0.41736871,"FType":460,"FCode":46003,"atlas_class":"streamriver","display_name":"Rock Arroyo","stream_role":"natural_stream_detail_context","sourceLayer":"colorado_natural_stream_detail_tiles_v1","sourceLabel":"Colorado natural stream detail tiles v1","sensitivity":"generalized"},"geometry":{"type":"LineString","coordinates":[[-103.37563,37.91085],[-103.3764,37.90948],[-103.37501,37.90763]]}},{"type":"Feature","properties":{"huc8":"11020010","huc8Name":"Purgatoire","historic":"yellowfin","current":"introduced","recovery":"recoveryWatch","lineageKey":"yellowfin","lineageLabel":"Yellowfin / Arkansas headwaters historical form","basin":"Purgatoire","note":"Arkansas basin historical Yellowfin context; review needed","state":"CO","confidence":"HUC8 drainage context / generalized","geometryStatus":"natural_stream_detail_tile_from_full_interpreted_layer","troutSource":"HUC8 lineage assignment v1 / review needed","sourceName":"Tarbox Arroyo","name":"Tarbox Arroyo","source_id":"158847653","length_km":0.55655784,"FType":460,"FCode":46003,"atlas_class":"streamriver","display_name":"Tarbox Arroyo","stream_role":"natural_stream_detail_context","sourceLayer":"colorado_natural_stream_detail_tiles_v1","sourceLabel":"Colorado natural stream detail tiles v1","sensitivity":"generalized"},"geometry":{"type":"LineString","coordinates":[[-103.3902,37.93499],[-103.38714,37.93683],[-103.38594,37.93833]]}},{"type":"Feature","properties":{"huc8":"11020010","huc8Name":"Purgatoire","historic":"yellowfin","current":"introduced","recovery":"recoveryWatch","lineageKey":"yellowfin","lineageLabel":"Yellowfin / Arkansas headwaters historical form","basin":"Purgatoire","note":"Arkansas basin historical Yellowfin context; review needed","state":"CO","confidence":"HUC8 drainage context / generalized","geometryStatus":"natural_stream_detail_tile_from_full_interpreted_layer","troutSource":"HUC8 lineage assignment v1 / review needed","sourceName":"Rock Arroyo","name":"Rock Arroyo","source_id":"131277182","length_km":0.23135653,"FType":460,"FCode":46003,"atlas_class":"streamriver","display_name":"Rock Arroyo","stream_role":"natural_stream_detail_context","sourceLayer":"colorado_natural_stream_detail_tiles_v1","sourceLabel":"Colorado natural stream detail tiles v1","sensitivity":"generalized"},"geometry":{"type":"LineString","coordinates":[[-103.29819,37.90363],[-103.29593,37.90278]]}},{"type":"Feature","properties":{"huc8":"11020010","huc8Name":"Purgatoire","historic":"yellowfin","current":"introduced","recovery":"recoveryWatch","lineageKey":"yellowfin","lineageLabel":"Yellowfin / Arkansas headwaters historical form","basin":"Purgatoire","note":"Arkansas basin historical Yellowfin context; review needed","state":"CO","confidence":"HUC8 drainage context / generalized","geometryStatus":"natural_stream_detail_tile_from_full_interpreted_layer","troutSource":"HUC8 lineage assignment v1 / review needed","sourceName":"Alkali Arroyo","name":"Alkali Arroyo","source_id":"131243980","length_km":0.22467937,"FType":460,"FCode":46003,"atlas_class":"streamriver","display_name":"Alkali Arroyo","stream_role":"natural_stream_detail_context","sourceLayer":"colorado_natural_stream_detail_tiles_v1","sourceLabel":"Colorado natural stream detail tiles v1","sensitivity":"generalized"},"geometry":{"type":"LineString","coordinates":[[-103.37893,37.84791],[-103.37817,37.84831],[-103.37672,37.84773]]}},{"type":"Feature","properties":{"huc8":"11020010","huc8Name":"Purgatoire","historic":"yellowfin","current":"introduced","recovery":"recoveryWatch","lineageKey":"yellowfin","lineageLabel":"Yellowfin / Arkansas headwaters historical form","basin":"Purgatoire","note":"Arkansas basin historical Yellowfin context; review needed","state":"CO","confidence":"HUC8 drainage context / generalized","geometryStatus":"natural_stream_detail_tile_from_full_interpreted_layer","troutSource":"HUC8 lineage assignment v1 / review needed","sourceName":"Salt Arroyo","name":"Salt Arroyo","source_id":"158849047","length_km":0.77339477,"FType":460,"FCode":46003,"atlas_class":"streamriver","display_name":"Salt Arroyo","stream_role":"natural_stream_detail_context","sourceLayer":"colorado_natural_stream_detail_tiles_v1","sourceLabel":"Colorado natural stream detail tiles v1","sensitivity":"generalized"},"geometry":{"type":"LineString","coordinates":[[-103.40051,37.81354],[-103.39932,37.81457],[-103.39835,37.81403],[-103.39792,37.80962]]}},{"type":"Feature","properties":{"huc8":"11020010","huc8Name":"Purgatoire","historic":"yellowfin","current":"introduced","recovery":"recoveryWatch","lineageKey":"yellowfin","lineageLabel":"Yellowfin / Arkansas headwaters historical form","basin":"Purgatoire","note":"Arkansas basin historical Yellowfin context; review needed","state":"CO","confidence":"HUC8 drainage context / generalized","geometryStatus":"natural_stream_detail_tile_from_full_interpreted_layer","troutSource":"HUC8 lineage assignment v1 / review needed","sourceName":"Salt Arroyo","name":"Salt Arroyo","source_id":"158849049","length_km":1.14563361,"FType":460,"FCode":46003,"atlas_class":"streamriver","display_name":"Salt Arroyo","stream_role":"natural_stream_detail_context","sourceLayer":"colorado_natural_stream_detail_tiles_v1","sourceLabel":"Colorado natural stream detail tiles v1","sensitivity":"generalized"},"geometry":{"type":"LineString","coordinates":[[-103.39792,37.80962],[-103.39708,37.80904],[-103.39335,37.80979],[-103.39325,37.80912],[-103.39005,37.80846],[-103.38753,37.80673]]}},{"type":"Feature","properties":{"huc8":"11020010","huc8Name":"Purgatoire","historic":"yellowfin","current":"introduced","recovery":"recoveryWatch","lineageKey":"yellowfin","lineageLabel":"Yellowfin / Arkansas headwaters historical form","basin":"Purgatoire","note":"Arkansas basin historical Yellowfin context; review needed","state":"CO","confidence":"HUC8 drainage context / generalized","geometryStatus":"natural_stream_detail_tile_from_full_interpreted_layer","troutSource":"HUC8 lineage assignment v1 / review needed","sourceName":"Rock Arroyo","name":"Rock Arroyo","source_id":"131277172","length_km":1.56311223,"FType":460,"FCode":46003,"atlas_class":"streamriver","display_name":"Rock Arroyo","stream_role":"natural_stream_detail_context","sourceLayer":"colorado_natural_stream_detail_tiles_v1","sourceLabel":"Colorado natural stream detail tiles v1","sensitivity":"generalized"},"geometry":{"type":"LineString","coordinates":[[-103.37109,37.90362],[-103.36986,37.9032],[-103.36963,37.90097],[-103.36861,37.90115],[-103.36828,37.90179],[-103.36743,37.90126],[-103.36562,37.90143],[-103.36531,37.90022],[-103.36231,37.89866],[-103.36169,37.89945],[-103.36051,37.89971]]}},{"type":"Feature","properties":{"huc8":"11020010","huc8Name":"Purgatoire","historic":"yellowfin","current":"introduced","recovery":"recoveryWatch","lineageKey":"yellowfin","lineageLabel":"Yellowfin / Arkansas headwaters historical form","basin":"Purgatoire","note":"Arkansas basin historical Yellowfin context; review needed","state":"CO","confidence":"HUC8 drainage context / generalized","geometryStatus":"natural_stream_detail_tile_from_full_interpreted_layer","troutSource":"HUC8 lineage assignment v1 / review needed","sourceName":"Tarbox Arroyo","name":"Tarbox Arroyo","source_id":"131243962","length_km":0.95698604,"FType":460,"FCode":46003,"atlas_class":"streamriver","display_name":"Tarbox Arroyo","stream_role":"natural_stream_detail_context","sourceLayer":"colorado_natural_stream_detail_tiles_v1","sourceLabel":"Colorado natural stream detail tiles v1","sensitivity":"generalized"},"geometry":{"type":"LineString","coordinates":[[-103.30299,37.95293],[-103.30148,37.95256],[-103.29446,37.95346],[-103.29292,37.95321]]}}]}