{"type":"FeatureCollection","name":"co_natural_stream_detail_0p2_x-540_y201_v1","metadata":{"description":"Colorado natural named stream/rivers close-zoom detail tile. Excludes likely human-altered named linework.","version":"v1","gridSizeDegrees":0.2,"tileX":-540,"tileY":201,"bounds":{"west":-108,"south":40.2,"east":-107.80000000000001,"north":40.400000000000006},"source":"C:\\ct-atlas-data\\processed\\geojson\\interpreted\\colorado_cutthroat_huc8_stream_context_named_v1.geojson"},"features":[{"type":"Feature","properties":{"huc8":"14050002","huc8Name":"Lower Yampa","historic":"greenRiverBlue","current":"introduced","recovery":"recoveryWatch","lineageKey":"greenRiverBlue","lineageLabel":"Green River / blue-lineage CT","basin":"Lower Yampa","note":"Yampa blue-lineage context","state":"CO","confidence":"HUC8 drainage context / generalized","geometryStatus":"natural_stream_detail_tile_from_full_interpreted_layer","troutSource":"HUC8 lineage assignment v1 / review needed","sourceName":"Wilson Creek","name":"Wilson Creek","source_id":"83340481","length_km":0.467,"FType":460,"FCode":46006,"atlas_class":"streamriver","display_name":"Wilson Creek","stream_role":"natural_stream_detail_context","sourceLayer":"colorado_natural_stream_detail_tiles_v1","sourceLabel":"Colorado natural stream detail tiles v1","sensitivity":"generalized"},"geometry":{"type":"LineString","coordinates":[[-107.80304,40.31253],[-107.80308,40.313],[-107.79966,40.31472]]}},{"type":"Feature","properties":{"huc8":"14050002","huc8Name":"Lower Yampa","historic":"greenRiverBlue","current":"introduced","recovery":"recoveryWatch","lineageKey":"greenRiverBlue","lineageLabel":"Green River / blue-lineage CT","basin":"Lower Yampa","note":"Yampa blue-lineage context","state":"CO","confidence":"HUC8 drainage context / generalized","geometryStatus":"natural_stream_detail_tile_from_full_interpreted_layer","troutSource":"HUC8 lineage assignment v1 / review needed","sourceName":"Jubb Creek","name":"Jubb Creek","source_id":"83340399","length_km":1.851,"FType":460,"FCode":46003,"atlas_class":"streamriver","display_name":"Jubb Creek","stream_role":"natural_stream_detail_context","sourceLayer":"colorado_natural_stream_detail_tiles_v1","sourceLabel":"Colorado natural stream detail tiles v1","sensitivity":"generalized"},"geometry":{"type":"LineString","coordinates":[[-107.8094,40.32707],[-107.80336,40.3322],[-107.80087,40.33364],[-107.79859,40.33629],[-107.79471,40.3383]]}},{"type":"Feature","properties":{"huc8":"14050002","huc8Name":"Lower Yampa","historic":"greenRiverBlue","current":"introduced","recovery":"recoveryWatch","lineageKey":"greenRiverBlue","lineageLabel":"Green River / blue-lineage CT","basin":"Lower Yampa","note":"Yampa blue-lineage context","state":"CO","confidence":"HUC8 drainage context / generalized","geometryStatus":"natural_stream_detail_tile_from_full_interpreted_layer","troutSource":"HUC8 lineage assignment v1 / review needed","sourceName":"Jubb Creek","name":"Jubb Creek","source_id":"83340537","length_km":0.378,"FType":460,"FCode":46003,"atlas_class":"streamriver","display_name":"Jubb Creek","stream_role":"natural_stream_detail_context","sourceLayer":"colorado_natural_stream_detail_tiles_v1","sourceLabel":"Colorado natural stream detail tiles v1","sensitivity":"generalized"},"geometry":{"type":"LineString","coordinates":[[-107.85344,40.29234],[-107.85059,40.29482]]}},{"type":"Feature","properties":{"huc8":"14050002","huc8Name":"Lower Yampa","historic":"greenRiverBlue","current":"introduced","recovery":"recoveryWatch","lineageKey":"greenRiverBlue","lineageLabel":"Green River / blue-lineage CT","basin":"Lower Yampa","note":"Yampa blue-lineage context","state":"CO","confidence":"HUC8 drainage context / generalized","geometryStatus":"natural_stream_detail_tile_from_full_interpreted_layer","troutSource":"HUC8 lineage assignment v1 / review needed","sourceName":"Wilson Creek","name":"Wilson Creek","source_id":"83340543","length_km":1.286,"FType":460,"FCode":46006,"atlas_class":"streamriver","display_name":"Wilson Creek","stream_role":"natural_stream_detail_context","sourceLayer":"colorado_natural_stream_detail_tiles_v1","sourceLabel":"Colorado natural stream detail tiles v1","sensitivity":"generalized"},"geometry":{"type":"LineString","coordinates":[[-107.83111,40.28913],[-107.82836,40.29474],[-107.82851,40.29553],[-107.82677,40.29775],[-107.8256,40.2982]]}},{"type":"Feature","properties":{"huc8":"14050002","huc8Name":"Lower Yampa","historic":"greenRiverBlue","current":"introduced","recovery":"recoveryWatch","lineageKey":"greenRiverBlue","lineageLabel":"Green River / blue-lineage CT","basin":"Lower Yampa","note":"Yampa blue-lineage context","state":"CO","confidence":"HUC8 drainage context / generalized","geometryStatus":"natural_stream_detail_tile_from_full_interpreted_layer","troutSource":"HUC8 lineage assignment v1 / review needed","sourceName":"Taylor Creek","name":"Taylor Creek","source_id":"83340641","length_km":0.531,"FType":460,"FCode":46003,"atlas_class":"streamriver","display_name":"Taylor Creek","stream_role":"natural_stream_detail_context","sourceLayer":"colorado_natural_stream_detail_tiles_v1","sourceLabel":"Colorado natural stream detail tiles v1","sensitivity":"generalized"},"geometry":{"type":"LineString","coordinates":[[-107.82972,40.26929],[-107.82653,40.27309]]}},{"type":"Feature","properties":{"huc8":"14050002","huc8Name":"Lower Yampa","historic":"greenRiverBlue","current":"introduced","recovery":"recoveryWatch","lineageKey":"greenRiverBlue","lineageLabel":"Green River / blue-lineage CT","basin":"Lower Yampa","note":"Yampa blue-lineage context","state":"CO","confidence":"HUC8 drainage context / generalized","geometryStatus":"natural_stream_detail_tile_from_full_interpreted_layer","troutSource":"HUC8 lineage assignment v1 / review needed","sourceName":"Jubb Creek","name":"Jubb Creek","source_id":"83340489","length_km":0.535,"FType":460,"FCode":46003,"atlas_class":"streamriver","display_name":"Jubb Creek","stream_role":"natural_stream_detail_context","sourceLayer":"colorado_natural_stream_detail_tiles_v1","sourceLabel":"Colorado natural stream detail tiles v1","sensitivity":"generalized"},"geometry":{"type":"LineString","coordinates":[[-107.82915,40.31071],[-107.82306,40.31157]]}},{"type":"Feature","properties":{"huc8":"14050002","huc8Name":"Lower Yampa","historic":"greenRiverBlue","current":"introduced","recovery":"recoveryWatch","lineageKey":"greenRiverBlue","lineageLabel":"Green River / blue-lineage CT","basin":"Lower Yampa","note":"Yampa blue-lineage context","state":"CO","confidence":"HUC8 drainage context / generalized","geometryStatus":"natural_stream_detail_tile_from_full_interpreted_layer","troutSource":"HUC8 lineage assignment v1 / review needed","sourceName":"Taylor Creek","name":"Taylor Creek","source_id":"83340593","length_km":0.054,"FType":460,"FCode":46003,"atlas_class":"streamriver","display_name":"Taylor Creek","stream_role":"natural_stream_detail_context","sourceLayer":"colorado_natural_stream_detail_tiles_v1","sourceLabel":"Colorado natural stream detail tiles v1","sensitivity":"generalized"},"geometry":{"type":"LineString","coordinates":[[-107.82018,40.28264],[-107.82019,40.28308]]}},{"type":"Feature","properties":{"huc8":"14050002","huc8Name":"Lower Yampa","historic":"greenRiverBlue","current":"introduced","recovery":"recoveryWatch","lineageKey":"greenRiverBlue","lineageLabel":"Green River / blue-lineage CT","basin":"Lower Yampa","note":"Yampa blue-lineage context","state":"CO","confidence":"HUC8 drainage context / generalized","geometryStatus":"natural_stream_detail_tile_from_full_interpreted_layer","troutSource":"HUC8 lineage assignment v1 / review needed","sourceName":"Jubb Creek","name":"Jubb Creek","source_id":"83340521","length_km":1.108,"FType":460,"FCode":46003,"atlas_class":"streamriver","display_name":"Jubb Creek","stream_role":"natural_stream_detail_context","sourceLayer":"colorado_natural_stream_detail_tiles_v1","sourceLabel":"Colorado natural stream detail tiles v1","sensitivity":"generalized"},"geometry":{"type":"LineString","coordinates":[[-107.85059,40.29482],[-107.84207,40.29993],[-107.84133,40.30108]]}},{"type":"Feature","properties":{"huc8":"14050002","huc8Name":"Lower Yampa","historic":"greenRiverBlue","current":"introduced","recovery":"recoveryWatch","lineageKey":"greenRiverBlue","lineageLabel":"Green River / blue-lineage CT","basin":"Lower Yampa","note":"Yampa blue-lineage context","state":"CO","confidence":"HUC8 drainage context / generalized","geometryStatus":"natural_stream_detail_tile_from_full_interpreted_layer","troutSource":"HUC8 lineage assignment v1 / review needed","sourceName":"Jubb Creek","name":"Jubb Creek","source_id":"83340483","length_km":0.257,"FType":460,"FCode":46003,"atlas_class":"streamriver","display_name":"Jubb Creek","stream_role":"natural_stream_detail_context","sourceLayer":"colorado_natural_stream_detail_tiles_v1","sourceLabel":"Colorado natural stream detail tiles v1","sensitivity":"generalized"},"geometry":{"type":"LineString","coordinates":[[-107.82306,40.31157],[-107.82177,40.31356]]}},{"type":"Feature","properties":{"huc8":"14050002","huc8Name":"Lower Yampa","historic":"greenRiverBlue","current":"introduced","recovery":"recoveryWatch","lineageKey":"greenRiverBlue","lineageLabel":"Green River / blue-lineage CT","basin":"Lower Yampa","note":"Yampa blue-lineage context","state":"CO","confidence":"HUC8 drainage context / generalized","geometryStatus":"natural_stream_detail_tile_from_full_interpreted_layer","troutSource":"HUC8 lineage assignment v1 / review needed","sourceName":"Wilson Creek","name":"Wilson Creek","source_id":"83340575","length_km":0.29,"FType":460,"FCode":46006,"atlas_class":"streamriver","display_name":"Wilson Creek","stream_role":"natural_stream_detail_context","sourceLayer":"colorado_natural_stream_detail_tiles_v1","sourceLabel":"Colorado natural stream detail tiles v1","sensitivity":"generalized"},"geometry":{"type":"LineString","coordinates":[[-107.83402,40.28434],[-107.83303,40.28527],[-107.83296,40.28649]]}},{"type":"Feature","properties":{"huc8":"14050002","huc8Name":"Lower Yampa","historic":"greenRiverBlue","current":"introduced","recovery":"recoveryWatch","lineageKey":"greenRiverBlue","lineageLabel":"Green River / blue-lineage CT","basin":"Lower Yampa","note":"Yampa blue-lineage context","state":"CO","confidence":"HUC8 drainage context / generalized","geometryStatus":"natural_stream_detail_tile_from_full_interpreted_layer","troutSource":"HUC8 lineage assignment v1 / review needed","sourceName":"Taylor Creek","name":"Taylor Creek","source_id":"83340623","length_km":1.119,"FType":460,"FCode":46003,"atlas_class":"streamriver","display_name":"Taylor Creek","stream_role":"natural_stream_detail_context","sourceLayer":"colorado_natural_stream_detail_tiles_v1","sourceLabel":"Colorado natural stream detail tiles v1","sensitivity":"generalized"},"geometry":{"type":"LineString","coordinates":[[-107.82653,40.27309],[-107.82097,40.28187]]}},{"type":"Feature","properties":{"huc8":"14050002","huc8Name":"Lower Yampa","historic":"greenRiverBlue","current":"introduced","recovery":"recoveryWatch","lineageKey":"greenRiverBlue","lineageLabel":"Green River / blue-lineage CT","basin":"Lower Yampa","note":"Yampa blue-lineage context","state":"CO","confidence":"HUC8 drainage context / generalized","geometryStatus":"natural_stream_detail_tile_from_full_interpreted_layer","troutSource":"HUC8 lineage assignment v1 / review needed","sourceName":"Jubb Creek","name":"Jubb Creek","source_id":"83340433","length_km":1.049,"FType":460,"FCode":46003,"atlas_class":"streamriver","display_name":"Jubb Creek","stream_role":"natural_stream_detail_context","sourceLayer":"colorado_natural_stream_detail_tiles_v1","sourceLabel":"Colorado natural stream detail tiles v1","sensitivity":"generalized"},"geometry":{"type":"LineString","coordinates":[[-107.81781,40.31877],[-107.81492,40.32116],[-107.81437,40.3225],[-107.81256,40.32385],[-107.81186,40.3257],[-107.81124,40.32598]]}},{"type":"Feature","properties":{"huc8":"14050002","huc8Name":"Lower Yampa","historic":"greenRiverBlue","current":"introduced","recovery":"recoveryWatch","lineageKey":"greenRiverBlue","lineageLabel":"Green River / blue-lineage CT","basin":"Lower Yampa","note":"Yampa blue-lineage context","state":"CO","confidence":"HUC8 drainage context / generalized","geometryStatus":"natural_stream_detail_tile_from_full_interpreted_layer","troutSource":"HUC8 lineage assignment v1 / review needed","sourceName":"Jubb Creek","name":"Jubb Creek","source_id":"83340469","length_km":0.691,"FType":460,"FCode":46003,"atlas_class":"streamriver","display_name":"Jubb Creek","stream_role":"natural_stream_detail_context","sourceLayer":"colorado_natural_stream_detail_tiles_v1","sourceLabel":"Colorado natural stream detail tiles v1","sensitivity":"generalized"},"geometry":{"type":"LineString","coordinates":[[-107.82177,40.31356],[-107.81781,40.31877]]}},{"type":"Feature","properties":{"huc8":"14050002","huc8Name":"Lower Yampa","historic":"greenRiverBlue","current":"introduced","recovery":"recoveryWatch","lineageKey":"greenRiverBlue","lineageLabel":"Green River / blue-lineage CT","basin":"Lower Yampa","note":"Yampa blue-lineage context","state":"CO","confidence":"HUC8 drainage context / generalized","geometryStatus":"natural_stream_detail_tile_from_full_interpreted_layer","troutSource":"HUC8 lineage assignment v1 / review needed","sourceName":"Wilson Creek","name":"Wilson Creek","source_id":"83362859","length_km":5.18698188,"FType":460,"FCode":46006,"atlas_class":"streamriver","display_name":"Wilson Creek","stream_role":"natural_stream_detail_context","sourceLayer":"colorado_natural_stream_detail_tiles_v1","sourceLabel":"Colorado natural stream detail tiles v1","sensitivity":"generalized"},"geometry":{"type":"LineString","coordinates":[[-107.86091,40.24797],[-107.85912,40.24857],[-107.85842,40.24994],[-107.85562,40.2523],[-107.85082,40.26012],[-107.84902,40.26168],[-107.84441,40.26835],[-107.84329,40.26887],[-107.84361,40.26934],[-107.84203,40.27054],[-107.84134,40.27292],[-107.83968,40.27482],[-107.83866,40.27869],[-107.83722,40.28079],[-107.83517,40.2823],[-107.83402,40.28434]]}},{"type":"Feature","properties":{"huc8":"14050002","huc8Name":"Lower Yampa","historic":"greenRiverBlue","current":"introduced","recovery":"recoveryWatch","lineageKey":"greenRiverBlue","lineageLabel":"Green River / blue-lineage CT","basin":"Lower Yampa","note":"Yampa blue-lineage context","state":"CO","confidence":"HUC8 drainage context / generalized","geometryStatus":"natural_stream_detail_tile_from_full_interpreted_layer","troutSource":"HUC8 lineage assignment v1 / review needed","sourceName":"Taylor Creek","name":"Taylor Creek","source_id":"83340665","length_km":0.939,"FType":460,"FCode":46003,"atlas_class":"streamriver","display_name":"Taylor Creek","stream_role":"natural_stream_detail_context","sourceLayer":"colorado_natural_stream_detail_tiles_v1","sourceLabel":"Colorado natural stream detail tiles v1","sensitivity":"generalized"},"geometry":{"type":"LineString","coordinates":[[-107.83405,40.26177],[-107.83261,40.2651],[-107.82972,40.26929]]}},{"type":"Feature","properties":{"huc8":"14050002","huc8Name":"Lower Yampa","historic":"greenRiverBlue","current":"introduced","recovery":"recoveryWatch","lineageKey":"greenRiverBlue","lineageLabel":"Green River / blue-lineage CT","basin":"Lower Yampa","note":"Yampa blue-lineage context","state":"CO","confidence":"HUC8 drainage context / generalized","geometryStatus":"natural_stream_detail_tile_from_full_interpreted_layer","troutSource":"HUC8 lineage assignment v1 / review needed","sourceName":"Jubb Creek","name":"Jubb Creek","source_id":"83340509","length_km":1.564,"FType":460,"FCode":46003,"atlas_class":"streamriver","display_name":"Jubb Creek","stream_role":"natural_stream_detail_context","sourceLayer":"colorado_natural_stream_detail_tiles_v1","sourceLabel":"Colorado natural stream detail tiles v1","sensitivity":"generalized"},"geometry":{"type":"LineString","coordinates":[[-107.84133,40.30108],[-107.83935,40.30263],[-107.83471,40.30871],[-107.82915,40.31071]]}},{"type":"Feature","properties":{"huc8":"14050002","huc8Name":"Lower Yampa","historic":"greenRiverBlue","current":"introduced","recovery":"recoveryWatch","lineageKey":"greenRiverBlue","lineageLabel":"Green River / blue-lineage CT","basin":"Lower Yampa","note":"Yampa blue-lineage context","state":"CO","confidence":"HUC8 drainage context / generalized","geometryStatus":"natural_stream_detail_tile_from_full_interpreted_layer","troutSource":"HUC8 lineage assignment v1 / review needed","sourceName":"Taylor Creek","name":"Taylor Creek","source_id":"83340541","length_km":2.807,"FType":460,"FCode":46003,"atlas_class":"streamriver","display_name":"Taylor Creek","stream_role":"natural_stream_detail_context","sourceLayer":"colorado_natural_stream_detail_tiles_v1","sourceLabel":"Colorado natural stream detail tiles v1","sensitivity":"generalized"},"geometry":{"type":"LineString","coordinates":[[-107.81516,40.29143],[-107.81212,40.29589],[-107.80954,40.29799],[-107.80727,40.30249],[-107.80326,40.3051],[-107.80069,40.31076],[-107.79957,40.31213]]}},{"type":"Feature","properties":{"huc8":"14050002","huc8Name":"Lower Yampa","historic":"greenRiverBlue","current":"introduced","recovery":"recoveryWatch","lineageKey":"greenRiverBlue","lineageLabel":"Green River / blue-lineage CT","basin":"Lower Yampa","note":"Yampa blue-lineage context","state":"CO","confidence":"HUC8 drainage context / generalized","geometryStatus":"natural_stream_detail_tile_from_full_interpreted_layer","troutSource":"HUC8 lineage assignment v1 / review needed","sourceName":"Jubb Creek","name":"Jubb Creek","source_id":"83340405","length_km":0.2,"FType":460,"FCode":46003,"atlas_class":"streamriver","display_name":"Jubb Creek","stream_role":"natural_stream_detail_context","sourceLayer":"colorado_natural_stream_detail_tiles_v1","sourceLabel":"Colorado natural stream detail tiles v1","sensitivity":"generalized"},"geometry":{"type":"LineString","coordinates":[[-107.81124,40.32598],[-107.8094,40.32707]]}},{"type":"Feature","properties":{"huc8":"14050002","huc8Name":"Lower Yampa","historic":"greenRiverBlue","current":"introduced","recovery":"recoveryWatch","lineageKey":"greenRiverBlue","lineageLabel":"Green River / blue-lineage CT","basin":"Lower Yampa","note":"Yampa blue-lineage context","state":"CO","confidence":"HUC8 drainage context / generalized","geometryStatus":"natural_stream_detail_tile_from_full_interpreted_layer","troutSource":"HUC8 lineage assignment v1 / review needed","sourceName":"Wilson Creek","name":"Wilson Creek","source_id":"83340517","length_km":0.67,"FType":460,"FCode":46006,"atlas_class":"streamriver","display_name":"Wilson Creek","stream_role":"natural_stream_detail_context","sourceLayer":"colorado_natural_stream_detail_tiles_v1","sourceLabel":"Colorado natural stream detail tiles v1","sensitivity":"generalized"},"geometry":{"type":"LineString","coordinates":[[-107.8256,40.2982],[-107.82105,40.30214]]}},{"type":"Feature","properties":{"huc8":"14050002","huc8Name":"Lower Yampa","historic":"greenRiverBlue","current":"introduced","recovery":"recoveryWatch","lineageKey":"greenRiverBlue","lineageLabel":"Green River / blue-lineage CT","basin":"Lower Yampa","note":"Yampa blue-lineage context","state":"CO","confidence":"HUC8 drainage context / generalized","geometryStatus":"natural_stream_detail_tile_from_full_interpreted_layer","troutSource":"HUC8 lineage assignment v1 / review needed","sourceName":"Wilson Creek","name":"Wilson Creek","source_id":"83340503","length_km":2.236,"FType":460,"FCode":46006,"atlas_class":"streamriver","display_name":"Wilson Creek","stream_role":"natural_stream_detail_context","sourceLayer":"colorado_natural_stream_detail_tiles_v1","sourceLabel":"Colorado natural stream detail tiles v1","sensitivity":"generalized"},"geometry":{"type":"LineString","coordinates":[[-107.82066,40.30329],[-107.81829,40.30618],[-107.81792,40.3081],[-107.81573,40.30977],[-107.8121,40.31029],[-107.8091,40.30971],[-107.80442,40.31144],[-107.80304,40.31253]]}},{"type":"Feature","properties":{"huc8":"14050002","huc8Name":"Lower Yampa","historic":"greenRiverBlue","current":"introduced","recovery":"recoveryWatch","lineageKey":"greenRiverBlue","lineageLabel":"Green River / blue-lineage CT","basin":"Lower Yampa","note":"Yampa blue-lineage context","state":"CO","confidence":"HUC8 drainage context / generalized","geometryStatus":"natural_stream_detail_tile_from_full_interpreted_layer","troutSource":"HUC8 lineage assignment v1 / review needed","sourceName":"East Fork Jubb Creek","name":"East Fork Jubb Creek","source_id":"83340573","length_km":0.085,"FType":460,"FCode":46003,"atlas_class":"streamriver","display_name":"East Fork Jubb Creek","stream_role":"natural_stream_detail_context","sourceLayer":"colorado_natural_stream_detail_tiles_v1","sourceLabel":"Colorado natural stream detail tiles v1","sensitivity":"generalized"},"geometry":{"type":"LineString","coordinates":[[-107.85782,40.28381],[-107.85737,40.28448]]}},{"type":"Feature","properties":{"huc8":"14050002","huc8Name":"Lower Yampa","historic":"greenRiverBlue","current":"introduced","recovery":"recoveryWatch","lineageKey":"greenRiverBlue","lineageLabel":"Green River / blue-lineage CT","basin":"Lower Yampa","note":"Yampa blue-lineage context","state":"CO","confidence":"HUC8 drainage context / generalized","geometryStatus":"natural_stream_detail_tile_from_full_interpreted_layer","troutSource":"HUC8 lineage assignment v1 / review needed","sourceName":"West Fork Jubb Creek","name":"West Fork Jubb Creek","source_id":"83375273","length_km":3.172,"FType":460,"FCode":46003,"atlas_class":"streamriver","display_name":"West Fork Jubb Creek","stream_role":"natural_stream_detail_context","sourceLayer":"colorado_natural_stream_detail_tiles_v1","sourceLabel":"Colorado natural stream detail tiles v1","sensitivity":"generalized"},"geometry":{"type":"LineString","coordinates":[[-107.87868,40.2727],[-107.87539,40.27473],[-107.86621,40.2849],[-107.85916,40.28938],[-107.85628,40.29023],[-107.85461,40.29195],[-107.85344,40.29234]]}},{"type":"Feature","properties":{"huc8":"14050002","huc8Name":"Lower Yampa","historic":"greenRiverBlue","current":"introduced","recovery":"recoveryWatch","lineageKey":"greenRiverBlue","lineageLabel":"Green River / blue-lineage CT","basin":"Lower Yampa","note":"Yampa blue-lineage context","state":"CO","confidence":"HUC8 drainage context / generalized","geometryStatus":"natural_stream_detail_tile_from_full_interpreted_layer","troutSource":"HUC8 lineage assignment v1 / review needed","sourceName":"West Fork Jubb Creek","name":"West Fork Jubb Creek","source_id":"83375349","length_km":0.657,"FType":460,"FCode":46003,"atlas_class":"streamriver","display_name":"West Fork Jubb Creek","stream_role":"natural_stream_detail_context","sourceLayer":"colorado_natural_stream_detail_tiles_v1","sourceLabel":"Colorado natural stream detail tiles v1","sensitivity":"generalized"},"geometry":{"type":"LineString","coordinates":[[-107.90499,40.24563],[-107.90347,40.24818],[-107.90058,40.25005]]}},{"type":"Feature","properties":{"huc8":"14050002","huc8Name":"Lower Yampa","historic":"greenRiverBlue","current":"introduced","recovery":"recoveryWatch","lineageKey":"greenRiverBlue","lineageLabel":"Green River / blue-lineage CT","basin":"Lower Yampa","note":"Yampa blue-lineage context","state":"CO","confidence":"HUC8 drainage context / generalized","geometryStatus":"natural_stream_detail_tile_from_full_interpreted_layer","troutSource":"HUC8 lineage assignment v1 / review needed","sourceName":"East Fork Jubb Creek","name":"East Fork Jubb Creek","source_id":"83340563","length_km":0.98,"FType":460,"FCode":46003,"atlas_class":"streamriver","display_name":"East Fork Jubb Creek","stream_role":"natural_stream_detail_context","sourceLayer":"colorado_natural_stream_detail_tiles_v1","sourceLabel":"Colorado natural stream detail tiles v1","sensitivity":"generalized"},"geometry":{"type":"LineString","coordinates":[[-107.85737,40.28448],[-107.8551,40.28689],[-107.85344,40.29234]]}},{"type":"Feature","properties":{"huc8":"14050002","huc8Name":"Lower Yampa","historic":"greenRiverBlue","current":"introduced","recovery":"recoveryWatch","lineageKey":"greenRiverBlue","lineageLabel":"Green River / blue-lineage CT","basin":"Lower Yampa","note":"Yampa blue-lineage context","state":"CO","confidence":"HUC8 drainage context / generalized","geometryStatus":"natural_stream_detail_tile_from_full_interpreted_layer","troutSource":"HUC8 lineage assignment v1 / review needed","sourceName":"East Fork Jubb Creek","name":"East Fork Jubb Creek","source_id":"83340663","length_km":2.96133494,"FType":460,"FCode":46003,"atlas_class":"streamriver","display_name":"East Fork Jubb Creek","stream_role":"natural_stream_detail_context","sourceLayer":"colorado_natural_stream_detail_tiles_v1","sourceLabel":"Colorado natural stream detail tiles v1","sensitivity":"generalized"},"geometry":{"type":"LineString","coordinates":[[-107.87279,40.25976],[-107.85798,40.28347]]}},{"type":"Feature","properties":{"huc8":"14050002","huc8Name":"Lower Yampa","historic":"greenRiverBlue","current":"introduced","recovery":"recoveryWatch","lineageKey":"greenRiverBlue","lineageLabel":"Green River / blue-lineage CT","basin":"Lower Yampa","note":"Yampa blue-lineage context","state":"CO","confidence":"HUC8 drainage context / generalized","geometryStatus":"natural_stream_detail_tile_from_full_interpreted_layer","troutSource":"HUC8 lineage assignment v1 / review needed","sourceName":"West Fork Jubb Creek","name":"West Fork Jubb Creek","source_id":"83347557","length_km":2.334,"FType":460,"FCode":46003,"atlas_class":"streamriver","display_name":"West Fork Jubb Creek","stream_role":"natural_stream_detail_context","sourceLayer":"colorado_natural_stream_detail_tiles_v1","sourceLabel":"Colorado natural stream detail tiles v1","sensitivity":"generalized"},"geometry":{"type":"LineString","coordinates":[[-107.89532,40.25629],[-107.89257,40.25898],[-107.88954,40.26075],[-107.88493,40.26732],[-107.879,40.27236]]}},{"type":"Feature","properties":{"huc8":"14050002","huc8Name":"Lower Yampa","historic":"greenRiverBlue","current":"introduced","recovery":"recoveryWatch","lineageKey":"greenRiverBlue","lineageLabel":"Green River / blue-lineage CT","basin":"Lower Yampa","note":"Yampa blue-lineage context","state":"CO","confidence":"HUC8 drainage context / generalized","geometryStatus":"natural_stream_detail_tile_from_full_interpreted_layer","troutSource":"HUC8 lineage assignment v1 / review needed","sourceName":"Wilson Creek","name":"Wilson Creek","source_id":"83346309","length_km":0.297,"FType":460,"FCode":46006,"atlas_class":"streamriver","display_name":"Wilson Creek","stream_role":"natural_stream_detail_context","sourceLayer":"colorado_natural_stream_detail_tiles_v1","sourceLabel":"Colorado natural stream detail tiles v1","sensitivity":"generalized"},"geometry":{"type":"LineString","coordinates":[[-107.87804,40.23356],[-107.87646,40.23564]]}},{"type":"Feature","properties":{"huc8":"14050002","huc8Name":"Lower Yampa","historic":"greenRiverBlue","current":"introduced","recovery":"recoveryWatch","lineageKey":"greenRiverBlue","lineageLabel":"Green River / blue-lineage CT","basin":"Lower Yampa","note":"Yampa blue-lineage context","state":"CO","confidence":"HUC8 drainage context / generalized","geometryStatus":"natural_stream_detail_tile_from_full_interpreted_layer","troutSource":"HUC8 lineage assignment v1 / review needed","sourceName":"East Fork Jubb Creek","name":"East Fork Jubb Creek","source_id":"83340677","length_km":1.05463801,"FType":460,"FCode":46003,"atlas_class":"streamriver","display_name":"East Fork Jubb Creek","stream_role":"natural_stream_detail_context","sourceLayer":"colorado_natural_stream_detail_tiles_v1","sourceLabel":"Colorado natural stream detail tiles v1","sensitivity":"generalized"},"geometry":{"type":"LineString","coordinates":[[-107.8811,40.25303],[-107.87747,40.25678],[-107.87448,40.25811],[-107.87279,40.25976]]}},{"type":"Feature","properties":{"huc8":"14050002","huc8Name":"Lower Yampa","historic":"greenRiverBlue","current":"introduced","recovery":"recoveryWatch","lineageKey":"greenRiverBlue","lineageLabel":"Green River / blue-lineage CT","basin":"Lower Yampa","note":"Yampa blue-lineage context","state":"CO","confidence":"HUC8 drainage context / generalized","geometryStatus":"natural_stream_detail_tile_from_full_interpreted_layer","troutSource":"HUC8 lineage assignment v1 / review needed","sourceName":"Wilson Creek","name":"Wilson Creek","source_id":"83346295","length_km":0.143,"FType":460,"FCode":46006,"atlas_class":"streamriver","display_name":"Wilson Creek","stream_role":"natural_stream_detail_context","sourceLayer":"colorado_natural_stream_detail_tiles_v1","sourceLabel":"Colorado natural stream detail tiles v1","sensitivity":"generalized"},"geometry":{"type":"LineString","coordinates":[[-107.87646,40.23564],[-107.87581,40.23671]]}},{"type":"Feature","properties":{"huc8":"14050002","huc8Name":"Lower Yampa","historic":"greenRiverBlue","current":"introduced","recovery":"recoveryWatch","lineageKey":"greenRiverBlue","lineageLabel":"Green River / blue-lineage CT","basin":"Lower Yampa","note":"Yampa blue-lineage context","state":"CO","confidence":"HUC8 drainage context / generalized","geometryStatus":"natural_stream_detail_tile_from_full_interpreted_layer","troutSource":"HUC8 lineage assignment v1 / review needed","sourceName":"East Fork Wilson Creek","name":"East Fork Wilson Creek","source_id":"83346401","length_km":0.397,"FType":460,"FCode":46003,"atlas_class":"streamriver","display_name":"East Fork Wilson Creek","stream_role":"natural_stream_detail_context","sourceLayer":"colorado_natural_stream_detail_tiles_v1","sourceLabel":"Colorado natural stream detail tiles v1","sensitivity":"generalized"},"geometry":{"type":"LineString","coordinates":[[-107.87967,40.21359],[-107.87913,40.21561],[-107.87971,40.21696]]}},{"type":"Feature","properties":{"huc8":"14050002","huc8Name":"Lower Yampa","historic":"greenRiverBlue","current":"introduced","recovery":"recoveryWatch","lineageKey":"greenRiverBlue","lineageLabel":"Green River / blue-lineage CT","basin":"Lower Yampa","note":"Yampa blue-lineage context","state":"CO","confidence":"HUC8 drainage context / generalized","geometryStatus":"natural_stream_detail_tile_from_full_interpreted_layer","troutSource":"HUC8 lineage assignment v1 / review needed","sourceName":"East Fork Wilson Creek","name":"East Fork Wilson Creek","source_id":"83346439","length_km":0.306,"FType":460,"FCode":46003,"atlas_class":"streamriver","display_name":"East Fork Wilson Creek","stream_role":"natural_stream_detail_context","sourceLayer":"colorado_natural_stream_detail_tiles_v1","sourceLabel":"Colorado natural stream detail tiles v1","sensitivity":"generalized"},"geometry":{"type":"LineString","coordinates":[[-107.87895,40.2063],[-107.8793,40.20892]]}},{"type":"Feature","properties":{"huc8":"14050002","huc8Name":"Lower Yampa","historic":"greenRiverBlue","current":"introduced","recovery":"recoveryWatch","lineageKey":"greenRiverBlue","lineageLabel":"Green River / blue-lineage CT","basin":"Lower Yampa","note":"Yampa blue-lineage context","state":"CO","confidence":"HUC8 drainage context / generalized","geometryStatus":"natural_stream_detail_tile_from_full_interpreted_layer","troutSource":"HUC8 lineage assignment v1 / review needed","sourceName":"East Fork Jubb Creek","name":"East Fork Jubb Creek","source_id":"83346249","length_km":1.33375625,"FType":460,"FCode":46003,"atlas_class":"streamriver","display_name":"East Fork Jubb Creek","stream_role":"natural_stream_detail_context","sourceLayer":"colorado_natural_stream_detail_tiles_v1","sourceLabel":"Colorado natural stream detail tiles v1","sensitivity":"generalized"},"geometry":{"type":"LineString","coordinates":[[-107.88717,40.24228],[-107.88539,40.24648],[-107.88408,40.24803],[-107.8839,40.24937],[-107.8811,40.25303]]}},{"type":"Feature","properties":{"huc8":"14050002","huc8Name":"Lower Yampa","historic":"greenRiverBlue","current":"introduced","recovery":"recoveryWatch","lineageKey":"greenRiverBlue","lineageLabel":"Green River / blue-lineage CT","basin":"Lower Yampa","note":"Yampa blue-lineage context","state":"CO","confidence":"HUC8 drainage context / generalized","geometryStatus":"natural_stream_detail_tile_from_full_interpreted_layer","troutSource":"HUC8 lineage assignment v1 / review needed","sourceName":"Wilson Creek","name":"Wilson Creek","source_id":"83346333","length_km":0.58,"FType":460,"FCode":46006,"atlas_class":"streamriver","display_name":"Wilson Creek","stream_role":"natural_stream_detail_context","sourceLayer":"colorado_natural_stream_detail_tiles_v1","sourceLabel":"Colorado natural stream detail tiles v1","sensitivity":"generalized"},"geometry":{"type":"LineString","coordinates":[[-107.88843,40.22838],[-107.88462,40.22991],[-107.88227,40.23001]]}},{"type":"Feature","properties":{"huc8":"14050002","huc8Name":"Lower Yampa","historic":"greenRiverBlue","current":"introduced","recovery":"recoveryWatch","lineageKey":"greenRiverBlue","lineageLabel":"Green River / blue-lineage CT","basin":"Lower Yampa","note":"Yampa blue-lineage context","state":"CO","confidence":"HUC8 drainage context / generalized","geometryStatus":"natural_stream_detail_tile_from_full_interpreted_layer","troutSource":"HUC8 lineage assignment v1 / review needed","sourceName":"East Fork Wilson Creek","name":"East Fork Wilson Creek","source_id":"83346387","length_km":0.489,"FType":460,"FCode":46003,"atlas_class":"streamriver","display_name":"East Fork Wilson Creek","stream_role":"natural_stream_detail_context","sourceLayer":"colorado_natural_stream_detail_tiles_v1","sourceLabel":"Colorado natural stream detail tiles v1","sensitivity":"generalized"},"geometry":{"type":"LineString","coordinates":[[-107.87971,40.21696],[-107.88113,40.22107]]}},{"type":"Feature","properties":{"huc8":"14050002","huc8Name":"Lower Yampa","historic":"greenRiverBlue","current":"introduced","recovery":"recoveryWatch","lineageKey":"greenRiverBlue","lineageLabel":"Green River / blue-lineage CT","basin":"Lower Yampa","note":"Yampa blue-lineage context","state":"CO","confidence":"HUC8 drainage context / generalized","geometryStatus":"natural_stream_detail_tile_from_full_interpreted_layer","troutSource":"HUC8 lineage assignment v1 / review needed","sourceName":"Wilson Creek","name":"Wilson Creek","source_id":"83346415","length_km":0.799,"FType":460,"FCode":46006,"atlas_class":"streamriver","display_name":"Wilson Creek","stream_role":"natural_stream_detail_context","sourceLayer":"colorado_natural_stream_detail_tiles_v1","sourceLabel":"Colorado natural stream detail tiles v1","sensitivity":"generalized"},"geometry":{"type":"LineString","coordinates":[[-107.91372,40.21146],[-107.91023,40.21273],[-107.90649,40.21538]]}},{"type":"Feature","properties":{"huc8":"14050002","huc8Name":"Lower Yampa","historic":"greenRiverBlue","current":"introduced","recovery":"recoveryWatch","lineageKey":"greenRiverBlue","lineageLabel":"Green River / blue-lineage CT","basin":"Lower Yampa","note":"Yampa blue-lineage context","state":"CO","confidence":"HUC8 drainage context / generalized","geometryStatus":"natural_stream_detail_tile_from_full_interpreted_layer","troutSource":"HUC8 lineage assignment v1 / review needed","sourceName":"West Fork Jubb Creek","name":"West Fork Jubb Creek","source_id":"83347599","length_km":0.807,"FType":460,"FCode":46003,"atlas_class":"streamriver","display_name":"West Fork Jubb Creek","stream_role":"natural_stream_detail_context","sourceLayer":"colorado_natural_stream_detail_tiles_v1","sourceLabel":"Colorado natural stream detail tiles v1","sensitivity":"generalized"},"geometry":{"type":"LineString","coordinates":[[-107.90058,40.25005],[-107.89879,40.25378],[-107.89583,40.25602]]}},{"type":"Feature","properties":{"huc8":"14050002","huc8Name":"Lower Yampa","historic":"greenRiverBlue","current":"introduced","recovery":"recoveryWatch","lineageKey":"greenRiverBlue","lineageLabel":"Green River / blue-lineage CT","basin":"Lower Yampa","note":"Yampa blue-lineage context","state":"CO","confidence":"HUC8 drainage context / generalized","geometryStatus":"natural_stream_detail_tile_from_full_interpreted_layer","troutSource":"HUC8 lineage assignment v1 / review needed","sourceName":"Wilson Creek","name":"Wilson Creek","source_id":"83346341","length_km":0.475,"FType":460,"FCode":46006,"atlas_class":"streamriver","display_name":"Wilson Creek","stream_role":"natural_stream_detail_context","sourceLayer":"colorado_natural_stream_detail_tiles_v1","sourceLabel":"Colorado natural stream detail tiles v1","sensitivity":"generalized"},"geometry":{"type":"LineString","coordinates":[[-107.89388,40.22654],[-107.88934,40.22837]]}},{"type":"Feature","properties":{"huc8":"14050002","huc8Name":"Lower Yampa","historic":"greenRiverBlue","current":"introduced","recovery":"recoveryWatch","lineageKey":"greenRiverBlue","lineageLabel":"Green River / blue-lineage CT","basin":"Lower Yampa","note":"Yampa blue-lineage context","state":"CO","confidence":"HUC8 drainage context / generalized","geometryStatus":"natural_stream_detail_tile_from_full_interpreted_layer","troutSource":"HUC8 lineage assignment v1 / review needed","sourceName":"West Fork Good Spring Creek","name":"West Fork Good Spring Creek","source_id":"83363015","length_km":0.154,"FType":460,"FCode":46003,"atlas_class":"streamriver","display_name":"West Fork Good Spring Creek","stream_role":"natural_stream_detail_context","sourceLayer":"colorado_natural_stream_detail_tiles_v1","sourceLabel":"Colorado natural stream detail tiles v1","sensitivity":"generalized"},"geometry":{"type":"LineString","coordinates":[[-107.8498,40.19967],[-107.84877,40.2007]]}},{"type":"Feature","properties":{"huc8":"14050002","huc8Name":"Lower Yampa","historic":"greenRiverBlue","current":"introduced","recovery":"recoveryWatch","lineageKey":"greenRiverBlue","lineageLabel":"Green River / blue-lineage CT","basin":"Lower Yampa","note":"Yampa blue-lineage context","state":"CO","confidence":"HUC8 drainage context / generalized","geometryStatus":"natural_stream_detail_tile_from_full_interpreted_layer","troutSource":"HUC8 lineage assignment v1 / review needed","sourceName":"Wilson Creek","name":"Wilson Creek","source_id":"83362881","length_km":0.515,"FType":460,"FCode":46006,"atlas_class":"streamriver","display_name":"Wilson Creek","stream_role":"natural_stream_detail_context","sourceLayer":"colorado_natural_stream_detail_tiles_v1","sourceLabel":"Colorado natural stream detail tiles v1","sensitivity":"generalized"},"geometry":{"type":"LineString","coordinates":[[-107.87221,40.23966],[-107.86848,40.24276]]}},{"type":"Feature","properties":{"huc8":"14050002","huc8Name":"Lower Yampa","historic":"greenRiverBlue","current":"introduced","recovery":"recoveryWatch","lineageKey":"greenRiverBlue","lineageLabel":"Green River / blue-lineage CT","basin":"Lower Yampa","note":"Yampa blue-lineage context","state":"CO","confidence":"HUC8 drainage context / generalized","geometryStatus":"natural_stream_detail_tile_from_full_interpreted_layer","troutSource":"HUC8 lineage assignment v1 / review needed","sourceName":"Wilson Creek","name":"Wilson Creek","source_id":"83346373","length_km":1.116,"FType":460,"FCode":46006,"atlas_class":"streamriver","display_name":"Wilson Creek","stream_role":"natural_stream_detail_context","sourceLayer":"colorado_natural_stream_detail_tiles_v1","sourceLabel":"Colorado natural stream detail tiles v1","sensitivity":"generalized"},"geometry":{"type":"LineString","coordinates":[[-107.90255,40.21939],[-107.89388,40.22654]]}},{"type":"Feature","properties":{"huc8":"14050002","huc8Name":"Lower Yampa","historic":"greenRiverBlue","current":"introduced","recovery":"recoveryWatch","lineageKey":"greenRiverBlue","lineageLabel":"Green River / blue-lineage CT","basin":"Lower Yampa","note":"Yampa blue-lineage context","state":"CO","confidence":"HUC8 drainage context / generalized","geometryStatus":"natural_stream_detail_tile_from_full_interpreted_layer","troutSource":"HUC8 lineage assignment v1 / review needed","sourceName":"West Fork Jubb Creek","name":"West Fork Jubb Creek","source_id":"83346269","length_km":0.633,"FType":460,"FCode":46003,"atlas_class":"streamriver","display_name":"West Fork Jubb Creek","stream_role":"natural_stream_detail_context","sourceLayer":"colorado_natural_stream_detail_tiles_v1","sourceLabel":"Colorado natural stream detail tiles v1","sensitivity":"generalized"},"geometry":{"type":"LineString","coordinates":[[-107.90735,40.24008],[-107.90714,40.24199],[-107.90506,40.24529]]}},{"type":"Feature","properties":{"huc8":"14050002","huc8Name":"Lower Yampa","historic":"greenRiverBlue","current":"introduced","recovery":"recoveryWatch","lineageKey":"greenRiverBlue","lineageLabel":"Green River / blue-lineage CT","basin":"Lower Yampa","note":"Yampa blue-lineage context","state":"CO","confidence":"HUC8 drainage context / generalized","geometryStatus":"natural_stream_detail_tile_from_full_interpreted_layer","troutSource":"HUC8 lineage assignment v1 / review needed","sourceName":"East Fork Wilson Creek","name":"East Fork Wilson Creek","source_id":"83346367","length_km":0.104,"FType":460,"FCode":46003,"atlas_class":"streamriver","display_name":"East Fork Wilson Creek","stream_role":"natural_stream_detail_context","sourceLayer":"colorado_natural_stream_detail_tiles_v1","sourceLabel":"Colorado natural stream detail tiles v1","sensitivity":"generalized"},"geometry":{"type":"LineString","coordinates":[[-107.88113,40.22107],[-107.8816,40.22187]]}},{"type":"Feature","properties":{"huc8":"14050002","huc8Name":"Lower Yampa","historic":"greenRiverBlue","current":"introduced","recovery":"recoveryWatch","lineageKey":"greenRiverBlue","lineageLabel":"Green River / blue-lineage CT","basin":"Lower Yampa","note":"Yampa blue-lineage context","state":"CO","confidence":"HUC8 drainage context / generalized","geometryStatus":"natural_stream_detail_tile_from_full_interpreted_layer","troutSource":"HUC8 lineage assignment v1 / review needed","sourceName":"East Fork Wilson Creek","name":"East Fork Wilson Creek","source_id":"83346337","length_km":0.275,"FType":460,"FCode":46003,"atlas_class":"streamriver","display_name":"East Fork Wilson Creek","stream_role":"natural_stream_detail_context","sourceLayer":"colorado_natural_stream_detail_tiles_v1","sourceLabel":"Colorado natural stream detail tiles v1","sensitivity":"generalized"},"geometry":{"type":"LineString","coordinates":[[-107.88259,40.22775],[-107.88203,40.22841],[-107.88227,40.23001]]}},{"type":"Feature","properties":{"huc8":"14050002","huc8Name":"Lower Yampa","historic":"greenRiverBlue","current":"introduced","recovery":"recoveryWatch","lineageKey":"greenRiverBlue","lineageLabel":"Green River / blue-lineage CT","basin":"Lower Yampa","note":"Yampa blue-lineage context","state":"CO","confidence":"HUC8 drainage context / generalized","geometryStatus":"natural_stream_detail_tile_from_full_interpreted_layer","troutSource":"HUC8 lineage assignment v1 / review needed","sourceName":"Wilson Creek","name":"Wilson Creek","source_id":"83375363","length_km":0.491,"FType":460,"FCode":46006,"atlas_class":"streamriver","display_name":"Wilson Creek","stream_role":"natural_stream_detail_context","sourceLayer":"colorado_natural_stream_detail_tiles_v1","sourceLabel":"Colorado natural stream detail tiles v1","sensitivity":"generalized"},"geometry":{"type":"LineString","coordinates":[[-107.87581,40.23671],[-107.87467,40.23678],[-107.87221,40.23966]]}},{"type":"Feature","properties":{"huc8":"14050002","huc8Name":"Lower Yampa","historic":"greenRiverBlue","current":"introduced","recovery":"recoveryWatch","lineageKey":"greenRiverBlue","lineageLabel":"Green River / blue-lineage CT","basin":"Lower Yampa","note":"Yampa blue-lineage context","state":"CO","confidence":"HUC8 drainage context / generalized","geometryStatus":"natural_stream_detail_tile_from_full_interpreted_layer","troutSource":"HUC8 lineage assignment v1 / review needed","sourceName":"Wilson Creek","name":"Wilson Creek","source_id":"83362867","length_km":0.904,"FType":460,"FCode":46006,"atlas_class":"streamriver","display_name":"Wilson Creek","stream_role":"natural_stream_detail_context","sourceLayer":"colorado_natural_stream_detail_tiles_v1","sourceLabel":"Colorado natural stream detail tiles v1","sensitivity":"generalized"},"geometry":{"type":"LineString","coordinates":[[-107.86848,40.24276],[-107.86552,40.24446],[-107.86291,40.24707],[-107.86091,40.24797]]}},{"type":"Feature","properties":{"huc8":"14050002","huc8Name":"Lower Yampa","historic":"greenRiverBlue","current":"introduced","recovery":"recoveryWatch","lineageKey":"greenRiverBlue","lineageLabel":"Green River / blue-lineage CT","basin":"Lower Yampa","note":"Yampa blue-lineage context","state":"CO","confidence":"HUC8 drainage context / generalized","geometryStatus":"natural_stream_detail_tile_from_full_interpreted_layer","troutSource":"HUC8 lineage assignment v1 / review needed","sourceName":"Wilson Creek","name":"Wilson Creek","source_id":"83346445","length_km":0.241,"FType":460,"FCode":46006,"atlas_class":"streamriver","display_name":"Wilson Creek","stream_role":"natural_stream_detail_context","sourceLayer":"colorado_natural_stream_detail_tiles_v1","sourceLabel":"Colorado natural stream detail tiles v1","sensitivity":"generalized"},"geometry":{"type":"LineString","coordinates":[[-107.91669,40.20387],[-107.91604,40.20586]]}},{"type":"Feature","properties":{"huc8":"14050002","huc8Name":"Lower Yampa","historic":"greenRiverBlue","current":"introduced","recovery":"recoveryWatch","lineageKey":"greenRiverBlue","lineageLabel":"Green River / blue-lineage CT","basin":"Lower Yampa","note":"Yampa blue-lineage context","state":"CO","confidence":"HUC8 drainage context / generalized","geometryStatus":"natural_stream_detail_tile_from_full_interpreted_layer","troutSource":"HUC8 lineage assignment v1 / review needed","sourceName":"Wilson Creek","name":"Wilson Creek","source_id":"83346321","length_km":0.566,"FType":460,"FCode":46006,"atlas_class":"streamriver","display_name":"Wilson Creek","stream_role":"natural_stream_detail_context","sourceLayer":"colorado_natural_stream_detail_tiles_v1","sourceLabel":"Colorado natural stream detail tiles v1","sensitivity":"generalized"},"geometry":{"type":"LineString","coordinates":[[-107.88227,40.23001],[-107.87967,40.23294],[-107.87804,40.23356]]}},{"type":"Feature","properties":{"huc8":"14050002","huc8Name":"Lower Yampa","historic":"greenRiverBlue","current":"introduced","recovery":"recoveryWatch","lineageKey":"greenRiverBlue","lineageLabel":"Green River / blue-lineage CT","basin":"Lower Yampa","note":"Yampa blue-lineage context","state":"CO","confidence":"HUC8 drainage context / generalized","geometryStatus":"natural_stream_detail_tile_from_full_interpreted_layer","troutSource":"HUC8 lineage assignment v1 / review needed","sourceName":"Wilson Creek","name":"Wilson Creek","source_id":"83346429","length_km":0.416,"FType":460,"FCode":46006,"atlas_class":"streamriver","display_name":"Wilson Creek","stream_role":"natural_stream_detail_context","sourceLayer":"colorado_natural_stream_detail_tiles_v1","sourceLabel":"Colorado natural stream detail tiles v1","sensitivity":"generalized"},"geometry":{"type":"LineString","coordinates":[[-107.9156,40.20709],[-107.91437,40.21055]]}},{"type":"Feature","properties":{"huc8":"14050002","huc8Name":"Lower Yampa","historic":"greenRiverBlue","current":"introduced","recovery":"recoveryWatch","lineageKey":"greenRiverBlue","lineageLabel":"Green River / blue-lineage CT","basin":"Lower Yampa","note":"Yampa blue-lineage context","state":"CO","confidence":"HUC8 drainage context / generalized","geometryStatus":"natural_stream_detail_tile_from_full_interpreted_layer","troutSource":"HUC8 lineage assignment v1 / review needed","sourceName":"Taylor Creek","name":"Taylor Creek","source_id":"83362895","length_km":2.27862731,"FType":460,"FCode":46003,"atlas_class":"streamriver","display_name":"Taylor Creek","stream_role":"natural_stream_detail_context","sourceLayer":"colorado_natural_stream_detail_tiles_v1","sourceLabel":"Colorado natural stream detail tiles v1","sensitivity":"generalized"},"geometry":{"type":"LineString","coordinates":[[-107.8492,40.23169],[-107.8497,40.23425],[-107.84889,40.23822],[-107.84211,40.25078]]}},{"type":"Feature","properties":{"huc8":"14050002","huc8Name":"Lower Yampa","historic":"greenRiverBlue","current":"introduced","recovery":"recoveryWatch","lineageKey":"greenRiverBlue","lineageLabel":"Green River / blue-lineage CT","basin":"Lower Yampa","note":"Yampa blue-lineage context","state":"CO","confidence":"HUC8 drainage context / generalized","geometryStatus":"natural_stream_detail_tile_from_full_interpreted_layer","troutSource":"HUC8 lineage assignment v1 / review needed","sourceName":"Wilson Creek","name":"Wilson Creek","source_id":"83346457","length_km":0.971,"FType":460,"FCode":46003,"atlas_class":"streamriver","display_name":"Wilson Creek","stream_role":"natural_stream_detail_context","sourceLayer":"colorado_natural_stream_detail_tiles_v1","sourceLabel":"Colorado natural stream detail tiles v1","sensitivity":"generalized"},"geometry":{"type":"LineString","coordinates":[[-107.90973,40.19735],[-107.91263,40.20001],[-107.91439,40.20277],[-107.91669,40.20387]]}},{"type":"Feature","properties":{"huc8":"14050002","huc8Name":"Lower Yampa","historic":"greenRiverBlue","current":"introduced","recovery":"recoveryWatch","lineageKey":"greenRiverBlue","lineageLabel":"Green River / blue-lineage CT","basin":"Lower Yampa","note":"Yampa blue-lineage context","state":"CO","confidence":"HUC8 drainage context / generalized","geometryStatus":"natural_stream_detail_tile_from_full_interpreted_layer","troutSource":"HUC8 lineage assignment v1 / review needed","sourceName":"Taylor Creek","name":"Taylor Creek","source_id":"83362927","length_km":1.627,"FType":460,"FCode":46003,"atlas_class":"streamriver","display_name":"Taylor Creek","stream_role":"natural_stream_detail_context","sourceLayer":"colorado_natural_stream_detail_tiles_v1","sourceLabel":"Colorado natural stream detail tiles v1","sensitivity":"generalized"},"geometry":{"type":"LineString","coordinates":[[-107.86027,40.21866],[-107.85913,40.21929],[-107.85539,40.2239],[-107.85402,40.2266],[-107.85123,40.22848],[-107.84984,40.23047]]}},{"type":"Feature","properties":{"huc8":"14050002","huc8Name":"Lower Yampa","historic":"greenRiverBlue","current":"introduced","recovery":"recoveryWatch","lineageKey":"greenRiverBlue","lineageLabel":"Green River / blue-lineage CT","basin":"Lower Yampa","note":"Yampa blue-lineage context","state":"CO","confidence":"HUC8 drainage context / generalized","geometryStatus":"natural_stream_detail_tile_from_full_interpreted_layer","troutSource":"HUC8 lineage assignment v1 / review needed","sourceName":"Wilson Creek","name":"Wilson Creek","source_id":"83346335","length_km":0.08,"FType":460,"FCode":46006,"atlas_class":"streamriver","display_name":"Wilson Creek","stream_role":"natural_stream_detail_context","sourceLayer":"colorado_natural_stream_detail_tiles_v1","sourceLabel":"Colorado natural stream detail tiles v1","sensitivity":"generalized"},"geometry":{"type":"LineString","coordinates":[[-107.88934,40.22837],[-107.88843,40.22838]]}},{"type":"Feature","properties":{"huc8":"14050002","huc8Name":"Lower Yampa","historic":"greenRiverBlue","current":"introduced","recovery":"recoveryWatch","lineageKey":"greenRiverBlue","lineageLabel":"Green River / blue-lineage CT","basin":"Lower Yampa","note":"Yampa blue-lineage context","state":"CO","confidence":"HUC8 drainage context / generalized","geometryStatus":"natural_stream_detail_tile_from_full_interpreted_layer","troutSource":"HUC8 lineage assignment v1 / review needed","sourceName":"Wilson Creek","name":"Wilson Creek","source_id":"83346437","length_km":0.049,"FType":460,"FCode":46006,"atlas_class":"streamriver","display_name":"Wilson Creek","stream_role":"natural_stream_detail_context","sourceLayer":"colorado_natural_stream_detail_tiles_v1","sourceLabel":"Colorado natural stream detail tiles v1","sensitivity":"generalized"},"geometry":{"type":"LineString","coordinates":[[-107.91577,40.20639],[-107.91553,40.20678]]}},{"type":"Feature","properties":{"huc8":"14050002","huc8Name":"Lower Yampa","historic":"greenRiverBlue","current":"introduced","recovery":"recoveryWatch","lineageKey":"greenRiverBlue","lineageLabel":"Green River / blue-lineage CT","basin":"Lower Yampa","note":"Yampa blue-lineage context","state":"CO","confidence":"HUC8 drainage context / generalized","geometryStatus":"natural_stream_detail_tile_from_full_interpreted_layer","troutSource":"HUC8 lineage assignment v1 / review needed","sourceName":"Wilson Creek","name":"Wilson Creek","source_id":"83346419","length_km":0.082,"FType":460,"FCode":46006,"atlas_class":"streamriver","display_name":"Wilson Creek","stream_role":"natural_stream_detail_context","sourceLayer":"colorado_natural_stream_detail_tiles_v1","sourceLabel":"Colorado natural stream detail tiles v1","sensitivity":"generalized"},"geometry":{"type":"LineString","coordinates":[[-107.91415,40.21084],[-107.91372,40.21146]]}},{"type":"Feature","properties":{"huc8":"14050002","huc8Name":"Lower Yampa","historic":"greenRiverBlue","current":"introduced","recovery":"recoveryWatch","lineageKey":"greenRiverBlue","lineageLabel":"Green River / blue-lineage CT","basin":"Lower Yampa","note":"Yampa blue-lineage context","state":"CO","confidence":"HUC8 drainage context / generalized","geometryStatus":"natural_stream_detail_tile_from_full_interpreted_layer","troutSource":"HUC8 lineage assignment v1 / review needed","sourceName":"East Fork Wilson Creek","name":"East Fork Wilson Creek","source_id":"83346461","length_km":1.01122187,"FType":460,"FCode":46003,"atlas_class":"streamriver","display_name":"East Fork Wilson Creek","stream_role":"natural_stream_detail_context","sourceLayer":"colorado_natural_stream_detail_tiles_v1","sourceLabel":"Colorado natural stream detail tiles v1","sensitivity":"generalized"},"geometry":{"type":"LineString","coordinates":[[-107.87853,40.19687],[-107.87633,40.19854],[-107.87469,40.20087],[-107.87489,40.20233],[-107.87655,40.20337],[-107.87686,40.20413]]}},{"type":"Feature","properties":{"huc8":"14050002","huc8Name":"Lower Yampa","historic":"greenRiverBlue","current":"introduced","recovery":"recoveryWatch","lineageKey":"greenRiverBlue","lineageLabel":"Green River / blue-lineage CT","basin":"Lower Yampa","note":"Yampa blue-lineage context","state":"CO","confidence":"HUC8 drainage context / generalized","geometryStatus":"natural_stream_detail_tile_from_full_interpreted_layer","troutSource":"HUC8 lineage assignment v1 / review needed","sourceName":"Taylor Creek","name":"Taylor Creek","source_id":"83362899","length_km":0.12,"FType":460,"FCode":46003,"atlas_class":"streamriver","display_name":"Taylor Creek","stream_role":"natural_stream_detail_context","sourceLayer":"colorado_natural_stream_detail_tiles_v1","sourceLabel":"Colorado natural stream detail tiles v1","sensitivity":"generalized"},"geometry":{"type":"LineString","coordinates":[[-107.84973,40.23071],[-107.8492,40.23169]]}},{"type":"Feature","properties":{"huc8":"14050002","huc8Name":"Lower Yampa","historic":"greenRiverBlue","current":"introduced","recovery":"recoveryWatch","lineageKey":"greenRiverBlue","lineageLabel":"Green River / blue-lineage CT","basin":"Lower Yampa","note":"Yampa blue-lineage context","state":"CO","confidence":"HUC8 drainage context / generalized","geometryStatus":"natural_stream_detail_tile_from_full_interpreted_layer","troutSource":"HUC8 lineage assignment v1 / review needed","sourceName":"West Fork Good Spring Creek","name":"West Fork Good Spring Creek","source_id":"83362999","length_km":0.47216071,"FType":460,"FCode":46003,"atlas_class":"streamriver","display_name":"West Fork Good Spring Creek","stream_role":"natural_stream_detail_context","sourceLayer":"colorado_natural_stream_detail_tiles_v1","sourceLabel":"Colorado natural stream detail tiles v1","sensitivity":"generalized"},"geometry":{"type":"LineString","coordinates":[[-107.84877,40.2007],[-107.84378,40.20232]]}},{"type":"Feature","properties":{"huc8":"14050002","huc8Name":"Lower Yampa","historic":"greenRiverBlue","current":"introduced","recovery":"recoveryWatch","lineageKey":"greenRiverBlue","lineageLabel":"Green River / blue-lineage CT","basin":"Lower Yampa","note":"Yampa blue-lineage context","state":"CO","confidence":"HUC8 drainage context / generalized","geometryStatus":"natural_stream_detail_tile_from_full_interpreted_layer","troutSource":"HUC8 lineage assignment v1 / review needed","sourceName":"West Fork Good Spring Creek","name":"West Fork Good Spring Creek","source_id":"83363003","length_km":0.023,"FType":460,"FCode":46003,"atlas_class":"streamriver","display_name":"West Fork Good Spring Creek","stream_role":"natural_stream_detail_context","sourceLayer":"colorado_natural_stream_detail_tiles_v1","sourceLabel":"Colorado natural stream detail tiles v1","sensitivity":"generalized"},"geometry":{"type":"LineString","coordinates":[[-107.84301,40.20234],[-107.84275,40.20231]]}},{"type":"Feature","properties":{"huc8":"14050002","huc8Name":"Lower Yampa","historic":"greenRiverBlue","current":"introduced","recovery":"recoveryWatch","lineageKey":"greenRiverBlue","lineageLabel":"Green River / blue-lineage CT","basin":"Lower Yampa","note":"Yampa blue-lineage context","state":"CO","confidence":"HUC8 drainage context / generalized","geometryStatus":"natural_stream_detail_tile_from_full_interpreted_layer","troutSource":"HUC8 lineage assignment v1 / review needed","sourceName":"East Fork Wilson Creek","name":"East Fork Wilson Creek","source_id":"83346425","length_km":0.546,"FType":460,"FCode":46003,"atlas_class":"streamriver","display_name":"East Fork Wilson Creek","stream_role":"natural_stream_detail_context","sourceLayer":"colorado_natural_stream_detail_tiles_v1","sourceLabel":"Colorado natural stream detail tiles v1","sensitivity":"generalized"},"geometry":{"type":"LineString","coordinates":[[-107.8793,40.20892],[-107.87995,40.21099],[-107.87967,40.21359]]}},{"type":"Feature","properties":{"huc8":"14050002","huc8Name":"Lower Yampa","historic":"greenRiverBlue","current":"introduced","recovery":"recoveryWatch","lineageKey":"greenRiverBlue","lineageLabel":"Green River / blue-lineage CT","basin":"Lower Yampa","note":"Yampa blue-lineage context","state":"CO","confidence":"HUC8 drainage context / generalized","geometryStatus":"natural_stream_detail_tile_from_full_interpreted_layer","troutSource":"HUC8 lineage assignment v1 / review needed","sourceName":"East Fork Wilson Creek","name":"East Fork Wilson Creek","source_id":"83346447","length_km":0.306,"FType":460,"FCode":46003,"atlas_class":"streamriver","display_name":"East Fork Wilson Creek","stream_role":"natural_stream_detail_context","sourceLayer":"colorado_natural_stream_detail_tiles_v1","sourceLabel":"Colorado natural stream detail tiles v1","sensitivity":"generalized"},"geometry":{"type":"LineString","coordinates":[[-107.87686,40.20413],[-107.87895,40.2063]]}},{"type":"Feature","properties":{"huc8":"14050002","huc8Name":"Lower Yampa","historic":"greenRiverBlue","current":"introduced","recovery":"recoveryWatch","lineageKey":"greenRiverBlue","lineageLabel":"Green River / blue-lineage CT","basin":"Lower Yampa","note":"Yampa blue-lineage context","state":"CO","confidence":"HUC8 drainage context / generalized","geometryStatus":"natural_stream_detail_tile_from_full_interpreted_layer","troutSource":"HUC8 lineage assignment v1 / review needed","sourceName":"Wilson Creek","name":"Wilson Creek","source_id":"83346393","length_km":0.598,"FType":460,"FCode":46006,"atlas_class":"streamriver","display_name":"Wilson Creek","stream_role":"natural_stream_detail_context","sourceLayer":"colorado_natural_stream_detail_tiles_v1","sourceLabel":"Colorado natural stream detail tiles v1","sensitivity":"generalized"},"geometry":{"type":"LineString","coordinates":[[-107.90649,40.21538],[-107.90345,40.21909],[-107.90255,40.21939]]}},{"type":"Feature","properties":{"huc8":"14050002","huc8Name":"Lower Yampa","historic":"greenRiverBlue","current":"introduced","recovery":"recoveryWatch","lineageKey":"greenRiverBlue","lineageLabel":"Green River / blue-lineage CT","basin":"Lower Yampa","note":"Yampa blue-lineage context","state":"CO","confidence":"HUC8 drainage context / generalized","geometryStatus":"natural_stream_detail_tile_from_full_interpreted_layer","troutSource":"HUC8 lineage assignment v1 / review needed","sourceName":"East Fork Wilson Creek","name":"East Fork Wilson Creek","source_id":"83346361","length_km":0.703,"FType":460,"FCode":46003,"atlas_class":"streamriver","display_name":"East Fork Wilson Creek","stream_role":"natural_stream_detail_context","sourceLayer":"colorado_natural_stream_detail_tiles_v1","sourceLabel":"Colorado natural stream detail tiles v1","sensitivity":"generalized"},"geometry":{"type":"LineString","coordinates":[[-107.8816,40.22187],[-107.88259,40.22775]]}},{"type":"Feature","properties":{"huc8":"14050002","huc8Name":"Lower Yampa","historic":"greenRiverBlue","current":"introduced","recovery":"recoveryWatch","lineageKey":"greenRiverBlue","lineageLabel":"Green River / blue-lineage CT","basin":"Lower Yampa","note":"Yampa blue-lineage context","state":"CO","confidence":"HUC8 drainage context / generalized","geometryStatus":"natural_stream_detail_tile_from_full_interpreted_layer","troutSource":"HUC8 lineage assignment v1 / review needed","sourceName":"James Creek","name":"James Creek","source_id":"83363033","length_km":0.784,"FType":460,"FCode":46006,"atlas_class":"streamriver","display_name":"James Creek","stream_role":"natural_stream_detail_context","sourceLayer":"colorado_natural_stream_detail_tiles_v1","sourceLabel":"Colorado natural stream detail tiles v1","sensitivity":"generalized"},"geometry":{"type":"LineString","coordinates":[[-107.80933,40.19588],[-107.80922,40.20143],[-107.80964,40.20276]]}},{"type":"Feature","properties":{"huc8":"14050002","huc8Name":"Lower Yampa","historic":"greenRiverBlue","current":"introduced","recovery":"recoveryWatch","lineageKey":"greenRiverBlue","lineageLabel":"Green River / blue-lineage CT","basin":"Lower Yampa","note":"Yampa blue-lineage context","state":"CO","confidence":"HUC8 drainage context / generalized","geometryStatus":"natural_stream_detail_tile_from_full_interpreted_layer","troutSource":"HUC8 lineage assignment v1 / review needed","sourceName":"Good Spring Creek","name":"Good Spring Creek","source_id":"83362909","length_km":0.062,"FType":460,"FCode":46006,"atlas_class":"streamriver","display_name":"Good Spring Creek","stream_role":"natural_stream_detail_context","sourceLayer":"colorado_natural_stream_detail_tiles_v1","sourceLabel":"Colorado natural stream detail tiles v1","sensitivity":"generalized"},"geometry":{"type":"LineString","coordinates":[[-107.80143,40.22694],[-107.80126,40.22747]]}},{"type":"Feature","properties":{"huc8":"14050002","huc8Name":"Lower Yampa","historic":"greenRiverBlue","current":"introduced","recovery":"recoveryWatch","lineageKey":"greenRiverBlue","lineageLabel":"Green River / blue-lineage CT","basin":"Lower Yampa","note":"Yampa blue-lineage context","state":"CO","confidence":"HUC8 drainage context / generalized","geometryStatus":"natural_stream_detail_tile_from_full_interpreted_layer","troutSource":"HUC8 lineage assignment v1 / review needed","sourceName":"Good Spring Creek","name":"Good Spring Creek","source_id":"83362905","length_km":0.962,"FType":460,"FCode":46006,"atlas_class":"streamriver","display_name":"Good Spring Creek","stream_role":"natural_stream_detail_context","sourceLayer":"colorado_natural_stream_detail_tiles_v1","sourceLabel":"Colorado natural stream detail tiles v1","sensitivity":"generalized"},"geometry":{"type":"LineString","coordinates":[[-107.80126,40.22747],[-107.79757,40.22908],[-107.79459,40.23325]]}},{"type":"Feature","properties":{"huc8":"14050002","huc8Name":"Lower Yampa","historic":"greenRiverBlue","current":"introduced","recovery":"recoveryWatch","lineageKey":"greenRiverBlue","lineageLabel":"Green River / blue-lineage CT","basin":"Lower Yampa","note":"Yampa blue-lineage context","state":"CO","confidence":"HUC8 drainage context / generalized","geometryStatus":"natural_stream_detail_tile_from_full_interpreted_layer","troutSource":"HUC8 lineage assignment v1 / review needed","sourceName":"Good Spring Creek","name":"Good Spring Creek","source_id":"83362915","length_km":0.473,"FType":460,"FCode":46006,"atlas_class":"streamriver","display_name":"Good Spring Creek","stream_role":"natural_stream_detail_context","sourceLayer":"colorado_natural_stream_detail_tiles_v1","sourceLabel":"Colorado natural stream detail tiles v1","sensitivity":"generalized"},"geometry":{"type":"LineString","coordinates":[[-107.80515,40.22465],[-107.80331,40.22533],[-107.80287,40.22637],[-107.80143,40.22694]]}},{"type":"Feature","properties":{"huc8":"14050002","huc8Name":"Lower Yampa","historic":"greenRiverBlue","current":"introduced","recovery":"recoveryWatch","lineageKey":"greenRiverBlue","lineageLabel":"Green River / blue-lineage CT","basin":"Lower Yampa","note":"Yampa blue-lineage context","state":"CO","confidence":"HUC8 drainage context / generalized","geometryStatus":"natural_stream_detail_tile_from_full_interpreted_layer","troutSource":"HUC8 lineage assignment v1 / review needed","sourceName":"West Fork Good Spring Creek","name":"West Fork Good Spring Creek","source_id":"83362993","length_km":0.008,"FType":460,"FCode":46003,"atlas_class":"streamriver","display_name":"West Fork Good Spring Creek","stream_role":"natural_stream_detail_context","sourceLayer":"colorado_natural_stream_detail_tiles_v1","sourceLabel":"Colorado natural stream detail tiles v1","sensitivity":"generalized"},"geometry":{"type":"LineString","coordinates":[[-107.83968,40.20336],[-107.83962,40.20341]]}},{"type":"Feature","properties":{"huc8":"14050002","huc8Name":"Lower Yampa","historic":"greenRiverBlue","current":"introduced","recovery":"recoveryWatch","lineageKey":"greenRiverBlue","lineageLabel":"Green River / blue-lineage CT","basin":"Lower Yampa","note":"Yampa blue-lineage context","state":"CO","confidence":"HUC8 drainage context / generalized","geometryStatus":"natural_stream_detail_tile_from_full_interpreted_layer","troutSource":"HUC8 lineage assignment v1 / review needed","sourceName":"West Fork Good Spring Creek","name":"West Fork Good Spring Creek","source_id":"83362987","length_km":0.016,"FType":460,"FCode":46003,"atlas_class":"streamriver","display_name":"West Fork Good Spring Creek","stream_role":"natural_stream_detail_context","sourceLayer":"colorado_natural_stream_detail_tiles_v1","sourceLabel":"Colorado natural stream detail tiles v1","sensitivity":"generalized"},"geometry":{"type":"LineString","coordinates":[[-107.83824,40.20396],[-107.83808,40.20403]]}},{"type":"Feature","properties":{"huc8":"14050002","huc8Name":"Lower Yampa","historic":"greenRiverBlue","current":"introduced","recovery":"recoveryWatch","lineageKey":"greenRiverBlue","lineageLabel":"Green River / blue-lineage CT","basin":"Lower Yampa","note":"Yampa blue-lineage context","state":"CO","confidence":"HUC8 drainage context / generalized","geometryStatus":"natural_stream_detail_tile_from_full_interpreted_layer","troutSource":"HUC8 lineage assignment v1 / review needed","sourceName":"West Fork Good Spring Creek","name":"West Fork Good Spring Creek","source_id":"83362995","length_km":0.038,"FType":460,"FCode":46003,"atlas_class":"streamriver","display_name":"West Fork Good Spring Creek","stream_role":"natural_stream_detail_context","sourceLayer":"colorado_natural_stream_detail_tiles_v1","sourceLabel":"Colorado natural stream detail tiles v1","sensitivity":"generalized"},"geometry":{"type":"LineString","coordinates":[[-107.84032,40.20307],[-107.83998,40.20328]]}},{"type":"Feature","properties":{"huc8":"14050002","huc8Name":"Lower Yampa","historic":"greenRiverBlue","current":"introduced","recovery":"recoveryWatch","lineageKey":"greenRiverBlue","lineageLabel":"Green River / blue-lineage CT","basin":"Lower Yampa","note":"Yampa blue-lineage context","state":"CO","confidence":"HUC8 drainage context / generalized","geometryStatus":"natural_stream_detail_tile_from_full_interpreted_layer","troutSource":"HUC8 lineage assignment v1 / review needed","sourceName":"West Fork Good Spring Creek","name":"West Fork Good Spring Creek","source_id":"83363005","length_km":0.032,"FType":460,"FCode":46003,"atlas_class":"streamriver","display_name":"West Fork Good Spring Creek","stream_role":"natural_stream_detail_context","sourceLayer":"colorado_natural_stream_detail_tiles_v1","sourceLabel":"Colorado natural stream detail tiles v1","sensitivity":"generalized"},"geometry":{"type":"LineString","coordinates":[[-107.84252,40.20224],[-107.84221,40.2024]]}},{"type":"Feature","properties":{"huc8":"14050002","huc8Name":"Lower Yampa","historic":"greenRiverBlue","current":"introduced","recovery":"recoveryWatch","lineageKey":"greenRiverBlue","lineageLabel":"Green River / blue-lineage CT","basin":"Lower Yampa","note":"Yampa blue-lineage context","state":"CO","confidence":"HUC8 drainage context / generalized","geometryStatus":"natural_stream_detail_tile_from_full_interpreted_layer","troutSource":"HUC8 lineage assignment v1 / review needed","sourceName":"Good Spring Creek","name":"Good Spring Creek","source_id":"83362943","length_km":0.357,"FType":460,"FCode":46006,"atlas_class":"streamriver","display_name":"Good Spring Creek","stream_role":"natural_stream_detail_context","sourceLayer":"colorado_natural_stream_detail_tiles_v1","sourceLabel":"Colorado natural stream detail tiles v1","sensitivity":"generalized"},"geometry":{"type":"LineString","coordinates":[[-107.81437,40.21627],[-107.81251,40.21896]]}},{"type":"Feature","properties":{"huc8":"14050002","huc8Name":"Lower Yampa","historic":"greenRiverBlue","current":"introduced","recovery":"recoveryWatch","lineageKey":"greenRiverBlue","lineageLabel":"Green River / blue-lineage CT","basin":"Lower Yampa","note":"Yampa blue-lineage context","state":"CO","confidence":"HUC8 drainage context / generalized","geometryStatus":"natural_stream_detail_tile_from_full_interpreted_layer","troutSource":"HUC8 lineage assignment v1 / review needed","sourceName":"West Fork Good Spring Creek","name":"West Fork Good Spring Creek","source_id":"83362985","length_km":0.087,"FType":460,"FCode":46003,"atlas_class":"streamriver","display_name":"West Fork Good Spring Creek","stream_role":"natural_stream_detail_context","sourceLayer":"colorado_natural_stream_detail_tiles_v1","sourceLabel":"Colorado natural stream detail tiles v1","sensitivity":"generalized"},"geometry":{"type":"LineString","coordinates":[[-107.83794,40.20422],[-107.83696,40.20446]]}},{"type":"Feature","properties":{"huc8":"14050002","huc8Name":"Lower Yampa","historic":"greenRiverBlue","current":"introduced","recovery":"recoveryWatch","lineageKey":"greenRiverBlue","lineageLabel":"Green River / blue-lineage CT","basin":"Lower Yampa","note":"Yampa blue-lineage context","state":"CO","confidence":"HUC8 drainage context / generalized","geometryStatus":"natural_stream_detail_tile_from_full_interpreted_layer","troutSource":"HUC8 lineage assignment v1 / review needed","sourceName":"James Creek","name":"James Creek","source_id":"83363009","length_km":1.91,"FType":460,"FCode":46006,"atlas_class":"streamriver","display_name":"James Creek","stream_role":"natural_stream_detail_context","sourceLayer":"colorado_natural_stream_detail_tiles_v1","sourceLabel":"Colorado natural stream detail tiles v1","sensitivity":"generalized"},"geometry":{"type":"LineString","coordinates":[[-107.80964,40.20276],[-107.81019,40.20621],[-107.81086,40.20729],[-107.81058,40.21038],[-107.81103,40.21082],[-107.81102,40.21279],[-107.81251,40.21896]]}},{"type":"Feature","properties":{"huc8":"14050002","huc8Name":"Lower Yampa","historic":"greenRiverBlue","current":"introduced","recovery":"recoveryWatch","lineageKey":"greenRiverBlue","lineageLabel":"Green River / blue-lineage CT","basin":"Lower Yampa","note":"Yampa blue-lineage context","state":"CO","confidence":"HUC8 drainage context / generalized","geometryStatus":"natural_stream_detail_tile_from_full_interpreted_layer","troutSource":"HUC8 lineage assignment v1 / review needed","sourceName":"Wilson Creek","name":"Wilson Creek","source_id":"83340555","length_km":0.351,"FType":460,"FCode":46006,"atlas_class":"streamriver","display_name":"Wilson Creek","stream_role":"natural_stream_detail_context","sourceLayer":"colorado_natural_stream_detail_tiles_v1","sourceLabel":"Colorado natural stream detail tiles v1","sensitivity":"generalized"},"geometry":{"type":"LineString","coordinates":[[-107.83296,40.28649],[-107.83111,40.28913]]}},{"type":"Feature","properties":{"huc8":"14050002","huc8Name":"Lower Yampa","historic":"greenRiverBlue","current":"introduced","recovery":"recoveryWatch","lineageKey":"greenRiverBlue","lineageLabel":"Green River / blue-lineage CT","basin":"Lower Yampa","note":"Yampa blue-lineage context","state":"CO","confidence":"HUC8 drainage context / generalized","geometryStatus":"natural_stream_detail_tile_from_full_interpreted_layer","troutSource":"HUC8 lineage assignment v1 / review needed","sourceName":"Good Spring Creek","name":"Good Spring Creek","source_id":"83362967","length_km":1.478,"FType":460,"FCode":46006,"atlas_class":"streamriver","display_name":"Good Spring Creek","stream_role":"natural_stream_detail_context","sourceLayer":"colorado_natural_stream_detail_tiles_v1","sourceLabel":"Colorado natural stream detail tiles v1","sensitivity":"generalized"},"geometry":{"type":"LineString","coordinates":[[-107.82487,40.20673],[-107.82423,40.20822],[-107.82164,40.21074],[-107.81757,40.21337],[-107.81437,40.21627]]}},{"type":"Feature","properties":{"huc8":"14050002","huc8Name":"Lower Yampa","historic":"greenRiverBlue","current":"introduced","recovery":"recoveryWatch","lineageKey":"greenRiverBlue","lineageLabel":"Green River / blue-lineage CT","basin":"Lower Yampa","note":"Yampa blue-lineage context","state":"CO","confidence":"HUC8 drainage context / generalized","geometryStatus":"natural_stream_detail_tile_from_full_interpreted_layer","troutSource":"HUC8 lineage assignment v1 / review needed","sourceName":"West Fork Good Spring Creek","name":"West Fork Good Spring Creek","source_id":"83362981","length_km":0.75,"FType":460,"FCode":46003,"atlas_class":"streamriver","display_name":"West Fork Good Spring Creek","stream_role":"natural_stream_detail_context","sourceLayer":"colorado_natural_stream_detail_tiles_v1","sourceLabel":"Colorado natural stream detail tiles v1","sensitivity":"generalized"},"geometry":{"type":"LineString","coordinates":[[-107.83696,40.20446],[-107.83159,40.20633],[-107.82884,40.20643]]}},{"type":"Feature","properties":{"huc8":"14050002","huc8Name":"Lower Yampa","historic":"greenRiverBlue","current":"introduced","recovery":"recoveryWatch","lineageKey":"greenRiverBlue","lineageLabel":"Green River / blue-lineage CT","basin":"Lower Yampa","note":"Yampa blue-lineage context","state":"CO","confidence":"HUC8 drainage context / generalized","geometryStatus":"natural_stream_detail_tile_from_full_interpreted_layer","troutSource":"HUC8 lineage assignment v1 / review needed","sourceName":"Good Spring Creek","name":"Good Spring Creek","source_id":"83363051","length_km":2.202,"FType":460,"FCode":46006,"atlas_class":"streamriver","display_name":"Good Spring Creek","stream_role":"natural_stream_detail_context","sourceLayer":"colorado_natural_stream_detail_tiles_v1","sourceLabel":"Colorado natural stream detail tiles v1","sensitivity":"generalized"},"geometry":{"type":"LineString","coordinates":[[-107.82899,40.18829],[-107.8266,40.19411],[-107.82592,40.19902],[-107.826,40.20472],[-107.82487,40.20673]]}},{"type":"Feature","properties":{"huc8":"14050002","huc8Name":"Lower Yampa","historic":"greenRiverBlue","current":"introduced","recovery":"recoveryWatch","lineageKey":"greenRiverBlue","lineageLabel":"Green River / blue-lineage CT","basin":"Lower Yampa","note":"Yampa blue-lineage context","state":"CO","confidence":"HUC8 drainage context / generalized","geometryStatus":"natural_stream_detail_tile_from_full_interpreted_layer","troutSource":"HUC8 lineage assignment v1 / review needed","sourceName":"Taylor Creek","name":"Taylor Creek","source_id":"83340591","length_km":1.016,"FType":460,"FCode":46003,"atlas_class":"streamriver","display_name":"Taylor Creek","stream_role":"natural_stream_detail_context","sourceLayer":"colorado_natural_stream_detail_tiles_v1","sourceLabel":"Colorado natural stream detail tiles v1","sensitivity":"generalized"},"geometry":{"type":"LineString","coordinates":[[-107.82019,40.28308],[-107.81759,40.28629],[-107.81713,40.28936],[-107.81569,40.29093]]}},{"type":"Feature","properties":{"huc8":"14050002","huc8Name":"Lower Yampa","historic":"greenRiverBlue","current":"introduced","recovery":"recoveryWatch","lineageKey":"greenRiverBlue","lineageLabel":"Green River / blue-lineage CT","basin":"Lower Yampa","note":"Yampa blue-lineage context","state":"CO","confidence":"HUC8 drainage context / generalized","geometryStatus":"natural_stream_detail_tile_from_full_interpreted_layer","troutSource":"HUC8 lineage assignment v1 / review needed","sourceName":"West Fork Good Spring Creek","name":"West Fork Good Spring Creek","source_id":"83362989","length_km":0.067,"FType":460,"FCode":46003,"atlas_class":"streamriver","display_name":"West Fork Good Spring Creek","stream_role":"natural_stream_detail_context","sourceLayer":"colorado_natural_stream_detail_tiles_v1","sourceLabel":"Colorado natural stream detail tiles v1","sensitivity":"generalized"},"geometry":{"type":"LineString","coordinates":[[-107.83923,40.20368],[-107.83848,40.20387]]}},{"type":"Feature","properties":{"huc8":"14050002","huc8Name":"Lower Yampa","historic":"greenRiverBlue","current":"introduced","recovery":"recoveryWatch","lineageKey":"greenRiverBlue","lineageLabel":"Green River / blue-lineage CT","basin":"Lower Yampa","note":"Yampa blue-lineage context","state":"CO","confidence":"HUC8 drainage context / generalized","geometryStatus":"natural_stream_detail_tile_from_full_interpreted_layer","troutSource":"HUC8 lineage assignment v1 / review needed","sourceName":"Good Spring Creek","name":"Good Spring Creek","source_id":"83362929","length_km":0.234,"FType":460,"FCode":46006,"atlas_class":"streamriver","display_name":"Good Spring Creek","stream_role":"natural_stream_detail_context","sourceLayer":"colorado_natural_stream_detail_tiles_v1","sourceLabel":"Colorado natural stream detail tiles v1","sensitivity":"generalized"},"geometry":{"type":"LineString","coordinates":[[-107.81251,40.21896],[-107.8105,40.22031]]}},{"type":"Feature","properties":{"huc8":"14050002","huc8Name":"Lower Yampa","historic":"greenRiverBlue","current":"introduced","recovery":"recoveryWatch","lineageKey":"greenRiverBlue","lineageLabel":"Green River / blue-lineage CT","basin":"Lower Yampa","note":"Yampa blue-lineage context","state":"CO","confidence":"HUC8 drainage context / generalized","geometryStatus":"natural_stream_detail_tile_from_full_interpreted_layer","troutSource":"HUC8 lineage assignment v1 / review needed","sourceName":"West Fork Good Spring Creek","name":"West Fork Good Spring Creek","source_id":"83363001","length_km":0.012,"FType":460,"FCode":46003,"atlas_class":"streamriver","display_name":"West Fork Good Spring Creek","stream_role":"natural_stream_detail_context","sourceLayer":"colorado_natural_stream_detail_tiles_v1","sourceLabel":"Colorado natural stream detail tiles v1","sensitivity":"generalized"},"geometry":{"type":"LineString","coordinates":[[-107.84332,40.20233],[-107.84318,40.20234]]}},{"type":"Feature","properties":{"huc8":"14050002","huc8Name":"Lower Yampa","historic":"greenRiverBlue","current":"introduced","recovery":"recoveryWatch","lineageKey":"greenRiverBlue","lineageLabel":"Green River / blue-lineage CT","basin":"Lower Yampa","note":"Yampa blue-lineage context","state":"CO","confidence":"HUC8 drainage context / generalized","geometryStatus":"natural_stream_detail_tile_from_full_interpreted_layer","troutSource":"HUC8 lineage assignment v1 / review needed","sourceName":"Good Spring Creek","name":"Good Spring Creek","source_id":"83362923","length_km":0.708,"FType":460,"FCode":46006,"atlas_class":"streamriver","display_name":"Good Spring Creek","stream_role":"natural_stream_detail_context","sourceLayer":"colorado_natural_stream_detail_tiles_v1","sourceLabel":"Colorado natural stream detail tiles v1","sensitivity":"generalized"},"geometry":{"type":"LineString","coordinates":[[-107.8105,40.22031],[-107.8091,40.22252],[-107.80515,40.22465]]}},{"type":"Feature","properties":{"huc8":"14050002","huc8Name":"Lower Yampa","historic":"greenRiverBlue","current":"introduced","recovery":"recoveryWatch","lineageKey":"greenRiverBlue","lineageLabel":"Green River / blue-lineage CT","basin":"Lower Yampa","note":"Yampa blue-lineage context","state":"CO","confidence":"HUC8 drainage context / generalized","geometryStatus":"natural_stream_detail_tile_from_full_interpreted_layer","troutSource":"HUC8 lineage assignment v1 / review needed","sourceName":"West Fork Good Spring Creek","name":"West Fork Good Spring Creek","source_id":"83362997","length_km":0.116,"FType":460,"FCode":46003,"atlas_class":"streamriver","display_name":"West Fork Good Spring Creek","stream_role":"natural_stream_detail_context","sourceLayer":"colorado_natural_stream_detail_tiles_v1","sourceLabel":"Colorado natural stream detail tiles v1","sensitivity":"generalized"},"geometry":{"type":"LineString","coordinates":[[-107.84176,40.20258],[-107.84059,40.20303]]}},{"type":"Feature","properties":{"huc8":"14050002","huc8Name":"Lower Yampa","historic":"greenRiverBlue","current":"introduced","recovery":"recoveryWatch","lineageKey":"greenRiverBlue","lineageLabel":"Green River / blue-lineage CT","basin":"Lower Yampa","note":"Yampa blue-lineage context","state":"CO","confidence":"HUC8 drainage context / generalized","geometryStatus":"natural_stream_detail_tile_from_full_interpreted_layer","troutSource":"HUC8 lineage assignment v1 / review needed","sourceName":"Taylor Creek","name":"Taylor Creek","source_id":"83340687","length_km":1.406,"FType":460,"FCode":46003,"atlas_class":"streamriver","display_name":"Taylor Creek","stream_role":"natural_stream_detail_context","sourceLayer":"colorado_natural_stream_detail_tiles_v1","sourceLabel":"Colorado natural stream detail tiles v1","sensitivity":"generalized"},"geometry":{"type":"LineString","coordinates":[[-107.84188,40.25113],[-107.83859,40.25711],[-107.83405,40.26177]]}},{"type":"Feature","properties":{"huc8":"14050002","huc8Name":"Lower Yampa","historic":"greenRiverBlue","current":"introduced","recovery":"recoveryWatch","lineageKey":"greenRiverBlue","lineageLabel":"Green River / blue-lineage CT","basin":"Lower Yampa","note":"Yampa blue-lineage context","state":"CO","confidence":"HUC8 drainage context / generalized","geometryStatus":"natural_stream_detail_tile_from_full_interpreted_layer","troutSource":"HUC8 lineage assignment v1 / review needed","sourceName":"West Fork Good Spring Creek","name":"West Fork Good Spring Creek","source_id":"83362971","length_km":0.353,"FType":460,"FCode":46003,"atlas_class":"streamriver","display_name":"West Fork Good Spring Creek","stream_role":"natural_stream_detail_context","sourceLayer":"colorado_natural_stream_detail_tiles_v1","sourceLabel":"Colorado natural stream detail tiles v1","sensitivity":"generalized"},"geometry":{"type":"LineString","coordinates":[[-107.82884,40.20643],[-107.82736,40.20616],[-107.82487,40.20673]]}},{"type":"Feature","properties":{"huc8":"14050002","huc8Name":"Lower Yampa","historic":"greenRiverBlue","current":"introduced","recovery":"recoveryWatch","lineageKey":"greenRiverBlue","lineageLabel":"Green River / blue-lineage CT","basin":"Lower Yampa","note":"Yampa blue-lineage context","state":"CO","confidence":"HUC8 drainage context / generalized","geometryStatus":"natural_stream_detail_tile_from_full_interpreted_layer","troutSource":"HUC8 lineage assignment v1 / review needed","sourceName":"West Fork Good Spring Creek","name":"West Fork Good Spring Creek","source_id":"83362991","length_km":0.006,"FType":460,"FCode":46003,"atlas_class":"streamriver","display_name":"West Fork Good Spring Creek","stream_role":"natural_stream_detail_context","sourceLayer":"colorado_natural_stream_detail_tiles_v1","sourceLabel":"Colorado natural stream detail tiles v1","sensitivity":"generalized"},"geometry":{"type":"LineString","coordinates":[[-107.83947,40.20352],[-107.83941,40.20354]]}}]}