{"type":"FeatureCollection","name":"co_natural_stream_detail_0p2_x-542_y203_v1","metadata":{"description":"Colorado natural named stream/rivers close-zoom detail tile. Excludes likely human-altered named linework.","version":"v1","gridSizeDegrees":0.2,"tileX":-542,"tileY":203,"bounds":{"west":-108.4,"south":40.6,"east":-108.2,"north":40.800000000000004},"source":"C:\\ct-atlas-data\\processed\\geojson\\interpreted\\colorado_cutthroat_huc8_stream_context_named_v1.geojson"},"features":[{"type":"Feature","properties":{"huc8":"14050003","huc8Name":"Little Snake","historic":"greenRiverBlue","current":"introduced","recovery":"recoveryWatch","lineageKey":"greenRiverBlue","lineageLabel":"Green River / blue-lineage CT","basin":"Little Snake","note":"Little Snake / Green blue-lineage context","state":"CO","confidence":"HUC8 drainage context / generalized","geometryStatus":"natural_stream_detail_tile_from_full_interpreted_layer","troutSource":"HUC8 lineage assignment v1 / review needed","sourceName":"Sand Wash","name":"Sand Wash","source_id":"83261155","length_km":1.66889976,"FType":460,"FCode":46003,"atlas_class":"streamriver","display_name":"Sand Wash","stream_role":"natural_stream_detail_context","sourceLayer":"colorado_natural_stream_detail_tiles_v1","sourceLabel":"Colorado natural stream detail tiles v1","sensitivity":"generalized"},"geometry":{"type":"LineString","coordinates":[[-108.36764,40.61972],[-108.3657,40.61807],[-108.36418,40.61823],[-108.36335,40.61723],[-108.36117,40.61666],[-108.36266,40.61574],[-108.36223,40.61442],[-108.36339,40.61381],[-108.36241,40.61169],[-108.3645,40.61066]]}},{"type":"Feature","properties":{"huc8":"14050003","huc8Name":"Little Snake","historic":"greenRiverBlue","current":"introduced","recovery":"recoveryWatch","lineageKey":"greenRiverBlue","lineageLabel":"Green River / blue-lineage CT","basin":"Little Snake","note":"Little Snake / Green blue-lineage context","state":"CO","confidence":"HUC8 drainage context / generalized","geometryStatus":"natural_stream_detail_tile_from_full_interpreted_layer","troutSource":"HUC8 lineage assignment v1 / review needed","sourceName":"Sand Wash","name":"Sand Wash","source_id":"83247373","length_km":1.74296773,"FType":460,"FCode":46003,"atlas_class":"streamriver","display_name":"Sand Wash","stream_role":"natural_stream_detail_context","sourceLayer":"colorado_natural_stream_detail_tiles_v1","sourceLabel":"Colorado natural stream detail tiles v1","sensitivity":"generalized"},"geometry":{"type":"LineString","coordinates":[[-108.36839,40.67089],[-108.36642,40.67023],[-108.3666,40.66915],[-108.36769,40.66829],[-108.36963,40.66831],[-108.37034,40.66988],[-108.37147,40.66931],[-108.37108,40.66829],[-108.37162,40.66506],[-108.37254,40.6641],[-108.37141,40.66277]]}},{"type":"Feature","properties":{"huc8":"14050003","huc8Name":"Little Snake","historic":"greenRiverBlue","current":"introduced","recovery":"recoveryWatch","lineageKey":"greenRiverBlue","lineageLabel":"Green River / blue-lineage CT","basin":"Little Snake","note":"Little Snake / Green blue-lineage context","state":"CO","confidence":"HUC8 drainage context / generalized","geometryStatus":"natural_stream_detail_tile_from_full_interpreted_layer","troutSource":"HUC8 lineage assignment v1 / review needed","sourceName":"Sand Wash","name":"Sand Wash","source_id":"83247289","length_km":1.07959295,"FType":460,"FCode":46003,"atlas_class":"streamriver","display_name":"Sand Wash","stream_role":"natural_stream_detail_context","sourceLayer":"colorado_natural_stream_detail_tiles_v1","sourceLabel":"Colorado natural stream detail tiles v1","sensitivity":"generalized"},"geometry":{"type":"LineString","coordinates":[[-108.37047,40.70111],[-108.37047,40.69971],[-108.37221,40.69976],[-108.37296,40.69891],[-108.37221,40.69771],[-108.37154,40.69876],[-108.3699,40.69817],[-108.37107,40.69712]]}},{"type":"Feature","properties":{"huc8":"14050003","huc8Name":"Little Snake","historic":"greenRiverBlue","current":"introduced","recovery":"recoveryWatch","lineageKey":"greenRiverBlue","lineageLabel":"Green River / blue-lineage CT","basin":"Little Snake","note":"Little Snake / Green blue-lineage context","state":"CO","confidence":"HUC8 drainage context / generalized","geometryStatus":"natural_stream_detail_tile_from_full_interpreted_layer","troutSource":"HUC8 lineage assignment v1 / review needed","sourceName":"Sand Wash","name":"Sand Wash","source_id":"83247387","length_km":0.89565874,"FType":460,"FCode":46003,"atlas_class":"streamriver","display_name":"Sand Wash","stream_role":"natural_stream_detail_context","sourceLayer":"colorado_natural_stream_detail_tiles_v1","sourceLabel":"Colorado natural stream detail tiles v1","sensitivity":"generalized"},"geometry":{"type":"LineString","coordinates":[[-108.37141,40.66277],[-108.37237,40.66008],[-108.37159,40.65945],[-108.36995,40.65933],[-108.36914,40.66056],[-108.3672,40.66025]]}},{"type":"Feature","properties":{"huc8":"14050003","huc8Name":"Little Snake","historic":"greenRiverBlue","current":"introduced","recovery":"recoveryWatch","lineageKey":"greenRiverBlue","lineageLabel":"Green River / blue-lineage CT","basin":"Little Snake","note":"Little Snake / Green blue-lineage context","state":"CO","confidence":"HUC8 drainage context / generalized","geometryStatus":"natural_stream_detail_tile_from_full_interpreted_layer","troutSource":"HUC8 lineage assignment v1 / review needed","sourceName":"Sand Wash","name":"Sand Wash","source_id":"83219261","length_km":1.06284132,"FType":460,"FCode":46003,"atlas_class":"streamriver","display_name":"Sand Wash","stream_role":"natural_stream_detail_context","sourceLayer":"colorado_natural_stream_detail_tiles_v1","sourceLabel":"Colorado natural stream detail tiles v1","sensitivity":"generalized"},"geometry":{"type":"LineString","coordinates":[[-108.4011,40.72882],[-108.39791,40.72792],[-108.3973,40.72696],[-108.39494,40.72686],[-108.3949,40.72608],[-108.39379,40.72669],[-108.39386,40.72776],[-108.39304,40.72787]]}},{"type":"Feature","properties":{"huc8":"14050003","huc8Name":"Little Snake","historic":"greenRiverBlue","current":"introduced","recovery":"recoveryWatch","lineageKey":"greenRiverBlue","lineageLabel":"Green River / blue-lineage CT","basin":"Little Snake","note":"Little Snake / Green blue-lineage context","state":"CO","confidence":"HUC8 drainage context / generalized","geometryStatus":"natural_stream_detail_tile_from_full_interpreted_layer","troutSource":"HUC8 lineage assignment v1 / review needed","sourceName":"Sand Wash","name":"Sand Wash","source_id":"83219277","length_km":1.00548525,"FType":460,"FCode":46003,"atlas_class":"streamriver","display_name":"Sand Wash","stream_role":"natural_stream_detail_context","sourceLayer":"colorado_natural_stream_detail_tiles_v1","sourceLabel":"Colorado natural stream detail tiles v1","sensitivity":"generalized"},"geometry":{"type":"LineString","coordinates":[[-108.39304,40.72787],[-108.39222,40.72735],[-108.39179,40.72593],[-108.38887,40.72627],[-108.38944,40.72478],[-108.38796,40.72323],[-108.38724,40.72352]]}},{"type":"Feature","properties":{"huc8":"14050003","huc8Name":"Little Snake","historic":"greenRiverBlue","current":"introduced","recovery":"recoveryWatch","lineageKey":"greenRiverBlue","lineageLabel":"Green River / blue-lineage CT","basin":"Little Snake","note":"Little Snake / Green blue-lineage context","state":"CO","confidence":"HUC8 drainage context / generalized","geometryStatus":"natural_stream_detail_tile_from_full_interpreted_layer","troutSource":"HUC8 lineage assignment v1 / review needed","sourceName":"Sand Wash","name":"Sand Wash","source_id":"83219245","length_km":0.79251277,"FType":460,"FCode":46003,"atlas_class":"streamriver","display_name":"Sand Wash","stream_role":"natural_stream_detail_context","sourceLayer":"colorado_natural_stream_detail_tiles_v1","sourceLabel":"Colorado natural stream detail tiles v1","sensitivity":"generalized"},"geometry":{"type":"LineString","coordinates":[[-108.40104,40.73426],[-108.40204,40.73364],[-108.39987,40.73221],[-108.40113,40.73211],[-108.40197,40.73124],[-108.40148,40.72978]]}},{"type":"Feature","properties":{"huc8":"14050003","huc8Name":"Little Snake","historic":"greenRiverBlue","current":"introduced","recovery":"recoveryWatch","lineageKey":"greenRiverBlue","lineageLabel":"Green River / blue-lineage CT","basin":"Little Snake","note":"Little Snake / Green blue-lineage context","state":"CO","confidence":"HUC8 drainage context / generalized","geometryStatus":"natural_stream_detail_tile_from_full_interpreted_layer","troutSource":"HUC8 lineage assignment v1 / review needed","sourceName":"Sand Wash","name":"Sand Wash","source_id":"83247285","length_km":0.4633294,"FType":460,"FCode":46003,"atlas_class":"streamriver","display_name":"Sand Wash","stream_role":"natural_stream_detail_context","sourceLayer":"colorado_natural_stream_detail_tiles_v1","sourceLabel":"Colorado natural stream detail tiles v1","sensitivity":"generalized"},"geometry":{"type":"LineString","coordinates":[[-108.36914,40.70459],[-108.37104,40.70256],[-108.37047,40.70111]]}},{"type":"Feature","properties":{"huc8":"14050003","huc8Name":"Little Snake","historic":"greenRiverBlue","current":"introduced","recovery":"recoveryWatch","lineageKey":"greenRiverBlue","lineageLabel":"Green River / blue-lineage CT","basin":"Little Snake","note":"Little Snake / Green blue-lineage context","state":"CO","confidence":"HUC8 drainage context / generalized","geometryStatus":"natural_stream_detail_tile_from_full_interpreted_layer","troutSource":"HUC8 lineage assignment v1 / review needed","sourceName":"Yellow Cat Wash","name":"Yellow Cat Wash","source_id":"83233181","length_km":0.90269473,"FType":460,"FCode":46003,"atlas_class":"streamriver","display_name":"Yellow Cat Wash","stream_role":"natural_stream_detail_context","sourceLayer":"colorado_natural_stream_detail_tiles_v1","sourceLabel":"Colorado natural stream detail tiles v1","sensitivity":"generalized"},"geometry":{"type":"LineString","coordinates":[[-108.33814,40.78677],[-108.33775,40.78565],[-108.33849,40.78527],[-108.33831,40.78446],[-108.33876,40.78451],[-108.34033,40.78054]]}},{"type":"Feature","properties":{"huc8":"14050003","huc8Name":"Little Snake","historic":"greenRiverBlue","current":"introduced","recovery":"recoveryWatch","lineageKey":"greenRiverBlue","lineageLabel":"Green River / blue-lineage CT","basin":"Little Snake","note":"Little Snake / Green blue-lineage context","state":"CO","confidence":"HUC8 drainage context / generalized","geometryStatus":"natural_stream_detail_tile_from_full_interpreted_layer","troutSource":"HUC8 lineage assignment v1 / review needed","sourceName":"Yellow Cat Wash","name":"Yellow Cat Wash","source_id":"83233339","length_km":0.68952903,"FType":460,"FCode":46003,"atlas_class":"streamriver","display_name":"Yellow Cat Wash","stream_role":"natural_stream_detail_context","sourceLayer":"colorado_natural_stream_detail_tiles_v1","sourceLabel":"Colorado natural stream detail tiles v1","sensitivity":"generalized"},"geometry":{"type":"LineString","coordinates":[[-108.34732,40.75493],[-108.35008,40.75339],[-108.35111,40.75185],[-108.35283,40.75177]]}},{"type":"Feature","properties":{"huc8":"14050003","huc8Name":"Little Snake","historic":"greenRiverBlue","current":"introduced","recovery":"recoveryWatch","lineageKey":"greenRiverBlue","lineageLabel":"Green River / blue-lineage CT","basin":"Little Snake","note":"Little Snake / Green blue-lineage context","state":"CO","confidence":"HUC8 drainage context / generalized","geometryStatus":"natural_stream_detail_tile_from_full_interpreted_layer","troutSource":"HUC8 lineage assignment v1 / review needed","sourceName":"Sand Wash","name":"Sand Wash","source_id":"83247273","length_km":0.24195205,"FType":460,"FCode":46003,"atlas_class":"streamriver","display_name":"Sand Wash","stream_role":"natural_stream_detail_context","sourceLayer":"colorado_natural_stream_detail_tiles_v1","sourceLabel":"Colorado natural stream detail tiles v1","sensitivity":"generalized"},"geometry":{"type":"LineString","coordinates":[[-108.3707,40.70638],[-108.36914,40.70459]]}},{"type":"Feature","properties":{"huc8":"14050003","huc8Name":"Little Snake","historic":"greenRiverBlue","current":"introduced","recovery":"recoveryWatch","lineageKey":"greenRiverBlue","lineageLabel":"Green River / blue-lineage CT","basin":"Little Snake","note":"Little Snake / Green blue-lineage context","state":"CO","confidence":"HUC8 drainage context / generalized","geometryStatus":"natural_stream_detail_tile_from_full_interpreted_layer","troutSource":"HUC8 lineage assignment v1 / review needed","sourceName":"Yellow Cat Wash","name":"Yellow Cat Wash","source_id":"83233267","length_km":0.51274952,"FType":460,"FCode":46003,"atlas_class":"streamriver","display_name":"Yellow Cat Wash","stream_role":"natural_stream_detail_context","sourceLayer":"colorado_natural_stream_detail_tiles_v1","sourceLabel":"Colorado natural stream detail tiles v1","sensitivity":"generalized"},"geometry":{"type":"LineString","coordinates":[[-108.33864,40.76544],[-108.33954,40.76432],[-108.33895,40.76346],[-108.33952,40.76267],[-108.33871,40.76267],[-108.33882,40.76225]]}},{"type":"Feature","properties":{"huc8":"14050003","huc8Name":"Little Snake","historic":"greenRiverBlue","current":"introduced","recovery":"recoveryWatch","lineageKey":"greenRiverBlue","lineageLabel":"Green River / blue-lineage CT","basin":"Little Snake","note":"Little Snake / Green blue-lineage context","state":"CO","confidence":"HUC8 drainage context / generalized","geometryStatus":"natural_stream_detail_tile_from_full_interpreted_layer","troutSource":"HUC8 lineage assignment v1 / review needed","sourceName":"Yellow Cat Wash","name":"Yellow Cat Wash","source_id":"83247199","length_km":0.38657105,"FType":460,"FCode":46003,"atlas_class":"streamriver","display_name":"Yellow Cat Wash","stream_role":"natural_stream_detail_context","sourceLayer":"colorado_natural_stream_detail_tiles_v1","sourceLabel":"Colorado natural stream detail tiles v1","sensitivity":"generalized"},"geometry":{"type":"LineString","coordinates":[[-108.36593,40.73417],[-108.36817,40.73347],[-108.36809,40.73301],[-108.36928,40.73308]]}},{"type":"Feature","properties":{"huc8":"14050003","huc8Name":"Little Snake","historic":"greenRiverBlue","current":"introduced","recovery":"recoveryWatch","lineageKey":"greenRiverBlue","lineageLabel":"Green River / blue-lineage CT","basin":"Little Snake","note":"Little Snake / Green blue-lineage context","state":"CO","confidence":"HUC8 drainage context / generalized","geometryStatus":"natural_stream_detail_tile_from_full_interpreted_layer","troutSource":"HUC8 lineage assignment v1 / review needed","sourceName":"Yellow Cat Wash","name":"Yellow Cat Wash","source_id":"83233141","length_km":0.74388409,"FType":460,"FCode":46003,"atlas_class":"streamriver","display_name":"Yellow Cat Wash","stream_role":"natural_stream_detail_context","sourceLayer":"colorado_natural_stream_detail_tiles_v1","sourceLabel":"Colorado natural stream detail tiles v1","sensitivity":"generalized"},"geometry":{"type":"LineString","coordinates":[[-108.33583,40.7917],[-108.33536,40.78974],[-108.33678,40.78928],[-108.3363,40.7885],[-108.33814,40.78677]]}},{"type":"Feature","properties":{"huc8":"14050003","huc8Name":"Little Snake","historic":"greenRiverBlue","current":"introduced","recovery":"recoveryWatch","lineageKey":"greenRiverBlue","lineageLabel":"Green River / blue-lineage CT","basin":"Little Snake","note":"Little Snake / Green blue-lineage context","state":"CO","confidence":"HUC8 drainage context / generalized","geometryStatus":"natural_stream_detail_tile_from_full_interpreted_layer","troutSource":"HUC8 lineage assignment v1 / review needed","sourceName":"Yellow Cat Wash","name":"Yellow Cat Wash","source_id":"83233239","length_km":2.07545493,"FType":460,"FCode":46003,"atlas_class":"streamriver","display_name":"Yellow Cat Wash","stream_role":"natural_stream_detail_context","sourceLayer":"colorado_natural_stream_detail_tiles_v1","sourceLabel":"Colorado natural stream detail tiles v1","sensitivity":"generalized"},"geometry":{"type":"LineString","coordinates":[[-108.34033,40.78054],[-108.34068,40.77859],[-108.34012,40.77733],[-108.34058,40.77694],[-108.34033,40.77565],[-108.33944,40.7759],[-108.3392,40.77535],[-108.34125,40.77314],[-108.34042,40.77248],[-108.34062,40.77176],[-108.3396,40.77164],[-108.33998,40.76974],[-108.3393,40.76921],[-108.33916,40.76762],[-108.33846,40.76744],[-108.33858,40.76677]]}},{"type":"Feature","properties":{"huc8":"14050003","huc8Name":"Little Snake","historic":"greenRiverBlue","current":"introduced","recovery":"recoveryWatch","lineageKey":"greenRiverBlue","lineageLabel":"Green River / blue-lineage CT","basin":"Little Snake","note":"Little Snake / Green blue-lineage context","state":"CO","confidence":"HUC8 drainage context / generalized","geometryStatus":"natural_stream_detail_tile_from_full_interpreted_layer","troutSource":"HUC8 lineage assignment v1 / review needed","sourceName":"Yellow Cat Wash","name":"Yellow Cat Wash","source_id":"83233351","length_km":2.07527444,"FType":460,"FCode":46003,"atlas_class":"streamriver","display_name":"Yellow Cat Wash","stream_role":"natural_stream_detail_context","sourceLayer":"colorado_natural_stream_detail_tiles_v1","sourceLabel":"Colorado natural stream detail tiles v1","sensitivity":"generalized"},"geometry":{"type":"LineString","coordinates":[[-108.35283,40.75177],[-108.35449,40.74997],[-108.35649,40.74902],[-108.35681,40.74716],[-108.35744,40.7469],[-108.35714,40.74571],[-108.36038,40.74315],[-108.3617,40.7415],[-108.36116,40.74093],[-108.3623,40.74101],[-108.36213,40.74031],[-108.3634,40.73999],[-108.36298,40.73965],[-108.36362,40.73923]]}},{"type":"Feature","properties":{"huc8":"14050003","huc8Name":"Little Snake","historic":"greenRiverBlue","current":"introduced","recovery":"recoveryWatch","lineageKey":"greenRiverBlue","lineageLabel":"Green River / blue-lineage CT","basin":"Little Snake","note":"Little Snake / Green blue-lineage context","state":"CO","confidence":"HUC8 drainage context / generalized","geometryStatus":"natural_stream_detail_tile_from_full_interpreted_layer","troutSource":"HUC8 lineage assignment v1 / review needed","sourceName":"Yellow Cat Wash","name":"Yellow Cat Wash","source_id":"83233117","length_km":0.29689971,"FType":460,"FCode":46003,"atlas_class":"streamriver","display_name":"Yellow Cat Wash","stream_role":"natural_stream_detail_context","sourceLayer":"colorado_natural_stream_detail_tiles_v1","sourceLabel":"Colorado natural stream detail tiles v1","sensitivity":"generalized"},"geometry":{"type":"LineString","coordinates":[[-108.33589,40.79417],[-108.33627,40.79347],[-108.33583,40.7917]]}},{"type":"Feature","properties":{"huc8":"14050003","huc8Name":"Little Snake","historic":"greenRiverBlue","current":"introduced","recovery":"recoveryWatch","lineageKey":"greenRiverBlue","lineageLabel":"Green River / blue-lineage CT","basin":"Little Snake","note":"Little Snake / Green blue-lineage context","state":"CO","confidence":"HUC8 drainage context / generalized","geometryStatus":"natural_stream_detail_tile_from_full_interpreted_layer","troutSource":"HUC8 lineage assignment v1 / review needed","sourceName":"Yellow Cat Wash","name":"Yellow Cat Wash","source_id":"83233111","length_km":1.29090423,"FType":460,"FCode":46003,"atlas_class":"streamriver","display_name":"Yellow Cat Wash","stream_role":"natural_stream_detail_context","sourceLayer":"colorado_natural_stream_detail_tiles_v1","sourceLabel":"Colorado natural stream detail tiles v1","sensitivity":"generalized"},"geometry":{"type":"LineString","coordinates":[[-108.33591,40.80253],[-108.3363,40.80191],[-108.33556,40.80044],[-108.33617,40.8004],[-108.33636,40.79824],[-108.33706,40.79842],[-108.33594,40.79591],[-108.33589,40.79417]]}},{"type":"Feature","properties":{"huc8":"14050003","huc8Name":"Little Snake","historic":"greenRiverBlue","current":"introduced","recovery":"recoveryWatch","lineageKey":"greenRiverBlue","lineageLabel":"Green River / blue-lineage CT","basin":"Little Snake","note":"Little Snake / Green blue-lineage context","state":"CO","confidence":"HUC8 drainage context / generalized","geometryStatus":"natural_stream_detail_tile_from_full_interpreted_layer","troutSource":"HUC8 lineage assignment v1 / review needed","sourceName":"Yellow Cat Wash","name":"Yellow Cat Wash","source_id":"83233249","length_km":0.23509249,"FType":460,"FCode":46003,"atlas_class":"streamriver","display_name":"Yellow Cat Wash","stream_role":"natural_stream_detail_context","sourceLayer":"colorado_natural_stream_detail_tiles_v1","sourceLabel":"Colorado natural stream detail tiles v1","sensitivity":"generalized"},"geometry":{"type":"LineString","coordinates":[[-108.33858,40.76677],[-108.33915,40.76683],[-108.33927,40.76608],[-108.33864,40.76544]]}},{"type":"Feature","properties":{"huc8":"14050003","huc8Name":"Little Snake","historic":"greenRiverBlue","current":"introduced","recovery":"recoveryWatch","lineageKey":"greenRiverBlue","lineageLabel":"Green River / blue-lineage CT","basin":"Little Snake","note":"Little Snake / Green blue-lineage context","state":"CO","confidence":"HUC8 drainage context / generalized","geometryStatus":"natural_stream_detail_tile_from_full_interpreted_layer","troutSource":"HUC8 lineage assignment v1 / review needed","sourceName":"Yellow Cat Wash","name":"Yellow Cat Wash","source_id":"83247193","length_km":0.76185407,"FType":460,"FCode":46003,"atlas_class":"streamriver","display_name":"Yellow Cat Wash","stream_role":"natural_stream_detail_context","sourceLayer":"colorado_natural_stream_detail_tiles_v1","sourceLabel":"Colorado natural stream detail tiles v1","sensitivity":"generalized"},"geometry":{"type":"LineString","coordinates":[[-108.36362,40.73923],[-108.36565,40.73685],[-108.36475,40.73595],[-108.36618,40.73507],[-108.36593,40.73417]]}},{"type":"Feature","properties":{"huc8":"14050003","huc8Name":"Little Snake","historic":"greenRiverBlue","current":"introduced","recovery":"recoveryWatch","lineageKey":"greenRiverBlue","lineageLabel":"Green River / blue-lineage CT","basin":"Little Snake","note":"Little Snake / Green blue-lineage context","state":"CO","confidence":"HUC8 drainage context / generalized","geometryStatus":"natural_stream_detail_tile_from_full_interpreted_layer","troutSource":"HUC8 lineage assignment v1 / review needed","sourceName":"Yellow Cat Wash","name":"Yellow Cat Wash","source_id":"83233317","length_km":1.53412121,"FType":460,"FCode":46003,"atlas_class":"streamriver","display_name":"Yellow Cat Wash","stream_role":"natural_stream_detail_context","sourceLayer":"colorado_natural_stream_detail_tiles_v1","sourceLabel":"Colorado natural stream detail tiles v1","sensitivity":"generalized"},"geometry":{"type":"LineString","coordinates":[[-108.33882,40.76225],[-108.33928,40.76209],[-108.33921,40.76135],[-108.34197,40.76024],[-108.34223,40.75942],[-108.34371,40.75856],[-108.34317,40.75818],[-108.34484,40.75745],[-108.34447,40.75705],[-108.34628,40.75637],[-108.34598,40.75598],[-108.34786,40.75553],[-108.34732,40.75493]]}},{"type":"Feature","properties":{"huc8":"14050003","huc8Name":"Little Snake","historic":"greenRiverBlue","current":"introduced","recovery":"recoveryWatch","lineageKey":"greenRiverBlue","lineageLabel":"Green River / blue-lineage CT","basin":"Little Snake","note":"Little Snake / Green blue-lineage context","state":"CO","confidence":"HUC8 drainage context / generalized","geometryStatus":"natural_stream_detail_tile_from_full_interpreted_layer","troutSource":"HUC8 lineage assignment v1 / review needed","sourceName":"South Sand Wash","name":"South Sand Wash","source_id":"83219415","length_km":0.17718887,"FType":460,"FCode":46003,"atlas_class":"streamriver","display_name":"South Sand Wash","stream_role":"natural_stream_detail_context","sourceLayer":"colorado_natural_stream_detail_tiles_v1","sourceLabel":"Colorado natural stream detail tiles v1","sensitivity":"generalized"},"geometry":{"type":"LineString","coordinates":[[-108.39874,40.69383],[-108.39698,40.69329]]}},{"type":"Feature","properties":{"huc8":"14050003","huc8Name":"Little Snake","historic":"greenRiverBlue","current":"introduced","recovery":"recoveryWatch","lineageKey":"greenRiverBlue","lineageLabel":"Green River / blue-lineage CT","basin":"Little Snake","note":"Little Snake / Green blue-lineage context","state":"CO","confidence":"HUC8 drainage context / generalized","geometryStatus":"natural_stream_detail_tile_from_full_interpreted_layer","troutSource":"HUC8 lineage assignment v1 / review needed","sourceName":"South Sand Wash","name":"South Sand Wash","source_id":"83219425","length_km":1.14100067,"FType":460,"FCode":46003,"atlas_class":"streamriver","display_name":"South Sand Wash","stream_role":"natural_stream_detail_context","sourceLayer":"colorado_natural_stream_detail_tiles_v1","sourceLabel":"Colorado natural stream detail tiles v1","sensitivity":"generalized"},"geometry":{"type":"LineString","coordinates":[[-108.39698,40.69329],[-108.39316,40.69335],[-108.39288,40.69229],[-108.39211,40.69251],[-108.39124,40.69168],[-108.38983,40.69218],[-108.38927,40.69325],[-108.38782,40.69293],[-108.38801,40.69341]]}},{"type":"Feature","properties":{"huc8":"14050003","huc8Name":"Little Snake","historic":"greenRiverBlue","current":"introduced","recovery":"recoveryWatch","lineageKey":"greenRiverBlue","lineageLabel":"Green River / blue-lineage CT","basin":"Little Snake","note":"Little Snake / Green blue-lineage context","state":"CO","confidence":"HUC8 drainage context / generalized","geometryStatus":"natural_stream_detail_tile_from_full_interpreted_layer","troutSource":"HUC8 lineage assignment v1 / review needed","sourceName":"Sand Wash","name":"Sand Wash","source_id":"83238715","length_km":4.01693492,"FType":460,"FCode":46003,"atlas_class":"streamriver","display_name":"Sand Wash","stream_role":"natural_stream_detail_context","sourceLayer":"colorado_natural_stream_detail_tiles_v1","sourceLabel":"Colorado natural stream detail tiles v1","sensitivity":"generalized"},"geometry":{"type":"LineString","coordinates":[[-108.3645,40.61066],[-108.363,40.60881],[-108.35871,40.60875],[-108.3596,40.60698],[-108.35645,40.60617],[-108.3543,40.60437],[-108.35475,40.6037],[-108.35673,40.60324],[-108.35768,40.60085],[-108.36102,40.59812],[-108.35774,40.59786],[-108.35794,40.59729],[-108.35946,40.59775],[-108.35982,40.59667],[-108.35943,40.59595],[-108.35787,40.5967],[-108.35711,40.59606],[-108.3577,40.59474],[-108.3562,40.59354],[-108.35771,40.59173]]}},{"type":"Feature","properties":{"huc8":"14050003","huc8Name":"Little Snake","historic":"greenRiverBlue","current":"introduced","recovery":"recoveryWatch","lineageKey":"greenRiverBlue","lineageLabel":"Green River / blue-lineage CT","basin":"Little Snake","note":"Little Snake / Green blue-lineage context","state":"CO","confidence":"HUC8 drainage context / generalized","geometryStatus":"natural_stream_detail_tile_from_full_interpreted_layer","troutSource":"HUC8 lineage assignment v1 / review needed","sourceName":"Sand Wash","name":"Sand Wash","source_id":"83238781","length_km":2.00815253,"FType":460,"FCode":46003,"atlas_class":"streamriver","display_name":"Sand Wash","stream_role":"natural_stream_detail_context","sourceLayer":"colorado_natural_stream_detail_tiles_v1","sourceLabel":"Colorado natural stream detail tiles v1","sensitivity":"generalized"},"geometry":{"type":"LineString","coordinates":[[-108.37664,40.62376],[-108.37596,40.62383],[-108.37637,40.62451],[-108.37272,40.62583],[-108.37243,40.62518],[-108.37355,40.62511],[-108.37488,40.62367],[-108.37313,40.62215],[-108.37281,40.62291],[-108.36985,40.62345],[-108.36962,40.62163],[-108.36764,40.61972]]}},{"type":"Feature","properties":{"huc8":"14050003","huc8Name":"Little Snake","historic":"greenRiverBlue","current":"introduced","recovery":"recoveryWatch","lineageKey":"greenRiverBlue","lineageLabel":"Green River / blue-lineage CT","basin":"Little Snake","note":"Little Snake / Green blue-lineage context","state":"CO","confidence":"HUC8 drainage context / generalized","geometryStatus":"natural_stream_detail_tile_from_full_interpreted_layer","troutSource":"HUC8 lineage assignment v1 / review needed","sourceName":"Sand Wash","name":"Sand Wash","source_id":"83219703","length_km":0.57895021,"FType":460,"FCode":46003,"atlas_class":"streamriver","display_name":"Sand Wash","stream_role":"natural_stream_detail_context","sourceLayer":"colorado_natural_stream_detail_tiles_v1","sourceLabel":"Colorado natural stream detail tiles v1","sensitivity":"generalized"},"geometry":{"type":"LineString","coordinates":[[-108.37915,40.63178],[-108.37796,40.63088],[-108.3785,40.6294],[-108.38019,40.62758]]}},{"type":"Feature","properties":{"huc8":"14050003","huc8Name":"Little Snake","historic":"greenRiverBlue","current":"introduced","recovery":"recoveryWatch","lineageKey":"greenRiverBlue","lineageLabel":"Green River / blue-lineage CT","basin":"Little Snake","note":"Little Snake / Green blue-lineage context","state":"CO","confidence":"HUC8 drainage context / generalized","geometryStatus":"natural_stream_detail_tile_from_full_interpreted_layer","troutSource":"HUC8 lineage assignment v1 / review needed","sourceName":"Yellow Cat Wash","name":"Yellow Cat Wash","source_id":"83247201","length_km":0.2093147,"FType":460,"FCode":46003,"atlas_class":"streamriver","display_name":"Yellow Cat Wash","stream_role":"natural_stream_detail_context","sourceLayer":"colorado_natural_stream_detail_tiles_v1","sourceLabel":"Colorado natural stream detail tiles v1","sensitivity":"generalized"},"geometry":{"type":"LineString","coordinates":[[-108.36928,40.73308],[-108.3693,40.73211],[-108.37024,40.73161]]}},{"type":"Feature","properties":{"huc8":"14050003","huc8Name":"Little Snake","historic":"greenRiverBlue","current":"introduced","recovery":"recoveryWatch","lineageKey":"greenRiverBlue","lineageLabel":"Green River / blue-lineage CT","basin":"Little Snake","note":"Little Snake / Green blue-lineage context","state":"CO","confidence":"HUC8 drainage context / generalized","geometryStatus":"natural_stream_detail_tile_from_full_interpreted_layer","troutSource":"HUC8 lineage assignment v1 / review needed","sourceName":"Sand Wash","name":"Sand Wash","source_id":"83219337","length_km":2.82342832,"FType":460,"FCode":46003,"atlas_class":"streamriver","display_name":"Sand Wash","stream_role":"natural_stream_detail_context","sourceLayer":"colorado_natural_stream_detail_tiles_v1","sourceLabel":"Colorado natural stream detail tiles v1","sensitivity":"generalized"},"geometry":{"type":"LineString","coordinates":[[-108.38306,40.71631],[-108.38196,40.71503],[-108.38189,40.71219],[-108.38049,40.71247],[-108.37993,40.71154],[-108.3805,40.70899],[-108.37934,40.70864],[-108.37913,40.70999],[-108.37792,40.7098],[-108.37776,40.71039],[-108.37659,40.70811],[-108.37723,40.70674],[-108.37649,40.70627],[-108.3754,40.70611],[-108.37427,40.7074],[-108.37326,40.70624],[-108.37135,40.70721],[-108.3707,40.70638]]}},{"type":"Feature","properties":{"huc8":"14050003","huc8Name":"Little Snake","historic":"greenRiverBlue","current":"introduced","recovery":"recoveryWatch","lineageKey":"greenRiverBlue","lineageLabel":"Green River / blue-lineage CT","basin":"Little Snake","note":"Little Snake / Green blue-lineage context","state":"CO","confidence":"HUC8 drainage context / generalized","geometryStatus":"natural_stream_detail_tile_from_full_interpreted_layer","troutSource":"HUC8 lineage assignment v1 / review needed","sourceName":"Sand Wash","name":"Sand Wash","source_id":"83219461","length_km":1.22132965,"FType":460,"FCode":46003,"atlas_class":"streamriver","display_name":"Sand Wash","stream_role":"natural_stream_detail_context","sourceLayer":"colorado_natural_stream_detail_tiles_v1","sourceLabel":"Colorado natural stream detail tiles v1","sensitivity":"generalized"},"geometry":{"type":"LineString","coordinates":[[-108.3739,40.68514],[-108.37559,40.68496],[-108.37703,40.68229],[-108.37507,40.68316],[-108.37388,40.68193],[-108.3721,40.68259],[-108.37039,40.68178]]}},{"type":"Feature","properties":{"huc8":"14050003","huc8Name":"Little Snake","historic":"greenRiverBlue","current":"introduced","recovery":"recoveryWatch","lineageKey":"greenRiverBlue","lineageLabel":"Green River / blue-lineage CT","basin":"Little Snake","note":"Little Snake / Green blue-lineage context","state":"CO","confidence":"HUC8 drainage context / generalized","geometryStatus":"natural_stream_detail_tile_from_full_interpreted_layer","troutSource":"HUC8 lineage assignment v1 / review needed","sourceName":"Sand Wash","name":"Sand Wash","source_id":"83247413","length_km":2.30567353,"FType":460,"FCode":46003,"atlas_class":"streamriver","display_name":"Sand Wash","stream_role":"natural_stream_detail_context","sourceLayer":"colorado_natural_stream_detail_tiles_v1","sourceLabel":"Colorado natural stream detail tiles v1","sensitivity":"generalized"},"geometry":{"type":"LineString","coordinates":[[-108.36947,40.65191],[-108.37245,40.65235],[-108.37246,40.65157],[-108.37052,40.64931],[-108.37133,40.64832],[-108.3753,40.647],[-108.37517,40.64605],[-108.37375,40.64527],[-108.37424,40.64453],[-108.37306,40.64342],[-108.37335,40.64272],[-108.37857,40.64305]]}},{"type":"Feature","properties":{"huc8":"14050003","huc8Name":"Little Snake","historic":"greenRiverBlue","current":"introduced","recovery":"recoveryWatch","lineageKey":"greenRiverBlue","lineageLabel":"Green River / blue-lineage CT","basin":"Little Snake","note":"Little Snake / Green blue-lineage context","state":"CO","confidence":"HUC8 drainage context / generalized","geometryStatus":"natural_stream_detail_tile_from_full_interpreted_layer","troutSource":"HUC8 lineage assignment v1 / review needed","sourceName":"Sand Wash","name":"Sand Wash","source_id":"83219319","length_km":0.07231367,"FType":460,"FCode":46003,"atlas_class":"streamriver","display_name":"Sand Wash","stream_role":"natural_stream_detail_context","sourceLayer":"colorado_natural_stream_detail_tiles_v1","sourceLabel":"Colorado natural stream detail tiles v1","sensitivity":"generalized"},"geometry":{"type":"LineString","coordinates":[[-108.38353,40.71681],[-108.38306,40.71631]]}},{"type":"Feature","properties":{"huc8":"14050003","huc8Name":"Little Snake","historic":"greenRiverBlue","current":"introduced","recovery":"recoveryWatch","lineageKey":"greenRiverBlue","lineageLabel":"Green River / blue-lineage CT","basin":"Little Snake","note":"Little Snake / Green blue-lineage context","state":"CO","confidence":"HUC8 drainage context / generalized","geometryStatus":"natural_stream_detail_tile_from_full_interpreted_layer","troutSource":"HUC8 lineage assignment v1 / review needed","sourceName":"Yellow Cat Wash","name":"Yellow Cat Wash","source_id":"83247221","length_km":1.33947019,"FType":460,"FCode":46003,"atlas_class":"streamriver","display_name":"Yellow Cat Wash","stream_role":"natural_stream_detail_context","sourceLayer":"colorado_natural_stream_detail_tiles_v1","sourceLabel":"Colorado natural stream detail tiles v1","sensitivity":"generalized"},"geometry":{"type":"LineString","coordinates":[[-108.37024,40.73161],[-108.37127,40.73132],[-108.37399,40.72642],[-108.37544,40.72592],[-108.37523,40.72481],[-108.37436,40.72412],[-108.37439,40.72274]]}},{"type":"Feature","properties":{"huc8":"14050003","huc8Name":"Little Snake","historic":"greenRiverBlue","current":"introduced","recovery":"recoveryWatch","lineageKey":"greenRiverBlue","lineageLabel":"Green River / blue-lineage CT","basin":"Little Snake","note":"Little Snake / Green blue-lineage context","state":"CO","confidence":"HUC8 drainage context / generalized","geometryStatus":"natural_stream_detail_tile_from_full_interpreted_layer","troutSource":"HUC8 lineage assignment v1 / review needed","sourceName":"Sand Wash","name":"Sand Wash","source_id":"83219289","length_km":0.43910527,"FType":460,"FCode":46003,"atlas_class":"streamriver","display_name":"Sand Wash","stream_role":"natural_stream_detail_context","sourceLayer":"colorado_natural_stream_detail_tiles_v1","sourceLabel":"Colorado natural stream detail tiles v1","sensitivity":"generalized"},"geometry":{"type":"LineString","coordinates":[[-108.38724,40.72352],[-108.38636,40.72101],[-108.38502,40.72084]]}},{"type":"Feature","properties":{"huc8":"14050003","huc8Name":"Little Snake","historic":"greenRiverBlue","current":"introduced","recovery":"recoveryWatch","lineageKey":"greenRiverBlue","lineageLabel":"Green River / blue-lineage CT","basin":"Little Snake","note":"Little Snake / Green blue-lineage context","state":"CO","confidence":"HUC8 drainage context / generalized","geometryStatus":"natural_stream_detail_tile_from_full_interpreted_layer","troutSource":"HUC8 lineage assignment v1 / review needed","sourceName":"Sand Wash","name":"Sand Wash","source_id":"83219653","length_km":0.63454948,"FType":460,"FCode":46003,"atlas_class":"streamriver","display_name":"Sand Wash","stream_role":"natural_stream_detail_context","sourceLayer":"colorado_natural_stream_detail_tiles_v1","sourceLabel":"Colorado natural stream detail tiles v1","sensitivity":"generalized"},"geometry":{"type":"LineString","coordinates":[[-108.37857,40.64305],[-108.37825,40.64213],[-108.37613,40.64153],[-108.37569,40.64083],[-108.37633,40.63989],[-108.37553,40.63919]]}},{"type":"Feature","properties":{"huc8":"14050003","huc8Name":"Little Snake","historic":"greenRiverBlue","current":"introduced","recovery":"recoveryWatch","lineageKey":"greenRiverBlue","lineageLabel":"Green River / blue-lineage CT","basin":"Little Snake","note":"Little Snake / Green blue-lineage context","state":"CO","confidence":"HUC8 drainage context / generalized","geometryStatus":"natural_stream_detail_tile_from_full_interpreted_layer","troutSource":"HUC8 lineage assignment v1 / review needed","sourceName":"Sand Wash","name":"Sand Wash","source_id":"83233739","length_km":0.93331868,"FType":460,"FCode":46003,"atlas_class":"streamriver","display_name":"Sand Wash","stream_role":"natural_stream_detail_context","sourceLayer":"colorado_natural_stream_detail_tiles_v1","sourceLabel":"Colorado natural stream detail tiles v1","sensitivity":"generalized"},"geometry":{"type":"LineString","coordinates":[[-108.38019,40.62758],[-108.37927,40.62708],[-108.37816,40.62794],[-108.37669,40.62737],[-108.37854,40.62533],[-108.37718,40.62476],[-108.37664,40.62376]]}},{"type":"Feature","properties":{"huc8":"14050003","huc8Name":"Little Snake","historic":"greenRiverBlue","current":"introduced","recovery":"recoveryWatch","lineageKey":"greenRiverBlue","lineageLabel":"Green River / blue-lineage CT","basin":"Little Snake","note":"Little Snake / Green blue-lineage context","state":"CO","confidence":"HUC8 drainage context / generalized","geometryStatus":"natural_stream_detail_tile_from_full_interpreted_layer","troutSource":"HUC8 lineage assignment v1 / review needed","sourceName":"South Sand Wash","name":"South Sand Wash","source_id":"83247309","length_km":0.38983112,"FType":460,"FCode":46003,"atlas_class":"streamriver","display_name":"South Sand Wash","stream_role":"natural_stream_detail_context","sourceLayer":"colorado_natural_stream_detail_tiles_v1","sourceLabel":"Colorado natural stream detail tiles v1","sensitivity":"generalized"},"geometry":{"type":"LineString","coordinates":[[-108.37698,40.68648],[-108.37545,40.68686],[-108.3739,40.68514]]}},{"type":"Feature","properties":{"huc8":"14050003","huc8Name":"Little Snake","historic":"greenRiverBlue","current":"introduced","recovery":"recoveryWatch","lineageKey":"greenRiverBlue","lineageLabel":"Green River / blue-lineage CT","basin":"Little Snake","note":"Little Snake / Green blue-lineage context","state":"CO","confidence":"HUC8 drainage context / generalized","geometryStatus":"natural_stream_detail_tile_from_full_interpreted_layer","troutSource":"HUC8 lineage assignment v1 / review needed","sourceName":"Sand Wash","name":"Sand Wash","source_id":"83219293","length_km":0.16203045,"FType":460,"FCode":46003,"atlas_class":"streamriver","display_name":"Sand Wash","stream_role":"natural_stream_detail_context","sourceLayer":"colorado_natural_stream_detail_tiles_v1","sourceLabel":"Colorado natural stream detail tiles v1","sensitivity":"generalized"},"geometry":{"type":"LineString","coordinates":[[-108.38502,40.72084],[-108.3844,40.71957]]}},{"type":"Feature","properties":{"huc8":"14050003","huc8Name":"Little Snake","historic":"greenRiverBlue","current":"introduced","recovery":"recoveryWatch","lineageKey":"greenRiverBlue","lineageLabel":"Green River / blue-lineage CT","basin":"Little Snake","note":"Little Snake / Green blue-lineage context","state":"CO","confidence":"HUC8 drainage context / generalized","geometryStatus":"natural_stream_detail_tile_from_full_interpreted_layer","troutSource":"HUC8 lineage assignment v1 / review needed","sourceName":"Sand Wash","name":"Sand Wash","source_id":"83247399","length_km":0.13099815,"FType":460,"FCode":46003,"atlas_class":"streamriver","display_name":"Sand Wash","stream_role":"natural_stream_detail_context","sourceLayer":"colorado_natural_stream_detail_tiles_v1","sourceLabel":"Colorado natural stream detail tiles v1","sensitivity":"generalized"},"geometry":{"type":"LineString","coordinates":[[-108.36903,40.65299],[-108.36947,40.65191]]}},{"type":"Feature","properties":{"huc8":"14050003","huc8Name":"Little Snake","historic":"greenRiverBlue","current":"introduced","recovery":"recoveryWatch","lineageKey":"greenRiverBlue","lineageLabel":"Green River / blue-lineage CT","basin":"Little Snake","note":"Little Snake / Green blue-lineage context","state":"CO","confidence":"HUC8 drainage context / generalized","geometryStatus":"natural_stream_detail_tile_from_full_interpreted_layer","troutSource":"HUC8 lineage assignment v1 / review needed","sourceName":"South Sand Wash","name":"South Sand Wash","source_id":"83219449","length_km":1.26925076,"FType":460,"FCode":46003,"atlas_class":"streamriver","display_name":"South Sand Wash","stream_role":"natural_stream_detail_context","sourceLayer":"colorado_natural_stream_detail_tiles_v1","sourceLabel":"Colorado natural stream detail tiles v1","sensitivity":"generalized"},"geometry":{"type":"LineString","coordinates":[[-108.38341,40.69304],[-108.38081,40.69094],[-108.38089,40.69041],[-108.3821,40.69046],[-108.38207,40.68977],[-108.3805,40.68833],[-108.37995,40.68687],[-108.37698,40.68648]]}},{"type":"Feature","properties":{"huc8":"14050003","huc8Name":"Little Snake","historic":"greenRiverBlue","current":"introduced","recovery":"recoveryWatch","lineageKey":"greenRiverBlue","lineageLabel":"Green River / blue-lineage CT","basin":"Little Snake","note":"Little Snake / Green blue-lineage context","state":"CO","confidence":"HUC8 drainage context / generalized","geometryStatus":"natural_stream_detail_tile_from_full_interpreted_layer","troutSource":"HUC8 lineage assignment v1 / review needed","sourceName":"Sand Wash","name":"Sand Wash","source_id":"83219311","length_km":0.40578955,"FType":460,"FCode":46003,"atlas_class":"streamriver","display_name":"Sand Wash","stream_role":"natural_stream_detail_context","sourceLayer":"colorado_natural_stream_detail_tiles_v1","sourceLabel":"Colorado natural stream detail tiles v1","sensitivity":"generalized"},"geometry":{"type":"LineString","coordinates":[[-108.3844,40.71957],[-108.38353,40.71918],[-108.3841,40.71855],[-108.38353,40.71681]]}},{"type":"Feature","properties":{"huc8":"14050003","huc8Name":"Little Snake","historic":"greenRiverBlue","current":"introduced","recovery":"recoveryWatch","lineageKey":"greenRiverBlue","lineageLabel":"Green River / blue-lineage CT","basin":"Little Snake","note":"Little Snake / Green blue-lineage context","state":"CO","confidence":"HUC8 drainage context / generalized","geometryStatus":"natural_stream_detail_tile_from_full_interpreted_layer","troutSource":"HUC8 lineage assignment v1 / review needed","sourceName":"South Sand Wash","name":"South Sand Wash","source_id":"83219413","length_km":0.18887184,"FType":460,"FCode":46003,"atlas_class":"streamriver","display_name":"South Sand Wash","stream_role":"natural_stream_detail_context","sourceLayer":"colorado_natural_stream_detail_tiles_v1","sourceLabel":"Colorado natural stream detail tiles v1","sensitivity":"generalized"},"geometry":{"type":"LineString","coordinates":[[-108.38508,40.69307],[-108.38416,40.69347],[-108.38341,40.69304]]}},{"type":"Feature","properties":{"huc8":"14050003","huc8Name":"Little Snake","historic":"greenRiverBlue","current":"introduced","recovery":"recoveryWatch","lineageKey":"greenRiverBlue","lineageLabel":"Green River / blue-lineage CT","basin":"Little Snake","note":"Little Snake / Green blue-lineage context","state":"CO","confidence":"HUC8 drainage context / generalized","geometryStatus":"natural_stream_detail_tile_from_full_interpreted_layer","troutSource":"HUC8 lineage assignment v1 / review needed","sourceName":"Sand Wash","name":"Sand Wash","source_id":"83219673","length_km":0.93859664,"FType":460,"FCode":46003,"atlas_class":"streamriver","display_name":"Sand Wash","stream_role":"natural_stream_detail_context","sourceLayer":"colorado_natural_stream_detail_tiles_v1","sourceLabel":"Colorado natural stream detail tiles v1","sensitivity":"generalized"},"geometry":{"type":"LineString","coordinates":[[-108.37818,40.63736],[-108.37914,40.63754],[-108.37984,40.63638],[-108.38085,40.63641],[-108.38069,40.6356],[-108.37837,40.6346],[-108.37915,40.6324]]}},{"type":"Feature","properties":{"huc8":"14050003","huc8Name":"Little Snake","historic":"greenRiverBlue","current":"introduced","recovery":"recoveryWatch","lineageKey":"greenRiverBlue","lineageLabel":"Green River / blue-lineage CT","basin":"Little Snake","note":"Little Snake / Green blue-lineage context","state":"CO","confidence":"HUC8 drainage context / generalized","geometryStatus":"natural_stream_detail_tile_from_full_interpreted_layer","troutSource":"HUC8 lineage assignment v1 / review needed","sourceName":"South Sand Wash","name":"South Sand Wash","source_id":"83219431","length_km":0.66569292,"FType":460,"FCode":46003,"atlas_class":"streamriver","display_name":"South Sand Wash","stream_role":"natural_stream_detail_context","sourceLayer":"colorado_natural_stream_detail_tiles_v1","sourceLabel":"Colorado natural stream detail tiles v1","sensitivity":"generalized"},"geometry":{"type":"LineString","coordinates":[[-108.40407,40.69068],[-108.40314,40.69154],[-108.40242,40.69132],[-108.40062,40.69208],[-108.40005,40.69314],[-108.39874,40.69383]]}},{"type":"Feature","properties":{"huc8":"14050003","huc8Name":"Little Snake","historic":"greenRiverBlue","current":"introduced","recovery":"recoveryWatch","lineageKey":"greenRiverBlue","lineageLabel":"Green River / blue-lineage CT","basin":"Little Snake","note":"Little Snake / Green blue-lineage context","state":"CO","confidence":"HUC8 drainage context / generalized","geometryStatus":"natural_stream_detail_tile_from_full_interpreted_layer","troutSource":"HUC8 lineage assignment v1 / review needed","sourceName":"South Sand Wash","name":"South Sand Wash","source_id":"83219411","length_km":0.37099629,"FType":460,"FCode":46003,"atlas_class":"streamriver","display_name":"South Sand Wash","stream_role":"natural_stream_detail_context","sourceLayer":"colorado_natural_stream_detail_tiles_v1","sourceLabel":"Colorado natural stream detail tiles v1","sensitivity":"generalized"},"geometry":{"type":"LineString","coordinates":[[-108.38801,40.69341],[-108.38657,40.6931],[-108.38624,40.69376],[-108.38508,40.69307]]}},{"type":"Feature","properties":{"huc8":"14050003","huc8Name":"Little Snake","historic":"greenRiverBlue","current":"introduced","recovery":"recoveryWatch","lineageKey":"greenRiverBlue","lineageLabel":"Green River / blue-lineage CT","basin":"Little Snake","note":"Little Snake / Green blue-lineage context","state":"CO","confidence":"HUC8 drainage context / generalized","geometryStatus":"natural_stream_detail_tile_from_full_interpreted_layer","troutSource":"HUC8 lineage assignment v1 / review needed","sourceName":"Sand Wash","name":"Sand Wash","source_id":"83247351","length_km":2.57292414,"FType":460,"FCode":46003,"atlas_class":"streamriver","display_name":"Sand Wash","stream_role":"natural_stream_detail_context","sourceLayer":"colorado_natural_stream_detail_tiles_v1","sourceLabel":"Colorado natural stream detail tiles v1","sensitivity":"generalized"},"geometry":{"type":"LineString","coordinates":[[-108.37039,40.68178],[-108.36918,40.67979],[-108.37142,40.67783],[-108.37206,40.67796],[-108.37207,40.67879],[-108.37369,40.67781],[-108.3736,40.67672],[-108.37311,40.67647],[-108.37151,40.6771],[-108.37125,40.6758],[-108.37355,40.67316],[-108.37063,40.67225],[-108.37179,40.67098],[-108.37163,40.6705],[-108.36839,40.67089]]}},{"type":"Feature","properties":{"huc8":"14050003","huc8Name":"Little Snake","historic":"greenRiverBlue","current":"introduced","recovery":"recoveryWatch","lineageKey":"greenRiverBlue","lineageLabel":"Green River / blue-lineage CT","basin":"Little Snake","note":"Little Snake / Green blue-lineage context","state":"CO","confidence":"HUC8 drainage context / generalized","geometryStatus":"natural_stream_detail_tile_from_full_interpreted_layer","troutSource":"HUC8 lineage assignment v1 / review needed","sourceName":"Sand Wash","name":"Sand Wash","source_id":"83219663","length_km":0.8924376,"FType":460,"FCode":46003,"atlas_class":"streamriver","display_name":"Sand Wash","stream_role":"natural_stream_detail_context","sourceLayer":"colorado_natural_stream_detail_tiles_v1","sourceLabel":"Colorado natural stream detail tiles v1","sensitivity":"generalized"},"geometry":{"type":"LineString","coordinates":[[-108.37553,40.63919],[-108.37425,40.63783],[-108.3743,40.63634],[-108.37528,40.63633],[-108.376,40.63737],[-108.3771,40.63744],[-108.37745,40.63664],[-108.37818,40.63736]]}},{"type":"Feature","properties":{"huc8":"14050003","huc8Name":"Little Snake","historic":"greenRiverBlue","current":"introduced","recovery":"recoveryWatch","lineageKey":"greenRiverBlue","lineageLabel":"Green River / blue-lineage CT","basin":"Little Snake","note":"Little Snake / Green blue-lineage context","state":"CO","confidence":"HUC8 drainage context / generalized","geometryStatus":"natural_stream_detail_tile_from_full_interpreted_layer","troutSource":"HUC8 lineage assignment v1 / review needed","sourceName":"Sand Wash","name":"Sand Wash","source_id":"83247307","length_km":2.17039408,"FType":460,"FCode":46003,"atlas_class":"streamriver","display_name":"Sand Wash","stream_role":"natural_stream_detail_context","sourceLayer":"colorado_natural_stream_detail_tiles_v1","sourceLabel":"Colorado natural stream detail tiles v1","sensitivity":"generalized"},"geometry":{"type":"LineString","coordinates":[[-108.37107,40.69712],[-108.37267,40.69546],[-108.37124,40.69433],[-108.36973,40.69405],[-108.3704,40.69202],[-108.36891,40.69108],[-108.37034,40.69083],[-108.37055,40.69007],[-108.37241,40.69035],[-108.37454,40.68972],[-108.37451,40.68872],[-108.37282,40.68591],[-108.37303,40.68528],[-108.3739,40.68514]]}},{"type":"Feature","properties":{"huc8":"14050003","huc8Name":"Little Snake","historic":"greenRiverBlue","current":"introduced","recovery":"recoveryWatch","lineageKey":"greenRiverBlue","lineageLabel":"Green River / blue-lineage CT","basin":"Little Snake","note":"Little Snake / Green blue-lineage context","state":"CO","confidence":"HUC8 drainage context / generalized","geometryStatus":"natural_stream_detail_tile_from_full_interpreted_layer","troutSource":"HUC8 lineage assignment v1 / review needed","sourceName":"Yellow Cat Wash","name":"Yellow Cat Wash","source_id":"83219315","length_km":1.74904263,"FType":460,"FCode":46003,"atlas_class":"streamriver","display_name":"Yellow Cat Wash","stream_role":"natural_stream_detail_context","sourceLayer":"colorado_natural_stream_detail_tiles_v1","sourceLabel":"Colorado natural stream detail tiles v1","sensitivity":"generalized"},"geometry":{"type":"LineString","coordinates":[[-108.37439,40.72274],[-108.3767,40.72288],[-108.37706,40.72127],[-108.37659,40.72093],[-108.37743,40.71922],[-108.37826,40.71974],[-108.37899,40.7192],[-108.37794,40.71903],[-108.37825,40.71837],[-108.3796,40.71852],[-108.37932,40.71794],[-108.38125,40.7168],[-108.38353,40.71681]]}},{"type":"Feature","properties":{"huc8":"14050003","huc8Name":"Little Snake","historic":"greenRiverBlue","current":"introduced","recovery":"recoveryWatch","lineageKey":"greenRiverBlue","lineageLabel":"Green River / blue-lineage CT","basin":"Little Snake","note":"Little Snake / Green blue-lineage context","state":"CO","confidence":"HUC8 drainage context / generalized","geometryStatus":"natural_stream_detail_tile_from_full_interpreted_layer","troutSource":"HUC8 lineage assignment v1 / review needed","sourceName":"Sand Wash","name":"Sand Wash","source_id":"83219681","length_km":0.06962409,"FType":460,"FCode":46003,"atlas_class":"streamriver","display_name":"Sand Wash","stream_role":"natural_stream_detail_context","sourceLayer":"colorado_natural_stream_detail_tiles_v1","sourceLabel":"Colorado natural stream detail tiles v1","sensitivity":"generalized"},"geometry":{"type":"LineString","coordinates":[[-108.37915,40.6324],[-108.37915,40.63178]]}},{"type":"Feature","properties":{"huc8":"14050003","huc8Name":"Little Snake","historic":"greenRiverBlue","current":"introduced","recovery":"recoveryWatch","lineageKey":"greenRiverBlue","lineageLabel":"Green River / blue-lineage CT","basin":"Little Snake","note":"Little Snake / Green blue-lineage context","state":"CO","confidence":"HUC8 drainage context / generalized","geometryStatus":"natural_stream_detail_tile_from_full_interpreted_layer","troutSource":"HUC8 lineage assignment v1 / review needed","sourceName":"Sand Wash","name":"Sand Wash","source_id":"83247391","length_km":1.03056051,"FType":460,"FCode":46003,"atlas_class":"streamriver","display_name":"Sand Wash","stream_role":"natural_stream_detail_context","sourceLayer":"colorado_natural_stream_detail_tiles_v1","sourceLabel":"Colorado natural stream detail tiles v1","sensitivity":"generalized"},"geometry":{"type":"LineString","coordinates":[[-108.3672,40.66025],[-108.36837,40.65812],[-108.37016,40.65683],[-108.3687,40.65633],[-108.36972,40.65469],[-108.36903,40.65299]]}}]}