{"type":"FeatureCollection","name":"co_natural_stream_detail_0p2_x-518_y189_v1","metadata":{"description":"Colorado natural named stream/rivers close-zoom detail tile. Excludes likely human-altered named linework.","version":"v1","gridSizeDegrees":0.2,"tileX":-518,"tileY":189,"bounds":{"west":-103.60000000000001,"south":37.800000000000004,"east":-103.4,"north":38},"source":"C:\\ct-atlas-data\\processed\\geojson\\interpreted\\colorado_cutthroat_huc8_stream_context_named_v1.geojson"},"features":[{"type":"Feature","properties":{"huc8":"11020010","huc8Name":"Purgatoire","historic":"yellowfin","current":"introduced","recovery":"recoveryWatch","lineageKey":"yellowfin","lineageLabel":"Yellowfin / Arkansas headwaters historical form","basin":"Purgatoire","note":"Arkansas basin historical Yellowfin context; review needed","state":"CO","confidence":"HUC8 drainage context / generalized","geometryStatus":"natural_stream_detail_tile_from_full_interpreted_layer","troutSource":"HUC8 lineage assignment v1 / review needed","sourceName":"Salt Arroyo","name":"Salt Arroyo","source_id":"158848396","length_km":0.0383488,"FType":460,"FCode":46003,"atlas_class":"streamriver","display_name":"Salt Arroyo","stream_role":"natural_stream_detail_context","sourceLayer":"colorado_natural_stream_detail_tiles_v1","sourceLabel":"Colorado natural stream detail tiles v1","sensitivity":"generalized"},"geometry":{"type":"LineString","coordinates":[[-103.4962,37.83812],[-103.49581,37.83797]]}},{"type":"Feature","properties":{"huc8":"11020010","huc8Name":"Purgatoire","historic":"yellowfin","current":"introduced","recovery":"recoveryWatch","lineageKey":"yellowfin","lineageLabel":"Yellowfin / Arkansas headwaters historical form","basin":"Purgatoire","note":"Arkansas basin historical Yellowfin context; review needed","state":"CO","confidence":"HUC8 drainage context / generalized","geometryStatus":"natural_stream_detail_tile_from_full_interpreted_layer","troutSource":"HUC8 lineage assignment v1 / review needed","sourceName":"Salt Arroyo","name":"Salt Arroyo","source_id":"131273878","length_km":0.5360497,"FType":460,"FCode":46003,"atlas_class":"streamriver","display_name":"Salt Arroyo","stream_role":"natural_stream_detail_context","sourceLayer":"colorado_natural_stream_detail_tiles_v1","sourceLabel":"Colorado natural stream detail tiles v1","sensitivity":"generalized"},"geometry":{"type":"LineString","coordinates":[[-103.48184,37.83631],[-103.47728,37.83604],[-103.47656,37.83513]]}},{"type":"Feature","properties":{"huc8":"11020010","huc8Name":"Purgatoire","historic":"yellowfin","current":"introduced","recovery":"recoveryWatch","lineageKey":"yellowfin","lineageLabel":"Yellowfin / Arkansas headwaters historical form","basin":"Purgatoire","note":"Arkansas basin historical Yellowfin context; review needed","state":"CO","confidence":"HUC8 drainage context / generalized","geometryStatus":"natural_stream_detail_tile_from_full_interpreted_layer","troutSource":"HUC8 lineage assignment v1 / review needed","sourceName":"McMahon Arroyo","name":"McMahon Arroyo","source_id":"131271711","length_km":0.51784275,"FType":460,"FCode":46003,"atlas_class":"streamriver","display_name":"McMahon Arroyo","stream_role":"natural_stream_detail_context","sourceLayer":"colorado_natural_stream_detail_tiles_v1","sourceLabel":"Colorado natural stream detail tiles v1","sensitivity":"generalized"},"geometry":{"type":"LineString","coordinates":[[-103.52324,37.81267],[-103.51776,37.81109]]}},{"type":"Feature","properties":{"huc8":"11020010","huc8Name":"Purgatoire","historic":"yellowfin","current":"introduced","recovery":"recoveryWatch","lineageKey":"yellowfin","lineageLabel":"Yellowfin / Arkansas headwaters historical form","basin":"Purgatoire","note":"Arkansas basin historical Yellowfin context; review needed","state":"CO","confidence":"HUC8 drainage context / generalized","geometryStatus":"natural_stream_detail_tile_from_full_interpreted_layer","troutSource":"HUC8 lineage assignment v1 / review needed","sourceName":"Salt Arroyo","name":"Salt Arroyo","source_id":"131272188","length_km":0.15156547,"FType":460,"FCode":46003,"atlas_class":"streamriver","display_name":"Salt Arroyo","stream_role":"natural_stream_detail_context","sourceLayer":"colorado_natural_stream_detail_tiles_v1","sourceLabel":"Colorado natural stream detail tiles v1","sensitivity":"generalized"},"geometry":{"type":"LineString","coordinates":[[-103.49915,37.83754],[-103.49793,37.83838]]}},{"type":"Feature","properties":{"huc8":"11020010","huc8Name":"Purgatoire","historic":"yellowfin","current":"introduced","recovery":"recoveryWatch","lineageKey":"yellowfin","lineageLabel":"Yellowfin / Arkansas headwaters historical form","basin":"Purgatoire","note":"Arkansas basin historical Yellowfin context; review needed","state":"CO","confidence":"HUC8 drainage context / generalized","geometryStatus":"natural_stream_detail_tile_from_full_interpreted_layer","troutSource":"HUC8 lineage assignment v1 / review needed","sourceName":"Rock Arroyo","name":"Rock Arroyo","source_id":"158847887","length_km":0.03404814,"FType":460,"FCode":46003,"atlas_class":"streamriver","display_name":"Rock Arroyo","stream_role":"natural_stream_detail_context","sourceLayer":"colorado_natural_stream_detail_tiles_v1","sourceLabel":"Colorado natural stream detail tiles v1","sensitivity":"generalized"},"geometry":{"type":"LineString","coordinates":[[-103.42029,37.91927],[-103.42003,37.91904]]}},{"type":"Feature","properties":{"huc8":"11020010","huc8Name":"Purgatoire","historic":"yellowfin","current":"introduced","recovery":"recoveryWatch","lineageKey":"yellowfin","lineageLabel":"Yellowfin / Arkansas headwaters historical form","basin":"Purgatoire","note":"Arkansas basin historical Yellowfin context; review needed","state":"CO","confidence":"HUC8 drainage context / generalized","geometryStatus":"natural_stream_detail_tile_from_full_interpreted_layer","troutSource":"HUC8 lineage assignment v1 / review needed","sourceName":"Salt Arroyo","name":"Salt Arroyo","source_id":"158850061","length_km":0.06297514,"FType":460,"FCode":46003,"atlas_class":"streamriver","display_name":"Salt Arroyo","stream_role":"natural_stream_detail_context","sourceLayer":"colorado_natural_stream_detail_tiles_v1","sourceLabel":"Colorado natural stream detail tiles v1","sensitivity":"generalized"},"geometry":{"type":"LineString","coordinates":[[-103.50677,37.83507],[-103.5061,37.83527]]}},{"type":"Feature","properties":{"huc8":"11020010","huc8Name":"Purgatoire","historic":"yellowfin","current":"introduced","recovery":"recoveryWatch","lineageKey":"yellowfin","lineageLabel":"Yellowfin / Arkansas headwaters historical form","basin":"Purgatoire","note":"Arkansas basin historical Yellowfin context; review needed","state":"CO","confidence":"HUC8 drainage context / generalized","geometryStatus":"natural_stream_detail_tile_from_full_interpreted_layer","troutSource":"HUC8 lineage assignment v1 / review needed","sourceName":"Salt Arroyo","name":"Salt Arroyo","source_id":"158850115","length_km":0.11818964,"FType":460,"FCode":46003,"atlas_class":"streamriver","display_name":"Salt Arroyo","stream_role":"natural_stream_detail_context","sourceLayer":"colorado_natural_stream_detail_tiles_v1","sourceLabel":"Colorado natural stream detail tiles v1","sensitivity":"generalized"},"geometry":{"type":"LineString","coordinates":[[-103.5061,37.83527],[-103.50484,37.83561]]}},{"type":"Feature","properties":{"huc8":"11020010","huc8Name":"Purgatoire","historic":"yellowfin","current":"introduced","recovery":"recoveryWatch","lineageKey":"yellowfin","lineageLabel":"Yellowfin / Arkansas headwaters historical form","basin":"Purgatoire","note":"Arkansas basin historical Yellowfin context; review needed","state":"CO","confidence":"HUC8 drainage context / generalized","geometryStatus":"natural_stream_detail_tile_from_full_interpreted_layer","troutSource":"HUC8 lineage assignment v1 / review needed","sourceName":"Salt Arroyo","name":"Salt Arroyo","source_id":"158849215","length_km":0.61268029,"FType":460,"FCode":46003,"atlas_class":"streamriver","display_name":"Salt Arroyo","stream_role":"natural_stream_detail_context","sourceLayer":"colorado_natural_stream_detail_tiles_v1","sourceLabel":"Colorado natural stream detail tiles v1","sensitivity":"generalized"},"geometry":{"type":"LineString","coordinates":[[-103.41324,37.81045],[-103.40829,37.81063],[-103.40653,37.81134]]}},{"type":"Feature","properties":{"huc8":"11020010","huc8Name":"Purgatoire","historic":"yellowfin","current":"introduced","recovery":"recoveryWatch","lineageKey":"yellowfin","lineageLabel":"Yellowfin / Arkansas headwaters historical form","basin":"Purgatoire","note":"Arkansas basin historical Yellowfin context; review needed","state":"CO","confidence":"HUC8 drainage context / generalized","geometryStatus":"natural_stream_detail_tile_from_full_interpreted_layer","troutSource":"HUC8 lineage assignment v1 / review needed","sourceName":"Alkali Arroyo","name":"Alkali Arroyo","source_id":"131243998","length_km":2.14537271,"FType":460,"FCode":46003,"atlas_class":"streamriver","display_name":"Alkali Arroyo","stream_role":"natural_stream_detail_context","sourceLayer":"colorado_natural_stream_detail_tiles_v1","sourceLabel":"Colorado natural stream detail tiles v1","sensitivity":"generalized"},"geometry":{"type":"LineString","coordinates":[[-103.4489,37.87334],[-103.44729,37.87219],[-103.44385,37.87194],[-103.44356,37.87233],[-103.44092,37.87182],[-103.4389,37.87283],[-103.43632,37.8723],[-103.43446,37.87367],[-103.43292,37.87342],[-103.43159,37.87455],[-103.42792,37.87484]]}},{"type":"Feature","properties":{"huc8":"11020010","huc8Name":"Purgatoire","historic":"yellowfin","current":"introduced","recovery":"recoveryWatch","lineageKey":"yellowfin","lineageLabel":"Yellowfin / Arkansas headwaters historical form","basin":"Purgatoire","note":"Arkansas basin historical Yellowfin context; review needed","state":"CO","confidence":"HUC8 drainage context / generalized","geometryStatus":"natural_stream_detail_tile_from_full_interpreted_layer","troutSource":"HUC8 lineage assignment v1 / review needed","sourceName":"Alkali Arroyo","name":"Alkali Arroyo","source_id":"158847695","length_km":1.14752894,"FType":460,"FCode":46003,"atlas_class":"streamriver","display_name":"Alkali Arroyo","stream_role":"natural_stream_detail_context","sourceLayer":"colorado_natural_stream_detail_tiles_v1","sourceLabel":"Colorado natural stream detail tiles v1","sensitivity":"generalized"},"geometry":{"type":"LineString","coordinates":[[-103.42231,37.87345],[-103.42233,37.87245],[-103.42077,37.87084],[-103.4195,37.87113],[-103.4161,37.87043],[-103.41615,37.86911],[-103.41422,37.86884]]}},{"type":"Feature","properties":{"huc8":"11020010","huc8Name":"Purgatoire","historic":"yellowfin","current":"introduced","recovery":"recoveryWatch","lineageKey":"yellowfin","lineageLabel":"Yellowfin / Arkansas headwaters historical form","basin":"Purgatoire","note":"Arkansas basin historical Yellowfin context; review needed","state":"CO","confidence":"HUC8 drainage context / generalized","geometryStatus":"natural_stream_detail_tile_from_full_interpreted_layer","troutSource":"HUC8 lineage assignment v1 / review needed","sourceName":"Salt Arroyo","name":"Salt Arroyo","source_id":"158848276","length_km":1.17445046,"FType":460,"FCode":46003,"atlas_class":"streamriver","display_name":"Salt Arroyo","stream_role":"natural_stream_detail_context","sourceLayer":"colorado_natural_stream_detail_tiles_v1","sourceLabel":"Colorado natural stream detail tiles v1","sensitivity":"generalized"},"geometry":{"type":"LineString","coordinates":[[-103.44015,37.81621],[-103.43987,37.81564],[-103.43895,37.8161],[-103.43675,37.81576],[-103.43587,37.81706],[-103.43391,37.81691],[-103.43172,37.81539],[-103.43106,37.81412]]}},{"type":"Feature","properties":{"huc8":"11020010","huc8Name":"Purgatoire","historic":"yellowfin","current":"introduced","recovery":"recoveryWatch","lineageKey":"yellowfin","lineageLabel":"Yellowfin / Arkansas headwaters historical form","basin":"Purgatoire","note":"Arkansas basin historical Yellowfin context; review needed","state":"CO","confidence":"HUC8 drainage context / generalized","geometryStatus":"natural_stream_detail_tile_from_full_interpreted_layer","troutSource":"HUC8 lineage assignment v1 / review needed","sourceName":"Salt Arroyo","name":"Salt Arroyo","source_id":"131274555","length_km":0.60252193,"FType":460,"FCode":46003,"atlas_class":"streamriver","display_name":"Salt Arroyo","stream_role":"natural_stream_detail_context","sourceLayer":"colorado_natural_stream_detail_tiles_v1","sourceLabel":"Colorado natural stream detail tiles v1","sensitivity":"generalized"},"geometry":{"type":"LineString","coordinates":[[-103.44727,37.82408],[-103.44597,37.82429],[-103.44465,37.82218],[-103.4447,37.82048]]}},{"type":"Feature","properties":{"huc8":"11020010","huc8Name":"Purgatoire","historic":"yellowfin","current":"introduced","recovery":"recoveryWatch","lineageKey":"yellowfin","lineageLabel":"Yellowfin / Arkansas headwaters historical form","basin":"Purgatoire","note":"Arkansas basin historical Yellowfin context; review needed","state":"CO","confidence":"HUC8 drainage context / generalized","geometryStatus":"natural_stream_detail_tile_from_full_interpreted_layer","troutSource":"HUC8 lineage assignment v1 / review needed","sourceName":"Salt Arroyo","name":"Salt Arroyo","source_id":"131274753","length_km":0.86046215,"FType":460,"FCode":46003,"atlas_class":"streamriver","display_name":"Salt Arroyo","stream_role":"natural_stream_detail_context","sourceLayer":"colorado_natural_stream_detail_tiles_v1","sourceLabel":"Colorado natural stream detail tiles v1","sensitivity":"generalized"},"geometry":{"type":"LineString","coordinates":[[-103.4447,37.82048],[-103.44134,37.81924],[-103.4413,37.81689],[-103.44012,37.81711],[-103.44015,37.81621]]}},{"type":"Feature","properties":{"huc8":"11020010","huc8Name":"Purgatoire","historic":"yellowfin","current":"introduced","recovery":"recoveryWatch","lineageKey":"yellowfin","lineageLabel":"Yellowfin / Arkansas headwaters historical form","basin":"Purgatoire","note":"Arkansas basin historical Yellowfin context; review needed","state":"CO","confidence":"HUC8 drainage context / generalized","geometryStatus":"natural_stream_detail_tile_from_full_interpreted_layer","troutSource":"HUC8 lineage assignment v1 / review needed","sourceName":"Alkali Arroyo","name":"Alkali Arroyo","source_id":"158848238","length_km":0.0881451,"FType":460,"FCode":46003,"atlas_class":"streamriver","display_name":"Alkali Arroyo","stream_role":"natural_stream_detail_context","sourceLayer":"colorado_natural_stream_detail_tiles_v1","sourceLabel":"Colorado natural stream detail tiles v1","sensitivity":"generalized"},"geometry":{"type":"LineString","coordinates":[[-103.47156,37.87033],[-103.47088,37.87087]]}},{"type":"Feature","properties":{"huc8":"11020010","huc8Name":"Purgatoire","historic":"yellowfin","current":"introduced","recovery":"recoveryWatch","lineageKey":"yellowfin","lineageLabel":"Yellowfin / Arkansas headwaters historical form","basin":"Purgatoire","note":"Arkansas basin historical Yellowfin context; review needed","state":"CO","confidence":"HUC8 drainage context / generalized","geometryStatus":"natural_stream_detail_tile_from_full_interpreted_layer","troutSource":"HUC8 lineage assignment v1 / review needed","sourceName":"Alkali Arroyo","name":"Alkali Arroyo","source_id":"158848318","length_km":0.64696404,"FType":460,"FCode":46003,"atlas_class":"streamriver","display_name":"Alkali Arroyo","stream_role":"natural_stream_detail_context","sourceLayer":"colorado_natural_stream_detail_tiles_v1","sourceLabel":"Colorado natural stream detail tiles v1","sensitivity":"generalized"},"geometry":{"type":"LineString","coordinates":[[-103.47492,37.86485],[-103.47609,37.86623],[-103.47561,37.86791],[-103.47404,37.86979]]}},{"type":"Feature","properties":{"huc8":"11020010","huc8Name":"Purgatoire","historic":"yellowfin","current":"introduced","recovery":"recoveryWatch","lineageKey":"yellowfin","lineageLabel":"Yellowfin / Arkansas headwaters historical form","basin":"Purgatoire","note":"Arkansas basin historical Yellowfin context; review needed","state":"CO","confidence":"HUC8 drainage context / generalized","geometryStatus":"natural_stream_detail_tile_from_full_interpreted_layer","troutSource":"HUC8 lineage assignment v1 / review needed","sourceName":"Rock Arroyo","name":"Rock Arroyo","source_id":"158847734","length_km":0.13452773,"FType":460,"FCode":46003,"atlas_class":"streamriver","display_name":"Rock Arroyo","stream_role":"natural_stream_detail_context","sourceLayer":"colorado_natural_stream_detail_tiles_v1","sourceLabel":"Colorado natural stream detail tiles v1","sensitivity":"generalized"},"geometry":{"type":"LineString","coordinates":[[-103.42497,37.92032],[-103.42345,37.92018]]}},{"type":"Feature","properties":{"huc8":"11020010","huc8Name":"Purgatoire","historic":"yellowfin","current":"introduced","recovery":"recoveryWatch","lineageKey":"yellowfin","lineageLabel":"Yellowfin / Arkansas headwaters historical form","basin":"Purgatoire","note":"Arkansas basin historical Yellowfin context; review needed","state":"CO","confidence":"HUC8 drainage context / generalized","geometryStatus":"natural_stream_detail_tile_from_full_interpreted_layer","troutSource":"HUC8 lineage assignment v1 / review needed","sourceName":"Alkali Arroyo","name":"Alkali Arroyo","source_id":"131243990","length_km":3.14165773,"FType":460,"FCode":46003,"atlas_class":"streamriver","display_name":"Alkali Arroyo","stream_role":"natural_stream_detail_context","sourceLayer":"colorado_natural_stream_detail_tiles_v1","sourceLabel":"Colorado natural stream detail tiles v1","sensitivity":"generalized"},"geometry":{"type":"LineString","coordinates":[[-103.41422,37.86884],[-103.41451,37.86808],[-103.41244,37.86714],[-103.41166,37.86539],[-103.40965,37.86424],[-103.40852,37.86433],[-103.40857,37.86276],[-103.40783,37.86173],[-103.40864,37.86128],[-103.40865,37.86054],[-103.40788,37.8607],[-103.40727,37.85996],[-103.40791,37.8583],[-103.40755,37.85667],[-103.40608,37.85661],[-103.40526,37.85508],[-103.40371,37.85505],[-103.40295,37.85424],[-103.40121,37.85477],[-103.39782,37.85252]]}},{"type":"Feature","properties":{"huc8":"11020010","huc8Name":"Purgatoire","historic":"yellowfin","current":"introduced","recovery":"recoveryWatch","lineageKey":"yellowfin","lineageLabel":"Yellowfin / Arkansas headwaters historical form","basin":"Purgatoire","note":"Arkansas basin historical Yellowfin context; review needed","state":"CO","confidence":"HUC8 drainage context / generalized","geometryStatus":"natural_stream_detail_tile_from_full_interpreted_layer","troutSource":"HUC8 lineage assignment v1 / review needed","sourceName":"Salt Arroyo","name":"Salt Arroyo","source_id":"158849213","length_km":0.09946303,"FType":460,"FCode":46003,"atlas_class":"streamriver","display_name":"Salt Arroyo","stream_role":"natural_stream_detail_context","sourceLayer":"colorado_natural_stream_detail_tiles_v1","sourceLabel":"Colorado natural stream detail tiles v1","sensitivity":"generalized"},"geometry":{"type":"LineString","coordinates":[[-103.41434,37.81025],[-103.41324,37.81045]]}},{"type":"Feature","properties":{"huc8":"11020010","huc8Name":"Purgatoire","historic":"yellowfin","current":"introduced","recovery":"recoveryWatch","lineageKey":"yellowfin","lineageLabel":"Yellowfin / Arkansas headwaters historical form","basin":"Purgatoire","note":"Arkansas basin historical Yellowfin context; review needed","state":"CO","confidence":"HUC8 drainage context / generalized","geometryStatus":"natural_stream_detail_tile_from_full_interpreted_layer","troutSource":"HUC8 lineage assignment v1 / review needed","sourceName":"Alkali Arroyo","name":"Alkali Arroyo","source_id":"158848282","length_km":0.23549051,"FType":460,"FCode":46003,"atlas_class":"streamriver","display_name":"Alkali Arroyo","stream_role":"natural_stream_detail_context","sourceLayer":"colorado_natural_stream_detail_tiles_v1","sourceLabel":"Colorado natural stream detail tiles v1","sensitivity":"generalized"},"geometry":{"type":"LineString","coordinates":[[-103.45313,37.87225],[-103.45073,37.87206]]}},{"type":"Feature","properties":{"huc8":"11020010","huc8Name":"Purgatoire","historic":"yellowfin","current":"introduced","recovery":"recoveryWatch","lineageKey":"yellowfin","lineageLabel":"Yellowfin / Arkansas headwaters historical form","basin":"Purgatoire","note":"Arkansas basin historical Yellowfin context; review needed","state":"CO","confidence":"HUC8 drainage context / generalized","geometryStatus":"natural_stream_detail_tile_from_full_interpreted_layer","troutSource":"HUC8 lineage assignment v1 / review needed","sourceName":"Rock Arroyo","name":"Rock Arroyo","source_id":"158847675","length_km":0.2352148,"FType":460,"FCode":46003,"atlas_class":"streamriver","display_name":"Rock Arroyo","stream_role":"natural_stream_detail_context","sourceLayer":"colorado_natural_stream_detail_tiles_v1","sourceLabel":"Colorado natural stream detail tiles v1","sensitivity":"generalized"},"geometry":{"type":"LineString","coordinates":[[-103.42283,37.92016],[-103.42168,37.92027],[-103.42063,37.91949]]}},{"type":"Feature","properties":{"huc8":"11020010","huc8Name":"Purgatoire","historic":"yellowfin","current":"introduced","recovery":"recoveryWatch","lineageKey":"yellowfin","lineageLabel":"Yellowfin / Arkansas headwaters historical form","basin":"Purgatoire","note":"Arkansas basin historical Yellowfin context; review needed","state":"CO","confidence":"HUC8 drainage context / generalized","geometryStatus":"natural_stream_detail_tile_from_full_interpreted_layer","troutSource":"HUC8 lineage assignment v1 / review needed","sourceName":"Salt Arroyo","name":"Salt Arroyo","source_id":"158849200","length_km":0.65090646,"FType":460,"FCode":46003,"atlas_class":"streamriver","display_name":"Salt Arroyo","stream_role":"natural_stream_detail_context","sourceLayer":"colorado_natural_stream_detail_tiles_v1","sourceLabel":"Colorado natural stream detail tiles v1","sensitivity":"generalized"},"geometry":{"type":"LineString","coordinates":[[-103.40653,37.81134],[-103.4041,37.81269],[-103.40178,37.81256],[-103.40051,37.81354]]}},{"type":"Feature","properties":{"huc8":"11020010","huc8Name":"Purgatoire","historic":"yellowfin","current":"introduced","recovery":"recoveryWatch","lineageKey":"yellowfin","lineageLabel":"Yellowfin / Arkansas headwaters historical form","basin":"Purgatoire","note":"Arkansas basin historical Yellowfin context; review needed","state":"CO","confidence":"HUC8 drainage context / generalized","geometryStatus":"natural_stream_detail_tile_from_full_interpreted_layer","troutSource":"HUC8 lineage assignment v1 / review needed","sourceName":"Salt Arroyo","name":"Salt Arroyo","source_id":"158848295","length_km":0.08522886,"FType":460,"FCode":46003,"atlas_class":"streamriver","display_name":"Salt Arroyo","stream_role":"natural_stream_detail_context","sourceLayer":"colorado_natural_stream_detail_tiles_v1","sourceLabel":"Colorado natural stream detail tiles v1","sensitivity":"generalized"},"geometry":{"type":"LineString","coordinates":[[-103.50029,37.83685],[-103.49983,37.8375]]}},{"type":"Feature","properties":{"huc8":"11020010","huc8Name":"Purgatoire","historic":"yellowfin","current":"introduced","recovery":"recoveryWatch","lineageKey":"yellowfin","lineageLabel":"Yellowfin / Arkansas headwaters historical form","basin":"Purgatoire","note":"Arkansas basin historical Yellowfin context; review needed","state":"CO","confidence":"HUC8 drainage context / generalized","geometryStatus":"natural_stream_detail_tile_from_full_interpreted_layer","troutSource":"HUC8 lineage assignment v1 / review needed","sourceName":"Rock Arroyo","name":"Rock Arroyo","source_id":"158847737","length_km":0.05041768,"FType":460,"FCode":46003,"atlas_class":"streamriver","display_name":"Rock Arroyo","stream_role":"natural_stream_detail_context","sourceLayer":"colorado_natural_stream_detail_tiles_v1","sourceLabel":"Colorado natural stream detail tiles v1","sensitivity":"generalized"},"geometry":{"type":"LineString","coordinates":[[-103.41351,37.91344],[-103.41295,37.91332]]}},{"type":"Feature","properties":{"huc8":"11020010","huc8Name":"Purgatoire","historic":"yellowfin","current":"introduced","recovery":"recoveryWatch","lineageKey":"yellowfin","lineageLabel":"Yellowfin / Arkansas headwaters historical form","basin":"Purgatoire","note":"Arkansas basin historical Yellowfin context; review needed","state":"CO","confidence":"HUC8 drainage context / generalized","geometryStatus":"natural_stream_detail_tile_from_full_interpreted_layer","troutSource":"HUC8 lineage assignment v1 / review needed","sourceName":"Salt Arroyo","name":"Salt Arroyo","source_id":"131274390","length_km":0.06715229,"FType":460,"FCode":46003,"atlas_class":"streamriver","display_name":"Salt Arroyo","stream_role":"natural_stream_detail_context","sourceLayer":"colorado_natural_stream_detail_tiles_v1","sourceLabel":"Colorado natural stream detail tiles v1","sensitivity":"generalized"},"geometry":{"type":"LineString","coordinates":[[-103.46783,37.83438],[-103.46713,37.83414]]}},{"type":"Feature","properties":{"huc8":"11020010","huc8Name":"Purgatoire","historic":"yellowfin","current":"introduced","recovery":"recoveryWatch","lineageKey":"yellowfin","lineageLabel":"Yellowfin / Arkansas headwaters historical form","basin":"Purgatoire","note":"Arkansas basin historical Yellowfin context; review needed","state":"CO","confidence":"HUC8 drainage context / generalized","geometryStatus":"natural_stream_detail_tile_from_full_interpreted_layer","troutSource":"HUC8 lineage assignment v1 / review needed","sourceName":"Salt Arroyo","name":"Salt Arroyo","source_id":"158848241","length_km":0.51037286,"FType":460,"FCode":46003,"atlas_class":"streamriver","display_name":"Salt Arroyo","stream_role":"natural_stream_detail_context","sourceLayer":"colorado_natural_stream_detail_tiles_v1","sourceLabel":"Colorado natural stream detail tiles v1","sensitivity":"generalized"},"geometry":{"type":"LineString","coordinates":[[-103.46713,37.83414],[-103.46533,37.83368],[-103.46175,37.83418]]}},{"type":"Feature","properties":{"huc8":"11020010","huc8Name":"Purgatoire","historic":"yellowfin","current":"introduced","recovery":"recoveryWatch","lineageKey":"yellowfin","lineageLabel":"Yellowfin / Arkansas headwaters historical form","basin":"Purgatoire","note":"Arkansas basin historical Yellowfin context; review needed","state":"CO","confidence":"HUC8 drainage context / generalized","geometryStatus":"natural_stream_detail_tile_from_full_interpreted_layer","troutSource":"HUC8 lineage assignment v1 / review needed","sourceName":"Alkali Arroyo","name":"Alkali Arroyo","source_id":"158847621","length_km":0.23938117,"FType":460,"FCode":46003,"atlas_class":"streamriver","display_name":"Alkali Arroyo","stream_role":"natural_stream_detail_context","sourceLayer":"colorado_natural_stream_detail_tiles_v1","sourceLabel":"Colorado natural stream detail tiles v1","sensitivity":"generalized"},"geometry":{"type":"LineString","coordinates":[[-103.46249,37.87529],[-103.46009,37.87486]]}},{"type":"Feature","properties":{"huc8":"11020010","huc8Name":"Purgatoire","historic":"yellowfin","current":"introduced","recovery":"recoveryWatch","lineageKey":"yellowfin","lineageLabel":"Yellowfin / Arkansas headwaters historical form","basin":"Purgatoire","note":"Arkansas basin historical Yellowfin context; review needed","state":"CO","confidence":"HUC8 drainage context / generalized","geometryStatus":"natural_stream_detail_tile_from_full_interpreted_layer","troutSource":"HUC8 lineage assignment v1 / review needed","sourceName":"Salt Arroyo","name":"Salt Arroyo","source_id":"158850143","length_km":0.15621148,"FType":460,"FCode":46003,"atlas_class":"streamriver","display_name":"Salt Arroyo","stream_role":"natural_stream_detail_context","sourceLayer":"colorado_natural_stream_detail_tiles_v1","sourceLabel":"Colorado natural stream detail tiles v1","sensitivity":"generalized"},"geometry":{"type":"LineString","coordinates":[[-103.51017,37.83427],[-103.50846,37.83463]]}},{"type":"Feature","properties":{"huc8":"11020010","huc8Name":"Purgatoire","historic":"yellowfin","current":"introduced","recovery":"recoveryWatch","lineageKey":"yellowfin","lineageLabel":"Yellowfin / Arkansas headwaters historical form","basin":"Purgatoire","note":"Arkansas basin historical Yellowfin context; review needed","state":"CO","confidence":"HUC8 drainage context / generalized","geometryStatus":"natural_stream_detail_tile_from_full_interpreted_layer","troutSource":"HUC8 lineage assignment v1 / review needed","sourceName":"Salt Arroyo","name":"Salt Arroyo","source_id":"158850059","length_km":0.15591617,"FType":460,"FCode":46003,"atlas_class":"streamriver","display_name":"Salt Arroyo","stream_role":"natural_stream_detail_context","sourceLayer":"colorado_natural_stream_detail_tiles_v1","sourceLabel":"Colorado natural stream detail tiles v1","sensitivity":"generalized"},"geometry":{"type":"LineString","coordinates":[[-103.50846,37.83463],[-103.50677,37.83507]]}},{"type":"Feature","properties":{"huc8":"11020010","huc8Name":"Purgatoire","historic":"yellowfin","current":"introduced","recovery":"recoveryWatch","lineageKey":"yellowfin","lineageLabel":"Yellowfin / Arkansas headwaters historical form","basin":"Purgatoire","note":"Arkansas basin historical Yellowfin context; review needed","state":"CO","confidence":"HUC8 drainage context / generalized","geometryStatus":"natural_stream_detail_tile_from_full_interpreted_layer","troutSource":"HUC8 lineage assignment v1 / review needed","sourceName":"Salt Arroyo","name":"Salt Arroyo","source_id":"158850117","length_km":0.25845125,"FType":460,"FCode":46003,"atlas_class":"streamriver","display_name":"Salt Arroyo","stream_role":"natural_stream_detail_context","sourceLayer":"colorado_natural_stream_detail_tiles_v1","sourceLabel":"Colorado natural stream detail tiles v1","sensitivity":"generalized"},"geometry":{"type":"LineString","coordinates":[[-103.50484,37.83561],[-103.50214,37.83577]]}},{"type":"Feature","properties":{"huc8":"11020010","huc8Name":"Purgatoire","historic":"yellowfin","current":"introduced","recovery":"recoveryWatch","lineageKey":"yellowfin","lineageLabel":"Yellowfin / Arkansas headwaters historical form","basin":"Purgatoire","note":"Arkansas basin historical Yellowfin context; review needed","state":"CO","confidence":"HUC8 drainage context / generalized","geometryStatus":"natural_stream_detail_tile_from_full_interpreted_layer","troutSource":"HUC8 lineage assignment v1 / review needed","sourceName":"Salt Arroyo","name":"Salt Arroyo","source_id":"158848243","length_km":0.78172372,"FType":460,"FCode":46003,"atlas_class":"streamriver","display_name":"Salt Arroyo","stream_role":"natural_stream_detail_context","sourceLayer":"colorado_natural_stream_detail_tiles_v1","sourceLabel":"Colorado natural stream detail tiles v1","sensitivity":"generalized"},"geometry":{"type":"LineString","coordinates":[[-103.46175,37.83418],[-103.46052,37.83312],[-103.45934,37.83341],[-103.45815,37.83202],[-103.45628,37.83255],[-103.45604,37.83344]]}},{"type":"Feature","properties":{"huc8":"11020010","huc8Name":"Purgatoire","historic":"yellowfin","current":"introduced","recovery":"recoveryWatch","lineageKey":"yellowfin","lineageLabel":"Yellowfin / Arkansas headwaters historical form","basin":"Purgatoire","note":"Arkansas basin historical Yellowfin context; review needed","state":"CO","confidence":"HUC8 drainage context / generalized","geometryStatus":"natural_stream_detail_tile_from_full_interpreted_layer","troutSource":"HUC8 lineage assignment v1 / review needed","sourceName":"Alkali Arroyo","name":"Alkali Arroyo","source_id":"158848322","length_km":0.11114014,"FType":460,"FCode":46003,"atlas_class":"streamriver","display_name":"Alkali Arroyo","stream_role":"natural_stream_detail_context","sourceLayer":"colorado_natural_stream_detail_tiles_v1","sourceLabel":"Colorado natural stream detail tiles v1","sensitivity":"generalized"},"geometry":{"type":"LineString","coordinates":[[-103.47088,37.87087],[-103.47008,37.87159]]}},{"type":"Feature","properties":{"huc8":"11020010","huc8Name":"Purgatoire","historic":"yellowfin","current":"introduced","recovery":"recoveryWatch","lineageKey":"yellowfin","lineageLabel":"Yellowfin / Arkansas headwaters historical form","basin":"Purgatoire","note":"Arkansas basin historical Yellowfin context; review needed","state":"CO","confidence":"HUC8 drainage context / generalized","geometryStatus":"natural_stream_detail_tile_from_full_interpreted_layer","troutSource":"HUC8 lineage assignment v1 / review needed","sourceName":"Alkali Arroyo","name":"Alkali Arroyo","source_id":"158848259","length_km":0.25100532,"FType":460,"FCode":46003,"atlas_class":"streamriver","display_name":"Alkali Arroyo","stream_role":"natural_stream_detail_context","sourceLayer":"colorado_natural_stream_detail_tiles_v1","sourceLabel":"Colorado natural stream detail tiles v1","sensitivity":"generalized"},"geometry":{"type":"LineString","coordinates":[[-103.46009,37.87486],[-103.45972,37.87436],[-103.45808,37.87423]]}},{"type":"Feature","properties":{"huc8":"11020010","huc8Name":"Purgatoire","historic":"yellowfin","current":"introduced","recovery":"recoveryWatch","lineageKey":"yellowfin","lineageLabel":"Yellowfin / Arkansas headwaters historical form","basin":"Purgatoire","note":"Arkansas basin historical Yellowfin context; review needed","state":"CO","confidence":"HUC8 drainage context / generalized","geometryStatus":"natural_stream_detail_tile_from_full_interpreted_layer","troutSource":"HUC8 lineage assignment v1 / review needed","sourceName":"Alkali Arroyo","name":"Alkali Arroyo","source_id":"158848237","length_km":0.52483619,"FType":460,"FCode":46003,"atlas_class":"streamriver","display_name":"Alkali Arroyo","stream_role":"natural_stream_detail_context","sourceLayer":"colorado_natural_stream_detail_tiles_v1","sourceLabel":"Colorado natural stream detail tiles v1","sensitivity":"generalized"},"geometry":{"type":"LineString","coordinates":[[-103.4262,37.87476],[-103.42412,37.8726],[-103.42231,37.87345]]}},{"type":"Feature","properties":{"huc8":"11020010","huc8Name":"Purgatoire","historic":"yellowfin","current":"introduced","recovery":"recoveryWatch","lineageKey":"yellowfin","lineageLabel":"Yellowfin / Arkansas headwaters historical form","basin":"Purgatoire","note":"Arkansas basin historical Yellowfin context; review needed","state":"CO","confidence":"HUC8 drainage context / generalized","geometryStatus":"natural_stream_detail_tile_from_full_interpreted_layer","troutSource":"HUC8 lineage assignment v1 / review needed","sourceName":"Alkali Arroyo","name":"Alkali Arroyo","source_id":"158848382","length_km":0.13138707,"FType":460,"FCode":46003,"atlas_class":"streamriver","display_name":"Alkali Arroyo","stream_role":"natural_stream_detail_context","sourceLayer":"colorado_natural_stream_detail_tiles_v1","sourceLabel":"Colorado natural stream detail tiles v1","sensitivity":"generalized"},"geometry":{"type":"LineString","coordinates":[[-103.45808,37.87423],[-103.4569,37.87352]]}},{"type":"Feature","properties":{"huc8":"11020010","huc8Name":"Purgatoire","historic":"yellowfin","current":"introduced","recovery":"recoveryWatch","lineageKey":"yellowfin","lineageLabel":"Yellowfin / Arkansas headwaters historical form","basin":"Purgatoire","note":"Arkansas basin historical Yellowfin context; review needed","state":"CO","confidence":"HUC8 drainage context / generalized","geometryStatus":"natural_stream_detail_tile_from_full_interpreted_layer","troutSource":"HUC8 lineage assignment v1 / review needed","sourceName":"Salt Arroyo","name":"Salt Arroyo","source_id":"158850140","length_km":0.14831089,"FType":460,"FCode":46003,"atlas_class":"streamriver","display_name":"Salt Arroyo","stream_role":"natural_stream_detail_context","sourceLayer":"colorado_natural_stream_detail_tiles_v1","sourceLabel":"Colorado natural stream detail tiles v1","sensitivity":"generalized"},"geometry":{"type":"LineString","coordinates":[[-103.51177,37.83384],[-103.51017,37.83427]]}},{"type":"Feature","properties":{"huc8":"11020010","huc8Name":"Purgatoire","historic":"yellowfin","current":"introduced","recovery":"recoveryWatch","lineageKey":"yellowfin","lineageLabel":"Yellowfin / Arkansas headwaters historical form","basin":"Purgatoire","note":"Arkansas basin historical Yellowfin context; review needed","state":"CO","confidence":"HUC8 drainage context / generalized","geometryStatus":"natural_stream_detail_tile_from_full_interpreted_layer","troutSource":"HUC8 lineage assignment v1 / review needed","sourceName":"Salt Arroyo","name":"Salt Arroyo","source_id":"131274178","length_km":0.2899931,"FType":460,"FCode":46003,"atlas_class":"streamriver","display_name":"Salt Arroyo","stream_role":"natural_stream_detail_context","sourceLayer":"colorado_natural_stream_detail_tiles_v1","sourceLabel":"Colorado natural stream detail tiles v1","sensitivity":"generalized"},"geometry":{"type":"LineString","coordinates":[[-103.47656,37.83513],[-103.4735,37.83571]]}},{"type":"Feature","properties":{"huc8":"11020010","huc8Name":"Purgatoire","historic":"yellowfin","current":"introduced","recovery":"recoveryWatch","lineageKey":"yellowfin","lineageLabel":"Yellowfin / Arkansas headwaters historical form","basin":"Purgatoire","note":"Arkansas basin historical Yellowfin context; review needed","state":"CO","confidence":"HUC8 drainage context / generalized","geometryStatus":"natural_stream_detail_tile_from_full_interpreted_layer","troutSource":"HUC8 lineage assignment v1 / review needed","sourceName":"McMahon Arroyo","name":"McMahon Arroyo","source_id":"158850483","length_km":0.22184966,"FType":460,"FCode":46003,"atlas_class":"streamriver","display_name":"McMahon Arroyo","stream_role":"natural_stream_detail_context","sourceLayer":"colorado_natural_stream_detail_tiles_v1","sourceLabel":"Colorado natural stream detail tiles v1","sensitivity":"generalized"},"geometry":{"type":"LineString","coordinates":[[-103.5051,37.80776],[-103.50296,37.80723]]}},{"type":"Feature","properties":{"huc8":"11020010","huc8Name":"Purgatoire","historic":"yellowfin","current":"introduced","recovery":"recoveryWatch","lineageKey":"yellowfin","lineageLabel":"Yellowfin / Arkansas headwaters historical form","basin":"Purgatoire","note":"Arkansas basin historical Yellowfin context; review needed","state":"CO","confidence":"HUC8 drainage context / generalized","geometryStatus":"natural_stream_detail_tile_from_full_interpreted_layer","troutSource":"HUC8 lineage assignment v1 / review needed","sourceName":"McMahon Arroyo","name":"McMahon Arroyo","source_id":"158850484","length_km":0.04313634,"FType":460,"FCode":46003,"atlas_class":"streamriver","display_name":"McMahon Arroyo","stream_role":"natural_stream_detail_context","sourceLayer":"colorado_natural_stream_detail_tiles_v1","sourceLabel":"Colorado natural stream detail tiles v1","sensitivity":"generalized"},"geometry":{"type":"LineString","coordinates":[[-103.50296,37.80723],[-103.5025,37.80717]]}},{"type":"Feature","properties":{"huc8":"11020010","huc8Name":"Purgatoire","historic":"yellowfin","current":"introduced","recovery":"recoveryWatch","lineageKey":"yellowfin","lineageLabel":"Yellowfin / Arkansas headwaters historical form","basin":"Purgatoire","note":"Arkansas basin historical Yellowfin context; review needed","state":"CO","confidence":"HUC8 drainage context / generalized","geometryStatus":"natural_stream_detail_tile_from_full_interpreted_layer","troutSource":"HUC8 lineage assignment v1 / review needed","sourceName":"McMahon Arroyo","name":"McMahon Arroyo","source_id":"131272116","length_km":0.42016414,"FType":460,"FCode":46003,"atlas_class":"streamriver","display_name":"McMahon Arroyo","stream_role":"natural_stream_detail_context","sourceLayer":"colorado_natural_stream_detail_tiles_v1","sourceLabel":"Colorado natural stream detail tiles v1","sensitivity":"generalized"},"geometry":{"type":"LineString","coordinates":[[-103.51341,37.81026],[-103.51242,37.80901],[-103.50984,37.8082]]}},{"type":"Feature","properties":{"huc8":"11020010","huc8Name":"Purgatoire","historic":"yellowfin","current":"introduced","recovery":"recoveryWatch","lineageKey":"yellowfin","lineageLabel":"Yellowfin / Arkansas headwaters historical form","basin":"Purgatoire","note":"Arkansas basin historical Yellowfin context; review needed","state":"CO","confidence":"HUC8 drainage context / generalized","geometryStatus":"natural_stream_detail_tile_from_full_interpreted_layer","troutSource":"HUC8 lineage assignment v1 / review needed","sourceName":"Salt Arroyo","name":"Salt Arroyo","source_id":"158849999","length_km":0.06553353,"FType":460,"FCode":46003,"atlas_class":"streamriver","display_name":"Salt Arroyo","stream_role":"natural_stream_detail_context","sourceLayer":"colorado_natural_stream_detail_tiles_v1","sourceLabel":"Colorado natural stream detail tiles v1","sensitivity":"generalized"},"geometry":{"type":"LineString","coordinates":[[-103.50214,37.83577],[-103.50192,37.83628]]}},{"type":"Feature","properties":{"huc8":"11020010","huc8Name":"Purgatoire","historic":"yellowfin","current":"introduced","recovery":"recoveryWatch","lineageKey":"yellowfin","lineageLabel":"Yellowfin / Arkansas headwaters historical form","basin":"Purgatoire","note":"Arkansas basin historical Yellowfin context; review needed","state":"CO","confidence":"HUC8 drainage context / generalized","geometryStatus":"natural_stream_detail_tile_from_full_interpreted_layer","troutSource":"HUC8 lineage assignment v1 / review needed","sourceName":"Alkali Arroyo","name":"Alkali Arroyo","source_id":"158848324","length_km":0.18605494,"FType":460,"FCode":46003,"atlas_class":"streamriver","display_name":"Alkali Arroyo","stream_role":"natural_stream_detail_context","sourceLayer":"colorado_natural_stream_detail_tiles_v1","sourceLabel":"Colorado natural stream detail tiles v1","sensitivity":"generalized"},"geometry":{"type":"LineString","coordinates":[[-103.47008,37.87159],[-103.46881,37.87287]]}},{"type":"Feature","properties":{"huc8":"11020010","huc8Name":"Purgatoire","historic":"yellowfin","current":"introduced","recovery":"recoveryWatch","lineageKey":"yellowfin","lineageLabel":"Yellowfin / Arkansas headwaters historical form","basin":"Purgatoire","note":"Arkansas basin historical Yellowfin context; review needed","state":"CO","confidence":"HUC8 drainage context / generalized","geometryStatus":"natural_stream_detail_tile_from_full_interpreted_layer","troutSource":"HUC8 lineage assignment v1 / review needed","sourceName":"Salt Arroyo","name":"Salt Arroyo","source_id":"158849058","length_km":0.08154209,"FType":460,"FCode":46003,"atlas_class":"streamriver","display_name":"Salt Arroyo","stream_role":"natural_stream_detail_context","sourceLayer":"colorado_natural_stream_detail_tiles_v1","sourceLabel":"Colorado natural stream detail tiles v1","sensitivity":"generalized"},"geometry":{"type":"LineString","coordinates":[[-103.42055,37.80953],[-103.41973,37.80987]]}},{"type":"Feature","properties":{"huc8":"11020010","huc8Name":"Purgatoire","historic":"yellowfin","current":"introduced","recovery":"recoveryWatch","lineageKey":"yellowfin","lineageLabel":"Yellowfin / Arkansas headwaters historical form","basin":"Purgatoire","note":"Arkansas basin historical Yellowfin context; review needed","state":"CO","confidence":"HUC8 drainage context / generalized","geometryStatus":"natural_stream_detail_tile_from_full_interpreted_layer","troutSource":"HUC8 lineage assignment v1 / review needed","sourceName":"Salt Arroyo","name":"Salt Arroyo","source_id":"158849100","length_km":0.25007576,"FType":460,"FCode":46003,"atlas_class":"streamriver","display_name":"Salt Arroyo","stream_role":"natural_stream_detail_context","sourceLayer":"colorado_natural_stream_detail_tiles_v1","sourceLabel":"Colorado natural stream detail tiles v1","sensitivity":"generalized"},"geometry":{"type":"LineString","coordinates":[[-103.41713,37.81056],[-103.41434,37.81025]]}},{"type":"Feature","properties":{"huc8":"11020010","huc8Name":"Purgatoire","historic":"yellowfin","current":"introduced","recovery":"recoveryWatch","lineageKey":"yellowfin","lineageLabel":"Yellowfin / Arkansas headwaters historical form","basin":"Purgatoire","note":"Arkansas basin historical Yellowfin context; review needed","state":"CO","confidence":"HUC8 drainage context / generalized","geometryStatus":"natural_stream_detail_tile_from_full_interpreted_layer","troutSource":"HUC8 lineage assignment v1 / review needed","sourceName":"Rock Arroyo","name":"Rock Arroyo","source_id":"131277160","length_km":0.7719193,"FType":460,"FCode":46003,"atlas_class":"streamriver","display_name":"Rock Arroyo","stream_role":"natural_stream_detail_context","sourceLayer":"colorado_natural_stream_detail_tiles_v1","sourceLabel":"Colorado natural stream detail tiles v1","sensitivity":"generalized"},"geometry":{"type":"LineString","coordinates":[[-103.40401,37.90951],[-103.39548,37.90896]]}},{"type":"Feature","properties":{"huc8":"11020010","huc8Name":"Purgatoire","historic":"yellowfin","current":"introduced","recovery":"recoveryWatch","lineageKey":"yellowfin","lineageLabel":"Yellowfin / Arkansas headwaters historical form","basin":"Purgatoire","note":"Arkansas basin historical Yellowfin context; review needed","state":"CO","confidence":"HUC8 drainage context / generalized","geometryStatus":"natural_stream_detail_tile_from_full_interpreted_layer","troutSource":"HUC8 lineage assignment v1 / review needed","sourceName":"Rock Arroyo","name":"Rock Arroyo","source_id":"158847735","length_km":0.43694168,"FType":460,"FCode":46003,"atlas_class":"streamriver","display_name":"Rock Arroyo","stream_role":"natural_stream_detail_context","sourceLayer":"colorado_natural_stream_detail_tiles_v1","sourceLabel":"Colorado natural stream detail tiles v1","sensitivity":"generalized"},"geometry":{"type":"LineString","coordinates":[[-103.41652,37.91623],[-103.41351,37.91344]]}},{"type":"Feature","properties":{"huc8":"11020010","huc8Name":"Purgatoire","historic":"yellowfin","current":"introduced","recovery":"recoveryWatch","lineageKey":"yellowfin","lineageLabel":"Yellowfin / Arkansas headwaters historical form","basin":"Purgatoire","note":"Arkansas basin historical Yellowfin context; review needed","state":"CO","confidence":"HUC8 drainage context / generalized","geometryStatus":"natural_stream_detail_tile_from_full_interpreted_layer","troutSource":"HUC8 lineage assignment v1 / review needed","sourceName":"McMahon Arroyo","name":"McMahon Arroyo","source_id":"131271330","length_km":0.5944166,"FType":460,"FCode":46003,"atlas_class":"streamriver","display_name":"McMahon Arroyo","stream_role":"natural_stream_detail_context","sourceLayer":"colorado_natural_stream_detail_tiles_v1","sourceLabel":"Colorado natural stream detail tiles v1","sensitivity":"generalized"},"geometry":{"type":"LineString","coordinates":[[-103.52955,37.81372],[-103.52719,37.81256],[-103.52324,37.81267]]}},{"type":"Feature","properties":{"huc8":"11020010","huc8Name":"Purgatoire","historic":"yellowfin","current":"introduced","recovery":"recoveryWatch","lineageKey":"yellowfin","lineageLabel":"Yellowfin / Arkansas headwaters historical form","basin":"Purgatoire","note":"Arkansas basin historical Yellowfin context; review needed","state":"CO","confidence":"HUC8 drainage context / generalized","geometryStatus":"natural_stream_detail_tile_from_full_interpreted_layer","troutSource":"HUC8 lineage assignment v1 / review needed","sourceName":"Rock Arroyo","name":"Rock Arroyo","source_id":"131275100","length_km":0.5665805,"FType":460,"FCode":46003,"atlas_class":"streamriver","display_name":"Rock Arroyo","stream_role":"natural_stream_detail_context","sourceLayer":"colorado_natural_stream_detail_tiles_v1","sourceLabel":"Colorado natural stream detail tiles v1","sensitivity":"generalized"},"geometry":{"type":"LineString","coordinates":[[-103.41295,37.91332],[-103.41141,37.9133],[-103.40785,37.91082]]}},{"type":"Feature","properties":{"huc8":"11020010","huc8Name":"Purgatoire","historic":"yellowfin","current":"introduced","recovery":"recoveryWatch","lineageKey":"yellowfin","lineageLabel":"Yellowfin / Arkansas headwaters historical form","basin":"Purgatoire","note":"Arkansas basin historical Yellowfin context; review needed","state":"CO","confidence":"HUC8 drainage context / generalized","geometryStatus":"natural_stream_detail_tile_from_full_interpreted_layer","troutSource":"HUC8 lineage assignment v1 / review needed","sourceName":"Rock Arroyo","name":"Rock Arroyo","source_id":"131277158","length_km":0.26098362,"FType":460,"FCode":46003,"atlas_class":"streamriver","display_name":"Rock Arroyo","stream_role":"natural_stream_detail_context","sourceLayer":"colorado_natural_stream_detail_tiles_v1","sourceLabel":"Colorado natural stream detail tiles v1","sensitivity":"generalized"},"geometry":{"type":"LineString","coordinates":[[-103.40785,37.91082],[-103.40519,37.91007]]}},{"type":"Feature","properties":{"huc8":"11020010","huc8Name":"Purgatoire","historic":"yellowfin","current":"introduced","recovery":"recoveryWatch","lineageKey":"yellowfin","lineageLabel":"Yellowfin / Arkansas headwaters historical form","basin":"Purgatoire","note":"Arkansas basin historical Yellowfin context; review needed","state":"CO","confidence":"HUC8 drainage context / generalized","geometryStatus":"natural_stream_detail_tile_from_full_interpreted_layer","troutSource":"HUC8 lineage assignment v1 / review needed","sourceName":"Salt Arroyo","name":"Salt Arroyo","source_id":"158848266","length_km":0.14134207,"FType":460,"FCode":46003,"atlas_class":"streamriver","display_name":"Salt Arroyo","stream_role":"natural_stream_detail_context","sourceLayer":"colorado_natural_stream_detail_tiles_v1","sourceLabel":"Colorado natural stream detail tiles v1","sensitivity":"generalized"},"geometry":{"type":"LineString","coordinates":[[-103.49581,37.83797],[-103.49424,37.83773]]}},{"type":"Feature","properties":{"huc8":"11020010","huc8Name":"Purgatoire","historic":"yellowfin","current":"introduced","recovery":"recoveryWatch","lineageKey":"yellowfin","lineageLabel":"Yellowfin / Arkansas headwaters historical form","basin":"Purgatoire","note":"Arkansas basin historical Yellowfin context; review needed","state":"CO","confidence":"HUC8 drainage context / generalized","geometryStatus":"natural_stream_detail_tile_from_full_interpreted_layer","troutSource":"HUC8 lineage assignment v1 / review needed","sourceName":"Salt Arroyo","name":"Salt Arroyo","source_id":"158848262","length_km":0.12628178,"FType":460,"FCode":46003,"atlas_class":"streamriver","display_name":"Salt Arroyo","stream_role":"natural_stream_detail_context","sourceLayer":"colorado_natural_stream_detail_tiles_v1","sourceLabel":"Colorado natural stream detail tiles v1","sensitivity":"generalized"},"geometry":{"type":"LineString","coordinates":[[-103.49424,37.83773],[-103.49357,37.83746],[-103.49376,37.83701]]}},{"type":"Feature","properties":{"huc8":"11020010","huc8Name":"Purgatoire","historic":"yellowfin","current":"introduced","recovery":"recoveryWatch","lineageKey":"yellowfin","lineageLabel":"Yellowfin / Arkansas headwaters historical form","basin":"Purgatoire","note":"Arkansas basin historical Yellowfin context; review needed","state":"CO","confidence":"HUC8 drainage context / generalized","geometryStatus":"natural_stream_detail_tile_from_full_interpreted_layer","troutSource":"HUC8 lineage assignment v1 / review needed","sourceName":"Salt Arroyo","name":"Salt Arroyo","source_id":"158848277","length_km":0.29883982,"FType":460,"FCode":46003,"atlas_class":"streamriver","display_name":"Salt Arroyo","stream_role":"natural_stream_detail_context","sourceLayer":"colorado_natural_stream_detail_tiles_v1","sourceLabel":"Colorado natural stream detail tiles v1","sensitivity":"generalized"},"geometry":{"type":"LineString","coordinates":[[-103.43106,37.81412],[-103.42775,37.81358]]}},{"type":"Feature","properties":{"huc8":"11020010","huc8Name":"Purgatoire","historic":"yellowfin","current":"introduced","recovery":"recoveryWatch","lineageKey":"yellowfin","lineageLabel":"Yellowfin / Arkansas headwaters historical form","basin":"Purgatoire","note":"Arkansas basin historical Yellowfin context; review needed","state":"CO","confidence":"HUC8 drainage context / generalized","geometryStatus":"natural_stream_detail_tile_from_full_interpreted_layer","troutSource":"HUC8 lineage assignment v1 / review needed","sourceName":"Salt Arroyo","name":"Salt Arroyo","source_id":"131275015","length_km":0.86052612,"FType":460,"FCode":46003,"atlas_class":"streamriver","display_name":"Salt Arroyo","stream_role":"natural_stream_detail_context","sourceLayer":"colorado_natural_stream_detail_tiles_v1","sourceLabel":"Colorado natural stream detail tiles v1","sensitivity":"generalized"},"geometry":{"type":"LineString","coordinates":[[-103.42775,37.81358],[-103.42558,37.81284],[-103.42521,37.81176],[-103.423,37.80967],[-103.42055,37.80953]]}},{"type":"Feature","properties":{"huc8":"11020010","huc8Name":"Purgatoire","historic":"yellowfin","current":"introduced","recovery":"recoveryWatch","lineageKey":"yellowfin","lineageLabel":"Yellowfin / Arkansas headwaters historical form","basin":"Purgatoire","note":"Arkansas basin historical Yellowfin context; review needed","state":"CO","confidence":"HUC8 drainage context / generalized","geometryStatus":"natural_stream_detail_tile_from_full_interpreted_layer","troutSource":"HUC8 lineage assignment v1 / review needed","sourceName":"Salt Arroyo","name":"Salt Arroyo","source_id":"158848206","length_km":0.29807415,"FType":460,"FCode":46003,"atlas_class":"streamriver","display_name":"Salt Arroyo","stream_role":"natural_stream_detail_context","sourceLayer":"colorado_natural_stream_detail_tiles_v1","sourceLabel":"Colorado natural stream detail tiles v1","sensitivity":"generalized"},"geometry":{"type":"LineString","coordinates":[[-103.49191,37.83672],[-103.48867,37.83641]]}},{"type":"Feature","properties":{"huc8":"11020010","huc8Name":"Purgatoire","historic":"yellowfin","current":"introduced","recovery":"recoveryWatch","lineageKey":"yellowfin","lineageLabel":"Yellowfin / Arkansas headwaters historical form","basin":"Purgatoire","note":"Arkansas basin historical Yellowfin context; review needed","state":"CO","confidence":"HUC8 drainage context / generalized","geometryStatus":"natural_stream_detail_tile_from_full_interpreted_layer","troutSource":"HUC8 lineage assignment v1 / review needed","sourceName":"McMahon Arroyo","name":"McMahon Arroyo","source_id":"131272110","length_km":0.17567521,"FType":460,"FCode":46003,"atlas_class":"streamriver","display_name":"McMahon Arroyo","stream_role":"natural_stream_detail_context","sourceLayer":"colorado_natural_stream_detail_tiles_v1","sourceLabel":"Colorado natural stream detail tiles v1","sensitivity":"generalized"},"geometry":{"type":"LineString","coordinates":[[-103.51526,37.81131],[-103.51369,37.81057]]}},{"type":"Feature","properties":{"huc8":"11020010","huc8Name":"Purgatoire","historic":"yellowfin","current":"introduced","recovery":"recoveryWatch","lineageKey":"yellowfin","lineageLabel":"Yellowfin / Arkansas headwaters historical form","basin":"Purgatoire","note":"Arkansas basin historical Yellowfin context; review needed","state":"CO","confidence":"HUC8 drainage context / generalized","geometryStatus":"natural_stream_detail_tile_from_full_interpreted_layer","troutSource":"HUC8 lineage assignment v1 / review needed","sourceName":"Alkali Arroyo","name":"Alkali Arroyo","source_id":"158848212","length_km":0.44545944,"FType":460,"FCode":46003,"atlas_class":"streamriver","display_name":"Alkali Arroyo","stream_role":"natural_stream_detail_context","sourceLayer":"colorado_natural_stream_detail_tiles_v1","sourceLabel":"Colorado natural stream detail tiles v1","sensitivity":"generalized"},"geometry":{"type":"LineString","coordinates":[[-103.46881,37.87287],[-103.46499,37.87526]]}},{"type":"Feature","properties":{"huc8":"11020010","huc8Name":"Purgatoire","historic":"yellowfin","current":"introduced","recovery":"recoveryWatch","lineageKey":"yellowfin","lineageLabel":"Yellowfin / Arkansas headwaters historical form","basin":"Purgatoire","note":"Arkansas basin historical Yellowfin context; review needed","state":"CO","confidence":"HUC8 drainage context / generalized","geometryStatus":"natural_stream_detail_tile_from_full_interpreted_layer","troutSource":"HUC8 lineage assignment v1 / review needed","sourceName":"Rock Arroyo","name":"Rock Arroyo","source_id":"158847678","length_km":0.45069523,"FType":460,"FCode":46003,"atlas_class":"streamriver","display_name":"Rock Arroyo","stream_role":"natural_stream_detail_context","sourceLayer":"colorado_natural_stream_detail_tiles_v1","sourceLabel":"Colorado natural stream detail tiles v1","sensitivity":"generalized"},"geometry":{"type":"LineString","coordinates":[[-103.42003,37.91904],[-103.41842,37.9173],[-103.41652,37.91623]]}},{"type":"Feature","properties":{"huc8":"11020010","huc8Name":"Purgatoire","historic":"yellowfin","current":"introduced","recovery":"recoveryWatch","lineageKey":"yellowfin","lineageLabel":"Yellowfin / Arkansas headwaters historical form","basin":"Purgatoire","note":"Arkansas basin historical Yellowfin context; review needed","state":"CO","confidence":"HUC8 drainage context / generalized","geometryStatus":"natural_stream_detail_tile_from_full_interpreted_layer","troutSource":"HUC8 lineage assignment v1 / review needed","sourceName":"Salt Arroyo","name":"Salt Arroyo","source_id":"131274287","length_km":0.16481718,"FType":460,"FCode":46003,"atlas_class":"streamriver","display_name":"Salt Arroyo","stream_role":"natural_stream_detail_context","sourceLayer":"colorado_natural_stream_detail_tiles_v1","sourceLabel":"Colorado natural stream detail tiles v1","sensitivity":"generalized"},"geometry":{"type":"LineString","coordinates":[[-103.4735,37.83571],[-103.47299,37.83508],[-103.47212,37.83521]]}},{"type":"Feature","properties":{"huc8":"11020010","huc8Name":"Purgatoire","historic":"yellowfin","current":"introduced","recovery":"recoveryWatch","lineageKey":"yellowfin","lineageLabel":"Yellowfin / Arkansas headwaters historical form","basin":"Purgatoire","note":"Arkansas basin historical Yellowfin context; review needed","state":"CO","confidence":"HUC8 drainage context / generalized","geometryStatus":"natural_stream_detail_tile_from_full_interpreted_layer","troutSource":"HUC8 lineage assignment v1 / review needed","sourceName":"Salt Arroyo","name":"Salt Arroyo","source_id":"158848345","length_km":0.14611315,"FType":460,"FCode":46003,"atlas_class":"streamriver","display_name":"Salt Arroyo","stream_role":"natural_stream_detail_context","sourceLayer":"colorado_natural_stream_detail_tiles_v1","sourceLabel":"Colorado natural stream detail tiles v1","sensitivity":"generalized"},"geometry":{"type":"LineString","coordinates":[[-103.47212,37.83521],[-103.47065,37.83468]]}},{"type":"Feature","properties":{"huc8":"11020010","huc8Name":"Purgatoire","historic":"yellowfin","current":"introduced","recovery":"recoveryWatch","lineageKey":"yellowfin","lineageLabel":"Yellowfin / Arkansas headwaters historical form","basin":"Purgatoire","note":"Arkansas basin historical Yellowfin context; review needed","state":"CO","confidence":"HUC8 drainage context / generalized","geometryStatus":"natural_stream_detail_tile_from_full_interpreted_layer","troutSource":"HUC8 lineage assignment v1 / review needed","sourceName":"McMahon Arroyo","name":"McMahon Arroyo","source_id":"158849192","length_km":2.51719925,"FType":460,"FCode":46003,"atlas_class":"streamriver","display_name":"McMahon Arroyo","stream_role":"natural_stream_detail_context","sourceLayer":"colorado_natural_stream_detail_tiles_v1","sourceLabel":"Colorado natural stream detail tiles v1","sensitivity":"generalized"},"geometry":{"type":"LineString","coordinates":[[-103.49909,37.80245],[-103.49851,37.80235],[-103.49899,37.80108],[-103.49819,37.80045],[-103.49806,37.79827],[-103.49721,37.79754],[-103.49759,37.7967],[-103.49643,37.7962],[-103.4965,37.79561],[-103.49529,37.79448],[-103.49423,37.79457],[-103.49344,37.79343],[-103.49083,37.79199],[-103.491,37.79031],[-103.48937,37.78927],[-103.48861,37.78784],[-103.48853,37.78671],[-103.48908,37.78635]]}},{"type":"Feature","properties":{"huc8":"11020010","huc8Name":"Purgatoire","historic":"yellowfin","current":"introduced","recovery":"recoveryWatch","lineageKey":"yellowfin","lineageLabel":"Yellowfin / Arkansas headwaters historical form","basin":"Purgatoire","note":"Arkansas basin historical Yellowfin context; review needed","state":"CO","confidence":"HUC8 drainage context / generalized","geometryStatus":"natural_stream_detail_tile_from_full_interpreted_layer","troutSource":"HUC8 lineage assignment v1 / review needed","sourceName":"McMahon Arroyo","name":"McMahon Arroyo","source_id":"158849142","length_km":0.02064443,"FType":460,"FCode":46003,"atlas_class":"streamriver","display_name":"McMahon Arroyo","stream_role":"natural_stream_detail_context","sourceLayer":"colorado_natural_stream_detail_tiles_v1","sourceLabel":"Colorado natural stream detail tiles v1","sensitivity":"generalized"},"geometry":{"type":"LineString","coordinates":[[-103.50039,37.80504],[-103.50035,37.80486]]}},{"type":"Feature","properties":{"huc8":"11020010","huc8Name":"Purgatoire","historic":"yellowfin","current":"introduced","recovery":"recoveryWatch","lineageKey":"yellowfin","lineageLabel":"Yellowfin / Arkansas headwaters historical form","basin":"Purgatoire","note":"Arkansas basin historical Yellowfin context; review needed","state":"CO","confidence":"HUC8 drainage context / generalized","geometryStatus":"natural_stream_detail_tile_from_full_interpreted_layer","troutSource":"HUC8 lineage assignment v1 / review needed","sourceName":"Salt Arroyo","name":"Salt Arroyo","source_id":"158850621","length_km":0.10174505,"FType":460,"FCode":46003,"atlas_class":"streamriver","display_name":"Salt Arroyo","stream_role":"natural_stream_detail_context","sourceLayer":"colorado_natural_stream_detail_tiles_v1","sourceLabel":"Colorado natural stream detail tiles v1","sensitivity":"generalized"},"geometry":{"type":"LineString","coordinates":[[-103.50121,37.83641],[-103.50029,37.83685]]}},{"type":"Feature","properties":{"huc8":"11020010","huc8Name":"Purgatoire","historic":"yellowfin","current":"introduced","recovery":"recoveryWatch","lineageKey":"yellowfin","lineageLabel":"Yellowfin / Arkansas headwaters historical form","basin":"Purgatoire","note":"Arkansas basin historical Yellowfin context; review needed","state":"CO","confidence":"HUC8 drainage context / generalized","geometryStatus":"natural_stream_detail_tile_from_full_interpreted_layer","troutSource":"HUC8 lineage assignment v1 / review needed","sourceName":"McMahon Arroyo","name":"McMahon Arroyo","source_id":"131244442","length_km":0.35172228,"FType":460,"FCode":46003,"atlas_class":"streamriver","display_name":"McMahon Arroyo","stream_role":"natural_stream_detail_context","sourceLayer":"colorado_natural_stream_detail_tiles_v1","sourceLabel":"Colorado natural stream detail tiles v1","sensitivity":"generalized"},"geometry":{"type":"LineString","coordinates":[[-103.5025,37.80717],[-103.50118,37.80626],[-103.50097,37.80513],[-103.50039,37.80504]]}},{"type":"Feature","properties":{"huc8":"11020010","huc8Name":"Purgatoire","historic":"yellowfin","current":"introduced","recovery":"recoveryWatch","lineageKey":"yellowfin","lineageLabel":"Yellowfin / Arkansas headwaters historical form","basin":"Purgatoire","note":"Arkansas basin historical Yellowfin context; review needed","state":"CO","confidence":"HUC8 drainage context / generalized","geometryStatus":"natural_stream_detail_tile_from_full_interpreted_layer","troutSource":"HUC8 lineage assignment v1 / review needed","sourceName":"McMahon Arroyo","name":"McMahon Arroyo","source_id":"158849190","length_km":0.32901282,"FType":460,"FCode":46003,"atlas_class":"streamriver","display_name":"McMahon Arroyo","stream_role":"natural_stream_detail_context","sourceLayer":"colorado_natural_stream_detail_tiles_v1","sourceLabel":"Colorado natural stream detail tiles v1","sensitivity":"generalized"},"geometry":{"type":"LineString","coordinates":[[-103.50035,37.80486],[-103.49909,37.80245]]}},{"type":"Feature","properties":{"huc8":"11020010","huc8Name":"Purgatoire","historic":"yellowfin","current":"introduced","recovery":"recoveryWatch","lineageKey":"yellowfin","lineageLabel":"Yellowfin / Arkansas headwaters historical form","basin":"Purgatoire","note":"Arkansas basin historical Yellowfin context; review needed","state":"CO","confidence":"HUC8 drainage context / generalized","geometryStatus":"natural_stream_detail_tile_from_full_interpreted_layer","troutSource":"HUC8 lineage assignment v1 / review needed","sourceName":"Salt Arroyo","name":"Salt Arroyo","source_id":"158848207","length_km":0.63158678,"FType":460,"FCode":46003,"atlas_class":"streamriver","display_name":"Salt Arroyo","stream_role":"natural_stream_detail_context","sourceLayer":"colorado_natural_stream_detail_tiles_v1","sourceLabel":"Colorado natural stream detail tiles v1","sensitivity":"generalized"},"geometry":{"type":"LineString","coordinates":[[-103.48867,37.83641],[-103.48641,37.83694],[-103.48184,37.83631]]}},{"type":"Feature","properties":{"huc8":"11020010","huc8Name":"Purgatoire","historic":"yellowfin","current":"introduced","recovery":"recoveryWatch","lineageKey":"yellowfin","lineageLabel":"Yellowfin / Arkansas headwaters historical form","basin":"Purgatoire","note":"Arkansas basin historical Yellowfin context; review needed","state":"CO","confidence":"HUC8 drainage context / generalized","geometryStatus":"natural_stream_detail_tile_from_full_interpreted_layer","troutSource":"HUC8 lineage assignment v1 / review needed","sourceName":"McMahon Arroyo","name":"McMahon Arroyo","source_id":"158850310","length_km":0.49235397,"FType":460,"FCode":46003,"atlas_class":"streamriver","display_name":"McMahon Arroyo","stream_role":"natural_stream_detail_context","sourceLayer":"colorado_natural_stream_detail_tiles_v1","sourceLabel":"Colorado natural stream detail tiles v1","sensitivity":"generalized"},"geometry":{"type":"LineString","coordinates":[[-103.50984,37.8082],[-103.50705,37.80696],[-103.5051,37.80776]]}},{"type":"Feature","properties":{"huc8":"11020010","huc8Name":"Purgatoire","historic":"yellowfin","current":"introduced","recovery":"recoveryWatch","lineageKey":"yellowfin","lineageLabel":"Yellowfin / Arkansas headwaters historical form","basin":"Purgatoire","note":"Arkansas basin historical Yellowfin context; review needed","state":"CO","confidence":"HUC8 drainage context / generalized","geometryStatus":"natural_stream_detail_tile_from_full_interpreted_layer","troutSource":"HUC8 lineage assignment v1 / review needed","sourceName":"McMahon Arroyo","name":"McMahon Arroyo","source_id":"131271983","length_km":0.23009636,"FType":460,"FCode":46003,"atlas_class":"streamriver","display_name":"McMahon Arroyo","stream_role":"natural_stream_detail_context","sourceLayer":"colorado_natural_stream_detail_tiles_v1","sourceLabel":"Colorado natural stream detail tiles v1","sensitivity":"generalized"},"geometry":{"type":"LineString","coordinates":[[-103.51776,37.81109],[-103.51526,37.81131]]}},{"type":"Feature","properties":{"huc8":"11020010","huc8Name":"Purgatoire","historic":"yellowfin","current":"introduced","recovery":"recoveryWatch","lineageKey":"yellowfin","lineageLabel":"Yellowfin / Arkansas headwaters historical form","basin":"Purgatoire","note":"Arkansas basin historical Yellowfin context; review needed","state":"CO","confidence":"HUC8 drainage context / generalized","geometryStatus":"natural_stream_detail_tile_from_full_interpreted_layer","troutSource":"HUC8 lineage assignment v1 / review needed","sourceName":"Salt Arroyo","name":"Salt Arroyo","source_id":"158848264","length_km":0.05664102,"FType":460,"FCode":46003,"atlas_class":"streamriver","display_name":"Salt Arroyo","stream_role":"natural_stream_detail_context","sourceLayer":"colorado_natural_stream_detail_tiles_v1","sourceLabel":"Colorado natural stream detail tiles v1","sensitivity":"generalized"},"geometry":{"type":"LineString","coordinates":[[-103.49376,37.83701],[-103.49336,37.83681]]}},{"type":"Feature","properties":{"huc8":"11020010","huc8Name":"Purgatoire","historic":"yellowfin","current":"introduced","recovery":"recoveryWatch","lineageKey":"yellowfin","lineageLabel":"Yellowfin / Arkansas headwaters historical form","basin":"Purgatoire","note":"Arkansas basin historical Yellowfin context; review needed","state":"CO","confidence":"HUC8 drainage context / generalized","geometryStatus":"natural_stream_detail_tile_from_full_interpreted_layer","troutSource":"HUC8 lineage assignment v1 / review needed","sourceName":"Salt Arroyo","name":"Salt Arroyo","source_id":"158848347","length_km":0.2854207,"FType":460,"FCode":46003,"atlas_class":"streamriver","display_name":"Salt Arroyo","stream_role":"natural_stream_detail_context","sourceLayer":"colorado_natural_stream_detail_tiles_v1","sourceLabel":"Colorado natural stream detail tiles v1","sensitivity":"generalized"},"geometry":{"type":"LineString","coordinates":[[-103.47065,37.83468],[-103.46783,37.83438]]}},{"type":"Feature","properties":{"huc8":"11020010","huc8Name":"Purgatoire","historic":"yellowfin","current":"introduced","recovery":"recoveryWatch","lineageKey":"yellowfin","lineageLabel":"Yellowfin / Arkansas headwaters historical form","basin":"Purgatoire","note":"Arkansas basin historical Yellowfin context; review needed","state":"CO","confidence":"HUC8 drainage context / generalized","geometryStatus":"natural_stream_detail_tile_from_full_interpreted_layer","troutSource":"HUC8 lineage assignment v1 / review needed","sourceName":"Salt Arroyo","name":"Salt Arroyo","source_id":"158849099","length_km":0.2515716,"FType":460,"FCode":46003,"atlas_class":"streamriver","display_name":"Salt Arroyo","stream_role":"natural_stream_detail_context","sourceLayer":"colorado_natural_stream_detail_tiles_v1","sourceLabel":"Colorado natural stream detail tiles v1","sensitivity":"generalized"},"geometry":{"type":"LineString","coordinates":[[-103.41973,37.80987],[-103.41713,37.81056]]}},{"type":"Feature","properties":{"huc8":"11020010","huc8Name":"Purgatoire","historic":"yellowfin","current":"introduced","recovery":"recoveryWatch","lineageKey":"yellowfin","lineageLabel":"Yellowfin / Arkansas headwaters historical form","basin":"Purgatoire","note":"Arkansas basin historical Yellowfin context; review needed","state":"CO","confidence":"HUC8 drainage context / generalized","geometryStatus":"natural_stream_detail_tile_from_full_interpreted_layer","troutSource":"HUC8 lineage assignment v1 / review needed","sourceName":"Rock Arroyo","name":"Rock Arroyo","source_id":"158847864","length_km":0.05049587,"FType":460,"FCode":46003,"atlas_class":"streamriver","display_name":"Rock Arroyo","stream_role":"natural_stream_detail_context","sourceLayer":"colorado_natural_stream_detail_tiles_v1","sourceLabel":"Colorado natural stream detail tiles v1","sensitivity":"generalized"},"geometry":{"type":"LineString","coordinates":[[-103.42345,37.92018],[-103.42287,37.92016]]}},{"type":"Feature","properties":{"huc8":"11020010","huc8Name":"Purgatoire","historic":"yellowfin","current":"introduced","recovery":"recoveryWatch","lineageKey":"yellowfin","lineageLabel":"Yellowfin / Arkansas headwaters historical form","basin":"Purgatoire","note":"Arkansas basin historical Yellowfin context; review needed","state":"CO","confidence":"HUC8 drainage context / generalized","geometryStatus":"natural_stream_detail_tile_from_full_interpreted_layer","troutSource":"HUC8 lineage assignment v1 / review needed","sourceName":"Salt Arroyo","name":"Salt Arroyo","source_id":"158849047","length_km":0.77339477,"FType":460,"FCode":46003,"atlas_class":"streamriver","display_name":"Salt Arroyo","stream_role":"natural_stream_detail_context","sourceLayer":"colorado_natural_stream_detail_tiles_v1","sourceLabel":"Colorado natural stream detail tiles v1","sensitivity":"generalized"},"geometry":{"type":"LineString","coordinates":[[-103.40051,37.81354],[-103.39932,37.81457],[-103.39835,37.81403],[-103.39792,37.80962]]}},{"type":"Feature","properties":{"huc8":"11020010","huc8Name":"Purgatoire","historic":"yellowfin","current":"introduced","recovery":"recoveryWatch","lineageKey":"yellowfin","lineageLabel":"Yellowfin / Arkansas headwaters historical form","basin":"Purgatoire","note":"Arkansas basin historical Yellowfin context; review needed","state":"CO","confidence":"HUC8 drainage context / generalized","geometryStatus":"natural_stream_detail_tile_from_full_interpreted_layer","troutSource":"HUC8 lineage assignment v1 / review needed","sourceName":"Salt Arroyo","name":"Salt Arroyo","source_id":"131274553","length_km":1.70553524,"FType":460,"FCode":46003,"atlas_class":"streamriver","display_name":"Salt Arroyo","stream_role":"natural_stream_detail_context","sourceLayer":"colorado_natural_stream_detail_tiles_v1","sourceLabel":"Colorado natural stream detail tiles v1","sensitivity":"generalized"},"geometry":{"type":"LineString","coordinates":[[-103.45604,37.83344],[-103.45472,37.83262],[-103.45548,37.83182],[-103.4531,37.83035],[-103.45128,37.82984],[-103.45007,37.83032],[-103.44912,37.82907],[-103.44936,37.82828],[-103.44813,37.82748],[-103.44835,37.82657],[-103.44775,37.82544],[-103.44842,37.82418]]}},{"type":"Feature","properties":{"huc8":"11020010","huc8Name":"Purgatoire","historic":"yellowfin","current":"introduced","recovery":"recoveryWatch","lineageKey":"yellowfin","lineageLabel":"Yellowfin / Arkansas headwaters historical form","basin":"Purgatoire","note":"Arkansas basin historical Yellowfin context; review needed","state":"CO","confidence":"HUC8 drainage context / generalized","geometryStatus":"natural_stream_detail_tile_from_full_interpreted_layer","troutSource":"HUC8 lineage assignment v1 / review needed","sourceName":"Alkali Arroyo","name":"Alkali Arroyo","source_id":"158848384","length_km":0.38702112,"FType":460,"FCode":46003,"atlas_class":"streamriver","display_name":"Alkali Arroyo","stream_role":"natural_stream_detail_context","sourceLayer":"colorado_natural_stream_detail_tiles_v1","sourceLabel":"Colorado natural stream detail tiles v1","sensitivity":"generalized"},"geometry":{"type":"LineString","coordinates":[[-103.4569,37.87352],[-103.4559,37.87276],[-103.45313,37.87225]]}},{"type":"Feature","properties":{"huc8":"11020010","huc8Name":"Purgatoire","historic":"yellowfin","current":"introduced","recovery":"recoveryWatch","lineageKey":"yellowfin","lineageLabel":"Yellowfin / Arkansas headwaters historical form","basin":"Purgatoire","note":"Arkansas basin historical Yellowfin context; review needed","state":"CO","confidence":"HUC8 drainage context / generalized","geometryStatus":"natural_stream_detail_tile_from_full_interpreted_layer","troutSource":"HUC8 lineage assignment v1 / review needed","sourceName":"Alkali Arroyo","name":"Alkali Arroyo","source_id":"131243996","length_km":0.21895392,"FType":460,"FCode":46003,"atlas_class":"streamriver","display_name":"Alkali Arroyo","stream_role":"natural_stream_detail_context","sourceLayer":"colorado_natural_stream_detail_tiles_v1","sourceLabel":"Colorado natural stream detail tiles v1","sensitivity":"generalized"},"geometry":{"type":"LineString","coordinates":[[-103.45073,37.87206],[-103.4489,37.87334]]}},{"type":"Feature","properties":{"huc8":"11020010","huc8Name":"Purgatoire","historic":"yellowfin","current":"introduced","recovery":"recoveryWatch","lineageKey":"yellowfin","lineageLabel":"Yellowfin / Arkansas headwaters historical form","basin":"Purgatoire","note":"Arkansas basin historical Yellowfin context; review needed","state":"CO","confidence":"HUC8 drainage context / generalized","geometryStatus":"natural_stream_detail_tile_from_full_interpreted_layer","troutSource":"HUC8 lineage assignment v1 / review needed","sourceName":"Alkali Arroyo","name":"Alkali Arroyo","source_id":"158848320","length_km":0.22967723,"FType":460,"FCode":46003,"atlas_class":"streamriver","display_name":"Alkali Arroyo","stream_role":"natural_stream_detail_context","sourceLayer":"colorado_natural_stream_detail_tiles_v1","sourceLabel":"Colorado natural stream detail tiles v1","sensitivity":"generalized"},"geometry":{"type":"LineString","coordinates":[[-103.47404,37.86979],[-103.47156,37.87033]]}},{"type":"Feature","properties":{"huc8":"11020010","huc8Name":"Purgatoire","historic":"yellowfin","current":"introduced","recovery":"recoveryWatch","lineageKey":"yellowfin","lineageLabel":"Yellowfin / Arkansas headwaters historical form","basin":"Purgatoire","note":"Arkansas basin historical Yellowfin context; review needed","state":"CO","confidence":"HUC8 drainage context / generalized","geometryStatus":"natural_stream_detail_tile_from_full_interpreted_layer","troutSource":"HUC8 lineage assignment v1 / review needed","sourceName":"Rock Arroyo","name":"Rock Arroyo","source_id":"158847866","length_km":0.00364379,"FType":460,"FCode":46003,"atlas_class":"streamriver","display_name":"Rock Arroyo","stream_role":"natural_stream_detail_context","sourceLayer":"colorado_natural_stream_detail_tiles_v1","sourceLabel":"Colorado natural stream detail tiles v1","sensitivity":"generalized"},"geometry":{"type":"LineString","coordinates":[[-103.42287,37.92016],[-103.42283,37.92016]]}},{"type":"Feature","properties":{"huc8":"11020010","huc8Name":"Purgatoire","historic":"yellowfin","current":"introduced","recovery":"recoveryWatch","lineageKey":"yellowfin","lineageLabel":"Yellowfin / Arkansas headwaters historical form","basin":"Purgatoire","note":"Arkansas basin historical Yellowfin context; review needed","state":"CO","confidence":"HUC8 drainage context / generalized","geometryStatus":"natural_stream_detail_tile_from_full_interpreted_layer","troutSource":"HUC8 lineage assignment v1 / review needed","sourceName":"Rock Arroyo","name":"Rock Arroyo","source_id":"158847677","length_km":0.03815126,"FType":460,"FCode":46003,"atlas_class":"streamriver","display_name":"Rock Arroyo","stream_role":"natural_stream_detail_context","sourceLayer":"colorado_natural_stream_detail_tiles_v1","sourceLabel":"Colorado natural stream detail tiles v1","sensitivity":"generalized"},"geometry":{"type":"LineString","coordinates":[[-103.42063,37.91949],[-103.42029,37.91927]]}},{"type":"Feature","properties":{"huc8":"11020010","huc8Name":"Purgatoire","historic":"yellowfin","current":"introduced","recovery":"recoveryWatch","lineageKey":"yellowfin","lineageLabel":"Yellowfin / Arkansas headwaters historical form","basin":"Purgatoire","note":"Arkansas basin historical Yellowfin context; review needed","state":"CO","confidence":"HUC8 drainage context / generalized","geometryStatus":"natural_stream_detail_tile_from_full_interpreted_layer","troutSource":"HUC8 lineage assignment v1 / review needed","sourceName":"Alkali Arroyo","name":"Alkali Arroyo","source_id":"158848235","length_km":0.19142189,"FType":460,"FCode":46003,"atlas_class":"streamriver","display_name":"Alkali Arroyo","stream_role":"natural_stream_detail_context","sourceLayer":"colorado_natural_stream_detail_tiles_v1","sourceLabel":"Colorado natural stream detail tiles v1","sensitivity":"generalized"},"geometry":{"type":"LineString","coordinates":[[-103.42792,37.87484],[-103.42701,37.87525],[-103.4262,37.87476]]}},{"type":"Feature","properties":{"huc8":"11020010","huc8Name":"Purgatoire","historic":"yellowfin","current":"introduced","recovery":"recoveryWatch","lineageKey":"yellowfin","lineageLabel":"Yellowfin / Arkansas headwaters historical form","basin":"Purgatoire","note":"Arkansas basin historical Yellowfin context; review needed","state":"CO","confidence":"HUC8 drainage context / generalized","geometryStatus":"natural_stream_detail_tile_from_full_interpreted_layer","troutSource":"HUC8 lineage assignment v1 / review needed","sourceName":"Salt Arroyo","name":"Salt Arroyo","source_id":"131273132","length_km":0.07974893,"FType":460,"FCode":46003,"atlas_class":"streamriver","display_name":"Salt Arroyo","stream_role":"natural_stream_detail_context","sourceLayer":"colorado_natural_stream_detail_tiles_v1","sourceLabel":"Colorado natural stream detail tiles v1","sensitivity":"generalized"},"geometry":{"type":"LineString","coordinates":[[-103.49272,37.83705],[-103.49191,37.83672]]}},{"type":"Feature","properties":{"huc8":"11020010","huc8Name":"Purgatoire","historic":"yellowfin","current":"introduced","recovery":"recoveryWatch","lineageKey":"yellowfin","lineageLabel":"Yellowfin / Arkansas headwaters historical form","basin":"Purgatoire","note":"Arkansas basin historical Yellowfin context; review needed","state":"CO","confidence":"HUC8 drainage context / generalized","geometryStatus":"natural_stream_detail_tile_from_full_interpreted_layer","troutSource":"HUC8 lineage assignment v1 / review needed","sourceName":"Salt Arroyo","name":"Salt Arroyo","source_id":"158848394","length_km":0.15745585,"FType":460,"FCode":46003,"atlas_class":"streamriver","display_name":"Salt Arroyo","stream_role":"natural_stream_detail_context","sourceLayer":"colorado_natural_stream_detail_tiles_v1","sourceLabel":"Colorado natural stream detail tiles v1","sensitivity":"generalized"},"geometry":{"type":"LineString","coordinates":[[-103.49793,37.83838],[-103.4962,37.83812]]}},{"type":"Feature","properties":{"huc8":"11020010","huc8Name":"Purgatoire","historic":"yellowfin","current":"introduced","recovery":"recoveryWatch","lineageKey":"yellowfin","lineageLabel":"Yellowfin / Arkansas headwaters historical form","basin":"Purgatoire","note":"Arkansas basin historical Yellowfin context; review needed","state":"CO","confidence":"HUC8 drainage context / generalized","geometryStatus":"natural_stream_detail_tile_from_full_interpreted_layer","troutSource":"HUC8 lineage assignment v1 / review needed","sourceName":"Alkali Arroyo","name":"Alkali Arroyo","source_id":"158847620","length_km":0.23360485,"FType":460,"FCode":46003,"atlas_class":"streamriver","display_name":"Alkali Arroyo","stream_role":"natural_stream_detail_context","sourceLayer":"colorado_natural_stream_detail_tiles_v1","sourceLabel":"Colorado natural stream detail tiles v1","sensitivity":"generalized"},"geometry":{"type":"LineString","coordinates":[[-103.46499,37.87526],[-103.46249,37.87529]]}}]}