{"type":"FeatureCollection","name":"co_natural_stream_detail_0p2_x-546_y202_v1","metadata":{"description":"Colorado natural named stream/rivers close-zoom detail tile. Excludes likely human-altered named linework.","version":"v1","gridSizeDegrees":0.2,"tileX":-546,"tileY":202,"bounds":{"west":-109.2,"south":40.400000000000006,"east":-109,"north":40.6},"source":"C:\\ct-atlas-data\\processed\\geojson\\interpreted\\colorado_cutthroat_huc8_stream_context_named_v1.geojson"},"features":[{"type":"Feature","properties":{"huc8":"14040106","huc8Name":"Upper Green-Flaming Gorge Reservoir","historic":"greenRiverBlue","current":"introduced","recovery":"recoveryWatch","lineageKey":"greenRiverBlue","lineageLabel":"Green River / blue-lineage CT","basin":"Upper Green-Flaming Gorge Reservoir","note":"Green River / blue-lineage context; Colorado-touching HUC","state":"CO","confidence":"HUC8 drainage context / generalized","geometryStatus":"natural_stream_detail_tile_from_full_interpreted_layer","troutSource":"HUC8 lineage assignment v1 / review needed","sourceName":"Rippling Brook","name":"Rippling Brook","source_id":"75283661","length_km":1.02612564,"FType":460,"FCode":46003,"atlas_class":"streamriver","display_name":"Rippling Brook","stream_role":"natural_stream_detail_context","sourceLayer":"colorado_natural_stream_detail_tiles_v1","sourceLabel":"Colorado natural stream detail tiles v1","sensitivity":"generalized"},"geometry":{"type":"LineString","coordinates":[[-109.00973,40.58873],[-109.00488,40.58794],[-108.99899,40.58524]]}},{"type":"Feature","properties":{"huc8":"14050002","huc8Name":"Lower Yampa","historic":"greenRiverBlue","current":"introduced","recovery":"recoveryWatch","lineageKey":"greenRiverBlue","lineageLabel":"Green River / blue-lineage CT","basin":"Lower Yampa","note":"Yampa blue-lineage context","state":"CO","confidence":"HUC8 drainage context / generalized","geometryStatus":"natural_stream_detail_tile_from_full_interpreted_layer","troutSource":"HUC8 lineage assignment v1 / review needed","sourceName":"Cottonwood Creek","name":"Cottonwood Creek","source_id":"83369201","length_km":1.087,"FType":460,"FCode":46003,"atlas_class":"streamriver","display_name":"Cottonwood Creek","stream_role":"natural_stream_detail_context","sourceLayer":"colorado_natural_stream_detail_tiles_v1","sourceLabel":"Colorado natural stream detail tiles v1","sensitivity":"generalized"},"geometry":{"type":"LineString","coordinates":[[-109.01484,40.42348],[-109.01429,40.42524],[-109.01272,40.42612],[-109.01186,40.42738],[-109.00766,40.42887],[-109.00588,40.42885]]}},{"type":"Feature","properties":{"huc8":"14050002","huc8Name":"Lower Yampa","historic":"greenRiverBlue","current":"introduced","recovery":"recoveryWatch","lineageKey":"greenRiverBlue","lineageLabel":"Green River / blue-lineage CT","basin":"Lower Yampa","note":"Yampa blue-lineage context","state":"CO","confidence":"HUC8 drainage context / generalized","geometryStatus":"natural_stream_detail_tile_from_full_interpreted_layer","troutSource":"HUC8 lineage assignment v1 / review needed","sourceName":"Cottonwood Creek","name":"Cottonwood Creek","source_id":"83369161","length_km":0.719,"FType":460,"FCode":46003,"atlas_class":"streamriver","display_name":"Cottonwood Creek","stream_role":"natural_stream_detail_context","sourceLayer":"colorado_natural_stream_detail_tiles_v1","sourceLabel":"Colorado natural stream detail tiles v1","sensitivity":"generalized"},"geometry":{"type":"LineString","coordinates":[[-109.01391,40.41763],[-109.01418,40.41992],[-109.01355,40.42239],[-109.01484,40.42348]]}},{"type":"Feature","properties":{"huc8":"14050002","huc8Name":"Lower Yampa","historic":"greenRiverBlue","current":"introduced","recovery":"recoveryWatch","lineageKey":"greenRiverBlue","lineageLabel":"Green River / blue-lineage CT","basin":"Lower Yampa","note":"Yampa blue-lineage context","state":"CO","confidence":"HUC8 drainage context / generalized","geometryStatus":"natural_stream_detail_tile_from_full_interpreted_layer","troutSource":"HUC8 lineage assignment v1 / review needed","sourceName":"Cottonwood Creek","name":"Cottonwood Creek","source_id":"83369199","length_km":1.61392625,"FType":460,"FCode":46003,"atlas_class":"streamriver","display_name":"Cottonwood Creek","stream_role":"natural_stream_detail_context","sourceLayer":"colorado_natural_stream_detail_tiles_v1","sourceLabel":"Colorado natural stream detail tiles v1","sensitivity":"generalized"},"geometry":{"type":"LineString","coordinates":[[-109.00497,40.42919],[-109.00418,40.43023],[-109.0036,40.4334],[-109.002,40.43546],[-109.00067,40.43668],[-108.99725,40.43734],[-108.99547,40.43998]]}},{"type":"Feature","properties":{"huc8":"14060010","huc8Name":"Lower Green-Diamond","historic":"greenRiverBlue","current":"introduced","recovery":"recoveryWatch","lineageKey":"greenRiverBlue","lineageLabel":"Green River / blue-lineage CT","basin":"Lower Green-Diamond","note":"Green River blue-lineage context; Colorado-touching HUC","state":"CO","confidence":"HUC8 drainage context / generalized","geometryStatus":"natural_stream_detail_tile_from_full_interpreted_layer","troutSource":"HUC8 lineage assignment v1 / review needed","sourceName":"Pool Creek","name":"Pool Creek","source_id":"65995051","length_km":0.22832049,"FType":460,"FCode":46003,"atlas_class":"streamriver","display_name":"Pool Creek","stream_role":"natural_stream_detail_context","sourceLayer":"colorado_natural_stream_detail_tiles_v1","sourceLabel":"Colorado natural stream detail tiles v1","sensitivity":"generalized"},"geometry":{"type":"LineString","coordinates":[[-109.04212,40.47435],[-109.03985,40.47533]]}},{"type":"Feature","properties":{"huc8":"14060010","huc8Name":"Lower Green-Diamond","historic":"greenRiverBlue","current":"introduced","recovery":"recoveryWatch","lineageKey":"greenRiverBlue","lineageLabel":"Green River / blue-lineage CT","basin":"Lower Green-Diamond","note":"Green River blue-lineage context; Colorado-touching HUC","state":"CO","confidence":"HUC8 drainage context / generalized","geometryStatus":"natural_stream_detail_tile_from_full_interpreted_layer","troutSource":"HUC8 lineage assignment v1 / review needed","sourceName":"Pool Creek","name":"Pool Creek","source_id":"65995047","length_km":4.06848567,"FType":460,"FCode":46003,"atlas_class":"streamriver","display_name":"Pool Creek","stream_role":"natural_stream_detail_context","sourceLayer":"colorado_natural_stream_detail_tiles_v1","sourceLabel":"Colorado natural stream detail tiles v1","sensitivity":"generalized"},"geometry":{"type":"LineString","coordinates":[[-109.03985,40.47533],[-109.04008,40.47906],[-109.0387,40.48057],[-109.03711,40.48128],[-109.03507,40.48349],[-109.03234,40.48447],[-109.02973,40.4863],[-109.02961,40.48761],[-109.02808,40.4882],[-109.02538,40.49087],[-109.02373,40.49151],[-109.02229,40.49364],[-109.0192,40.49501],[-109.01683,40.49704],[-109.01459,40.49715],[-109.01138,40.49948],[-109.00985,40.49964]]}},{"type":"Feature","properties":{"huc8":"14060010","huc8Name":"Lower Green-Diamond","historic":"greenRiverBlue","current":"introduced","recovery":"recoveryWatch","lineageKey":"greenRiverBlue","lineageLabel":"Green River / blue-lineage CT","basin":"Lower Green-Diamond","note":"Green River blue-lineage context; Colorado-touching HUC","state":"CO","confidence":"HUC8 drainage context / generalized","geometryStatus":"natural_stream_detail_tile_from_full_interpreted_layer","troutSource":"HUC8 lineage assignment v1 / review needed","sourceName":"Pool Creek","name":"Pool Creek","source_id":"65995061","length_km":0.52158697,"FType":460,"FCode":46003,"atlas_class":"streamriver","display_name":"Pool Creek","stream_role":"natural_stream_detail_context","sourceLayer":"colorado_natural_stream_detail_tiles_v1","sourceLabel":"Colorado natural stream detail tiles v1","sensitivity":"generalized"},"geometry":{"type":"LineString","coordinates":[[-109.05061,40.47158],[-109.04866,40.47268],[-109.04851,40.47337]]}},{"type":"Feature","properties":{"huc8":"14060010","huc8Name":"Lower Green-Diamond","historic":"greenRiverBlue","current":"introduced","recovery":"recoveryWatch","lineageKey":"greenRiverBlue","lineageLabel":"Green River / blue-lineage CT","basin":"Lower Green-Diamond","note":"Green River blue-lineage context; Colorado-touching HUC","state":"CO","confidence":"HUC8 drainage context / generalized","geometryStatus":"natural_stream_detail_tile_from_full_interpreted_layer","troutSource":"HUC8 lineage assignment v1 / review needed","sourceName":"Pool Creek","name":"Pool Creek","source_id":"65994951","length_km":3.57221037,"FType":460,"FCode":46006,"atlas_class":"streamriver","display_name":"Pool Creek","stream_role":"natural_stream_detail_context","sourceLayer":"colorado_natural_stream_detail_tiles_v1","sourceLabel":"Colorado natural stream detail tiles v1","sensitivity":"generalized"},"geometry":{"type":"LineString","coordinates":[[-109.00965,40.50028],[-109.00689,40.50176],[-109.0044,40.50542],[-109.00188,40.50702],[-109.00092,40.50924],[-108.99969,40.50922],[-108.99861,40.50991],[-108.99385,40.50939],[-108.99124,40.51029],[-108.98891,40.51196],[-108.98936,40.51335],[-108.99263,40.51415],[-108.99518,40.51575],[-108.99596,40.51801]]}},{"type":"Feature","properties":{"huc8":"14060010","huc8Name":"Lower Green-Diamond","historic":"greenRiverBlue","current":"introduced","recovery":"recoveryWatch","lineageKey":"greenRiverBlue","lineageLabel":"Green River / blue-lineage CT","basin":"Lower Green-Diamond","note":"Green River blue-lineage context; Colorado-touching HUC","state":"CO","confidence":"HUC8 drainage context / generalized","geometryStatus":"natural_stream_detail_tile_from_full_interpreted_layer","troutSource":"HUC8 lineage assignment v1 / review needed","sourceName":"Pool Creek","name":"Pool Creek","source_id":"{EA3B617E-FCC5-4148-93F7-591AA9B92D56}","length_km":0.07302059,"FType":460,"FCode":46006,"atlas_class":"streamriver","display_name":"Pool Creek","stream_role":"natural_stream_detail_context","sourceLayer":"colorado_natural_stream_detail_tiles_v1","sourceLabel":"Colorado natural stream detail tiles v1","sensitivity":"generalized"},"geometry":{"type":"LineString","coordinates":[[-109.00985,40.49964],[-109.00965,40.50028]]}},{"type":"Feature","properties":{"huc8":"14060010","huc8Name":"Lower Green-Diamond","historic":"greenRiverBlue","current":"introduced","recovery":"recoveryWatch","lineageKey":"greenRiverBlue","lineageLabel":"Green River / blue-lineage CT","basin":"Lower Green-Diamond","note":"Green River blue-lineage context; Colorado-touching HUC","state":"CO","confidence":"HUC8 drainage context / generalized","geometryStatus":"natural_stream_detail_tile_from_full_interpreted_layer","troutSource":"HUC8 lineage assignment v1 / review needed","sourceName":"Pool Creek","name":"Pool Creek","source_id":"65995053","length_km":0.57243223,"FType":460,"FCode":46003,"atlas_class":"streamriver","display_name":"Pool Creek","stream_role":"natural_stream_detail_context","sourceLayer":"colorado_natural_stream_detail_tiles_v1","sourceLabel":"Colorado natural stream detail tiles v1","sensitivity":"generalized"},"geometry":{"type":"LineString","coordinates":[[-109.04851,40.47337],[-109.04746,40.47399],[-109.04212,40.47435]]}}]}