{"type":"FeatureCollection","name":"co_natural_stream_detail_0p2_x-528_y185_v1","metadata":{"description":"Colorado natural named stream/rivers close-zoom detail tile. Excludes likely human-altered named linework.","version":"v1","gridSizeDegrees":0.2,"tileX":-528,"tileY":185,"bounds":{"west":-105.60000000000001,"south":37,"east":-105.4,"north":37.2},"source":"C:\\ct-atlas-data\\processed\\geojson\\interpreted\\colorado_cutthroat_huc8_stream_context_named_v1.geojson"},"features":[{"type":"Feature","properties":{"huc8":"13010002","huc8Name":"Alamosa-Trinchera","historic":"rioGrande","current":"introduced","recovery":"recoveryWatch","lineageKey":"rioGrande","lineageLabel":"Rio Grande lineage","basin":"Alamosa-Trinchera","note":"Generalized Rio Grande cutthroat drainage context","state":"CO","confidence":"HUC8 drainage context / generalized","geometryStatus":"natural_stream_detail_tile_from_full_interpreted_layer","troutSource":"HUC8 lineage assignment v1 / review needed","sourceName":"Culebra Creek","name":"Culebra Creek","source_id":"136490417","length_km":0.87542426,"FType":460,"FCode":46006,"atlas_class":"streamriver","display_name":"Culebra Creek","stream_role":"natural_stream_detail_context","sourceLayer":"colorado_natural_stream_detail_tiles_v1","sourceLabel":"Colorado natural stream detail tiles v1","sensitivity":"generalized"},"geometry":{"type":"LineString","coordinates":[[-105.39393,37.15346],[-105.39914,37.15155],[-105.40317,37.1511]]}},{"type":"Feature","properties":{"huc8":"13010002","huc8Name":"Alamosa-Trinchera","historic":"rioGrande","current":"introduced","recovery":"recoveryWatch","lineageKey":"rioGrande","lineageLabel":"Rio Grande lineage","basin":"Alamosa-Trinchera","note":"Generalized Rio Grande cutthroat drainage context","state":"CO","confidence":"HUC8 drainage context / generalized","geometryStatus":"natural_stream_detail_tile_from_full_interpreted_layer","troutSource":"HUC8 lineage assignment v1 / review needed","sourceName":"Culebra Creek","name":"Culebra Creek","source_id":"136492542","length_km":3.53028152,"FType":460,"FCode":46006,"atlas_class":"streamriver","display_name":"Culebra Creek","stream_role":"natural_stream_detail_context","sourceLayer":"colorado_natural_stream_detail_tiles_v1","sourceLabel":"Colorado natural stream detail tiles v1","sensitivity":"generalized"},"geometry":{"type":"LineString","coordinates":[[-105.44949,37.1941],[-105.45022,37.19519],[-105.45123,37.19548],[-105.45123,37.19648],[-105.45186,37.19715],[-105.45576,37.19735],[-105.4563,37.19655],[-105.45695,37.19657],[-105.45666,37.19782],[-105.45878,37.19747],[-105.45954,37.19843],[-105.46109,37.19895],[-105.46205,37.19867],[-105.46312,37.19978],[-105.46519,37.19919],[-105.46609,37.19987],[-105.46638,37.2012],[-105.46741,37.20093],[-105.46797,37.2021],[-105.46986,37.20138],[-105.47087,37.20208],[-105.47269,37.20175],[-105.47415,37.20074]]}},{"type":"Feature","properties":{"huc8":"13010002","huc8Name":"Alamosa-Trinchera","historic":"rioGrande","current":"introduced","recovery":"recoveryWatch","lineageKey":"rioGrande","lineageLabel":"Rio Grande lineage","basin":"Alamosa-Trinchera","note":"Generalized Rio Grande cutthroat drainage context","state":"CO","confidence":"HUC8 drainage context / generalized","geometryStatus":"natural_stream_detail_tile_from_full_interpreted_layer","troutSource":"HUC8 lineage assignment v1 / review needed","sourceName":"Ventero Creek","name":"Ventero Creek","source_id":"136492826","length_km":0.26603582,"FType":460,"FCode":46006,"atlas_class":"streamriver","display_name":"Ventero Creek","stream_role":"natural_stream_detail_context","sourceLayer":"colorado_natural_stream_detail_tiles_v1","sourceLabel":"Colorado natural stream detail tiles v1","sensitivity":"generalized"},"geometry":{"type":"LineString","coordinates":[[-105.43033,37.01993],[-105.43077,37.0222]]}},{"type":"Feature","properties":{"huc8":"13010002","huc8Name":"Alamosa-Trinchera","historic":"rioGrande","current":"introduced","recovery":"recoveryWatch","lineageKey":"rioGrande","lineageLabel":"Rio Grande lineage","basin":"Alamosa-Trinchera","note":"Generalized Rio Grande cutthroat drainage context","state":"CO","confidence":"HUC8 drainage context / generalized","geometryStatus":"natural_stream_detail_tile_from_full_interpreted_layer","troutSource":"HUC8 lineage assignment v1 / review needed","sourceName":"Ventero Creek","name":"Ventero Creek","source_id":"136490397","length_km":0.09132264,"FType":460,"FCode":46006,"atlas_class":"streamriver","display_name":"Ventero Creek","stream_role":"natural_stream_detail_context","sourceLayer":"colorado_natural_stream_detail_tiles_v1","sourceLabel":"Colorado natural stream detail tiles v1","sensitivity":"generalized"},"geometry":{"type":"LineString","coordinates":[[-105.42,37.06632],[-105.41975,37.06706]]}},{"type":"Feature","properties":{"huc8":"13010002","huc8Name":"Alamosa-Trinchera","historic":"rioGrande","current":"introduced","recovery":"recoveryWatch","lineageKey":"rioGrande","lineageLabel":"Rio Grande lineage","basin":"Alamosa-Trinchera","note":"Generalized Rio Grande cutthroat drainage context","state":"CO","confidence":"HUC8 drainage context / generalized","geometryStatus":"natural_stream_detail_tile_from_full_interpreted_layer","troutSource":"HUC8 lineage assignment v1 / review needed","sourceName":"Culebra Creek","name":"Culebra Creek","source_id":"136490302","length_km":0.64652549,"FType":460,"FCode":46006,"atlas_class":"streamriver","display_name":"Culebra Creek","stream_role":"natural_stream_detail_context","sourceLayer":"colorado_natural_stream_detail_tiles_v1","sourceLabel":"Colorado natural stream detail tiles v1","sensitivity":"generalized"},"geometry":{"type":"LineString","coordinates":[[-105.42639,37.19095],[-105.42722,37.19094],[-105.42753,37.19197],[-105.42847,37.1914],[-105.43064,37.19314]]}},{"type":"Feature","properties":{"huc8":"13010002","huc8Name":"Alamosa-Trinchera","historic":"rioGrande","current":"introduced","recovery":"recoveryWatch","lineageKey":"rioGrande","lineageLabel":"Rio Grande lineage","basin":"Alamosa-Trinchera","note":"Generalized Rio Grande cutthroat drainage context","state":"CO","confidence":"HUC8 drainage context / generalized","geometryStatus":"natural_stream_detail_tile_from_full_interpreted_layer","troutSource":"HUC8 lineage assignment v1 / review needed","sourceName":"Vallejos Creek","name":"Vallejos Creek","source_id":"136484575","length_km":3.07402251,"FType":460,"FCode":46003,"atlas_class":"streamriver","display_name":"Vallejos Creek","stream_role":"natural_stream_detail_context","sourceLayer":"colorado_natural_stream_detail_tiles_v1","sourceLabel":"Colorado natural stream detail tiles v1","sensitivity":"generalized"},"geometry":{"type":"LineString","coordinates":[[-105.37664,37.13276],[-105.39,37.13822],[-105.395,37.14627],[-105.39879,37.14967],[-105.40077,37.15005]]}},{"type":"Feature","properties":{"huc8":"13010002","huc8Name":"Alamosa-Trinchera","historic":"rioGrande","current":"introduced","recovery":"recoveryWatch","lineageKey":"rioGrande","lineageLabel":"Rio Grande lineage","basin":"Alamosa-Trinchera","note":"Generalized Rio Grande cutthroat drainage context","state":"CO","confidence":"HUC8 drainage context / generalized","geometryStatus":"natural_stream_detail_tile_from_full_interpreted_layer","troutSource":"HUC8 lineage assignment v1 / review needed","sourceName":"Culebra Creek","name":"Culebra Creek","source_id":"136492545","length_km":0.73560184,"FType":460,"FCode":46006,"atlas_class":"streamriver","display_name":"Culebra Creek","stream_role":"natural_stream_detail_context","sourceLayer":"colorado_natural_stream_detail_tiles_v1","sourceLabel":"Colorado natural stream detail tiles v1","sensitivity":"generalized"},"geometry":{"type":"LineString","coordinates":[[-105.44039,37.19329],[-105.44511,37.193],[-105.44607,37.19369],[-105.44812,37.19396]]}},{"type":"Feature","properties":{"huc8":"13010002","huc8Name":"Alamosa-Trinchera","historic":"rioGrande","current":"introduced","recovery":"recoveryWatch","lineageKey":"rioGrande","lineageLabel":"Rio Grande lineage","basin":"Alamosa-Trinchera","note":"Generalized Rio Grande cutthroat drainage context","state":"CO","confidence":"HUC8 drainage context / generalized","geometryStatus":"natural_stream_detail_tile_from_full_interpreted_layer","troutSource":"HUC8 lineage assignment v1 / review needed","sourceName":"Ventero Creek","name":"Ventero Creek","source_id":"136492825","length_km":0.2791229,"FType":460,"FCode":46006,"atlas_class":"streamriver","display_name":"Ventero Creek","stream_role":"natural_stream_detail_context","sourceLayer":"colorado_natural_stream_detail_tiles_v1","sourceLabel":"Colorado natural stream detail tiles v1","sensitivity":"generalized"},"geometry":{"type":"LineString","coordinates":[[-105.43083,37.02247],[-105.43216,37.02462]]}},{"type":"Feature","properties":{"huc8":"13010002","huc8Name":"Alamosa-Trinchera","historic":"rioGrande","current":"introduced","recovery":"recoveryWatch","lineageKey":"rioGrande","lineageLabel":"Rio Grande lineage","basin":"Alamosa-Trinchera","note":"Generalized Rio Grande cutthroat drainage context","state":"CO","confidence":"HUC8 drainage context / generalized","geometryStatus":"natural_stream_detail_tile_from_full_interpreted_layer","troutSource":"HUC8 lineage assignment v1 / review needed","sourceName":"Ventero Creek","name":"Ventero Creek","source_id":"136490402","length_km":0.4435092,"FType":460,"FCode":46006,"atlas_class":"streamriver","display_name":"Ventero Creek","stream_role":"natural_stream_detail_context","sourceLayer":"colorado_natural_stream_detail_tiles_v1","sourceLabel":"Colorado natural stream detail tiles v1","sensitivity":"generalized"},"geometry":{"type":"LineString","coordinates":[[-105.41984,37.06268],[-105.42054,37.06481],[-105.42,37.06632]]}},{"type":"Feature","properties":{"huc8":"13010002","huc8Name":"Alamosa-Trinchera","historic":"rioGrande","current":"introduced","recovery":"recoveryWatch","lineageKey":"rioGrande","lineageLabel":"Rio Grande lineage","basin":"Alamosa-Trinchera","note":"Generalized Rio Grande cutthroat drainage context","state":"CO","confidence":"HUC8 drainage context / generalized","geometryStatus":"natural_stream_detail_tile_from_full_interpreted_layer","troutSource":"HUC8 lineage assignment v1 / review needed","sourceName":"Ventero Creek","name":"Ventero Creek","source_id":"136490359","length_km":0.97146783,"FType":460,"FCode":46006,"atlas_class":"streamriver","display_name":"Ventero Creek","stream_role":"natural_stream_detail_context","sourceLayer":"colorado_natural_stream_detail_tiles_v1","sourceLabel":"Colorado natural stream detail tiles v1","sensitivity":"generalized"},"geometry":{"type":"LineString","coordinates":[[-105.4032,37.12959],[-105.4028,37.13095],[-105.40334,37.13166],[-105.40288,37.13245],[-105.40414,37.13324],[-105.4035,37.13371],[-105.40365,37.13421],[-105.40292,37.13436],[-105.40384,37.13527],[-105.40313,37.13571]]}},{"type":"Feature","properties":{"huc8":"13010002","huc8Name":"Alamosa-Trinchera","historic":"rioGrande","current":"introduced","recovery":"recoveryWatch","lineageKey":"rioGrande","lineageLabel":"Rio Grande lineage","basin":"Alamosa-Trinchera","note":"Generalized Rio Grande cutthroat drainage context","state":"CO","confidence":"HUC8 drainage context / generalized","geometryStatus":"natural_stream_detail_tile_from_full_interpreted_layer","troutSource":"HUC8 lineage assignment v1 / review needed","sourceName":"Willow Creek","name":"Willow Creek","source_id":"136490238","length_km":0.38982539,"FType":460,"FCode":46003,"atlas_class":"streamriver","display_name":"Willow Creek","stream_role":"natural_stream_detail_context","sourceLayer":"colorado_natural_stream_detail_tiles_v1","sourceLabel":"Colorado natural stream detail tiles v1","sensitivity":"generalized"},"geometry":{"type":"LineString","coordinates":[[-105.43075,37.01267],[-105.43109,37.01381],[-105.43059,37.01526],[-105.43108,37.01581]]}},{"type":"Feature","properties":{"huc8":"13010002","huc8Name":"Alamosa-Trinchera","historic":"rioGrande","current":"introduced","recovery":"recoveryWatch","lineageKey":"rioGrande","lineageLabel":"Rio Grande lineage","basin":"Alamosa-Trinchera","note":"Generalized Rio Grande cutthroat drainage context","state":"CO","confidence":"HUC8 drainage context / generalized","geometryStatus":"natural_stream_detail_tile_from_full_interpreted_layer","troutSource":"HUC8 lineage assignment v1 / review needed","sourceName":"Jarocito Creek","name":"Jarocito Creek","source_id":"136442651","length_km":8.00780111,"FType":460,"FCode":46003,"atlas_class":"streamriver","display_name":"Jarocito Creek","stream_role":"natural_stream_detail_context","sourceLayer":"colorado_natural_stream_detail_tiles_v1","sourceLabel":"Colorado natural stream detail tiles v1","sensitivity":"generalized"},"geometry":{"type":"LineString","coordinates":[[-105.41308,36.99585],[-105.41499,36.99802],[-105.41581,37.00068],[-105.42015,37.00481]]}},{"type":"Feature","properties":{"huc8":"13010002","huc8Name":"Alamosa-Trinchera","historic":"rioGrande","current":"introduced","recovery":"recoveryWatch","lineageKey":"rioGrande","lineageLabel":"Rio Grande lineage","basin":"Alamosa-Trinchera","note":"Generalized Rio Grande cutthroat drainage context","state":"CO","confidence":"HUC8 drainage context / generalized","geometryStatus":"natural_stream_detail_tile_from_full_interpreted_layer","troutSource":"HUC8 lineage assignment v1 / review needed","sourceName":"Ventero Creek","name":"Ventero Creek","source_id":"136490383","length_km":0.0346202,"FType":460,"FCode":46006,"atlas_class":"streamriver","display_name":"Ventero Creek","stream_role":"natural_stream_detail_context","sourceLayer":"colorado_natural_stream_detail_tiles_v1","sourceLabel":"Colorado natural stream detail tiles v1","sensitivity":"generalized"},"geometry":{"type":"LineString","coordinates":[[-105.41721,37.07368],[-105.41697,37.07385]]}},{"type":"Feature","properties":{"huc8":"13010002","huc8Name":"Alamosa-Trinchera","historic":"rioGrande","current":"introduced","recovery":"recoveryWatch","lineageKey":"rioGrande","lineageLabel":"Rio Grande lineage","basin":"Alamosa-Trinchera","note":"Generalized Rio Grande cutthroat drainage context","state":"CO","confidence":"HUC8 drainage context / generalized","geometryStatus":"natural_stream_detail_tile_from_full_interpreted_layer","troutSource":"HUC8 lineage assignment v1 / review needed","sourceName":"Culebra Creek","name":"Culebra Creek","source_id":"136490325","length_km":0.93902504,"FType":460,"FCode":46006,"atlas_class":"streamriver","display_name":"Culebra Creek","stream_role":"natural_stream_detail_context","sourceLayer":"colorado_natural_stream_detail_tiles_v1","sourceLabel":"Colorado natural stream detail tiles v1","sensitivity":"generalized"},"geometry":{"type":"LineString","coordinates":[[-105.42552,37.1794],[-105.42573,37.18007],[-105.42505,37.18064],[-105.42586,37.18338],[-105.42431,37.18536],[-105.42466,37.18659]]}},{"type":"Feature","properties":{"huc8":"13010002","huc8Name":"Alamosa-Trinchera","historic":"rioGrande","current":"introduced","recovery":"recoveryWatch","lineageKey":"rioGrande","lineageLabel":"Rio Grande lineage","basin":"Alamosa-Trinchera","note":"Generalized Rio Grande cutthroat drainage context","state":"CO","confidence":"HUC8 drainage context / generalized","geometryStatus":"natural_stream_detail_tile_from_full_interpreted_layer","troutSource":"HUC8 lineage assignment v1 / review needed","sourceName":"Willow Creek","name":"Willow Creek","source_id":"136488176","length_km":3.59567828,"FType":460,"FCode":46003,"atlas_class":"streamriver","display_name":"Willow Creek","stream_role":"natural_stream_detail_context","sourceLayer":"colorado_natural_stream_detail_tiles_v1","sourceLabel":"Colorado natural stream detail tiles v1","sensitivity":"generalized"},"geometry":{"type":"LineString","coordinates":[[-105.37138,37.00698],[-105.3772,37.00829],[-105.38215,37.01011],[-105.39366,37.01213],[-105.40116,37.01123],[-105.40217,37.01019],[-105.40593,37.00941],[-105.40899,37.00938]]}},{"type":"Feature","properties":{"huc8":"13010002","huc8Name":"Alamosa-Trinchera","historic":"rioGrande","current":"introduced","recovery":"recoveryWatch","lineageKey":"rioGrande","lineageLabel":"Rio Grande lineage","basin":"Alamosa-Trinchera","note":"Generalized Rio Grande cutthroat drainage context","state":"CO","confidence":"HUC8 drainage context / generalized","geometryStatus":"natural_stream_detail_tile_from_full_interpreted_layer","troutSource":"HUC8 lineage assignment v1 / review needed","sourceName":"Willow Creek","name":"Willow Creek","source_id":"136441091","length_km":0.575761,"FType":460,"FCode":46003,"atlas_class":"streamriver","display_name":"Willow Creek","stream_role":"natural_stream_detail_context","sourceLayer":"colorado_natural_stream_detail_tiles_v1","sourceLabel":"Colorado natural stream detail tiles v1","sensitivity":"generalized"},"geometry":{"type":"LineString","coordinates":[[-105.4141,37.00668],[-105.42015,37.00481]]}},{"type":"Feature","properties":{"huc8":"13010002","huc8Name":"Alamosa-Trinchera","historic":"rioGrande","current":"introduced","recovery":"recoveryWatch","lineageKey":"rioGrande","lineageLabel":"Rio Grande lineage","basin":"Alamosa-Trinchera","note":"Generalized Rio Grande cutthroat drainage context","state":"CO","confidence":"HUC8 drainage context / generalized","geometryStatus":"natural_stream_detail_tile_from_full_interpreted_layer","troutSource":"HUC8 lineage assignment v1 / review needed","sourceName":"Cuates Creek","name":"Cuates Creek","source_id":"136489888","length_km":0.59186704,"FType":460,"FCode":46003,"atlas_class":"streamriver","display_name":"Cuates Creek","stream_role":"natural_stream_detail_context","sourceLayer":"colorado_natural_stream_detail_tiles_v1","sourceLabel":"Colorado natural stream detail tiles v1","sensitivity":"generalized"},"geometry":{"type":"LineString","coordinates":[[-105.41755,37.03938],[-105.41949,37.0418],[-105.4197,37.04259],[-105.41922,37.04308],[-105.41977,37.04379]]}},{"type":"Feature","properties":{"huc8":"13010002","huc8Name":"Alamosa-Trinchera","historic":"rioGrande","current":"introduced","recovery":"recoveryWatch","lineageKey":"rioGrande","lineageLabel":"Rio Grande lineage","basin":"Alamosa-Trinchera","note":"Generalized Rio Grande cutthroat drainage context","state":"CO","confidence":"HUC8 drainage context / generalized","geometryStatus":"natural_stream_detail_tile_from_full_interpreted_layer","troutSource":"HUC8 lineage assignment v1 / review needed","sourceName":"Ventero Creek","name":"Ventero Creek","source_id":"136490378","length_km":1.62019146,"FType":460,"FCode":46006,"atlas_class":"streamriver","display_name":"Ventero Creek","stream_role":"natural_stream_detail_context","sourceLayer":"colorado_natural_stream_detail_tiles_v1","sourceLabel":"Colorado natural stream detail tiles v1","sensitivity":"generalized"},"geometry":{"type":"LineString","coordinates":[[-105.40983,37.11415],[-105.40736,37.11481],[-105.40629,37.11595],[-105.40456,37.11664],[-105.40373,37.11824],[-105.4042,37.11937],[-105.40318,37.12003],[-105.40438,37.12093],[-105.40475,37.12315],[-105.40411,37.12433]]}},{"type":"Feature","properties":{"huc8":"13010002","huc8Name":"Alamosa-Trinchera","historic":"rioGrande","current":"introduced","recovery":"recoveryWatch","lineageKey":"rioGrande","lineageLabel":"Rio Grande lineage","basin":"Alamosa-Trinchera","note":"Generalized Rio Grande cutthroat drainage context","state":"CO","confidence":"HUC8 drainage context / generalized","geometryStatus":"natural_stream_detail_tile_from_full_interpreted_layer","troutSource":"HUC8 lineage assignment v1 / review needed","sourceName":"Ventero Creek","name":"Ventero Creek","source_id":"136492828","length_km":0.06196961,"FType":460,"FCode":46006,"atlas_class":"streamriver","display_name":"Ventero Creek","stream_role":"natural_stream_detail_context","sourceLayer":"colorado_natural_stream_detail_tiles_v1","sourceLabel":"Colorado natural stream detail tiles v1","sensitivity":"generalized"},"geometry":{"type":"LineString","coordinates":[[-105.43095,37.01664],[-105.43069,37.01715]]}},{"type":"Feature","properties":{"huc8":"13010002","huc8Name":"Alamosa-Trinchera","historic":"rioGrande","current":"introduced","recovery":"recoveryWatch","lineageKey":"rioGrande","lineageLabel":"Rio Grande lineage","basin":"Alamosa-Trinchera","note":"Generalized Rio Grande cutthroat drainage context","state":"CO","confidence":"HUC8 drainage context / generalized","geometryStatus":"natural_stream_detail_tile_from_full_interpreted_layer","troutSource":"HUC8 lineage assignment v1 / review needed","sourceName":"Ventero Creek","name":"Ventero Creek","source_id":"136490368","length_km":0.23326108,"FType":460,"FCode":46006,"atlas_class":"streamriver","display_name":"Ventero Creek","stream_role":"natural_stream_detail_context","sourceLayer":"colorado_natural_stream_detail_tiles_v1","sourceLabel":"Colorado natural stream detail tiles v1","sensitivity":"generalized"},"geometry":{"type":"LineString","coordinates":[[-105.40396,37.12635],[-105.40388,37.12836]]}},{"type":"Feature","properties":{"huc8":"13010002","huc8Name":"Alamosa-Trinchera","historic":"rioGrande","current":"introduced","recovery":"recoveryWatch","lineageKey":"rioGrande","lineageLabel":"Rio Grande lineage","basin":"Alamosa-Trinchera","note":"Generalized Rio Grande cutthroat drainage context","state":"CO","confidence":"HUC8 drainage context / generalized","geometryStatus":"natural_stream_detail_tile_from_full_interpreted_layer","troutSource":"HUC8 lineage assignment v1 / review needed","sourceName":"Culebra Creek","name":"Culebra Creek","source_id":"136490407","length_km":0.07506693,"FType":460,"FCode":46006,"atlas_class":"streamriver","display_name":"Culebra Creek","stream_role":"natural_stream_detail_context","sourceLayer":"colorado_natural_stream_detail_tiles_v1","sourceLabel":"Colorado natural stream detail tiles v1","sensitivity":"generalized"},"geometry":{"type":"LineString","coordinates":[[-105.41166,37.15388],[-105.41246,37.1541]]}},{"type":"Feature","properties":{"huc8":"13010002","huc8Name":"Alamosa-Trinchera","historic":"rioGrande","current":"introduced","recovery":"recoveryWatch","lineageKey":"rioGrande","lineageLabel":"Rio Grande lineage","basin":"Alamosa-Trinchera","note":"Generalized Rio Grande cutthroat drainage context","state":"CO","confidence":"HUC8 drainage context / generalized","geometryStatus":"natural_stream_detail_tile_from_full_interpreted_layer","troutSource":"HUC8 lineage assignment v1 / review needed","sourceName":"Willow Creek","name":"Willow Creek","source_id":"136441105","length_km":0.18540607,"FType":460,"FCode":46003,"atlas_class":"streamriver","display_name":"Willow Creek","stream_role":"natural_stream_detail_context","sourceLayer":"colorado_natural_stream_detail_tiles_v1","sourceLabel":"Colorado natural stream detail tiles v1","sensitivity":"generalized"},"geometry":{"type":"LineString","coordinates":[[-105.41287,37.00797],[-105.4141,37.00668]]}},{"type":"Feature","properties":{"huc8":"13010002","huc8Name":"Alamosa-Trinchera","historic":"rioGrande","current":"introduced","recovery":"recoveryWatch","lineageKey":"rioGrande","lineageLabel":"Rio Grande lineage","basin":"Alamosa-Trinchera","note":"Generalized Rio Grande cutthroat drainage context","state":"CO","confidence":"HUC8 drainage context / generalized","geometryStatus":"natural_stream_detail_tile_from_full_interpreted_layer","troutSource":"HUC8 lineage assignment v1 / review needed","sourceName":"Cuates Creek","name":"Cuates Creek","source_id":"136490282","length_km":0.30127228,"FType":460,"FCode":46003,"atlas_class":"streamriver","display_name":"Cuates Creek","stream_role":"natural_stream_detail_context","sourceLayer":"colorado_natural_stream_detail_tiles_v1","sourceLabel":"Colorado natural stream detail tiles v1","sensitivity":"generalized"},"geometry":{"type":"LineString","coordinates":[[-105.42444,37.04823],[-105.42641,37.05036]]}},{"type":"Feature","properties":{"huc8":"13010002","huc8Name":"Alamosa-Trinchera","historic":"rioGrande","current":"introduced","recovery":"recoveryWatch","lineageKey":"rioGrande","lineageLabel":"Rio Grande lineage","basin":"Alamosa-Trinchera","note":"Generalized Rio Grande cutthroat drainage context","state":"CO","confidence":"HUC8 drainage context / generalized","geometryStatus":"natural_stream_detail_tile_from_full_interpreted_layer","troutSource":"HUC8 lineage assignment v1 / review needed","sourceName":"San Francisco Creek","name":"San Francisco Creek","source_id":"136485231","length_km":3.70972331,"FType":460,"FCode":46003,"atlas_class":"streamriver","display_name":"San Francisco Creek","stream_role":"natural_stream_detail_context","sourceLayer":"colorado_natural_stream_detail_tiles_v1","sourceLabel":"Colorado natural stream detail tiles v1","sensitivity":"generalized"},"geometry":{"type":"LineString","coordinates":[[-105.37486,37.10693],[-105.37778,37.10853],[-105.38198,37.10963],[-105.38373,37.11132],[-105.38935,37.11473],[-105.39195,37.11904],[-105.39459,37.12008],[-105.3962,37.1221],[-105.39891,37.12354],[-105.40043,37.12511],[-105.40396,37.12635]]}},{"type":"Feature","properties":{"huc8":"13010002","huc8Name":"Alamosa-Trinchera","historic":"rioGrande","current":"introduced","recovery":"recoveryWatch","lineageKey":"rioGrande","lineageLabel":"Rio Grande lineage","basin":"Alamosa-Trinchera","note":"Generalized Rio Grande cutthroat drainage context","state":"CO","confidence":"HUC8 drainage context / generalized","geometryStatus":"natural_stream_detail_tile_from_full_interpreted_layer","troutSource":"HUC8 lineage assignment v1 / review needed","sourceName":"Ventero Creek","name":"Ventero Creek","source_id":"136490349","length_km":1.243624,"FType":460,"FCode":46006,"atlas_class":"streamriver","display_name":"Ventero Creek","stream_role":"natural_stream_detail_context","sourceLayer":"colorado_natural_stream_detail_tiles_v1","sourceLabel":"Colorado natural stream detail tiles v1","sensitivity":"generalized"},"geometry":{"type":"LineString","coordinates":[[-105.4062,37.14168],[-105.40681,37.1424],[-105.40683,37.14379],[-105.4084,37.14479],[-105.40813,37.14571],[-105.41168,37.15019]]}},{"type":"Feature","properties":{"huc8":"13010002","huc8Name":"Alamosa-Trinchera","historic":"rioGrande","current":"introduced","recovery":"recoveryWatch","lineageKey":"rioGrande","lineageLabel":"Rio Grande lineage","basin":"Alamosa-Trinchera","note":"Generalized Rio Grande cutthroat drainage context","state":"CO","confidence":"HUC8 drainage context / generalized","geometryStatus":"natural_stream_detail_tile_from_full_interpreted_layer","troutSource":"HUC8 lineage assignment v1 / review needed","sourceName":"Cuates Creek","name":"Cuates Creek","source_id":"159341351","length_km":0.18097591,"FType":460,"FCode":46003,"atlas_class":"streamriver","display_name":"Cuates Creek","stream_role":"natural_stream_detail_context","sourceLayer":"colorado_natural_stream_detail_tiles_v1","sourceLabel":"Colorado natural stream detail tiles v1","sensitivity":"generalized"},"geometry":{"type":"LineString","coordinates":[[-105.421,37.0444],[-105.42254,37.04518]]}},{"type":"Feature","properties":{"huc8":"13010002","huc8Name":"Alamosa-Trinchera","historic":"rioGrande","current":"introduced","recovery":"recoveryWatch","lineageKey":"rioGrande","lineageLabel":"Rio Grande lineage","basin":"Alamosa-Trinchera","note":"Generalized Rio Grande cutthroat drainage context","state":"CO","confidence":"HUC8 drainage context / generalized","geometryStatus":"natural_stream_detail_tile_from_full_interpreted_layer","troutSource":"HUC8 lineage assignment v1 / review needed","sourceName":"Ventero Creek","name":"Ventero Creek","source_id":"136442457","length_km":2.46560918,"FType":460,"FCode":46003,"atlas_class":"streamriver","display_name":"Ventero Creek","stream_role":"natural_stream_detail_context","sourceLayer":"colorado_natural_stream_detail_tiles_v1","sourceLabel":"Colorado natural stream detail tiles v1","sensitivity":"generalized"},"geometry":{"type":"LineString","coordinates":[[-105.47058,36.99598],[-105.46607,36.99732],[-105.45678,37.00398],[-105.45291,37.00539],[-105.44833,37.00623]]}},{"type":"Feature","properties":{"huc8":"13010002","huc8Name":"Alamosa-Trinchera","historic":"rioGrande","current":"introduced","recovery":"recoveryWatch","lineageKey":"rioGrande","lineageLabel":"Rio Grande lineage","basin":"Alamosa-Trinchera","note":"Generalized Rio Grande cutthroat drainage context","state":"CO","confidence":"HUC8 drainage context / generalized","geometryStatus":"natural_stream_detail_tile_from_full_interpreted_layer","troutSource":"HUC8 lineage assignment v1 / review needed","sourceName":"Rito Seco","name":"Rito Seco","source_id":"136482838","length_km":3.03188674,"FType":460,"FCode":46003,"atlas_class":"streamriver","display_name":"Rito Seco","stream_role":"natural_stream_detail_context","sourceLayer":"colorado_natural_stream_detail_tiles_v1","sourceLabel":"Colorado natural stream detail tiles v1","sensitivity":"generalized"},"geometry":{"type":"LineString","coordinates":[[-105.41453,37.21741],[-105.41585,37.21587],[-105.41698,37.21184],[-105.41997,37.20969],[-105.42082,37.20795],[-105.42334,37.20545],[-105.42425,37.20318],[-105.4285,37.19834],[-105.43058,37.19433]]}},{"type":"Feature","properties":{"huc8":"13010002","huc8Name":"Alamosa-Trinchera","historic":"rioGrande","current":"introduced","recovery":"recoveryWatch","lineageKey":"rioGrande","lineageLabel":"Rio Grande lineage","basin":"Alamosa-Trinchera","note":"Generalized Rio Grande cutthroat drainage context","state":"CO","confidence":"HUC8 drainage context / generalized","geometryStatus":"natural_stream_detail_tile_from_full_interpreted_layer","troutSource":"HUC8 lineage assignment v1 / review needed","sourceName":"Vallejos Creek","name":"Vallejos Creek","source_id":"136484467","length_km":0.2559291,"FType":460,"FCode":46003,"atlas_class":"streamriver","display_name":"Vallejos Creek","stream_role":"natural_stream_detail_context","sourceLayer":"colorado_natural_stream_detail_tiles_v1","sourceLabel":"Colorado natural stream detail tiles v1","sensitivity":"generalized"},"geometry":{"type":"LineString","coordinates":[[-105.40077,37.15005],[-105.40317,37.1511]]}},{"type":"Feature","properties":{"huc8":"13010002","huc8Name":"Alamosa-Trinchera","historic":"rioGrande","current":"introduced","recovery":"recoveryWatch","lineageKey":"rioGrande","lineageLabel":"Rio Grande lineage","basin":"Alamosa-Trinchera","note":"Generalized Rio Grande cutthroat drainage context","state":"CO","confidence":"HUC8 drainage context / generalized","geometryStatus":"natural_stream_detail_tile_from_full_interpreted_layer","troutSource":"HUC8 lineage assignment v1 / review needed","sourceName":"Ventero Creek","name":"Ventero Creek","source_id":"136492820","length_km":0.09959053,"FType":460,"FCode":46006,"atlas_class":"streamriver","display_name":"Ventero Creek","stream_role":"natural_stream_detail_context","sourceLayer":"colorado_natural_stream_detail_tiles_v1","sourceLabel":"Colorado natural stream detail tiles v1","sensitivity":"generalized"},"geometry":{"type":"LineString","coordinates":[[-105.42641,37.05036],[-105.42618,37.05124]]}},{"type":"Feature","properties":{"huc8":"13010002","huc8Name":"Alamosa-Trinchera","historic":"rioGrande","current":"introduced","recovery":"recoveryWatch","lineageKey":"rioGrande","lineageLabel":"Rio Grande lineage","basin":"Alamosa-Trinchera","note":"Generalized Rio Grande cutthroat drainage context","state":"CO","confidence":"HUC8 drainage context / generalized","geometryStatus":"natural_stream_detail_tile_from_full_interpreted_layer","troutSource":"HUC8 lineage assignment v1 / review needed","sourceName":"Ventero Creek","name":"Ventero Creek","source_id":"136492822","length_km":0.40065766,"FType":460,"FCode":46006,"atlas_class":"streamriver","display_name":"Ventero Creek","stream_role":"natural_stream_detail_context","sourceLayer":"colorado_natural_stream_detail_tiles_v1","sourceLabel":"Colorado natural stream detail tiles v1","sensitivity":"generalized"},"geometry":{"type":"LineString","coordinates":[[-105.42888,37.04644],[-105.42677,37.04957]]}},{"type":"Feature","properties":{"huc8":"13010002","huc8Name":"Alamosa-Trinchera","historic":"rioGrande","current":"introduced","recovery":"recoveryWatch","lineageKey":"rioGrande","lineageLabel":"Rio Grande lineage","basin":"Alamosa-Trinchera","note":"Generalized Rio Grande cutthroat drainage context","state":"CO","confidence":"HUC8 drainage context / generalized","geometryStatus":"natural_stream_detail_tile_from_full_interpreted_layer","troutSource":"HUC8 lineage assignment v1 / review needed","sourceName":"Ventero Creek","name":"Ventero Creek","source_id":"136490364","length_km":0.16599114,"FType":460,"FCode":46006,"atlas_class":"streamriver","display_name":"Ventero Creek","stream_role":"natural_stream_detail_context","sourceLayer":"colorado_natural_stream_detail_tiles_v1","sourceLabel":"Colorado natural stream detail tiles v1","sensitivity":"generalized"},"geometry":{"type":"LineString","coordinates":[[-105.40388,37.12836],[-105.4032,37.12959]]}},{"type":"Feature","properties":{"huc8":"13010002","huc8Name":"Alamosa-Trinchera","historic":"rioGrande","current":"introduced","recovery":"recoveryWatch","lineageKey":"rioGrande","lineageLabel":"Rio Grande lineage","basin":"Alamosa-Trinchera","note":"Generalized Rio Grande cutthroat drainage context","state":"CO","confidence":"HUC8 drainage context / generalized","geometryStatus":"natural_stream_detail_tile_from_full_interpreted_layer","troutSource":"HUC8 lineage assignment v1 / review needed","sourceName":"Ventero Creek","name":"Ventero Creek","source_id":"136490388","length_km":0.95657133,"FType":460,"FCode":46006,"atlas_class":"streamriver","display_name":"Ventero Creek","stream_role":"natural_stream_detail_context","sourceLayer":"colorado_natural_stream_detail_tiles_v1","sourceLabel":"Colorado natural stream detail tiles v1","sensitivity":"generalized"},"geometry":{"type":"LineString","coordinates":[[-105.41938,37.06808],[-105.41813,37.06838],[-105.41709,37.0699],[-105.41788,37.07154],[-105.4173,37.0721],[-105.41721,37.07368]]}},{"type":"Feature","properties":{"huc8":"13010002","huc8Name":"Alamosa-Trinchera","historic":"rioGrande","current":"introduced","recovery":"recoveryWatch","lineageKey":"rioGrande","lineageLabel":"Rio Grande lineage","basin":"Alamosa-Trinchera","note":"Generalized Rio Grande cutthroat drainage context","state":"CO","confidence":"HUC8 drainage context / generalized","geometryStatus":"natural_stream_detail_tile_from_full_interpreted_layer","troutSource":"HUC8 lineage assignment v1 / review needed","sourceName":"Ventero Creek","name":"Ventero Creek","source_id":"136492827","length_km":0.34568361,"FType":460,"FCode":46006,"atlas_class":"streamriver","display_name":"Ventero Creek","stream_role":"natural_stream_detail_context","sourceLayer":"colorado_natural_stream_detail_tiles_v1","sourceLabel":"Colorado natural stream detail tiles v1","sensitivity":"generalized"},"geometry":{"type":"LineString","coordinates":[[-105.43069,37.01715],[-105.43091,37.01889],[-105.43033,37.01993]]}},{"type":"Feature","properties":{"huc8":"13010002","huc8Name":"Alamosa-Trinchera","historic":"rioGrande","current":"introduced","recovery":"recoveryWatch","lineageKey":"rioGrande","lineageLabel":"Rio Grande lineage","basin":"Alamosa-Trinchera","note":"Generalized Rio Grande cutthroat drainage context","state":"CO","confidence":"HUC8 drainage context / generalized","geometryStatus":"natural_stream_detail_tile_from_full_interpreted_layer","troutSource":"HUC8 lineage assignment v1 / review needed","sourceName":"Cuates Creek","name":"Cuates Creek","source_id":"136489893","length_km":2.35857939,"FType":460,"FCode":46003,"atlas_class":"streamriver","display_name":"Cuates Creek","stream_role":"natural_stream_detail_context","sourceLayer":"colorado_natural_stream_detail_tiles_v1","sourceLabel":"Colorado natural stream detail tiles v1","sensitivity":"generalized"},"geometry":{"type":"LineString","coordinates":[[-105.39832,37.02701],[-105.40501,37.02901],[-105.41033,37.03374],[-105.41435,37.03563],[-105.41733,37.03929]]}},{"type":"Feature","properties":{"huc8":"13010002","huc8Name":"Alamosa-Trinchera","historic":"rioGrande","current":"introduced","recovery":"recoveryWatch","lineageKey":"rioGrande","lineageLabel":"Rio Grande lineage","basin":"Alamosa-Trinchera","note":"Generalized Rio Grande cutthroat drainage context","state":"CO","confidence":"HUC8 drainage context / generalized","geometryStatus":"natural_stream_detail_tile_from_full_interpreted_layer","troutSource":"HUC8 lineage assignment v1 / review needed","sourceName":"Cuates Creek","name":"Cuates Creek","source_id":"136489883","length_km":0.11926658,"FType":460,"FCode":46003,"atlas_class":"streamriver","display_name":"Cuates Creek","stream_role":"natural_stream_detail_context","sourceLayer":"colorado_natural_stream_detail_tiles_v1","sourceLabel":"Colorado natural stream detail tiles v1","sensitivity":"generalized"},"geometry":{"type":"LineString","coordinates":[[-105.41987,37.04388],[-105.421,37.0444]]}},{"type":"Feature","properties":{"huc8":"13010002","huc8Name":"Alamosa-Trinchera","historic":"rioGrande","current":"introduced","recovery":"recoveryWatch","lineageKey":"rioGrande","lineageLabel":"Rio Grande lineage","basin":"Alamosa-Trinchera","note":"Generalized Rio Grande cutthroat drainage context","state":"CO","confidence":"HUC8 drainage context / generalized","geometryStatus":"natural_stream_detail_tile_from_full_interpreted_layer","troutSource":"HUC8 lineage assignment v1 / review needed","sourceName":"Culebra Creek","name":"Culebra Creek","source_id":"136490335","length_km":1.28373189,"FType":460,"FCode":46006,"atlas_class":"streamriver","display_name":"Culebra Creek","stream_role":"natural_stream_detail_context","sourceLayer":"colorado_natural_stream_detail_tiles_v1","sourceLabel":"Colorado natural stream detail tiles v1","sensitivity":"generalized"},"geometry":{"type":"LineString","coordinates":[[-105.41739,37.15609],[-105.41826,37.15688],[-105.41863,37.15834],[-105.4193,37.15841],[-105.41984,37.15948],[-105.42118,37.16032],[-105.42176,37.16153],[-105.42075,37.16265],[-105.42139,37.16463],[-105.42232,37.16471]]}},{"type":"Feature","properties":{"huc8":"13010002","huc8Name":"Alamosa-Trinchera","historic":"rioGrande","current":"introduced","recovery":"recoveryWatch","lineageKey":"rioGrande","lineageLabel":"Rio Grande lineage","basin":"Alamosa-Trinchera","note":"Generalized Rio Grande cutthroat drainage context","state":"CO","confidence":"HUC8 drainage context / generalized","geometryStatus":"natural_stream_detail_tile_from_full_interpreted_layer","troutSource":"HUC8 lineage assignment v1 / review needed","sourceName":"Culebra Creek","name":"Culebra Creek","source_id":"136492547","length_km":0.10854939,"FType":460,"FCode":46006,"atlas_class":"streamriver","display_name":"Culebra Creek","stream_role":"natural_stream_detail_context","sourceLayer":"colorado_natural_stream_detail_tiles_v1","sourceLabel":"Colorado natural stream detail tiles v1","sensitivity":"generalized"},"geometry":{"type":"LineString","coordinates":[[-105.43123,37.19384],[-105.43229,37.19433]]}},{"type":"Feature","properties":{"huc8":"13010002","huc8Name":"Alamosa-Trinchera","historic":"rioGrande","current":"introduced","recovery":"recoveryWatch","lineageKey":"rioGrande","lineageLabel":"Rio Grande lineage","basin":"Alamosa-Trinchera","note":"Generalized Rio Grande cutthroat drainage context","state":"CO","confidence":"HUC8 drainage context / generalized","geometryStatus":"natural_stream_detail_tile_from_full_interpreted_layer","troutSource":"HUC8 lineage assignment v1 / review needed","sourceName":"Ventero Creek","name":"Ventero Creek","source_id":"136492819","length_km":0.95252941,"FType":460,"FCode":46006,"atlas_class":"streamriver","display_name":"Ventero Creek","stream_role":"natural_stream_detail_context","sourceLayer":"colorado_natural_stream_detail_tiles_v1","sourceLabel":"Colorado natural stream detail tiles v1","sensitivity":"generalized"},"geometry":{"type":"LineString","coordinates":[[-105.42618,37.05124],[-105.42582,37.05352],[-105.42402,37.05603],[-105.4224,37.05669],[-105.42208,37.05848]]}},{"type":"Feature","properties":{"huc8":"13010002","huc8Name":"Alamosa-Trinchera","historic":"rioGrande","current":"introduced","recovery":"recoveryWatch","lineageKey":"rioGrande","lineageLabel":"Rio Grande lineage","basin":"Alamosa-Trinchera","note":"Generalized Rio Grande cutthroat drainage context","state":"CO","confidence":"HUC8 drainage context / generalized","geometryStatus":"natural_stream_detail_tile_from_full_interpreted_layer","troutSource":"HUC8 lineage assignment v1 / review needed","sourceName":"Culebra Creek","name":"Culebra Creek","source_id":"136490287","length_km":0.08459886,"FType":460,"FCode":46006,"atlas_class":"streamriver","display_name":"Culebra Creek","stream_role":"natural_stream_detail_context","sourceLayer":"colorado_natural_stream_detail_tiles_v1","sourceLabel":"Colorado natural stream detail tiles v1","sensitivity":"generalized"},"geometry":{"type":"LineString","coordinates":[[-105.43051,37.19335],[-105.43123,37.19384]]}},{"type":"Feature","properties":{"huc8":"13010002","huc8Name":"Alamosa-Trinchera","historic":"rioGrande","current":"introduced","recovery":"recoveryWatch","lineageKey":"rioGrande","lineageLabel":"Rio Grande lineage","basin":"Alamosa-Trinchera","note":"Generalized Rio Grande cutthroat drainage context","state":"CO","confidence":"HUC8 drainage context / generalized","geometryStatus":"natural_stream_detail_tile_from_full_interpreted_layer","troutSource":"HUC8 lineage assignment v1 / review needed","sourceName":"Ventero Creek","name":"Ventero Creek","source_id":"136492821","length_km":0.09508621,"FType":460,"FCode":46006,"atlas_class":"streamriver","display_name":"Ventero Creek","stream_role":"natural_stream_detail_context","sourceLayer":"colorado_natural_stream_detail_tiles_v1","sourceLabel":"Colorado natural stream detail tiles v1","sensitivity":"generalized"},"geometry":{"type":"LineString","coordinates":[[-105.42677,37.04957],[-105.42641,37.05036]]}},{"type":"Feature","properties":{"huc8":"13010002","huc8Name":"Alamosa-Trinchera","historic":"rioGrande","current":"introduced","recovery":"recoveryWatch","lineageKey":"rioGrande","lineageLabel":"Rio Grande lineage","basin":"Alamosa-Trinchera","note":"Generalized Rio Grande cutthroat drainage context","state":"CO","confidence":"HUC8 drainage context / generalized","geometryStatus":"natural_stream_detail_tile_from_full_interpreted_layer","troutSource":"HUC8 lineage assignment v1 / review needed","sourceName":"Jaroso Creek","name":"Jaroso Creek","source_id":"136442070","length_km":0.92257034,"FType":460,"FCode":46003,"atlas_class":"streamriver","display_name":"Jaroso Creek","stream_role":"natural_stream_detail_context","sourceLayer":"colorado_natural_stream_detail_tiles_v1","sourceLabel":"Colorado natural stream detail tiles v1","sensitivity":"generalized"},"geometry":{"type":"LineString","coordinates":[[-105.41307,37.06079],[-105.41691,37.06267],[-105.41986,37.06536],[-105.42,37.06632]]}},{"type":"Feature","properties":{"huc8":"13010002","huc8Name":"Alamosa-Trinchera","historic":"rioGrande","current":"introduced","recovery":"recoveryWatch","lineageKey":"rioGrande","lineageLabel":"Rio Grande lineage","basin":"Alamosa-Trinchera","note":"Generalized Rio Grande cutthroat drainage context","state":"CO","confidence":"HUC8 drainage context / generalized","geometryStatus":"natural_stream_detail_tile_from_full_interpreted_layer","troutSource":"HUC8 lineage assignment v1 / review needed","sourceName":"Culebra Creek","name":"Culebra Creek","source_id":"136490320","length_km":0.77010353,"FType":460,"FCode":46006,"atlas_class":"streamriver","display_name":"Culebra Creek","stream_role":"natural_stream_detail_context","sourceLayer":"colorado_natural_stream_detail_tiles_v1","sourceLabel":"Colorado natural stream detail tiles v1","sensitivity":"generalized"},"geometry":{"type":"LineString","coordinates":[[-105.42466,37.18659],[-105.42599,37.18836],[-105.425,37.18935],[-105.4264,37.18959],[-105.42639,37.19095]]}},{"type":"Feature","properties":{"huc8":"13010002","huc8Name":"Alamosa-Trinchera","historic":"rioGrande","current":"introduced","recovery":"recoveryWatch","lineageKey":"rioGrande","lineageLabel":"Rio Grande lineage","basin":"Alamosa-Trinchera","note":"Generalized Rio Grande cutthroat drainage context","state":"CO","confidence":"HUC8 drainage context / generalized","geometryStatus":"natural_stream_detail_tile_from_full_interpreted_layer","troutSource":"HUC8 lineage assignment v1 / review needed","sourceName":"Ventero Creek","name":"Ventero Creek","source_id":"136490373","length_km":0.25764972,"FType":460,"FCode":46006,"atlas_class":"streamriver","display_name":"Ventero Creek","stream_role":"natural_stream_detail_context","sourceLayer":"colorado_natural_stream_detail_tiles_v1","sourceLabel":"Colorado natural stream detail tiles v1","sensitivity":"generalized"},"geometry":{"type":"LineString","coordinates":[[-105.40411,37.12433],[-105.40353,37.12531],[-105.40396,37.12635]]}},{"type":"Feature","properties":{"huc8":"13010002","huc8Name":"Alamosa-Trinchera","historic":"rioGrande","current":"introduced","recovery":"recoveryWatch","lineageKey":"rioGrande","lineageLabel":"Rio Grande lineage","basin":"Alamosa-Trinchera","note":"Generalized Rio Grande cutthroat drainage context","state":"CO","confidence":"HUC8 drainage context / generalized","geometryStatus":"natural_stream_detail_tile_from_full_interpreted_layer","troutSource":"HUC8 lineage assignment v1 / review needed","sourceName":"Torcido Creek","name":"Torcido Creek","source_id":"136492278","length_km":0.47790779,"FType":460,"FCode":46006,"atlas_class":"streamriver","display_name":"Torcido Creek","stream_role":"natural_stream_detail_context","sourceLayer":"colorado_natural_stream_detail_tiles_v1","sourceLabel":"Colorado natural stream detail tiles v1","sensitivity":"generalized"},"geometry":{"type":"LineString","coordinates":[[-105.40146,37.0975],[-105.40263,37.09649],[-105.40496,37.09622],[-105.40588,37.09679]]}},{"type":"Feature","properties":{"huc8":"13010002","huc8Name":"Alamosa-Trinchera","historic":"rioGrande","current":"introduced","recovery":"recoveryWatch","lineageKey":"rioGrande","lineageLabel":"Rio Grande lineage","basin":"Alamosa-Trinchera","note":"Generalized Rio Grande cutthroat drainage context","state":"CO","confidence":"HUC8 drainage context / generalized","geometryStatus":"natural_stream_detail_tile_from_full_interpreted_layer","troutSource":"HUC8 lineage assignment v1 / review needed","sourceName":"Culebra Creek","name":"Culebra Creek","source_id":"136492544","length_km":0.12414489,"FType":460,"FCode":46006,"atlas_class":"streamriver","display_name":"Culebra Creek","stream_role":"natural_stream_detail_context","sourceLayer":"colorado_natural_stream_detail_tiles_v1","sourceLabel":"Colorado natural stream detail tiles v1","sensitivity":"generalized"},"geometry":{"type":"LineString","coordinates":[[-105.44812,37.19396],[-105.44949,37.1941]]}},{"type":"Feature","properties":{"huc8":"13010002","huc8Name":"Alamosa-Trinchera","historic":"rioGrande","current":"introduced","recovery":"recoveryWatch","lineageKey":"rioGrande","lineageLabel":"Rio Grande lineage","basin":"Alamosa-Trinchera","note":"Generalized Rio Grande cutthroat drainage context","state":"CO","confidence":"HUC8 drainage context / generalized","geometryStatus":"natural_stream_detail_tile_from_full_interpreted_layer","troutSource":"HUC8 lineage assignment v1 / review needed","sourceName":"Cuates Creek","name":"Cuates Creek","source_id":"136489903","length_km":0.15003714,"FType":460,"FCode":46003,"atlas_class":"streamriver","display_name":"Cuates Creek","stream_role":"natural_stream_detail_context","sourceLayer":"colorado_natural_stream_detail_tiles_v1","sourceLabel":"Colorado natural stream detail tiles v1","sensitivity":"generalized"},"geometry":{"type":"LineString","coordinates":[[-105.42254,37.04518],[-105.42325,37.04627]]}},{"type":"Feature","properties":{"huc8":"13010002","huc8Name":"Alamosa-Trinchera","historic":"rioGrande","current":"introduced","recovery":"recoveryWatch","lineageKey":"rioGrande","lineageLabel":"Rio Grande lineage","basin":"Alamosa-Trinchera","note":"Generalized Rio Grande cutthroat drainage context","state":"CO","confidence":"HUC8 drainage context / generalized","geometryStatus":"natural_stream_detail_tile_from_full_interpreted_layer","troutSource":"HUC8 lineage assignment v1 / review needed","sourceName":"Ventero Creek","name":"Ventero Creek","source_id":"136442484","length_km":0.10478666,"FType":460,"FCode":46003,"atlas_class":"streamriver","display_name":"Ventero Creek","stream_role":"natural_stream_detail_context","sourceLayer":"colorado_natural_stream_detail_tiles_v1","sourceLabel":"Colorado natural stream detail tiles v1","sensitivity":"generalized"},"geometry":{"type":"LineString","coordinates":[[-105.43226,37.01515],[-105.43134,37.0157]]}},{"type":"Feature","properties":{"huc8":"13010002","huc8Name":"Alamosa-Trinchera","historic":"rioGrande","current":"introduced","recovery":"recoveryWatch","lineageKey":"rioGrande","lineageLabel":"Rio Grande lineage","basin":"Alamosa-Trinchera","note":"Generalized Rio Grande cutthroat drainage context","state":"CO","confidence":"HUC8 drainage context / generalized","geometryStatus":"natural_stream_detail_tile_from_full_interpreted_layer","troutSource":"HUC8 lineage assignment v1 / review needed","sourceName":"Ventero Creek","name":"Ventero Creek","source_id":"136442471","length_km":1.82960841,"FType":460,"FCode":46003,"atlas_class":"streamriver","display_name":"Ventero Creek","stream_role":"natural_stream_detail_context","sourceLayer":"colorado_natural_stream_detail_tiles_v1","sourceLabel":"Colorado natural stream detail tiles v1","sensitivity":"generalized"},"geometry":{"type":"LineString","coordinates":[[-105.44833,37.00623],[-105.43872,37.00925],[-105.43289,37.01343],[-105.43226,37.01515]]}},{"type":"Feature","properties":{"huc8":"13010002","huc8Name":"Alamosa-Trinchera","historic":"rioGrande","current":"introduced","recovery":"recoveryWatch","lineageKey":"rioGrande","lineageLabel":"Rio Grande lineage","basin":"Alamosa-Trinchera","note":"Generalized Rio Grande cutthroat drainage context","state":"CO","confidence":"HUC8 drainage context / generalized","geometryStatus":"natural_stream_detail_tile_from_full_interpreted_layer","troutSource":"HUC8 lineage assignment v1 / review needed","sourceName":"Ventero Creek","name":"Ventero Creek","source_id":"136492829","length_km":0.06534364,"FType":460,"FCode":46006,"atlas_class":"streamriver","display_name":"Ventero Creek","stream_role":"natural_stream_detail_context","sourceLayer":"colorado_natural_stream_detail_tiles_v1","sourceLabel":"Colorado natural stream detail tiles v1","sensitivity":"generalized"},"geometry":{"type":"LineString","coordinates":[[-105.43108,37.01581],[-105.43104,37.01639]]}},{"type":"Feature","properties":{"huc8":"13010002","huc8Name":"Alamosa-Trinchera","historic":"rioGrande","current":"introduced","recovery":"recoveryWatch","lineageKey":"rioGrande","lineageLabel":"Rio Grande lineage","basin":"Alamosa-Trinchera","note":"Generalized Rio Grande cutthroat drainage context","state":"CO","confidence":"HUC8 drainage context / generalized","geometryStatus":"natural_stream_detail_tile_from_full_interpreted_layer","troutSource":"HUC8 lineage assignment v1 / review needed","sourceName":"Torcido Creek","name":"Torcido Creek","source_id":"136492277","length_km":0.13861463,"FType":460,"FCode":46006,"atlas_class":"streamriver","display_name":"Torcido Creek","stream_role":"natural_stream_detail_context","sourceLayer":"colorado_natural_stream_detail_tiles_v1","sourceLabel":"Colorado natural stream detail tiles v1","sensitivity":"generalized"},"geometry":{"type":"LineString","coordinates":[[-105.40588,37.09679],[-105.40716,37.09732]]}},{"type":"Feature","properties":{"huc8":"13010002","huc8Name":"Alamosa-Trinchera","historic":"rioGrande","current":"introduced","recovery":"recoveryWatch","lineageKey":"rioGrande","lineageLabel":"Rio Grande lineage","basin":"Alamosa-Trinchera","note":"Generalized Rio Grande cutthroat drainage context","state":"CO","confidence":"HUC8 drainage context / generalized","geometryStatus":"natural_stream_detail_tile_from_full_interpreted_layer","troutSource":"HUC8 lineage assignment v1 / review needed","sourceName":"Jaroso Creek","name":"Jaroso Creek","source_id":"136442082","length_km":2.82260437,"FType":460,"FCode":46003,"atlas_class":"streamriver","display_name":"Jaroso Creek","stream_role":"natural_stream_detail_context","sourceLayer":"colorado_natural_stream_detail_tiles_v1","sourceLabel":"Colorado natural stream detail tiles v1","sensitivity":"generalized"},"geometry":{"type":"LineString","coordinates":[[-105.38533,37.05387],[-105.39035,37.05377],[-105.39376,37.05438],[-105.39701,37.05567],[-105.39771,37.05644],[-105.40395,37.05707],[-105.41098,37.05891],[-105.41297,37.06073]]}},{"type":"Feature","properties":{"huc8":"13010002","huc8Name":"Alamosa-Trinchera","historic":"rioGrande","current":"introduced","recovery":"recoveryWatch","lineageKey":"rioGrande","lineageLabel":"Rio Grande lineage","basin":"Alamosa-Trinchera","note":"Generalized Rio Grande cutthroat drainage context","state":"CO","confidence":"HUC8 drainage context / generalized","geometryStatus":"natural_stream_detail_tile_from_full_interpreted_layer","troutSource":"HUC8 lineage assignment v1 / review needed","sourceName":"Torcido Creek","name":"Torcido Creek","source_id":"136492279","length_km":0.29065853,"FType":460,"FCode":46006,"atlas_class":"streamriver","display_name":"Torcido Creek","stream_role":"natural_stream_detail_context","sourceLayer":"colorado_natural_stream_detail_tiles_v1","sourceLabel":"Colorado natural stream detail tiles v1","sensitivity":"generalized"},"geometry":{"type":"LineString","coordinates":[[-105.39894,37.09705],[-105.39992,37.09792],[-105.40146,37.0975]]}},{"type":"Feature","properties":{"huc8":"13010002","huc8Name":"Alamosa-Trinchera","historic":"rioGrande","current":"introduced","recovery":"recoveryWatch","lineageKey":"rioGrande","lineageLabel":"Rio Grande lineage","basin":"Alamosa-Trinchera","note":"Generalized Rio Grande cutthroat drainage context","state":"CO","confidence":"HUC8 drainage context / generalized","geometryStatus":"natural_stream_detail_tile_from_full_interpreted_layer","troutSource":"HUC8 lineage assignment v1 / review needed","sourceName":"Willow Creek","name":"Willow Creek","source_id":"136488143","length_km":0.40248866,"FType":460,"FCode":46003,"atlas_class":"streamriver","display_name":"Willow Creek","stream_role":"natural_stream_detail_context","sourceLayer":"colorado_natural_stream_detail_tiles_v1","sourceLabel":"Colorado natural stream detail tiles v1","sensitivity":"generalized"},"geometry":{"type":"LineString","coordinates":[[-105.40899,37.00938],[-105.41209,37.00884],[-105.41287,37.00797]]}},{"type":"Feature","properties":{"huc8":"13010002","huc8Name":"Alamosa-Trinchera","historic":"rioGrande","current":"introduced","recovery":"recoveryWatch","lineageKey":"rioGrande","lineageLabel":"Rio Grande lineage","basin":"Alamosa-Trinchera","note":"Generalized Rio Grande cutthroat drainage context","state":"CO","confidence":"HUC8 drainage context / generalized","geometryStatus":"natural_stream_detail_tile_from_full_interpreted_layer","troutSource":"HUC8 lineage assignment v1 / review needed","sourceName":"Ventero Creek","name":"Ventero Creek","source_id":"136492824","length_km":1.58394468,"FType":460,"FCode":46006,"atlas_class":"streamriver","display_name":"Ventero Creek","stream_role":"natural_stream_detail_context","sourceLayer":"colorado_natural_stream_detail_tiles_v1","sourceLabel":"Colorado natural stream detail tiles v1","sensitivity":"generalized"},"geometry":{"type":"LineString","coordinates":[[-105.43222,37.02492],[-105.43342,37.02883],[-105.43332,37.03299],[-105.4316,37.03509],[-105.43136,37.0384]]}},{"type":"Feature","properties":{"huc8":"13010002","huc8Name":"Alamosa-Trinchera","historic":"rioGrande","current":"introduced","recovery":"recoveryWatch","lineageKey":"rioGrande","lineageLabel":"Rio Grande lineage","basin":"Alamosa-Trinchera","note":"Generalized Rio Grande cutthroat drainage context","state":"CO","confidence":"HUC8 drainage context / generalized","geometryStatus":"natural_stream_detail_tile_from_full_interpreted_layer","troutSource":"HUC8 lineage assignment v1 / review needed","sourceName":"Ventero Creek","name":"Ventero Creek","source_id":"136490344","length_km":0.54773389,"FType":460,"FCode":46006,"atlas_class":"streamriver","display_name":"Ventero Creek","stream_role":"natural_stream_detail_context","sourceLayer":"colorado_natural_stream_detail_tiles_v1","sourceLabel":"Colorado natural stream detail tiles v1","sensitivity":"generalized"},"geometry":{"type":"LineString","coordinates":[[-105.41168,37.15019],[-105.41206,37.15123],[-105.41163,37.15155],[-105.41241,37.15179],[-105.41246,37.1541]]}},{"type":"Feature","properties":{"huc8":"13010002","huc8Name":"Alamosa-Trinchera","historic":"rioGrande","current":"introduced","recovery":"recoveryWatch","lineageKey":"rioGrande","lineageLabel":"Rio Grande lineage","basin":"Alamosa-Trinchera","note":"Generalized Rio Grande cutthroat drainage context","state":"CO","confidence":"HUC8 drainage context / generalized","geometryStatus":"natural_stream_detail_tile_from_full_interpreted_layer","troutSource":"HUC8 lineage assignment v1 / review needed","sourceName":"Culebra Creek","name":"Culebra Creek","source_id":"136492546","length_km":0.87388409,"FType":460,"FCode":46006,"atlas_class":"streamriver","display_name":"Culebra Creek","stream_role":"natural_stream_detail_context","sourceLayer":"colorado_natural_stream_detail_tiles_v1","sourceLabel":"Colorado natural stream detail tiles v1","sensitivity":"generalized"},"geometry":{"type":"LineString","coordinates":[[-105.43229,37.19433],[-105.43485,37.19534],[-105.43583,37.19509],[-105.43701,37.19359],[-105.44039,37.19329]]}},{"type":"Feature","properties":{"huc8":"13010002","huc8Name":"Alamosa-Trinchera","historic":"rioGrande","current":"introduced","recovery":"recoveryWatch","lineageKey":"rioGrande","lineageLabel":"Rio Grande lineage","basin":"Alamosa-Trinchera","note":"Generalized Rio Grande cutthroat drainage context","state":"CO","confidence":"HUC8 drainage context / generalized","geometryStatus":"natural_stream_detail_tile_from_full_interpreted_layer","troutSource":"HUC8 lineage assignment v1 / review needed","sourceName":"Rito Seco","name":"Rito Seco","source_id":"136482857","length_km":0.08455171,"FType":460,"FCode":46003,"atlas_class":"streamriver","display_name":"Rito Seco","stream_role":"natural_stream_detail_context","sourceLayer":"colorado_natural_stream_detail_tiles_v1","sourceLabel":"Colorado natural stream detail tiles v1","sensitivity":"generalized"},"geometry":{"type":"LineString","coordinates":[[-105.43058,37.19433],[-105.43123,37.19384]]}},{"type":"Feature","properties":{"huc8":"13010002","huc8Name":"Alamosa-Trinchera","historic":"rioGrande","current":"introduced","recovery":"recoveryWatch","lineageKey":"rioGrande","lineageLabel":"Rio Grande lineage","basin":"Alamosa-Trinchera","note":"Generalized Rio Grande cutthroat drainage context","state":"CO","confidence":"HUC8 drainage context / generalized","geometryStatus":"natural_stream_detail_tile_from_full_interpreted_layer","troutSource":"HUC8 lineage assignment v1 / review needed","sourceName":"Jaroso Creek","name":"Jaroso Creek","source_id":"159341344","length_km":0.01108062,"FType":460,"FCode":46003,"atlas_class":"streamriver","display_name":"Jaroso Creek","stream_role":"natural_stream_detail_context","sourceLayer":"colorado_natural_stream_detail_tiles_v1","sourceLabel":"Colorado natural stream detail tiles v1","sensitivity":"generalized"},"geometry":{"type":"LineString","coordinates":[[-105.41297,37.06073],[-105.41307,37.06079]]}},{"type":"Feature","properties":{"huc8":"13010002","huc8Name":"Alamosa-Trinchera","historic":"rioGrande","current":"introduced","recovery":"recoveryWatch","lineageKey":"rioGrande","lineageLabel":"Rio Grande lineage","basin":"Alamosa-Trinchera","note":"Generalized Rio Grande cutthroat drainage context","state":"CO","confidence":"HUC8 drainage context / generalized","geometryStatus":"natural_stream_detail_tile_from_full_interpreted_layer","troutSource":"HUC8 lineage assignment v1 / review needed","sourceName":"Culebra Creek","name":"Culebra Creek","source_id":"136480287","length_km":5.11004154,"FType":460,"FCode":46003,"atlas_class":"streamriver","display_name":"Culebra Creek","stream_role":"natural_stream_detail_context","sourceLayer":"colorado_natural_stream_detail_tiles_v1","sourceLabel":"Colorado natural stream detail tiles v1","sensitivity":"generalized"},"geometry":{"type":"LineString","coordinates":[[-105.55602,37.20722],[-105.56475,37.20411],[-105.56814,37.20471],[-105.57074,37.20416],[-105.57165,37.20334],[-105.57291,37.2036],[-105.57393,37.20251],[-105.57793,37.20123],[-105.57854,37.20028],[-105.58128,37.20028],[-105.58347,37.19933],[-105.58455,37.19942],[-105.58572,37.19841],[-105.58779,37.19868],[-105.58933,37.19794],[-105.5894,37.19743],[-105.59059,37.19728],[-105.59065,37.19673],[-105.59168,37.19711],[-105.59246,37.19623],[-105.59685,37.19665],[-105.59891,37.19609],[-105.60069,37.19653],[-105.60104,37.1971],[-105.60379,37.19739]]}},{"type":"Feature","properties":{"huc8":"13010002","huc8Name":"Alamosa-Trinchera","historic":"rioGrande","current":"introduced","recovery":"recoveryWatch","lineageKey":"rioGrande","lineageLabel":"Rio Grande lineage","basin":"Alamosa-Trinchera","note":"Generalized Rio Grande cutthroat drainage context","state":"CO","confidence":"HUC8 drainage context / generalized","geometryStatus":"natural_stream_detail_tile_from_full_interpreted_layer","troutSource":"HUC8 lineage assignment v1 / review needed","sourceName":"Culebra Creek","name":"Culebra Creek","source_id":"136490292","length_km":0.02626162,"FType":460,"FCode":46006,"atlas_class":"streamriver","display_name":"Culebra Creek","stream_role":"natural_stream_detail_context","sourceLayer":"colorado_natural_stream_detail_tiles_v1","sourceLabel":"Colorado natural stream detail tiles v1","sensitivity":"generalized"},"geometry":{"type":"LineString","coordinates":[[-105.43064,37.19314],[-105.43051,37.19335]]}},{"type":"Feature","properties":{"huc8":"13010002","huc8Name":"Alamosa-Trinchera","historic":"rioGrande","current":"introduced","recovery":"recoveryWatch","lineageKey":"rioGrande","lineageLabel":"Rio Grande lineage","basin":"Alamosa-Trinchera","note":"Generalized Rio Grande cutthroat drainage context","state":"CO","confidence":"HUC8 drainage context / generalized","geometryStatus":"natural_stream_detail_tile_from_full_interpreted_layer","troutSource":"HUC8 lineage assignment v1 / review needed","sourceName":"Ventero Creek","name":"Ventero Creek","source_id":"136492823","length_km":0.99643878,"FType":460,"FCode":46006,"atlas_class":"streamriver","display_name":"Ventero Creek","stream_role":"natural_stream_detail_context","sourceLayer":"colorado_natural_stream_detail_tiles_v1","sourceLabel":"Colorado natural stream detail tiles v1","sensitivity":"generalized"},"geometry":{"type":"LineString","coordinates":[[-105.43136,37.0384],[-105.43127,37.04135],[-105.42954,37.04273],[-105.42856,37.04462],[-105.42888,37.04644]]}},{"type":"Feature","properties":{"huc8":"13010002","huc8Name":"Alamosa-Trinchera","historic":"rioGrande","current":"introduced","recovery":"recoveryWatch","lineageKey":"rioGrande","lineageLabel":"Rio Grande lineage","basin":"Alamosa-Trinchera","note":"Generalized Rio Grande cutthroat drainage context","state":"CO","confidence":"HUC8 drainage context / generalized","geometryStatus":"natural_stream_detail_tile_from_full_interpreted_layer","troutSource":"HUC8 lineage assignment v1 / review needed","sourceName":"Ventero Creek","name":"Ventero Creek","source_id":"136490393","length_km":0.14737174,"FType":460,"FCode":46006,"atlas_class":"streamriver","display_name":"Ventero Creek","stream_role":"natural_stream_detail_context","sourceLayer":"colorado_natural_stream_detail_tiles_v1","sourceLabel":"Colorado natural stream detail tiles v1","sensitivity":"generalized"},"geometry":{"type":"LineString","coordinates":[[-105.41975,37.06706],[-105.41938,37.06808]]}},{"type":"Feature","properties":{"huc8":"13010002","huc8Name":"Alamosa-Trinchera","historic":"rioGrande","current":"introduced","recovery":"recoveryWatch","lineageKey":"rioGrande","lineageLabel":"Rio Grande lineage","basin":"Alamosa-Trinchera","note":"Generalized Rio Grande cutthroat drainage context","state":"CO","confidence":"HUC8 drainage context / generalized","geometryStatus":"natural_stream_detail_tile_from_full_interpreted_layer","troutSource":"HUC8 lineage assignment v1 / review needed","sourceName":"Ventero Creek","name":"Ventero Creek","source_id":"136492817","length_km":0.14317806,"FType":460,"FCode":46006,"atlas_class":"streamriver","display_name":"Ventero Creek","stream_role":"natural_stream_detail_context","sourceLayer":"colorado_natural_stream_detail_tiles_v1","sourceLabel":"Colorado natural stream detail tiles v1","sensitivity":"generalized"},"geometry":{"type":"LineString","coordinates":[[-105.41975,37.06142],[-105.41984,37.06268]]}},{"type":"Feature","properties":{"huc8":"13010002","huc8Name":"Alamosa-Trinchera","historic":"rioGrande","current":"introduced","recovery":"recoveryWatch","lineageKey":"rioGrande","lineageLabel":"Rio Grande lineage","basin":"Alamosa-Trinchera","note":"Generalized Rio Grande cutthroat drainage context","state":"CO","confidence":"HUC8 drainage context / generalized","geometryStatus":"natural_stream_detail_tile_from_full_interpreted_layer","troutSource":"HUC8 lineage assignment v1 / review needed","sourceName":"Ventero Creek","name":"Ventero Creek","source_id":"136490354","length_km":0.94583783,"FType":460,"FCode":46006,"atlas_class":"streamriver","display_name":"Ventero Creek","stream_role":"natural_stream_detail_context","sourceLayer":"colorado_natural_stream_detail_tiles_v1","sourceLabel":"Colorado natural stream detail tiles v1","sensitivity":"generalized"},"geometry":{"type":"LineString","coordinates":[[-105.40313,37.13571],[-105.40427,37.13664],[-105.40418,37.13787],[-105.40501,37.13764],[-105.40504,37.13862],[-105.40637,37.14077],[-105.4062,37.14168]]}},{"type":"Feature","properties":{"huc8":"13010002","huc8Name":"Alamosa-Trinchera","historic":"rioGrande","current":"introduced","recovery":"recoveryWatch","lineageKey":"rioGrande","lineageLabel":"Rio Grande lineage","basin":"Alamosa-Trinchera","note":"Generalized Rio Grande cutthroat drainage context","state":"CO","confidence":"HUC8 drainage context / generalized","geometryStatus":"natural_stream_detail_tile_from_full_interpreted_layer","troutSource":"HUC8 lineage assignment v1 / review needed","sourceName":"Willow Creek","name":"Willow Creek","source_id":"136441064","length_km":0.22454301,"FType":460,"FCode":46003,"atlas_class":"streamriver","display_name":"Willow Creek","stream_role":"natural_stream_detail_context","sourceLayer":"colorado_natural_stream_detail_tiles_v1","sourceLabel":"Colorado natural stream detail tiles v1","sensitivity":"generalized"},"geometry":{"type":"LineString","coordinates":[[-105.43101,37.01026],[-105.43058,37.01213]]}},{"type":"Feature","properties":{"huc8":"13010002","huc8Name":"Alamosa-Trinchera","historic":"rioGrande","current":"introduced","recovery":"recoveryWatch","lineageKey":"rioGrande","lineageLabel":"Rio Grande lineage","basin":"Alamosa-Trinchera","note":"Generalized Rio Grande cutthroat drainage context","state":"CO","confidence":"HUC8 drainage context / generalized","geometryStatus":"natural_stream_detail_tile_from_full_interpreted_layer","troutSource":"HUC8 lineage assignment v1 / review needed","sourceName":"Cuates Creek","name":"Cuates Creek","source_id":"136489898","length_km":0.24211574,"FType":460,"FCode":46003,"atlas_class":"streamriver","display_name":"Cuates Creek","stream_role":"natural_stream_detail_context","sourceLayer":"colorado_natural_stream_detail_tiles_v1","sourceLabel":"Colorado natural stream detail tiles v1","sensitivity":"generalized"},"geometry":{"type":"LineString","coordinates":[[-105.42327,37.0466],[-105.42343,37.04752],[-105.42444,37.04823]]}},{"type":"Feature","properties":{"huc8":"13010002","huc8Name":"Alamosa-Trinchera","historic":"rioGrande","current":"introduced","recovery":"recoveryWatch","lineageKey":"rioGrande","lineageLabel":"Rio Grande lineage","basin":"Alamosa-Trinchera","note":"Generalized Rio Grande cutthroat drainage context","state":"CO","confidence":"HUC8 drainage context / generalized","geometryStatus":"natural_stream_detail_tile_from_full_interpreted_layer","troutSource":"HUC8 lineage assignment v1 / review needed","sourceName":"Culebra Creek","name":"Culebra Creek","source_id":"136490330","length_km":2.56768862,"FType":460,"FCode":46006,"atlas_class":"streamriver","display_name":"Culebra Creek","stream_role":"natural_stream_detail_context","sourceLayer":"colorado_natural_stream_detail_tiles_v1","sourceLabel":"Colorado natural stream detail tiles v1","sensitivity":"generalized"},"geometry":{"type":"LineString","coordinates":[[-105.42232,37.16471],[-105.4224,37.16754],[-105.42325,37.16847],[-105.42267,37.16835],[-105.42252,37.16915],[-105.42342,37.16954],[-105.42401,37.17248],[-105.42568,37.17377],[-105.42563,37.17457],[-105.42481,37.17455],[-105.42459,37.17539],[-105.42535,37.17555],[-105.42524,37.17703],[-105.42638,37.17677],[-105.42686,37.17764],[-105.42635,37.17835],[-105.42718,37.1787],[-105.42552,37.1794]]}},{"type":"Feature","properties":{"huc8":"13010002","huc8Name":"Alamosa-Trinchera","historic":"rioGrande","current":"introduced","recovery":"recoveryWatch","lineageKey":"rioGrande","lineageLabel":"Rio Grande lineage","basin":"Alamosa-Trinchera","note":"Generalized Rio Grande cutthroat drainage context","state":"CO","confidence":"HUC8 drainage context / generalized","geometryStatus":"natural_stream_detail_tile_from_full_interpreted_layer","troutSource":"HUC8 lineage assignment v1 / review needed","sourceName":"Culebra Creek","name":"Culebra Creek","source_id":"136490412","length_km":0.97065358,"FType":460,"FCode":46006,"atlas_class":"streamriver","display_name":"Culebra Creek","stream_role":"natural_stream_detail_context","sourceLayer":"colorado_natural_stream_detail_tiles_v1","sourceLabel":"Colorado natural stream detail tiles v1","sensitivity":"generalized"},"geometry":{"type":"LineString","coordinates":[[-105.40317,37.1511],[-105.40411,37.15171],[-105.40791,37.15202],[-105.40942,37.15358],[-105.41166,37.15388]]}},{"type":"Feature","properties":{"huc8":"13010002","huc8Name":"Alamosa-Trinchera","historic":"rioGrande","current":"introduced","recovery":"recoveryWatch","lineageKey":"rioGrande","lineageLabel":"Rio Grande lineage","basin":"Alamosa-Trinchera","note":"Generalized Rio Grande cutthroat drainage context","state":"CO","confidence":"HUC8 drainage context / generalized","geometryStatus":"natural_stream_detail_tile_from_full_interpreted_layer","troutSource":"HUC8 lineage assignment v1 / review needed","sourceName":"Ventero Creek","name":"Ventero Creek","source_id":"136490242","length_km":0.02511661,"FType":460,"FCode":46003,"atlas_class":"streamriver","display_name":"Ventero Creek","stream_role":"natural_stream_detail_context","sourceLayer":"colorado_natural_stream_detail_tiles_v1","sourceLabel":"Colorado natural stream detail tiles v1","sensitivity":"generalized"},"geometry":{"type":"LineString","coordinates":[[-105.43134,37.0157],[-105.43108,37.01581]]}},{"type":"Feature","properties":{"huc8":"13010002","huc8Name":"Alamosa-Trinchera","historic":"rioGrande","current":"introduced","recovery":"recoveryWatch","lineageKey":"rioGrande","lineageLabel":"Rio Grande lineage","basin":"Alamosa-Trinchera","note":"Generalized Rio Grande cutthroat drainage context","state":"CO","confidence":"HUC8 drainage context / generalized","geometryStatus":"natural_stream_detail_tile_from_full_interpreted_layer","troutSource":"HUC8 lineage assignment v1 / review needed","sourceName":"Culebra Creek","name":"Culebra Creek","source_id":"136490339","length_km":0.53870482,"FType":460,"FCode":46006,"atlas_class":"streamriver","display_name":"Culebra Creek","stream_role":"natural_stream_detail_context","sourceLayer":"colorado_natural_stream_detail_tiles_v1","sourceLabel":"Colorado natural stream detail tiles v1","sensitivity":"generalized"},"geometry":{"type":"LineString","coordinates":[[-105.41246,37.1541],[-105.41603,37.15607],[-105.41739,37.15609]]}},{"type":"Feature","properties":{"huc8":"13010002","huc8Name":"Alamosa-Trinchera","historic":"rioGrande","current":"introduced","recovery":"recoveryWatch","lineageKey":"rioGrande","lineageLabel":"Rio Grande lineage","basin":"Alamosa-Trinchera","note":"Generalized Rio Grande cutthroat drainage context","state":"CO","confidence":"HUC8 drainage context / generalized","geometryStatus":"natural_stream_detail_tile_from_full_interpreted_layer","troutSource":"HUC8 lineage assignment v1 / review needed","sourceName":"Willow Creek","name":"Willow Creek","source_id":"136441077","length_km":1.23201509,"FType":460,"FCode":46003,"atlas_class":"streamriver","display_name":"Willow Creek","stream_role":"natural_stream_detail_context","sourceLayer":"colorado_natural_stream_detail_tiles_v1","sourceLabel":"Colorado natural stream detail tiles v1","sensitivity":"generalized"},"geometry":{"type":"LineString","coordinates":[[-105.42015,37.00481],[-105.42249,37.00458],[-105.42486,37.0052],[-105.43101,37.01026]]}},{"type":"Feature","properties":{"huc8":"13010002","huc8Name":"Alamosa-Trinchera","historic":"rioGrande","current":"introduced","recovery":"recoveryWatch","lineageKey":"rioGrande","lineageLabel":"Rio Grande lineage","basin":"Alamosa-Trinchera","note":"Generalized Rio Grande cutthroat drainage context","state":"CO","confidence":"HUC8 drainage context / generalized","geometryStatus":"natural_stream_detail_tile_from_full_interpreted_layer","troutSource":"HUC8 lineage assignment v1 / review needed","sourceName":"Willow Creek","name":"Willow Creek","source_id":"136441050","length_km":0.06352473,"FType":460,"FCode":46003,"atlas_class":"streamriver","display_name":"Willow Creek","stream_role":"natural_stream_detail_context","sourceLayer":"colorado_natural_stream_detail_tiles_v1","sourceLabel":"Colorado natural stream detail tiles v1","sensitivity":"generalized"},"geometry":{"type":"LineString","coordinates":[[-105.43058,37.01213],[-105.43075,37.01267]]}},{"type":"Feature","properties":{"huc8":"13010002","huc8Name":"Alamosa-Trinchera","historic":"rioGrande","current":"introduced","recovery":"recoveryWatch","lineageKey":"rioGrande","lineageLabel":"Rio Grande lineage","basin":"Alamosa-Trinchera","note":"Generalized Rio Grande cutthroat drainage context","state":"CO","confidence":"HUC8 drainage context / generalized","geometryStatus":"natural_stream_detail_tile_from_full_interpreted_layer","troutSource":"HUC8 lineage assignment v1 / review needed","sourceName":"Ventero Creek","name":"Ventero Creek","source_id":"136492818","length_km":0.41248409,"FType":460,"FCode":46006,"atlas_class":"streamriver","display_name":"Ventero Creek","stream_role":"natural_stream_detail_context","sourceLayer":"colorado_natural_stream_detail_tiles_v1","sourceLabel":"Colorado natural stream detail tiles v1","sensitivity":"generalized"},"geometry":{"type":"LineString","coordinates":[[-105.42208,37.05848],[-105.42007,37.06009],[-105.41975,37.06142]]}}]}