{"type":"FeatureCollection","name":"co_natural_stream_detail_0p2_x-545_y188_v1","metadata":{"description":"Colorado natural named stream/rivers close-zoom detail tile. Excludes likely human-altered named linework.","version":"v1","gridSizeDegrees":0.2,"tileX":-545,"tileY":188,"bounds":{"west":-109,"south":37.6,"east":-108.80000000000001,"north":37.800000000000004},"source":"C:\\ct-atlas-data\\processed\\geojson\\interpreted\\colorado_cutthroat_huc8_stream_context_named_v1.geojson"},"features":[{"type":"Feature","properties":{"huc8":"14080203","huc8Name":"Montezuma","historic":"sanJuan","current":"introduced","recovery":"recoveryWatch","lineageKey":"sanJuan","lineageLabel":"San Juan lineage","basin":"Montezuma","note":"San Juan lineage context; review needed","state":"CO","confidence":"HUC8 drainage context / generalized","geometryStatus":"natural_stream_detail_tile_from_full_interpreted_layer","troutSource":"HUC8 lineage assignment v1 / review needed","sourceName":"Lower Monument Creek","name":"Lower Monument Creek","source_id":"78878806","length_km":0.902,"FType":460,"FCode":46003,"atlas_class":"streamriver","display_name":"Lower Monument Creek","stream_role":"natural_stream_detail_context","sourceLayer":"colorado_natural_stream_detail_tiles_v1","sourceLabel":"Colorado natural stream detail tiles v1","sensitivity":"generalized"},"geometry":{"type":"LineString","coordinates":[[-108.93426,37.74434],[-108.93781,37.73812],[-108.93878,37.73742]]}},{"type":"Feature","properties":{"huc8":"14080203","huc8Name":"Montezuma","historic":"sanJuan","current":"introduced","recovery":"recoveryWatch","lineageKey":"sanJuan","lineageLabel":"San Juan lineage","basin":"Montezuma","note":"San Juan lineage context; review needed","state":"CO","confidence":"HUC8 drainage context / generalized","geometryStatus":"natural_stream_detail_tile_from_full_interpreted_layer","troutSource":"HUC8 lineage assignment v1 / review needed","sourceName":"Monument Creek","name":"Monument Creek","source_id":"78878030","length_km":0.361,"FType":460,"FCode":46003,"atlas_class":"streamriver","display_name":"Monument Creek","stream_role":"natural_stream_detail_context","sourceLayer":"colorado_natural_stream_detail_tiles_v1","sourceLabel":"Colorado natural stream detail tiles v1","sensitivity":"generalized"},"geometry":{"type":"LineString","coordinates":[[-108.96605,37.76116],[-108.96786,37.75852]]}},{"type":"Feature","properties":{"huc8":"14080203","huc8Name":"Montezuma","historic":"sanJuan","current":"introduced","recovery":"recoveryWatch","lineageKey":"sanJuan","lineageLabel":"San Juan lineage","basin":"Montezuma","note":"San Juan lineage context; review needed","state":"CO","confidence":"HUC8 drainage context / generalized","geometryStatus":"natural_stream_detail_tile_from_full_interpreted_layer","troutSource":"HUC8 lineage assignment v1 / review needed","sourceName":"Willow Creek","name":"Willow Creek","source_id":"78877072","length_km":0.647,"FType":460,"FCode":46003,"atlas_class":"streamriver","display_name":"Willow Creek","stream_role":"natural_stream_detail_context","sourceLayer":"colorado_natural_stream_detail_tiles_v1","sourceLabel":"Colorado natural stream detail tiles v1","sensitivity":"generalized"},"geometry":{"type":"LineString","coordinates":[[-108.98991,37.78737],[-108.99314,37.78798],[-108.99693,37.78736]]}},{"type":"Feature","properties":{"huc8":"14080203","huc8Name":"Montezuma","historic":"sanJuan","current":"introduced","recovery":"recoveryWatch","lineageKey":"sanJuan","lineageLabel":"San Juan lineage","basin":"Montezuma","note":"San Juan lineage context; review needed","state":"CO","confidence":"HUC8 drainage context / generalized","geometryStatus":"natural_stream_detail_tile_from_full_interpreted_layer","troutSource":"HUC8 lineage assignment v1 / review needed","sourceName":"Lower Monument Creek","name":"Lower Monument Creek","source_id":"78879144","length_km":1.396,"FType":460,"FCode":46003,"atlas_class":"streamriver","display_name":"Lower Monument Creek","stream_role":"natural_stream_detail_context","sourceLayer":"colorado_natural_stream_detail_tiles_v1","sourceLabel":"Colorado natural stream detail tiles v1","sensitivity":"generalized"},"geometry":{"type":"LineString","coordinates":[[-108.96022,37.72867],[-108.96116,37.72694],[-108.96236,37.7265],[-108.96479,37.7269],[-108.96711,37.72486],[-108.9683,37.72493],[-108.9703,37.7237],[-108.97149,37.72377]]}},{"type":"Feature","properties":{"huc8":"14080203","huc8Name":"Montezuma","historic":"sanJuan","current":"introduced","recovery":"recoveryWatch","lineageKey":"sanJuan","lineageLabel":"San Juan lineage","basin":"Montezuma","note":"San Juan lineage context; review needed","state":"CO","confidence":"HUC8 drainage context / generalized","geometryStatus":"natural_stream_detail_tile_from_full_interpreted_layer","troutSource":"HUC8 lineage assignment v1 / review needed","sourceName":"Monument Creek","name":"Monument Creek","source_id":"78878624","length_km":0.237,"FType":460,"FCode":46003,"atlas_class":"streamriver","display_name":"Monument Creek","stream_role":"natural_stream_detail_context","sourceLayer":"colorado_natural_stream_detail_tiles_v1","sourceLabel":"Colorado natural stream detail tiles v1","sensitivity":"generalized"},"geometry":{"type":"LineString","coordinates":[[-108.97538,37.74019],[-108.97627,37.73822]]}},{"type":"Feature","properties":{"huc8":"14080203","huc8Name":"Montezuma","historic":"sanJuan","current":"introduced","recovery":"recoveryWatch","lineageKey":"sanJuan","lineageLabel":"San Juan lineage","basin":"Montezuma","note":"San Juan lineage context; review needed","state":"CO","confidence":"HUC8 drainage context / generalized","geometryStatus":"natural_stream_detail_tile_from_full_interpreted_layer","troutSource":"HUC8 lineage assignment v1 / review needed","sourceName":"Lower Monument Creek","name":"Lower Monument Creek","source_id":"78878932","length_km":0.546,"FType":460,"FCode":46003,"atlas_class":"streamriver","display_name":"Lower Monument Creek","stream_role":"natural_stream_detail_context","sourceLayer":"colorado_natural_stream_detail_tiles_v1","sourceLabel":"Colorado natural stream detail tiles v1","sensitivity":"generalized"},"geometry":{"type":"LineString","coordinates":[[-108.94861,37.73381],[-108.95064,37.7333],[-108.95438,37.7335]]}},{"type":"Feature","properties":{"huc8":"14080203","huc8Name":"Montezuma","historic":"sanJuan","current":"introduced","recovery":"recoveryWatch","lineageKey":"sanJuan","lineageLabel":"San Juan lineage","basin":"Montezuma","note":"San Juan lineage context; review needed","state":"CO","confidence":"HUC8 drainage context / generalized","geometryStatus":"natural_stream_detail_tile_from_full_interpreted_layer","troutSource":"HUC8 lineage assignment v1 / review needed","sourceName":"Monument Creek","name":"Monument Creek","source_id":"78878580","length_km":0.955,"FType":460,"FCode":46003,"atlas_class":"streamriver","display_name":"Monument Creek","stream_role":"natural_stream_detail_context","sourceLayer":"colorado_natural_stream_detail_tiles_v1","sourceLabel":"Colorado natural stream detail tiles v1","sensitivity":"generalized"},"geometry":{"type":"LineString","coordinates":[[-108.97221,37.74752],[-108.97207,37.74617],[-108.97352,37.74362],[-108.97336,37.74155],[-108.97538,37.74019]]}},{"type":"Feature","properties":{"huc8":"14080203","huc8Name":"Montezuma","historic":"sanJuan","current":"introduced","recovery":"recoveryWatch","lineageKey":"sanJuan","lineageLabel":"San Juan lineage","basin":"Montezuma","note":"San Juan lineage context; review needed","state":"CO","confidence":"HUC8 drainage context / generalized","geometryStatus":"natural_stream_detail_tile_from_full_interpreted_layer","troutSource":"HUC8 lineage assignment v1 / review needed","sourceName":"Dove Creek","name":"Dove Creek","source_id":"78879554","length_km":0.628,"FType":460,"FCode":46003,"atlas_class":"streamriver","display_name":"Dove Creek","stream_role":"natural_stream_detail_context","sourceLayer":"colorado_natural_stream_detail_tiles_v1","sourceLabel":"Colorado natural stream detail tiles v1","sensitivity":"generalized"},"geometry":{"type":"LineString","coordinates":[[-108.90273,37.72381],[-108.9038,37.72042],[-108.90504,37.71932]]}},{"type":"Feature","properties":{"huc8":"14080203","huc8Name":"Montezuma","historic":"sanJuan","current":"introduced","recovery":"recoveryWatch","lineageKey":"sanJuan","lineageLabel":"San Juan lineage","basin":"Montezuma","note":"San Juan lineage context; review needed","state":"CO","confidence":"HUC8 drainage context / generalized","geometryStatus":"natural_stream_detail_tile_from_full_interpreted_layer","troutSource":"HUC8 lineage assignment v1 / review needed","sourceName":"Monument Creek","name":"Monument Creek","source_id":"78878982","length_km":0.304,"FType":460,"FCode":46003,"atlas_class":"streamriver","display_name":"Monument Creek","stream_role":"natural_stream_detail_context","sourceLayer":"colorado_natural_stream_detail_tiles_v1","sourceLabel":"Colorado natural stream detail tiles v1","sensitivity":"generalized"},"geometry":{"type":"LineString","coordinates":[[-108.99138,37.72814],[-108.99393,37.72643]]}},{"type":"Feature","properties":{"huc8":"14080203","huc8Name":"Montezuma","historic":"sanJuan","current":"introduced","recovery":"recoveryWatch","lineageKey":"sanJuan","lineageLabel":"San Juan lineage","basin":"Montezuma","note":"San Juan lineage context; review needed","state":"CO","confidence":"HUC8 drainage context / generalized","geometryStatus":"natural_stream_detail_tile_from_full_interpreted_layer","troutSource":"HUC8 lineage assignment v1 / review needed","sourceName":"Dove Creek","name":"Dove Creek","source_id":"78881354","length_km":1.07,"FType":460,"FCode":46003,"atlas_class":"streamriver","display_name":"Dove Creek","stream_role":"natural_stream_detail_context","sourceLayer":"colorado_natural_stream_detail_tiles_v1","sourceLabel":"Colorado natural stream detail tiles v1","sensitivity":"generalized"},"geometry":{"type":"LineString","coordinates":[[-108.91686,37.66706],[-108.9161,37.66526],[-108.91738,37.66213],[-108.91715,37.66001],[-108.91571,37.65843]]}},{"type":"Feature","properties":{"huc8":"14080203","huc8Name":"Montezuma","historic":"sanJuan","current":"introduced","recovery":"recoveryWatch","lineageKey":"sanJuan","lineageLabel":"San Juan lineage","basin":"Montezuma","note":"San Juan lineage context; review needed","state":"CO","confidence":"HUC8 drainage context / generalized","geometryStatus":"natural_stream_detail_tile_from_full_interpreted_layer","troutSource":"HUC8 lineage assignment v1 / review needed","sourceName":"West Monument Creek","name":"West Monument Creek","source_id":"78877286","length_km":0.072,"FType":460,"FCode":46003,"atlas_class":"streamriver","display_name":"West Monument Creek","stream_role":"natural_stream_detail_context","sourceLayer":"colorado_natural_stream_detail_tiles_v1","sourceLabel":"Colorado natural stream detail tiles v1","sensitivity":"generalized"},"geometry":{"type":"LineString","coordinates":[[-108.96439,37.78283],[-108.9647,37.78226]]}},{"type":"Feature","properties":{"huc8":"14080203","huc8Name":"Montezuma","historic":"sanJuan","current":"introduced","recovery":"recoveryWatch","lineageKey":"sanJuan","lineageLabel":"San Juan lineage","basin":"Montezuma","note":"San Juan lineage context; review needed","state":"CO","confidence":"HUC8 drainage context / generalized","geometryStatus":"natural_stream_detail_tile_from_full_interpreted_layer","troutSource":"HUC8 lineage assignment v1 / review needed","sourceName":"Lower Monument Creek","name":"Lower Monument Creek","source_id":"78879130","length_km":2.384,"FType":460,"FCode":46003,"atlas_class":"streamriver","display_name":"Lower Monument Creek","stream_role":"natural_stream_detail_context","sourceLayer":"colorado_natural_stream_detail_tiles_v1","sourceLabel":"Colorado natural stream detail tiles v1","sensitivity":"generalized"},"geometry":{"type":"LineString","coordinates":[[-108.97149,37.72377],[-108.97191,37.72421],[-108.97155,37.72454],[-108.97274,37.72545],[-108.97508,37.72506],[-108.97543,37.72598],[-108.97728,37.72659],[-108.97997,37.72602],[-108.98033,37.72668],[-108.98297,37.72729],[-108.98414,37.72854],[-108.99138,37.72814]]}},{"type":"Feature","properties":{"huc8":"14080203","huc8Name":"Montezuma","historic":"sanJuan","current":"introduced","recovery":"recoveryWatch","lineageKey":"sanJuan","lineageLabel":"San Juan lineage","basin":"Montezuma","note":"San Juan lineage context; review needed","state":"CO","confidence":"HUC8 drainage context / generalized","geometryStatus":"natural_stream_detail_tile_from_full_interpreted_layer","troutSource":"HUC8 lineage assignment v1 / review needed","sourceName":"Monument Creek","name":"Monument Creek","source_id":"78878664","length_km":0.611,"FType":460,"FCode":46003,"atlas_class":"streamriver","display_name":"Monument Creek","stream_role":"natural_stream_detail_context","sourceLayer":"colorado_natural_stream_detail_tiles_v1","sourceLabel":"Colorado natural stream detail tiles v1","sensitivity":"generalized"},"geometry":{"type":"LineString","coordinates":[[-108.97627,37.73822],[-108.97703,37.73767],[-108.97817,37.73802],[-108.98201,37.73699]]}},{"type":"Feature","properties":{"huc8":"14080203","huc8Name":"Montezuma","historic":"sanJuan","current":"introduced","recovery":"recoveryWatch","lineageKey":"sanJuan","lineageLabel":"San Juan lineage","basin":"Montezuma","note":"San Juan lineage context; review needed","state":"CO","confidence":"HUC8 drainage context / generalized","geometryStatus":"natural_stream_detail_tile_from_full_interpreted_layer","troutSource":"HUC8 lineage assignment v1 / review needed","sourceName":"West Monument Creek","name":"West Monument Creek","source_id":"78877916","length_km":0.948,"FType":460,"FCode":46003,"atlas_class":"streamriver","display_name":"West Monument Creek","stream_role":"natural_stream_detail_context","sourceLayer":"colorado_natural_stream_detail_tiles_v1","sourceLabel":"Colorado natural stream detail tiles v1","sensitivity":"generalized"},"geometry":{"type":"LineString","coordinates":[[-108.96565,37.76929],[-108.96517,37.76781],[-108.96603,37.76672],[-108.96542,37.76363],[-108.96589,37.76166]]}},{"type":"Feature","properties":{"huc8":"14080203","huc8Name":"Montezuma","historic":"sanJuan","current":"introduced","recovery":"recoveryWatch","lineageKey":"sanJuan","lineageLabel":"San Juan lineage","basin":"Montezuma","note":"San Juan lineage context; review needed","state":"CO","confidence":"HUC8 drainage context / generalized","geometryStatus":"natural_stream_detail_tile_from_full_interpreted_layer","troutSource":"HUC8 lineage assignment v1 / review needed","sourceName":"Monument Creek","name":"Monument Creek","source_id":"78879114","length_km":0.614,"FType":460,"FCode":46003,"atlas_class":"streamriver","display_name":"Monument Creek","stream_role":"natural_stream_detail_context","sourceLayer":"colorado_natural_stream_detail_tiles_v1","sourceLabel":"Colorado natural stream detail tiles v1","sensitivity":"generalized"},"geometry":{"type":"LineString","coordinates":[[-108.99393,37.72643],[-108.99535,37.72445],[-108.99577,37.72163]]}},{"type":"Feature","properties":{"huc8":"14080203","huc8Name":"Montezuma","historic":"sanJuan","current":"introduced","recovery":"recoveryWatch","lineageKey":"sanJuan","lineageLabel":"San Juan lineage","basin":"Montezuma","note":"San Juan lineage context; review needed","state":"CO","confidence":"HUC8 drainage context / generalized","geometryStatus":"natural_stream_detail_tile_from_full_interpreted_layer","troutSource":"HUC8 lineage assignment v1 / review needed","sourceName":"Monument Creek","name":"Monument Creek","source_id":"78878952","length_km":0.759,"FType":460,"FCode":46003,"atlas_class":"streamriver","display_name":"Monument Creek","stream_role":"natural_stream_detail_context","sourceLayer":"colorado_natural_stream_detail_tiles_v1","sourceLabel":"Colorado natural stream detail tiles v1","sensitivity":"generalized"},"geometry":{"type":"LineString","coordinates":[[-108.98735,37.73365],[-108.99027,37.7307],[-108.99138,37.72814]]}},{"type":"Feature","properties":{"huc8":"14080203","huc8Name":"Montezuma","historic":"sanJuan","current":"introduced","recovery":"recoveryWatch","lineageKey":"sanJuan","lineageLabel":"San Juan lineage","basin":"Montezuma","note":"San Juan lineage context; review needed","state":"CO","confidence":"HUC8 drainage context / generalized","geometryStatus":"natural_stream_detail_tile_from_full_interpreted_layer","troutSource":"HUC8 lineage assignment v1 / review needed","sourceName":"Willow Creek","name":"Willow Creek","source_id":"78877196","length_km":1.296,"FType":460,"FCode":46003,"atlas_class":"streamriver","display_name":"Willow Creek","stream_role":"natural_stream_detail_context","sourceLayer":"colorado_natural_stream_detail_tiles_v1","sourceLabel":"Colorado natural stream detail tiles v1","sensitivity":"generalized"},"geometry":{"type":"LineString","coordinates":[[-108.9743,37.79042],[-108.97358,37.78647],[-108.97525,37.78489],[-108.98206,37.78607]]}},{"type":"Feature","properties":{"huc8":"14080203","huc8Name":"Montezuma","historic":"sanJuan","current":"introduced","recovery":"recoveryWatch","lineageKey":"sanJuan","lineageLabel":"San Juan lineage","basin":"Montezuma","note":"San Juan lineage context; review needed","state":"CO","confidence":"HUC8 drainage context / generalized","geometryStatus":"natural_stream_detail_tile_from_full_interpreted_layer","troutSource":"HUC8 lineage assignment v1 / review needed","sourceName":"West Monument Creek","name":"West Monument Creek","source_id":"78877644","length_km":1.668,"FType":460,"FCode":46003,"atlas_class":"streamriver","display_name":"West Monument Creek","stream_role":"natural_stream_detail_context","sourceLayer":"colorado_natural_stream_detail_tiles_v1","sourceLabel":"Colorado natural stream detail tiles v1","sensitivity":"generalized"},"geometry":{"type":"LineString","coordinates":[[-108.9647,37.78226],[-108.96483,37.78037],[-108.96594,37.77852],[-108.96577,37.77697],[-108.96772,37.7745],[-108.96666,37.77026],[-108.96565,37.76929]]}},{"type":"Feature","properties":{"huc8":"14080203","huc8Name":"Montezuma","historic":"sanJuan","current":"introduced","recovery":"recoveryWatch","lineageKey":"sanJuan","lineageLabel":"San Juan lineage","basin":"Montezuma","note":"San Juan lineage context; review needed","state":"CO","confidence":"HUC8 drainage context / generalized","geometryStatus":"natural_stream_detail_tile_from_full_interpreted_layer","troutSource":"HUC8 lineage assignment v1 / review needed","sourceName":"Monument Creek","name":"Monument Creek","source_id":"78878778","length_km":0.691,"FType":460,"FCode":46003,"atlas_class":"streamriver","display_name":"Monument Creek","stream_role":"natural_stream_detail_context","sourceLayer":"colorado_natural_stream_detail_tiles_v1","sourceLabel":"Colorado natural stream detail tiles v1","sensitivity":"generalized"},"geometry":{"type":"LineString","coordinates":[[-108.98201,37.73699],[-108.98451,37.73372],[-108.98735,37.73365]]}},{"type":"Feature","properties":{"huc8":"14080203","huc8Name":"Montezuma","historic":"sanJuan","current":"introduced","recovery":"recoveryWatch","lineageKey":"sanJuan","lineageLabel":"San Juan lineage","basin":"Montezuma","note":"San Juan lineage context; review needed","state":"CO","confidence":"HUC8 drainage context / generalized","geometryStatus":"natural_stream_detail_tile_from_full_interpreted_layer","troutSource":"HUC8 lineage assignment v1 / review needed","sourceName":"Willow Creek","name":"Willow Creek","source_id":"78877044","length_km":0.415,"FType":460,"FCode":46003,"atlas_class":"streamriver","display_name":"Willow Creek","stream_role":"natural_stream_detail_context","sourceLayer":"colorado_natural_stream_detail_tiles_v1","sourceLabel":"Colorado natural stream detail tiles v1","sensitivity":"generalized"},"geometry":{"type":"LineString","coordinates":[[-108.99693,37.78736],[-108.9991,37.78808],[-109.00125,37.78744]]}},{"type":"Feature","properties":{"huc8":"14080203","huc8Name":"Montezuma","historic":"sanJuan","current":"introduced","recovery":"recoveryWatch","lineageKey":"sanJuan","lineageLabel":"San Juan lineage","basin":"Montezuma","note":"San Juan lineage context; review needed","state":"CO","confidence":"HUC8 drainage context / generalized","geometryStatus":"natural_stream_detail_tile_from_full_interpreted_layer","troutSource":"HUC8 lineage assignment v1 / review needed","sourceName":"Monument Creek","name":"Monument Creek","source_id":"78878344","length_km":1.452,"FType":460,"FCode":46003,"atlas_class":"streamriver","display_name":"Monument Creek","stream_role":"natural_stream_detail_context","sourceLayer":"colorado_natural_stream_detail_tiles_v1","sourceLabel":"Colorado natural stream detail tiles v1","sensitivity":"generalized"},"geometry":{"type":"LineString","coordinates":[[-108.96786,37.75852],[-108.96806,37.75683],[-108.96754,37.75583],[-108.96905,37.75515],[-108.97017,37.75196],[-108.97251,37.74926],[-108.97221,37.74752]]}},{"type":"Feature","properties":{"huc8":"14080203","huc8Name":"Montezuma","historic":"sanJuan","current":"introduced","recovery":"recoveryWatch","lineageKey":"sanJuan","lineageLabel":"San Juan lineage","basin":"Montezuma","note":"San Juan lineage context; review needed","state":"CO","confidence":"HUC8 drainage context / generalized","geometryStatus":"natural_stream_detail_tile_from_full_interpreted_layer","troutSource":"HUC8 lineage assignment v1 / review needed","sourceName":"Dove Creek","name":"Dove Creek","source_id":"78879446","length_km":0.56,"FType":460,"FCode":46003,"atlas_class":"streamriver","display_name":"Dove Creek","stream_role":"natural_stream_detail_context","sourceLayer":"colorado_natural_stream_detail_tiles_v1","sourceLabel":"Colorado natural stream detail tiles v1","sensitivity":"generalized"},"geometry":{"type":"LineString","coordinates":[[-108.90322,37.72811],[-108.90362,37.72731],[-108.90293,37.72643],[-108.90273,37.72381]]}},{"type":"Feature","properties":{"huc8":"14080203","huc8Name":"Montezuma","historic":"sanJuan","current":"introduced","recovery":"recoveryWatch","lineageKey":"sanJuan","lineageLabel":"San Juan lineage","basin":"Montezuma","note":"San Juan lineage context; review needed","state":"CO","confidence":"HUC8 drainage context / generalized","geometryStatus":"natural_stream_detail_tile_from_full_interpreted_layer","troutSource":"HUC8 lineage assignment v1 / review needed","sourceName":"West Monument Creek","name":"West Monument Creek","source_id":"78876804","length_km":0.619,"FType":460,"FCode":46003,"atlas_class":"streamriver","display_name":"West Monument Creek","stream_role":"natural_stream_detail_context","sourceLayer":"colorado_natural_stream_detail_tiles_v1","sourceLabel":"Colorado natural stream detail tiles v1","sensitivity":"generalized"},"geometry":{"type":"LineString","coordinates":[[-108.96251,37.80173],[-108.96369,37.80023],[-108.9642,37.79845],[-108.96373,37.79678]]}},{"type":"Feature","properties":{"huc8":"14080203","huc8Name":"Montezuma","historic":"sanJuan","current":"introduced","recovery":"recoveryWatch","lineageKey":"sanJuan","lineageLabel":"San Juan lineage","basin":"Montezuma","note":"San Juan lineage context; review needed","state":"CO","confidence":"HUC8 drainage context / generalized","geometryStatus":"natural_stream_detail_tile_from_full_interpreted_layer","troutSource":"HUC8 lineage assignment v1 / review needed","sourceName":"Dove Creek","name":"Dove Creek","source_id":"78881086","length_km":1.874,"FType":460,"FCode":46003,"atlas_class":"streamriver","display_name":"Dove Creek","stream_role":"natural_stream_detail_context","sourceLayer":"colorado_natural_stream_detail_tiles_v1","sourceLabel":"Colorado natural stream detail tiles v1","sensitivity":"generalized"},"geometry":{"type":"LineString","coordinates":[[-108.91299,37.6821],[-108.91264,37.68073],[-108.9147,37.67886],[-108.91471,37.67472],[-108.91742,37.6699],[-108.91686,37.66706]]}},{"type":"Feature","properties":{"huc8":"14080203","huc8Name":"Montezuma","historic":"sanJuan","current":"introduced","recovery":"recoveryWatch","lineageKey":"sanJuan","lineageLabel":"San Juan lineage","basin":"Montezuma","note":"San Juan lineage context; review needed","state":"CO","confidence":"HUC8 drainage context / generalized","geometryStatus":"natural_stream_detail_tile_from_full_interpreted_layer","troutSource":"HUC8 lineage assignment v1 / review needed","sourceName":"Monument Creek","name":"Monument Creek","source_id":"78877790","length_km":0.352,"FType":460,"FCode":46003,"atlas_class":"streamriver","display_name":"Monument Creek","stream_role":"natural_stream_detail_context","sourceLayer":"colorado_natural_stream_detail_tiles_v1","sourceLabel":"Colorado natural stream detail tiles v1","sensitivity":"generalized"},"geometry":{"type":"LineString","coordinates":[[-108.949,37.76826],[-108.95152,37.76623]]}},{"type":"Feature","properties":{"huc8":"14080203","huc8Name":"Montezuma","historic":"sanJuan","current":"introduced","recovery":"recoveryWatch","lineageKey":"sanJuan","lineageLabel":"San Juan lineage","basin":"Montezuma","note":"San Juan lineage context; review needed","state":"CO","confidence":"HUC8 drainage context / generalized","geometryStatus":"natural_stream_detail_tile_from_full_interpreted_layer","troutSource":"HUC8 lineage assignment v1 / review needed","sourceName":"Monument Creek","name":"Monument Creek","source_id":"78877882","length_km":0.448,"FType":460,"FCode":46003,"atlas_class":"streamriver","display_name":"Monument Creek","stream_role":"natural_stream_detail_context","sourceLayer":"colorado_natural_stream_detail_tiles_v1","sourceLabel":"Colorado natural stream detail tiles v1","sensitivity":"generalized"},"geometry":{"type":"LineString","coordinates":[[-108.95691,37.76521],[-108.95828,37.76375],[-108.95994,37.76362],[-108.96052,37.76296]]}},{"type":"Feature","properties":{"huc8":"14080203","huc8Name":"Montezuma","historic":"sanJuan","current":"introduced","recovery":"recoveryWatch","lineageKey":"sanJuan","lineageLabel":"San Juan lineage","basin":"Montezuma","note":"San Juan lineage context; review needed","state":"CO","confidence":"HUC8 drainage context / generalized","geometryStatus":"natural_stream_detail_tile_from_full_interpreted_layer","troutSource":"HUC8 lineage assignment v1 / review needed","sourceName":"Lower Monument Creek","name":"Lower Monument Creek","source_id":"78879026","length_km":0.879,"FType":460,"FCode":46003,"atlas_class":"streamriver","display_name":"Lower Monument Creek","stream_role":"natural_stream_detail_context","sourceLayer":"colorado_natural_stream_detail_tiles_v1","sourceLabel":"Colorado natural stream detail tiles v1","sensitivity":"generalized"},"geometry":{"type":"LineString","coordinates":[[-108.95438,37.7335],[-108.95611,37.73328],[-108.95808,37.73172],[-108.95853,37.73002],[-108.95994,37.72885]]}},{"type":"Feature","properties":{"huc8":"14080203","huc8Name":"Montezuma","historic":"sanJuan","current":"introduced","recovery":"recoveryWatch","lineageKey":"sanJuan","lineageLabel":"San Juan lineage","basin":"Montezuma","note":"San Juan lineage context; review needed","state":"CO","confidence":"HUC8 drainage context / generalized","geometryStatus":"natural_stream_detail_tile_from_full_interpreted_layer","troutSource":"HUC8 lineage assignment v1 / review needed","sourceName":"Monument Creek","name":"Monument Creek","source_id":"78877082","length_km":1.177,"FType":460,"FCode":46003,"atlas_class":"streamriver","display_name":"Monument Creek","stream_role":"natural_stream_detail_context","sourceLayer":"colorado_natural_stream_detail_tiles_v1","sourceLabel":"Colorado natural stream detail tiles v1","sensitivity":"generalized"},"geometry":{"type":"LineString","coordinates":[[-108.9252,37.80282],[-108.92565,37.80163],[-108.92682,37.80102],[-108.92818,37.79884],[-108.92845,37.79715],[-108.92793,37.79518],[-108.9283,37.79385],[-108.9288,37.79371]]}},{"type":"Feature","properties":{"huc8":"14080203","huc8Name":"Montezuma","historic":"sanJuan","current":"introduced","recovery":"recoveryWatch","lineageKey":"sanJuan","lineageLabel":"San Juan lineage","basin":"Montezuma","note":"San Juan lineage context; review needed","state":"CO","confidence":"HUC8 drainage context / generalized","geometryStatus":"natural_stream_detail_tile_from_full_interpreted_layer","troutSource":"HUC8 lineage assignment v1 / review needed","sourceName":"West Monument Creek","name":"West Monument Creek","source_id":"78877092","length_km":0.474,"FType":460,"FCode":46003,"atlas_class":"streamriver","display_name":"West Monument Creek","stream_role":"natural_stream_detail_context","sourceLayer":"colorado_natural_stream_detail_tiles_v1","sourceLabel":"Colorado natural stream detail tiles v1","sensitivity":"generalized"},"geometry":{"type":"LineString","coordinates":[[-108.96305,37.79324],[-108.96311,37.79262],[-108.96391,37.79222],[-108.96319,37.7908],[-108.96356,37.78968]]}},{"type":"Feature","properties":{"huc8":"14080203","huc8Name":"Montezuma","historic":"sanJuan","current":"introduced","recovery":"recoveryWatch","lineageKey":"sanJuan","lineageLabel":"San Juan lineage","basin":"Montezuma","note":"San Juan lineage context; review needed","state":"CO","confidence":"HUC8 drainage context / generalized","geometryStatus":"natural_stream_detail_tile_from_full_interpreted_layer","troutSource":"HUC8 lineage assignment v1 / review needed","sourceName":"Dove Creek","name":"Dove Creek","source_id":"78878314","length_km":0.226,"FType":460,"FCode":46003,"atlas_class":"streamriver","display_name":"Dove Creek","stream_role":"natural_stream_detail_context","sourceLayer":"colorado_natural_stream_detail_tiles_v1","sourceLabel":"Colorado natural stream detail tiles v1","sensitivity":"generalized"},"geometry":{"type":"LineString","coordinates":[[-108.90449,37.7567],[-108.90583,37.75641],[-108.90635,37.75573]]}},{"type":"Feature","properties":{"huc8":"14080203","huc8Name":"Montezuma","historic":"sanJuan","current":"introduced","recovery":"recoveryWatch","lineageKey":"sanJuan","lineageLabel":"San Juan lineage","basin":"Montezuma","note":"San Juan lineage context; review needed","state":"CO","confidence":"HUC8 drainage context / generalized","geometryStatus":"natural_stream_detail_tile_from_full_interpreted_layer","troutSource":"HUC8 lineage assignment v1 / review needed","sourceName":"Monument Creek","name":"Monument Creek","source_id":"78877712","length_km":1.705,"FType":460,"FCode":46003,"atlas_class":"streamriver","display_name":"Monument Creek","stream_role":"natural_stream_detail_context","sourceLayer":"colorado_natural_stream_detail_tiles_v1","sourceLabel":"Colorado natural stream detail tiles v1","sensitivity":"generalized"},"geometry":{"type":"LineString","coordinates":[[-108.94217,37.78065],[-108.94313,37.77799],[-108.9442,37.77754],[-108.94408,37.77637],[-108.94765,37.77282],[-108.94754,37.77151],[-108.94896,37.77075],[-108.949,37.76826]]}},{"type":"Feature","properties":{"huc8":"14080203","huc8Name":"Montezuma","historic":"sanJuan","current":"introduced","recovery":"recoveryWatch","lineageKey":"sanJuan","lineageLabel":"San Juan lineage","basin":"Montezuma","note":"San Juan lineage context; review needed","state":"CO","confidence":"HUC8 drainage context / generalized","geometryStatus":"natural_stream_detail_tile_from_full_interpreted_layer","troutSource":"HUC8 lineage assignment v1 / review needed","sourceName":"Monument Creek","name":"Monument Creek","source_id":"78877202","length_km":0.728,"FType":460,"FCode":46003,"atlas_class":"streamriver","display_name":"Monument Creek","stream_role":"natural_stream_detail_context","sourceLayer":"colorado_natural_stream_detail_tiles_v1","sourceLabel":"Colorado natural stream detail tiles v1","sensitivity":"generalized"},"geometry":{"type":"LineString","coordinates":[[-108.9288,37.79371],[-108.93415,37.78899]]}},{"type":"Feature","properties":{"huc8":"14080203","huc8Name":"Montezuma","historic":"sanJuan","current":"introduced","recovery":"recoveryWatch","lineageKey":"sanJuan","lineageLabel":"San Juan lineage","basin":"Montezuma","note":"San Juan lineage context; review needed","state":"CO","confidence":"HUC8 drainage context / generalized","geometryStatus":"natural_stream_detail_tile_from_full_interpreted_layer","troutSource":"HUC8 lineage assignment v1 / review needed","sourceName":"Willow Creek","name":"Willow Creek","source_id":"78877136","length_km":0.652,"FType":460,"FCode":46003,"atlas_class":"streamriver","display_name":"Willow Creek","stream_role":"natural_stream_detail_context","sourceLayer":"colorado_natural_stream_detail_tiles_v1","sourceLabel":"Colorado natural stream detail tiles v1","sensitivity":"generalized"},"geometry":{"type":"LineString","coordinates":[[-108.98272,37.78612],[-108.98991,37.78737]]}},{"type":"Feature","properties":{"huc8":"14080203","huc8Name":"Montezuma","historic":"sanJuan","current":"introduced","recovery":"recoveryWatch","lineageKey":"sanJuan","lineageLabel":"San Juan lineage","basin":"Montezuma","note":"San Juan lineage context; review needed","state":"CO","confidence":"HUC8 drainage context / generalized","geometryStatus":"natural_stream_detail_tile_from_full_interpreted_layer","troutSource":"HUC8 lineage assignment v1 / review needed","sourceName":"Lower Monument Creek","name":"Lower Monument Creek","source_id":"78878588","length_km":2.335,"FType":460,"FCode":46003,"atlas_class":"streamriver","display_name":"Lower Monument Creek","stream_role":"natural_stream_detail_context","sourceLayer":"colorado_natural_stream_detail_tiles_v1","sourceLabel":"Colorado natural stream detail tiles v1","sensitivity":"generalized"},"geometry":{"type":"LineString","coordinates":[[-108.93188,37.76224],[-108.93328,37.75886],[-108.93755,37.75377],[-108.93806,37.75197],[-108.93789,37.74999],[-108.93837,37.74849],[-108.93464,37.74624],[-108.93426,37.74434]]}},{"type":"Feature","properties":{"huc8":"14080203","huc8Name":"Montezuma","historic":"sanJuan","current":"introduced","recovery":"recoveryWatch","lineageKey":"sanJuan","lineageLabel":"San Juan lineage","basin":"Montezuma","note":"San Juan lineage context; review needed","state":"CO","confidence":"HUC8 drainage context / generalized","geometryStatus":"natural_stream_detail_tile_from_full_interpreted_layer","troutSource":"HUC8 lineage assignment v1 / review needed","sourceName":"Lower Monument Creek","name":"Lower Monument Creek","source_id":"78878914","length_km":0.78,"FType":460,"FCode":46003,"atlas_class":"streamriver","display_name":"Lower Monument Creek","stream_role":"natural_stream_detail_context","sourceLayer":"colorado_natural_stream_detail_tiles_v1","sourceLabel":"Colorado natural stream detail tiles v1","sensitivity":"generalized"},"geometry":{"type":"LineString","coordinates":[[-108.94222,37.73767],[-108.9479,37.73481],[-108.94861,37.73381]]}},{"type":"Feature","properties":{"huc8":"14080203","huc8Name":"Montezuma","historic":"sanJuan","current":"introduced","recovery":"recoveryWatch","lineageKey":"sanJuan","lineageLabel":"San Juan lineage","basin":"Montezuma","note":"San Juan lineage context; review needed","state":"CO","confidence":"HUC8 drainage context / generalized","geometryStatus":"natural_stream_detail_tile_from_full_interpreted_layer","troutSource":"HUC8 lineage assignment v1 / review needed","sourceName":"Monument Creek","name":"Monument Creek","source_id":"78877838","length_km":0.508,"FType":460,"FCode":46003,"atlas_class":"streamriver","display_name":"Monument Creek","stream_role":"natural_stream_detail_context","sourceLayer":"colorado_natural_stream_detail_tiles_v1","sourceLabel":"Colorado natural stream detail tiles v1","sensitivity":"generalized"},"geometry":{"type":"LineString","coordinates":[[-108.95152,37.76623],[-108.95279,37.76555],[-108.95691,37.76521]]}},{"type":"Feature","properties":{"huc8":"14080203","huc8Name":"Montezuma","historic":"sanJuan","current":"introduced","recovery":"recoveryWatch","lineageKey":"sanJuan","lineageLabel":"San Juan lineage","basin":"Montezuma","note":"San Juan lineage context; review needed","state":"CO","confidence":"HUC8 drainage context / generalized","geometryStatus":"natural_stream_detail_tile_from_full_interpreted_layer","troutSource":"HUC8 lineage assignment v1 / review needed","sourceName":"Dove Creek","name":"Dove Creek","source_id":"78879864","length_km":0.419,"FType":460,"FCode":46003,"atlas_class":"streamriver","display_name":"Dove Creek","stream_role":"natural_stream_detail_context","sourceLayer":"colorado_natural_stream_detail_tiles_v1","sourceLabel":"Colorado natural stream detail tiles v1","sensitivity":"generalized"},"geometry":{"type":"LineString","coordinates":[[-108.90314,37.71194],[-108.90218,37.71014],[-108.90261,37.70861]]}},{"type":"Feature","properties":{"huc8":"14080203","huc8Name":"Montezuma","historic":"sanJuan","current":"introduced","recovery":"recoveryWatch","lineageKey":"sanJuan","lineageLabel":"San Juan lineage","basin":"Montezuma","note":"San Juan lineage context; review needed","state":"CO","confidence":"HUC8 drainage context / generalized","geometryStatus":"natural_stream_detail_tile_from_full_interpreted_layer","troutSource":"HUC8 lineage assignment v1 / review needed","sourceName":"Monument Creek","name":"Monument Creek","source_id":"78877914","length_km":0.529,"FType":460,"FCode":46003,"atlas_class":"streamriver","display_name":"Monument Creek","stream_role":"natural_stream_detail_context","sourceLayer":"colorado_natural_stream_detail_tiles_v1","sourceLabel":"Colorado natural stream detail tiles v1","sensitivity":"generalized"},"geometry":{"type":"LineString","coordinates":[[-108.96052,37.76296],[-108.96315,37.76287],[-108.96589,37.76166]]}},{"type":"Feature","properties":{"huc8":"14080203","huc8Name":"Montezuma","historic":"sanJuan","current":"introduced","recovery":"recoveryWatch","lineageKey":"sanJuan","lineageLabel":"San Juan lineage","basin":"Montezuma","note":"San Juan lineage context; review needed","state":"CO","confidence":"HUC8 drainage context / generalized","geometryStatus":"natural_stream_detail_tile_from_full_interpreted_layer","troutSource":"HUC8 lineage assignment v1 / review needed","sourceName":"Dove Creek","name":"Dove Creek","source_id":"78880534","length_km":1.124,"FType":460,"FCode":46003,"atlas_class":"streamriver","display_name":"Dove Creek","stream_role":"natural_stream_detail_context","sourceLayer":"colorado_natural_stream_detail_tiles_v1","sourceLabel":"Colorado natural stream detail tiles v1","sensitivity":"generalized"},"geometry":{"type":"LineString","coordinates":[[-108.90427,37.69573],[-108.90425,37.69338],[-108.90562,37.68969],[-108.90735,37.68885],[-108.90771,37.68747]]}},{"type":"Feature","properties":{"huc8":"14080203","huc8Name":"Montezuma","historic":"sanJuan","current":"introduced","recovery":"recoveryWatch","lineageKey":"sanJuan","lineageLabel":"San Juan lineage","basin":"Montezuma","note":"San Juan lineage context; review needed","state":"CO","confidence":"HUC8 drainage context / generalized","geometryStatus":"natural_stream_detail_tile_from_full_interpreted_layer","troutSource":"HUC8 lineage assignment v1 / review needed","sourceName":"Dove Creek","name":"Dove Creek","source_id":"78880268","length_km":1.661,"FType":460,"FCode":46003,"atlas_class":"streamriver","display_name":"Dove Creek","stream_role":"natural_stream_detail_context","sourceLayer":"colorado_natural_stream_detail_tiles_v1","sourceLabel":"Colorado natural stream detail tiles v1","sensitivity":"generalized"},"geometry":{"type":"LineString","coordinates":[[-108.90261,37.70861],[-108.90083,37.70302],[-108.90132,37.70106],[-108.90428,37.69761],[-108.90427,37.69573]]}},{"type":"Feature","properties":{"huc8":"14080203","huc8Name":"Montezuma","historic":"sanJuan","current":"introduced","recovery":"recoveryWatch","lineageKey":"sanJuan","lineageLabel":"San Juan lineage","basin":"Montezuma","note":"San Juan lineage context; review needed","state":"CO","confidence":"HUC8 drainage context / generalized","geometryStatus":"natural_stream_detail_tile_from_full_interpreted_layer","troutSource":"HUC8 lineage assignment v1 / review needed","sourceName":"Monument Creek","name":"Monument Creek","source_id":"78877426","length_km":0.198,"FType":460,"FCode":46003,"atlas_class":"streamriver","display_name":"Monument Creek","stream_role":"natural_stream_detail_context","sourceLayer":"colorado_natural_stream_detail_tiles_v1","sourceLabel":"Colorado natural stream detail tiles v1","sensitivity":"generalized"},"geometry":{"type":"LineString","coordinates":[[-108.9403,37.78147],[-108.94217,37.78065]]}},{"type":"Feature","properties":{"huc8":"14080203","huc8Name":"Montezuma","historic":"sanJuan","current":"introduced","recovery":"recoveryWatch","lineageKey":"sanJuan","lineageLabel":"San Juan lineage","basin":"Montezuma","note":"San Juan lineage context; review needed","state":"CO","confidence":"HUC8 drainage context / generalized","geometryStatus":"natural_stream_detail_tile_from_full_interpreted_layer","troutSource":"HUC8 lineage assignment v1 / review needed","sourceName":"Dove Creek","name":"Dove Creek","source_id":"78878276","length_km":1.342,"FType":460,"FCode":46003,"atlas_class":"streamriver","display_name":"Dove Creek","stream_role":"natural_stream_detail_context","sourceLayer":"colorado_natural_stream_detail_tiles_v1","sourceLabel":"Colorado natural stream detail tiles v1","sensitivity":"generalized"},"geometry":{"type":"LineString","coordinates":[[-108.89889,37.76734],[-108.89957,37.76423],[-108.90204,37.76155],[-108.90261,37.75921],[-108.90449,37.7567]]}},{"type":"Feature","properties":{"huc8":"14080203","huc8Name":"Montezuma","historic":"sanJuan","current":"introduced","recovery":"recoveryWatch","lineageKey":"sanJuan","lineageLabel":"San Juan lineage","basin":"Montezuma","note":"San Juan lineage context; review needed","state":"CO","confidence":"HUC8 drainage context / generalized","geometryStatus":"natural_stream_detail_tile_from_full_interpreted_layer","troutSource":"HUC8 lineage assignment v1 / review needed","sourceName":"Dove Creek","name":"Dove Creek","source_id":"78879704","length_km":0.677,"FType":460,"FCode":46003,"atlas_class":"streamriver","display_name":"Dove Creek","stream_role":"natural_stream_detail_context","sourceLayer":"colorado_natural_stream_detail_tiles_v1","sourceLabel":"Colorado natural stream detail tiles v1","sensitivity":"generalized"},"geometry":{"type":"LineString","coordinates":[[-108.90504,37.71932],[-108.90554,37.71748],[-108.90508,37.71696],[-108.9053,37.71559],[-108.90481,37.71423],[-108.90429,37.71414]]}},{"type":"Feature","properties":{"huc8":"14080203","huc8Name":"Montezuma","historic":"sanJuan","current":"introduced","recovery":"recoveryWatch","lineageKey":"sanJuan","lineageLabel":"San Juan lineage","basin":"Montezuma","note":"San Juan lineage context; review needed","state":"CO","confidence":"HUC8 drainage context / generalized","geometryStatus":"natural_stream_detail_tile_from_full_interpreted_layer","troutSource":"HUC8 lineage assignment v1 / review needed","sourceName":"Dove Creek","name":"Dove Creek","source_id":"78879276","length_km":3.937,"FType":460,"FCode":46003,"atlas_class":"streamriver","display_name":"Dove Creek","stream_role":"natural_stream_detail_context","sourceLayer":"colorado_natural_stream_detail_tiles_v1","sourceLabel":"Colorado natural stream detail tiles v1","sensitivity":"generalized"},"geometry":{"type":"LineString","coordinates":[[-108.90635,37.75573],[-108.90686,37.75465],[-108.90643,37.75289],[-108.90695,37.75221],[-108.90672,37.74968],[-108.90723,37.74914],[-108.90695,37.74661],[-108.9084,37.74543],[-108.90825,37.74438],[-108.90975,37.74337],[-108.91072,37.74139],[-108.91027,37.73966],[-108.90862,37.7379],[-108.90876,37.73599],[-108.9081,37.73579],[-108.90749,37.73388],[-108.90647,37.73334],[-108.90472,37.73065],[-108.90455,37.72942],[-108.90322,37.72811]]}},{"type":"Feature","properties":{"huc8":"14080203","huc8Name":"Montezuma","historic":"sanJuan","current":"introduced","recovery":"recoveryWatch","lineageKey":"sanJuan","lineageLabel":"San Juan lineage","basin":"Montezuma","note":"San Juan lineage context; review needed","state":"CO","confidence":"HUC8 drainage context / generalized","geometryStatus":"natural_stream_detail_tile_from_full_interpreted_layer","troutSource":"HUC8 lineage assignment v1 / review needed","sourceName":"West Monument Creek","name":"West Monument Creek","source_id":"78877272","length_km":0.831,"FType":460,"FCode":46003,"atlas_class":"streamriver","display_name":"West Monument Creek","stream_role":"natural_stream_detail_context","sourceLayer":"colorado_natural_stream_detail_tiles_v1","sourceLabel":"Colorado natural stream detail tiles v1","sensitivity":"generalized"},"geometry":{"type":"LineString","coordinates":[[-108.96356,37.78968],[-108.96486,37.78698],[-108.96423,37.78571],[-108.96439,37.78283]]}},{"type":"Feature","properties":{"huc8":"14080203","huc8Name":"Montezuma","historic":"sanJuan","current":"introduced","recovery":"recoveryWatch","lineageKey":"sanJuan","lineageLabel":"San Juan lineage","basin":"Montezuma","note":"San Juan lineage context; review needed","state":"CO","confidence":"HUC8 drainage context / generalized","geometryStatus":"natural_stream_detail_tile_from_full_interpreted_layer","troutSource":"HUC8 lineage assignment v1 / review needed","sourceName":"Monument Creek","name":"Monument Creek","source_id":"78877394","length_km":0.347,"FType":460,"FCode":46003,"atlas_class":"streamriver","display_name":"Monument Creek","stream_role":"natural_stream_detail_context","sourceLayer":"colorado_natural_stream_detail_tiles_v1","sourceLabel":"Colorado natural stream detail tiles v1","sensitivity":"generalized"},"geometry":{"type":"LineString","coordinates":[[-108.93708,37.78309],[-108.93844,37.78192],[-108.9403,37.78147]]}},{"type":"Feature","properties":{"huc8":"14080203","huc8Name":"Montezuma","historic":"sanJuan","current":"introduced","recovery":"recoveryWatch","lineageKey":"sanJuan","lineageLabel":"San Juan lineage","basin":"Montezuma","note":"San Juan lineage context; review needed","state":"CO","confidence":"HUC8 drainage context / generalized","geometryStatus":"natural_stream_detail_tile_from_full_interpreted_layer","troutSource":"HUC8 lineage assignment v1 / review needed","sourceName":"Monument Creek","name":"Monument Creek","source_id":"78877352","length_km":0.744,"FType":460,"FCode":46003,"atlas_class":"streamriver","display_name":"Monument Creek","stream_role":"natural_stream_detail_context","sourceLayer":"colorado_natural_stream_detail_tiles_v1","sourceLabel":"Colorado natural stream detail tiles v1","sensitivity":"generalized"},"geometry":{"type":"LineString","coordinates":[[-108.93415,37.78899],[-108.93472,37.78837],[-108.93513,37.78525],[-108.93708,37.78309]]}},{"type":"Feature","properties":{"huc8":"14080203","huc8Name":"Montezuma","historic":"sanJuan","current":"introduced","recovery":"recoveryWatch","lineageKey":"sanJuan","lineageLabel":"San Juan lineage","basin":"Montezuma","note":"San Juan lineage context; review needed","state":"CO","confidence":"HUC8 drainage context / generalized","geometryStatus":"natural_stream_detail_tile_from_full_interpreted_layer","troutSource":"HUC8 lineage assignment v1 / review needed","sourceName":"Monument Creek","name":"Monument Creek","source_id":"78877942","length_km":0.058,"FType":460,"FCode":46003,"atlas_class":"streamriver","display_name":"Monument Creek","stream_role":"natural_stream_detail_context","sourceLayer":"colorado_natural_stream_detail_tiles_v1","sourceLabel":"Colorado natural stream detail tiles v1","sensitivity":"generalized"},"geometry":{"type":"LineString","coordinates":[[-108.96589,37.76166],[-108.96605,37.76116]]}},{"type":"Feature","properties":{"huc8":"14080203","huc8Name":"Montezuma","historic":"sanJuan","current":"introduced","recovery":"recoveryWatch","lineageKey":"sanJuan","lineageLabel":"San Juan lineage","basin":"Montezuma","note":"San Juan lineage context; review needed","state":"CO","confidence":"HUC8 drainage context / generalized","geometryStatus":"natural_stream_detail_tile_from_full_interpreted_layer","troutSource":"HUC8 lineage assignment v1 / review needed","sourceName":"Dove Creek","name":"Dove Creek","source_id":"78880726","length_km":0.941,"FType":460,"FCode":46003,"atlas_class":"streamriver","display_name":"Dove Creek","stream_role":"natural_stream_detail_context","sourceLayer":"colorado_natural_stream_detail_tiles_v1","sourceLabel":"Colorado natural stream detail tiles v1","sensitivity":"generalized"},"geometry":{"type":"LineString","coordinates":[[-108.90771,37.68747],[-108.91002,37.68682],[-108.91102,37.68451],[-108.91069,37.68343],[-108.91286,37.68275],[-108.91299,37.6821]]}},{"type":"Feature","properties":{"huc8":"14080203","huc8Name":"Montezuma","historic":"sanJuan","current":"introduced","recovery":"recoveryWatch","lineageKey":"sanJuan","lineageLabel":"San Juan lineage","basin":"Montezuma","note":"San Juan lineage context; review needed","state":"CO","confidence":"HUC8 drainage context / generalized","geometryStatus":"natural_stream_detail_tile_from_full_interpreted_layer","troutSource":"HUC8 lineage assignment v1 / review needed","sourceName":"Lower Monument Creek","name":"Lower Monument Creek","source_id":"78878808","length_km":0.329,"FType":460,"FCode":46003,"atlas_class":"streamriver","display_name":"Lower Monument Creek","stream_role":"natural_stream_detail_context","sourceLayer":"colorado_natural_stream_detail_tiles_v1","sourceLabel":"Colorado natural stream detail tiles v1","sensitivity":"generalized"},"geometry":{"type":"LineString","coordinates":[[-108.93878,37.73742],[-108.94222,37.73767]]}},{"type":"Feature","properties":{"huc8":"14080203","huc8Name":"Montezuma","historic":"sanJuan","current":"introduced","recovery":"recoveryWatch","lineageKey":"sanJuan","lineageLabel":"San Juan lineage","basin":"Montezuma","note":"San Juan lineage context; review needed","state":"CO","confidence":"HUC8 drainage context / generalized","geometryStatus":"natural_stream_detail_tile_from_full_interpreted_layer","troutSource":"HUC8 lineage assignment v1 / review needed","sourceName":"West Monument Creek","name":"West Monument Creek","source_id":"78876950","length_km":0.396,"FType":460,"FCode":46003,"atlas_class":"streamriver","display_name":"West Monument Creek","stream_role":"natural_stream_detail_context","sourceLayer":"colorado_natural_stream_detail_tiles_v1","sourceLabel":"Colorado natural stream detail tiles v1","sensitivity":"generalized"},"geometry":{"type":"LineString","coordinates":[[-108.96373,37.79678],[-108.96296,37.79343]]}},{"type":"Feature","properties":{"huc8":"14080203","huc8Name":"Montezuma","historic":"sanJuan","current":"introduced","recovery":"recoveryWatch","lineageKey":"sanJuan","lineageLabel":"San Juan lineage","basin":"Montezuma","note":"San Juan lineage context; review needed","state":"CO","confidence":"HUC8 drainage context / generalized","geometryStatus":"natural_stream_detail_tile_from_full_interpreted_layer","troutSource":"HUC8 lineage assignment v1 / review needed","sourceName":"Monument Creek","name":"Monument Creek","source_id":"78879238","length_km":0.317,"FType":460,"FCode":46003,"atlas_class":"streamriver","display_name":"Monument Creek","stream_role":"natural_stream_detail_context","sourceLayer":"colorado_natural_stream_detail_tiles_v1","sourceLabel":"Colorado natural stream detail tiles v1","sensitivity":"generalized"},"geometry":{"type":"LineString","coordinates":[[-108.9975,37.71865],[-109.00067,37.71857]]}},{"type":"Feature","properties":{"huc8":"14080203","huc8Name":"Montezuma","historic":"sanJuan","current":"introduced","recovery":"recoveryWatch","lineageKey":"sanJuan","lineageLabel":"San Juan lineage","basin":"Montezuma","note":"San Juan lineage context; review needed","state":"CO","confidence":"HUC8 drainage context / generalized","geometryStatus":"natural_stream_detail_tile_from_full_interpreted_layer","troutSource":"HUC8 lineage assignment v1 / review needed","sourceName":"Monument Creek","name":"Monument Creek","source_id":"78879234","length_km":0.399,"FType":460,"FCode":46003,"atlas_class":"streamriver","display_name":"Monument Creek","stream_role":"natural_stream_detail_context","sourceLayer":"colorado_natural_stream_detail_tiles_v1","sourceLabel":"Colorado natural stream detail tiles v1","sensitivity":"generalized"},"geometry":{"type":"LineString","coordinates":[[-108.99577,37.72163],[-108.9975,37.71865]]}},{"type":"Feature","properties":{"huc8":"14080203","huc8Name":"Montezuma","historic":"sanJuan","current":"introduced","recovery":"recoveryWatch","lineageKey":"sanJuan","lineageLabel":"San Juan lineage","basin":"Montezuma","note":"San Juan lineage context; review needed","state":"CO","confidence":"HUC8 drainage context / generalized","geometryStatus":"natural_stream_detail_tile_from_full_interpreted_layer","troutSource":"HUC8 lineage assignment v1 / review needed","sourceName":"Dove Creek","name":"Dove Creek","source_id":"78877968","length_km":1.848,"FType":460,"FCode":46003,"atlas_class":"streamriver","display_name":"Dove Creek","stream_role":"natural_stream_detail_context","sourceLayer":"colorado_natural_stream_detail_tiles_v1","sourceLabel":"Colorado natural stream detail tiles v1","sensitivity":"generalized"},"geometry":{"type":"LineString","coordinates":[[-108.89189,37.78122],[-108.89269,37.77953],[-108.89537,37.77673],[-108.89555,37.77625],[-108.89454,37.77541],[-108.89437,37.77453],[-108.8965,37.77199],[-108.89768,37.76884],[-108.89889,37.76734]]}},{"type":"Feature","properties":{"huc8":"14080203","huc8Name":"Montezuma","historic":"sanJuan","current":"introduced","recovery":"recoveryWatch","lineageKey":"sanJuan","lineageLabel":"San Juan lineage","basin":"Montezuma","note":"San Juan lineage context; review needed","state":"CO","confidence":"HUC8 drainage context / generalized","geometryStatus":"natural_stream_detail_tile_from_full_interpreted_layer","troutSource":"HUC8 lineage assignment v1 / review needed","sourceName":"Dove Creek","name":"Dove Creek","source_id":"78877340","length_km":2.888,"FType":460,"FCode":46003,"atlas_class":"streamriver","display_name":"Dove Creek","stream_role":"natural_stream_detail_context","sourceLayer":"colorado_natural_stream_detail_tiles_v1","sourceLabel":"Colorado natural stream detail tiles v1","sensitivity":"generalized"},"geometry":{"type":"LineString","coordinates":[[-108.88713,37.81167],[-108.88802,37.80639],[-108.88805,37.80505],[-108.88704,37.80405],[-108.88758,37.80337],[-108.8872,37.80224],[-108.88773,37.79703],[-108.88835,37.79596],[-108.8881,37.79494],[-108.88974,37.79355],[-108.88976,37.79218],[-108.89074,37.79172],[-108.89095,37.78818]]}},{"type":"Feature","properties":{"huc8":"14080203","huc8Name":"Montezuma","historic":"sanJuan","current":"introduced","recovery":"recoveryWatch","lineageKey":"sanJuan","lineageLabel":"San Juan lineage","basin":"Montezuma","note":"San Juan lineage context; review needed","state":"CO","confidence":"HUC8 drainage context / generalized","geometryStatus":"natural_stream_detail_tile_from_full_interpreted_layer","troutSource":"HUC8 lineage assignment v1 / review needed","sourceName":"Dove Creek","name":"Dove Creek","source_id":"78877546","length_km":0.862,"FType":460,"FCode":46003,"atlas_class":"streamriver","display_name":"Dove Creek","stream_role":"natural_stream_detail_context","sourceLayer":"colorado_natural_stream_detail_tiles_v1","sourceLabel":"Colorado natural stream detail tiles v1","sensitivity":"generalized"},"geometry":{"type":"LineString","coordinates":[[-108.89095,37.78818],[-108.89266,37.78568],[-108.89189,37.78122]]}},{"type":"Feature","properties":{"huc8":"14080203","huc8Name":"Montezuma","historic":"sanJuan","current":"introduced","recovery":"recoveryWatch","lineageKey":"sanJuan","lineageLabel":"San Juan lineage","basin":"Montezuma","note":"San Juan lineage context; review needed","state":"CO","confidence":"HUC8 drainage context / generalized","geometryStatus":"natural_stream_detail_tile_from_full_interpreted_layer","troutSource":"HUC8 lineage assignment v1 / review needed","sourceName":"Dove Creek","name":"Dove Creek","source_id":"78882164","length_km":0.628,"FType":460,"FCode":46003,"atlas_class":"streamriver","display_name":"Dove Creek","stream_role":"natural_stream_detail_context","sourceLayer":"colorado_natural_stream_detail_tiles_v1","sourceLabel":"Colorado natural stream detail tiles v1","sensitivity":"generalized"},"geometry":{"type":"LineString","coordinates":[[-108.91849,37.63788],[-108.91795,37.63554],[-108.91666,37.6348],[-108.91566,37.63317]]}},{"type":"Feature","properties":{"huc8":"14080203","huc8Name":"Montezuma","historic":"sanJuan","current":"introduced","recovery":"recoveryWatch","lineageKey":"sanJuan","lineageLabel":"San Juan lineage","basin":"Montezuma","note":"San Juan lineage context; review needed","state":"CO","confidence":"HUC8 drainage context / generalized","geometryStatus":"natural_stream_detail_tile_from_full_interpreted_layer","troutSource":"HUC8 lineage assignment v1 / review needed","sourceName":"Dove Creek","name":"Dove Creek","source_id":"78881794","length_km":1.772,"FType":460,"FCode":46003,"atlas_class":"streamriver","display_name":"Dove Creek","stream_role":"natural_stream_detail_context","sourceLayer":"colorado_natural_stream_detail_tiles_v1","sourceLabel":"Colorado natural stream detail tiles v1","sensitivity":"generalized"},"geometry":{"type":"LineString","coordinates":[[-108.91571,37.65843],[-108.91559,37.65773],[-108.91689,37.65653],[-108.91624,37.65577],[-108.91641,37.65429],[-108.9177,37.65298],[-108.91715,37.65197],[-108.91913,37.65012],[-108.91818,37.64954],[-108.91721,37.64768],[-108.91853,37.64549]]}},{"type":"Feature","properties":{"huc8":"14080203","huc8Name":"Montezuma","historic":"sanJuan","current":"introduced","recovery":"recoveryWatch","lineageKey":"sanJuan","lineageLabel":"San Juan lineage","basin":"Montezuma","note":"San Juan lineage context; review needed","state":"CO","confidence":"HUC8 drainage context / generalized","geometryStatus":"natural_stream_detail_tile_from_full_interpreted_layer","troutSource":"HUC8 lineage assignment v1 / review needed","sourceName":"Dove Creek","name":"Dove Creek","source_id":"78881980","length_km":0.889,"FType":460,"FCode":46003,"atlas_class":"streamriver","display_name":"Dove Creek","stream_role":"natural_stream_detail_context","sourceLayer":"colorado_natural_stream_detail_tiles_v1","sourceLabel":"Colorado natural stream detail tiles v1","sensitivity":"generalized"},"geometry":{"type":"LineString","coordinates":[[-108.91853,37.64549],[-108.91806,37.6437],[-108.91806,37.64031],[-108.91883,37.63887],[-108.91849,37.63788]]}}]}