{"type":"FeatureCollection","name":"co_natural_stream_detail_0p2_x-546_y194_v1","metadata":{"description":"Colorado natural named stream/rivers close-zoom detail tile. Excludes likely human-altered named linework.","version":"v1","gridSizeDegrees":0.2,"tileX":-546,"tileY":194,"bounds":{"west":-109.2,"south":38.800000000000004,"east":-109,"north":39},"source":"C:\\ct-atlas-data\\processed\\geojson\\interpreted\\colorado_cutthroat_huc8_stream_context_named_v1.geojson"},"features":[{"type":"Feature","properties":{"huc8":"14030004","huc8Name":"Lower Dolores","historic":"coloradoRiver","current":"introduced","recovery":"recoveryWatch","lineageKey":"coloradoRiver","lineageLabel":"Colorado River green lineage","basin":"Lower Dolores","note":"Dolores green-lineage context","state":"CO","confidence":"HUC8 drainage context / generalized","geometryStatus":"natural_stream_detail_tile_from_full_interpreted_layer","troutSource":"HUC8 lineage assignment v1 / review needed","sourceName":"Granite Creek","name":"Granite Creek","source_id":"62513607","length_km":2.11808169,"FType":460,"FCode":46006,"atlas_class":"streamriver","display_name":"Granite Creek","stream_role":"natural_stream_detail_context","sourceLayer":"colorado_natural_stream_detail_tiles_v1","sourceLabel":"Colorado natural stream detail tiles v1","sensitivity":"generalized"},"geometry":{"type":"LineString","coordinates":[[-109.01875,38.841],[-109.02168,38.8409],[-109.02427,38.83885],[-109.02881,38.83711],[-109.03085,38.83547],[-109.0342,38.83634],[-109.03625,38.83608],[-109.03823,38.83387]]}},{"type":"Feature","properties":{"huc8":"14030004","huc8Name":"Lower Dolores","historic":"coloradoRiver","current":"introduced","recovery":"recoveryWatch","lineageKey":"coloradoRiver","lineageLabel":"Colorado River green lineage","basin":"Lower Dolores","note":"Dolores green-lineage context","state":"CO","confidence":"HUC8 drainage context / generalized","geometryStatus":"natural_stream_detail_tile_from_full_interpreted_layer","troutSource":"HUC8 lineage assignment v1 / review needed","sourceName":"Granite Creek","name":"Granite Creek","source_id":"62513615","length_km":0.92907614,"FType":460,"FCode":46006,"atlas_class":"streamriver","display_name":"Granite Creek","stream_role":"natural_stream_detail_context","sourceLayer":"colorado_natural_stream_detail_tiles_v1","sourceLabel":"Colorado natural stream detail tiles v1","sensitivity":"generalized"},"geometry":{"type":"LineString","coordinates":[[-108.99624,38.84193],[-109.00201,38.84191],[-109.00662,38.84261]]}},{"type":"Feature","properties":{"huc8":"14030004","huc8Name":"Lower Dolores","historic":"coloradoRiver","current":"introduced","recovery":"recoveryWatch","lineageKey":"coloradoRiver","lineageLabel":"Colorado River green lineage","basin":"Lower Dolores","note":"Dolores green-lineage context","state":"CO","confidence":"HUC8 drainage context / generalized","geometryStatus":"natural_stream_detail_tile_from_full_interpreted_layer","troutSource":"HUC8 lineage assignment v1 / review needed","sourceName":"Granite Creek","name":"Granite Creek","source_id":"62513611","length_km":0.27834945,"FType":460,"FCode":46006,"atlas_class":"streamriver","display_name":"Granite Creek","stream_role":"natural_stream_detail_context","sourceLayer":"colorado_natural_stream_detail_tiles_v1","sourceLabel":"Colorado natural stream detail tiles v1","sensitivity":"generalized"},"geometry":{"type":"LineString","coordinates":[[-109.01397,38.84096],[-109.01698,38.84172]]}},{"type":"Feature","properties":{"huc8":"14030004","huc8Name":"Lower Dolores","historic":"coloradoRiver","current":"introduced","recovery":"recoveryWatch","lineageKey":"coloradoRiver","lineageLabel":"Colorado River green lineage","basin":"Lower Dolores","note":"Dolores green-lineage context","state":"CO","confidence":"HUC8 drainage context / generalized","geometryStatus":"natural_stream_detail_tile_from_full_interpreted_layer","troutSource":"HUC8 lineage assignment v1 / review needed","sourceName":"Granite Creek","name":"Granite Creek","source_id":"62513613","length_km":0.693,"FType":460,"FCode":46006,"atlas_class":"streamriver","display_name":"Granite Creek","stream_role":"natural_stream_detail_context","sourceLayer":"colorado_natural_stream_detail_tiles_v1","sourceLabel":"Colorado natural stream detail tiles v1","sensitivity":"generalized"},"geometry":{"type":"LineString","coordinates":[[-109.00662,38.84261],[-109.01028,38.84251],[-109.01397,38.84096]]}},{"type":"Feature","properties":{"huc8":"14030004","huc8Name":"Lower Dolores","historic":"coloradoRiver","current":"introduced","recovery":"recoveryWatch","lineageKey":"coloradoRiver","lineageLabel":"Colorado River green lineage","basin":"Lower Dolores","note":"Dolores green-lineage context","state":"CO","confidence":"HUC8 drainage context / generalized","geometryStatus":"natural_stream_detail_tile_from_full_interpreted_layer","troutSource":"HUC8 lineage assignment v1 / review needed","sourceName":"Granite Creek","name":"Granite Creek","source_id":"62513605","length_km":2.48555106,"FType":460,"FCode":46006,"atlas_class":"streamriver","display_name":"Granite Creek","stream_role":"natural_stream_detail_context","sourceLayer":"colorado_natural_stream_detail_tiles_v1","sourceLabel":"Colorado natural stream detail tiles v1","sensitivity":"generalized"},"geometry":{"type":"LineString","coordinates":[[-109.03823,38.83387],[-109.04678,38.83143],[-109.05029,38.83094],[-109.05136,38.83129],[-109.05482,38.83013],[-109.05587,38.83022],[-109.05597,38.83066]]}},{"type":"Feature","properties":{"huc8":"14030004","huc8Name":"Lower Dolores","historic":"coloradoRiver","current":"introduced","recovery":"recoveryWatch","lineageKey":"coloradoRiver","lineageLabel":"Colorado River green lineage","basin":"Lower Dolores","note":"Dolores green-lineage context","state":"CO","confidence":"HUC8 drainage context / generalized","geometryStatus":"natural_stream_detail_tile_from_full_interpreted_layer","troutSource":"HUC8 lineage assignment v1 / review needed","sourceName":"Granite Creek","name":"Granite Creek","source_id":"62513609","length_km":0.17946141,"FType":460,"FCode":46006,"atlas_class":"streamriver","display_name":"Granite Creek","stream_role":"natural_stream_detail_context","sourceLayer":"colorado_natural_stream_detail_tiles_v1","sourceLabel":"Colorado natural stream detail tiles v1","sensitivity":"generalized"},"geometry":{"type":"LineString","coordinates":[[-109.01698,38.84172],[-109.01875,38.841]]}}]}