{"type":"FeatureCollection","name":"co_natural_stream_detail_0p2_x-525_y185_v1","metadata":{"description":"Colorado natural named stream/rivers close-zoom detail tile. Excludes likely human-altered named linework.","version":"v1","gridSizeDegrees":0.2,"tileX":-525,"tileY":185,"bounds":{"west":-105,"south":37,"east":-104.80000000000001,"north":37.2},"source":"C:\\ct-atlas-data\\processed\\geojson\\interpreted\\colorado_cutthroat_huc8_stream_context_named_v1.geojson"},"features":[{"type":"Feature","properties":{"huc8":"11020010","huc8Name":"Purgatoire","historic":"yellowfin","current":"introduced","recovery":"recoveryWatch","lineageKey":"yellowfin","lineageLabel":"Yellowfin / Arkansas headwaters historical form","basin":"Purgatoire","note":"Arkansas basin historical Yellowfin context; review needed","state":"CO","confidence":"HUC8 drainage context / generalized","geometryStatus":"natural_stream_detail_tile_from_full_interpreted_layer","troutSource":"HUC8 lineage assignment v1 / review needed","sourceName":"South Fork Purgatoire River","name":"South Fork Purgatoire River","source_id":"131278803","length_km":1.21458997,"FType":460,"FCode":46006,"atlas_class":"streamriver","display_name":"South Fork Purgatoire River","stream_role":"natural_stream_detail_context","sourceLayer":"colorado_natural_stream_detail_tiles_v1","sourceLabel":"Colorado natural stream detail tiles v1","sensitivity":"generalized"},"geometry":{"type":"LineString","coordinates":[[-104.95142,37.06702],[-104.94975,37.06707],[-104.9491,37.06651],[-104.94614,37.0667],[-104.94182,37.06769],[-104.94078,37.06847],[-104.93922,37.06842]]}},{"type":"Feature","properties":{"huc8":"11020010","huc8Name":"Purgatoire","historic":"yellowfin","current":"introduced","recovery":"recoveryWatch","lineageKey":"yellowfin","lineageLabel":"Yellowfin / Arkansas headwaters historical form","basin":"Purgatoire","note":"Arkansas basin historical Yellowfin context; review needed","state":"CO","confidence":"HUC8 drainage context / generalized","geometryStatus":"natural_stream_detail_tile_from_full_interpreted_layer","troutSource":"HUC8 lineage assignment v1 / review needed","sourceName":"South Fork Purgatoire River","name":"South Fork Purgatoire River","source_id":"131278789","length_km":1.58087309,"FType":460,"FCode":46006,"atlas_class":"streamriver","display_name":"South Fork Purgatoire River","stream_role":"natural_stream_detail_context","sourceLayer":"colorado_natural_stream_detail_tiles_v1","sourceLabel":"Colorado natural stream detail tiles v1","sensitivity":"generalized"},"geometry":{"type":"LineString","coordinates":[[-104.96764,37.06634],[-104.96504,37.06682],[-104.96147,37.06624],[-104.95668,37.06675],[-104.95524,37.06624],[-104.95408,37.06731],[-104.95157,37.06742]]}},{"type":"Feature","properties":{"huc8":"11020010","huc8Name":"Purgatoire","historic":"yellowfin","current":"introduced","recovery":"recoveryWatch","lineageKey":"yellowfin","lineageLabel":"Yellowfin / Arkansas headwaters historical form","basin":"Purgatoire","note":"Arkansas basin historical Yellowfin context; review needed","state":"CO","confidence":"HUC8 drainage context / generalized","geometryStatus":"natural_stream_detail_tile_from_full_interpreted_layer","troutSource":"HUC8 lineage assignment v1 / review needed","sourceName":"Rincon Creek","name":"Rincon Creek","source_id":"131256649","length_km":2.1610481,"FType":460,"FCode":46003,"atlas_class":"streamriver","display_name":"Rincon Creek","stream_role":"natural_stream_detail_context","sourceLayer":"colorado_natural_stream_detail_tiles_v1","sourceLabel":"Colorado natural stream detail tiles v1","sensitivity":"generalized"},"geometry":{"type":"LineString","coordinates":[[-104.99817,37.02938],[-104.99728,37.03332],[-104.99773,37.03433],[-104.99746,37.03517],[-104.99778,37.03587],[-104.99842,37.03589],[-104.99812,37.03678],[-104.99867,37.03688],[-104.99871,37.03768],[-104.99986,37.03882],[-104.99896,37.03993],[-104.99987,37.04095],[-104.9994,37.04161],[-105.00011,37.0418],[-105.00003,37.04282]]}},{"type":"Feature","properties":{"huc8":"11020010","huc8Name":"Purgatoire","historic":"yellowfin","current":"introduced","recovery":"recoveryWatch","lineageKey":"yellowfin","lineageLabel":"Yellowfin / Arkansas headwaters historical form","basin":"Purgatoire","note":"Arkansas basin historical Yellowfin context; review needed","state":"CO","confidence":"HUC8 drainage context / generalized","geometryStatus":"natural_stream_detail_tile_from_full_interpreted_layer","troutSource":"HUC8 lineage assignment v1 / review needed","sourceName":"South Fork Purgatoire River","name":"South Fork Purgatoire River","source_id":"131278811","length_km":0.12348233,"FType":460,"FCode":46006,"atlas_class":"streamriver","display_name":"South Fork Purgatoire River","stream_role":"natural_stream_detail_context","sourceLayer":"colorado_natural_stream_detail_tiles_v1","sourceLabel":"Colorado natural stream detail tiles v1","sensitivity":"generalized"},"geometry":{"type":"LineString","coordinates":[[-104.9018,37.07615],[-104.90111,37.07707]]}},{"type":"Feature","properties":{"huc8":"11020010","huc8Name":"Purgatoire","historic":"yellowfin","current":"introduced","recovery":"recoveryWatch","lineageKey":"yellowfin","lineageLabel":"Yellowfin / Arkansas headwaters historical form","basin":"Purgatoire","note":"Arkansas basin historical Yellowfin context; review needed","state":"CO","confidence":"HUC8 drainage context / generalized","geometryStatus":"natural_stream_detail_tile_from_full_interpreted_layer","troutSource":"HUC8 lineage assignment v1 / review needed","sourceName":"South Fork Purgatoire River","name":"South Fork Purgatoire River","source_id":"131278809","length_km":0.58829866,"FType":460,"FCode":46006,"atlas_class":"streamriver","display_name":"South Fork Purgatoire River","stream_role":"natural_stream_detail_context","sourceLayer":"colorado_natural_stream_detail_tiles_v1","sourceLabel":"Colorado natural stream detail tiles v1","sensitivity":"generalized"},"geometry":{"type":"LineString","coordinates":[[-104.90111,37.07707],[-104.89743,37.07831],[-104.89716,37.07912],[-104.89767,37.07925]]}},{"type":"Feature","properties":{"huc8":"11020010","huc8Name":"Purgatoire","historic":"yellowfin","current":"introduced","recovery":"recoveryWatch","lineageKey":"yellowfin","lineageLabel":"Yellowfin / Arkansas headwaters historical form","basin":"Purgatoire","note":"Arkansas basin historical Yellowfin context; review needed","state":"CO","confidence":"HUC8 drainage context / generalized","geometryStatus":"natural_stream_detail_tile_from_full_interpreted_layer","troutSource":"HUC8 lineage assignment v1 / review needed","sourceName":"South Fork Purgatoire River","name":"South Fork Purgatoire River","source_id":"131278782","length_km":0.7606782,"FType":460,"FCode":46006,"atlas_class":"streamriver","display_name":"South Fork Purgatoire River","stream_role":"natural_stream_detail_context","sourceLayer":"colorado_natural_stream_detail_tiles_v1","sourceLabel":"Colorado natural stream detail tiles v1","sensitivity":"generalized"},"geometry":{"type":"LineString","coordinates":[[-104.98735,37.05928],[-104.98652,37.05989],[-104.9847,37.05978],[-104.98331,37.06367]]}},{"type":"Feature","properties":{"huc8":"11020010","huc8Name":"Purgatoire","historic":"yellowfin","current":"introduced","recovery":"recoveryWatch","lineageKey":"yellowfin","lineageLabel":"Yellowfin / Arkansas headwaters historical form","basin":"Purgatoire","note":"Arkansas basin historical Yellowfin context; review needed","state":"CO","confidence":"HUC8 drainage context / generalized","geometryStatus":"natural_stream_detail_tile_from_full_interpreted_layer","troutSource":"HUC8 lineage assignment v1 / review needed","sourceName":"Middle Fork Purgatoire River","name":"Middle Fork Purgatoire River","source_id":"131277678","length_km":1.15090641,"FType":460,"FCode":46006,"atlas_class":"streamriver","display_name":"Middle Fork Purgatoire River","stream_role":"natural_stream_detail_context","sourceLayer":"colorado_natural_stream_detail_tiles_v1","sourceLabel":"Colorado natural stream detail tiles v1","sensitivity":"generalized"},"geometry":{"type":"LineString","coordinates":[[-104.99681,37.15324],[-104.98412,37.15467]]}},{"type":"Feature","properties":{"huc8":"11020010","huc8Name":"Purgatoire","historic":"yellowfin","current":"introduced","recovery":"recoveryWatch","lineageKey":"yellowfin","lineageLabel":"Yellowfin / Arkansas headwaters historical form","basin":"Purgatoire","note":"Arkansas basin historical Yellowfin context; review needed","state":"CO","confidence":"HUC8 drainage context / generalized","geometryStatus":"natural_stream_detail_tile_from_full_interpreted_layer","troutSource":"HUC8 lineage assignment v1 / review needed","sourceName":"South Fork Purgatoire River","name":"South Fork Purgatoire River","source_id":"131278768","length_km":0.09394499,"FType":460,"FCode":46006,"atlas_class":"streamriver","display_name":"South Fork Purgatoire River","stream_role":"natural_stream_detail_context","sourceLayer":"colorado_natural_stream_detail_tiles_v1","sourceLabel":"Colorado natural stream detail tiles v1","sensitivity":"generalized"},"geometry":{"type":"LineString","coordinates":[[-104.86972,37.10279],[-104.86922,37.10349]]}},{"type":"Feature","properties":{"huc8":"11020010","huc8Name":"Purgatoire","historic":"yellowfin","current":"introduced","recovery":"recoveryWatch","lineageKey":"yellowfin","lineageLabel":"Yellowfin / Arkansas headwaters historical form","basin":"Purgatoire","note":"Arkansas basin historical Yellowfin context; review needed","state":"CO","confidence":"HUC8 drainage context / generalized","geometryStatus":"natural_stream_detail_tile_from_full_interpreted_layer","troutSource":"HUC8 lineage assignment v1 / review needed","sourceName":"Purgatoire River","name":"Purgatoire River","source_id":"131278898","length_km":1.28192552,"FType":460,"FCode":46006,"atlas_class":"streamriver","display_name":"Purgatoire River","stream_role":"natural_stream_detail_context","sourceLayer":"colorado_natural_stream_detail_tiles_v1","sourceLabel":"Colorado natural stream detail tiles v1","sensitivity":"generalized"},"geometry":{"type":"LineString","coordinates":[[-104.91671,37.15044],[-104.91476,37.14943],[-104.91425,37.14954],[-104.91449,37.15017],[-104.91404,37.15044],[-104.91258,37.15071],[-104.90924,37.14878],[-104.90865,37.14877],[-104.90843,37.14939],[-104.90719,37.14898],[-104.90625,37.14946]]}},{"type":"Feature","properties":{"huc8":"11020010","huc8Name":"Purgatoire","historic":"yellowfin","current":"introduced","recovery":"recoveryWatch","lineageKey":"yellowfin","lineageLabel":"Yellowfin / Arkansas headwaters historical form","basin":"Purgatoire","note":"Arkansas basin historical Yellowfin context; review needed","state":"CO","confidence":"HUC8 drainage context / generalized","geometryStatus":"natural_stream_detail_tile_from_full_interpreted_layer","troutSource":"HUC8 lineage assignment v1 / review needed","sourceName":"Purgatoire River","name":"Purgatoire River","source_id":"158870688","length_km":0.91408299,"FType":460,"FCode":46006,"atlas_class":"streamriver","display_name":"Purgatoire River","stream_role":"natural_stream_detail_context","sourceLayer":"colorado_natural_stream_detail_tiles_v1","sourceLabel":"Colorado natural stream detail tiles v1","sensitivity":"generalized"},"geometry":{"type":"LineString","coordinates":[[-104.94073,37.15735],[-104.93973,37.15636],[-104.93712,37.15591],[-104.9336,37.1566],[-104.93232,37.15794]]}},{"type":"Feature","properties":{"huc8":"11020010","huc8Name":"Purgatoire","historic":"yellowfin","current":"introduced","recovery":"recoveryWatch","lineageKey":"yellowfin","lineageLabel":"Yellowfin / Arkansas headwaters historical form","basin":"Purgatoire","note":"Arkansas basin historical Yellowfin context; review needed","state":"CO","confidence":"HUC8 drainage context / generalized","geometryStatus":"natural_stream_detail_tile_from_full_interpreted_layer","troutSource":"HUC8 lineage assignment v1 / review needed","sourceName":"South Fork Purgatoire River","name":"South Fork Purgatoire River","source_id":"131278779","length_km":0.48661445,"FType":460,"FCode":46006,"atlas_class":"streamriver","display_name":"South Fork Purgatoire River","stream_role":"natural_stream_detail_context","sourceLayer":"colorado_natural_stream_detail_tiles_v1","sourceLabel":"Colorado natural stream detail tiles v1","sensitivity":"generalized"},"geometry":{"type":"LineString","coordinates":[[-104.98331,37.06367],[-104.97816,37.06438]]}},{"type":"Feature","properties":{"huc8":"11020010","huc8Name":"Purgatoire","historic":"yellowfin","current":"introduced","recovery":"recoveryWatch","lineageKey":"yellowfin","lineageLabel":"Yellowfin / Arkansas headwaters historical form","basin":"Purgatoire","note":"Arkansas basin historical Yellowfin context; review needed","state":"CO","confidence":"HUC8 drainage context / generalized","geometryStatus":"natural_stream_detail_tile_from_full_interpreted_layer","troutSource":"HUC8 lineage assignment v1 / review needed","sourceName":"North Fork Purgatoire River","name":"North Fork Purgatoire River","source_id":"131277580","length_km":2.18965351,"FType":460,"FCode":46006,"atlas_class":"streamriver","display_name":"North Fork Purgatoire River","stream_role":"natural_stream_detail_context","sourceLayer":"colorado_natural_stream_detail_tiles_v1","sourceLabel":"Colorado natural stream detail tiles v1","sensitivity":"generalized"},"geometry":{"type":"LineString","coordinates":[[-104.96559,37.18625],[-104.96559,37.18541],[-104.96392,37.1837],[-104.96489,37.1832],[-104.96482,37.18226],[-104.96373,37.18212],[-104.96261,37.17994],[-104.96294,37.17933],[-104.96156,37.17884],[-104.96168,37.17834],[-104.96106,37.17855],[-104.96049,37.17721],[-104.95889,37.17667],[-104.95889,37.17565],[-104.95664,37.17499],[-104.95605,37.17429]]}},{"type":"Feature","properties":{"huc8":"11020010","huc8Name":"Purgatoire","historic":"yellowfin","current":"introduced","recovery":"recoveryWatch","lineageKey":"yellowfin","lineageLabel":"Yellowfin / Arkansas headwaters historical form","basin":"Purgatoire","note":"Arkansas basin historical Yellowfin context; review needed","state":"CO","confidence":"HUC8 drainage context / generalized","geometryStatus":"natural_stream_detail_tile_from_full_interpreted_layer","troutSource":"HUC8 lineage assignment v1 / review needed","sourceName":"South Fork Purgatoire River","name":"South Fork Purgatoire River","source_id":"131278801","length_km":0.11868845,"FType":460,"FCode":46006,"atlas_class":"streamriver","display_name":"South Fork Purgatoire River","stream_role":"natural_stream_detail_context","sourceLayer":"colorado_natural_stream_detail_tiles_v1","sourceLabel":"Colorado natural stream detail tiles v1","sensitivity":"generalized"},"geometry":{"type":"LineString","coordinates":[[-104.8909,37.08412],[-104.88958,37.08394]]}},{"type":"Feature","properties":{"huc8":"11020010","huc8Name":"Purgatoire","historic":"yellowfin","current":"introduced","recovery":"recoveryWatch","lineageKey":"yellowfin","lineageLabel":"Yellowfin / Arkansas headwaters historical form","basin":"Purgatoire","note":"Arkansas basin historical Yellowfin context; review needed","state":"CO","confidence":"HUC8 drainage context / generalized","geometryStatus":"natural_stream_detail_tile_from_full_interpreted_layer","troutSource":"HUC8 lineage assignment v1 / review needed","sourceName":"Purgatoire River","name":"Purgatoire River","source_id":"131277554","length_km":0.1687148,"FType":460,"FCode":46006,"atlas_class":"streamriver","display_name":"Purgatoire River","stream_role":"natural_stream_detail_context","sourceLayer":"colorado_natural_stream_detail_tiles_v1","sourceLabel":"Colorado natural stream detail tiles v1","sensitivity":"generalized"},"geometry":{"type":"LineString","coordinates":[[-104.83993,37.13184],[-104.83848,37.13248]]}},{"type":"Feature","properties":{"huc8":"11020010","huc8Name":"Purgatoire","historic":"yellowfin","current":"introduced","recovery":"recoveryWatch","lineageKey":"yellowfin","lineageLabel":"Yellowfin / Arkansas headwaters historical form","basin":"Purgatoire","note":"Arkansas basin historical Yellowfin context; review needed","state":"CO","confidence":"HUC8 drainage context / generalized","geometryStatus":"natural_stream_detail_tile_from_full_interpreted_layer","troutSource":"HUC8 lineage assignment v1 / review needed","sourceName":"South Fork Purgatoire River","name":"South Fork Purgatoire River","source_id":"131278793","length_km":0.31150502,"FType":460,"FCode":46006,"atlas_class":"streamriver","display_name":"South Fork Purgatoire River","stream_role":"natural_stream_detail_context","sourceLayer":"colorado_natural_stream_detail_tiles_v1","sourceLabel":"Colorado natural stream detail tiles v1","sensitivity":"generalized"},"geometry":{"type":"LineString","coordinates":[[-104.88958,37.08394],[-104.88804,37.08473],[-104.88764,37.08596]]}},{"type":"Feature","properties":{"huc8":"11020010","huc8Name":"Purgatoire","historic":"yellowfin","current":"introduced","recovery":"recoveryWatch","lineageKey":"yellowfin","lineageLabel":"Yellowfin / Arkansas headwaters historical form","basin":"Purgatoire","note":"Arkansas basin historical Yellowfin context; review needed","state":"CO","confidence":"HUC8 drainage context / generalized","geometryStatus":"natural_stream_detail_tile_from_full_interpreted_layer","troutSource":"HUC8 lineage assignment v1 / review needed","sourceName":"South Fork Purgatoire River","name":"South Fork Purgatoire River","source_id":"131278764","length_km":0.85789378,"FType":460,"FCode":46006,"atlas_class":"streamriver","display_name":"South Fork Purgatoire River","stream_role":"natural_stream_detail_context","sourceLayer":"colorado_natural_stream_detail_tiles_v1","sourceLabel":"Colorado natural stream detail tiles v1","sensitivity":"generalized"},"geometry":{"type":"LineString","coordinates":[[-104.86574,37.11195],[-104.86393,37.11189],[-104.86344,37.11336],[-104.86195,37.11433],[-104.86188,37.11579],[-104.86062,37.11646]]}},{"type":"Feature","properties":{"huc8":"11020010","huc8Name":"Purgatoire","historic":"yellowfin","current":"introduced","recovery":"recoveryWatch","lineageKey":"yellowfin","lineageLabel":"Yellowfin / Arkansas headwaters historical form","basin":"Purgatoire","note":"Arkansas basin historical Yellowfin context; review needed","state":"CO","confidence":"HUC8 drainage context / generalized","geometryStatus":"natural_stream_detail_tile_from_full_interpreted_layer","troutSource":"HUC8 lineage assignment v1 / review needed","sourceName":"South Fork Purgatoire River","name":"South Fork Purgatoire River","source_id":"840cf06f-11e4-4549-9026-0fa2f7498b84","length_km":0.44780044,"FType":460,"FCode":46006,"atlas_class":"streamriver","display_name":"South Fork Purgatoire River","stream_role":"natural_stream_detail_context","sourceLayer":"colorado_natural_stream_detail_tiles_v1","sourceLabel":"Colorado natural stream detail tiles v1","sensitivity":"generalized"},"geometry":{"type":"LineString","coordinates":[[-104.85759,37.12037],[-104.85596,37.12262],[-104.85616,37.12374]]}},{"type":"Feature","properties":{"huc8":"11020010","huc8Name":"Purgatoire","historic":"yellowfin","current":"introduced","recovery":"recoveryWatch","lineageKey":"yellowfin","lineageLabel":"Yellowfin / Arkansas headwaters historical form","basin":"Purgatoire","note":"Arkansas basin historical Yellowfin context; review needed","state":"CO","confidence":"HUC8 drainage context / generalized","geometryStatus":"natural_stream_detail_tile_from_full_interpreted_layer","troutSource":"HUC8 lineage assignment v1 / review needed","sourceName":"Purgatoire River","name":"Purgatoire River","source_id":"131277556","length_km":2.36760862,"FType":460,"FCode":46006,"atlas_class":"streamriver","display_name":"Purgatoire River","stream_role":"natural_stream_detail_context","sourceLayer":"colorado_natural_stream_detail_tiles_v1","sourceLabel":"Colorado natural stream detail tiles v1","sensitivity":"generalized"},"geometry":{"type":"LineString","coordinates":[[-104.8312,37.13242],[-104.82917,37.13113],[-104.82798,37.13219],[-104.82513,37.13154],[-104.82302,37.13273],[-104.82221,37.13244],[-104.82051,37.13327],[-104.8196,37.13242],[-104.8188,37.13246],[-104.81679,37.13368],[-104.81534,37.1339],[-104.81257,37.13239],[-104.81168,37.13052],[-104.81097,37.13022]]}},{"type":"Feature","properties":{"huc8":"11020010","huc8Name":"Purgatoire","historic":"yellowfin","current":"introduced","recovery":"recoveryWatch","lineageKey":"yellowfin","lineageLabel":"Yellowfin / Arkansas headwaters historical form","basin":"Purgatoire","note":"Arkansas basin historical Yellowfin context; review needed","state":"CO","confidence":"HUC8 drainage context / generalized","geometryStatus":"natural_stream_detail_tile_from_full_interpreted_layer","troutSource":"HUC8 lineage assignment v1 / review needed","sourceName":"Middle Fork Purgatoire River","name":"Middle Fork Purgatoire River","source_id":"131277682","length_km":0.82801052,"FType":460,"FCode":46006,"atlas_class":"streamriver","display_name":"Middle Fork Purgatoire River","stream_role":"natural_stream_detail_context","sourceLayer":"colorado_natural_stream_detail_tiles_v1","sourceLabel":"Colorado natural stream detail tiles v1","sensitivity":"generalized"},"geometry":{"type":"LineString","coordinates":[[-104.97661,37.15557],[-104.96764,37.15753]]}},{"type":"Feature","properties":{"huc8":"11020010","huc8Name":"Purgatoire","historic":"yellowfin","current":"introduced","recovery":"recoveryWatch","lineageKey":"yellowfin","lineageLabel":"Yellowfin / Arkansas headwaters historical form","basin":"Purgatoire","note":"Arkansas basin historical Yellowfin context; review needed","state":"CO","confidence":"HUC8 drainage context / generalized","geometryStatus":"natural_stream_detail_tile_from_full_interpreted_layer","troutSource":"HUC8 lineage assignment v1 / review needed","sourceName":"North Fork Purgatoire River","name":"North Fork Purgatoire River","source_id":"131277586","length_km":0.12016476,"FType":460,"FCode":46006,"atlas_class":"streamriver","display_name":"North Fork Purgatoire River","stream_role":"natural_stream_detail_context","sourceLayer":"colorado_natural_stream_detail_tiles_v1","sourceLabel":"Colorado natural stream detail tiles v1","sensitivity":"generalized"},"geometry":{"type":"LineString","coordinates":[[-104.97244,37.1965],[-104.97227,37.19552]]}},{"type":"Feature","properties":{"huc8":"11020010","huc8Name":"Purgatoire","historic":"yellowfin","current":"introduced","recovery":"recoveryWatch","lineageKey":"yellowfin","lineageLabel":"Yellowfin / Arkansas headwaters historical form","basin":"Purgatoire","note":"Arkansas basin historical Yellowfin context; review needed","state":"CO","confidence":"HUC8 drainage context / generalized","geometryStatus":"natural_stream_detail_tile_from_full_interpreted_layer","troutSource":"HUC8 lineage assignment v1 / review needed","sourceName":"North Fork Purgatoire River","name":"North Fork Purgatoire River","source_id":"131277582","length_km":1.50399903,"FType":460,"FCode":46006,"atlas_class":"streamriver","display_name":"North Fork Purgatoire River","stream_role":"natural_stream_detail_context","sourceLayer":"colorado_natural_stream_detail_tiles_v1","sourceLabel":"Colorado natural stream detail tiles v1","sensitivity":"generalized"},"geometry":{"type":"LineString","coordinates":[[-104.97227,37.19552],[-104.96967,37.19276],[-104.97,37.19138],[-104.96884,37.19081],[-104.96908,37.1893],[-104.9679,37.18731],[-104.96559,37.18625]]}},{"type":"Feature","properties":{"huc8":"11020010","huc8Name":"Purgatoire","historic":"yellowfin","current":"introduced","recovery":"recoveryWatch","lineageKey":"yellowfin","lineageLabel":"Yellowfin / Arkansas headwaters historical form","basin":"Purgatoire","note":"Arkansas basin historical Yellowfin context; review needed","state":"CO","confidence":"HUC8 drainage context / generalized","geometryStatus":"natural_stream_detail_tile_from_full_interpreted_layer","troutSource":"HUC8 lineage assignment v1 / review needed","sourceName":"Purgatoire River","name":"Purgatoire River","source_id":"158870721","length_km":1.62683807,"FType":460,"FCode":46006,"atlas_class":"streamriver","display_name":"Purgatoire River","stream_role":"natural_stream_detail_context","sourceLayer":"colorado_natural_stream_detail_tiles_v1","sourceLabel":"Colorado natural stream detail tiles v1","sensitivity":"generalized"},"geometry":{"type":"LineString","coordinates":[[-104.93232,37.15794],[-104.92826,37.15682],[-104.92823,37.15547],[-104.92583,37.15602],[-104.92477,37.15379],[-104.92477,37.15232],[-104.92056,37.15087]]}},{"type":"Feature","properties":{"huc8":"11020010","huc8Name":"Purgatoire","historic":"yellowfin","current":"introduced","recovery":"recoveryWatch","lineageKey":"yellowfin","lineageLabel":"Yellowfin / Arkansas headwaters historical form","basin":"Purgatoire","note":"Arkansas basin historical Yellowfin context; review needed","state":"CO","confidence":"HUC8 drainage context / generalized","geometryStatus":"natural_stream_detail_tile_from_full_interpreted_layer","troutSource":"HUC8 lineage assignment v1 / review needed","sourceName":"Purgatoire River","name":"Purgatoire River","source_id":"131277560","length_km":0.54742507,"FType":460,"FCode":46006,"atlas_class":"streamriver","display_name":"Purgatoire River","stream_role":"natural_stream_detail_context","sourceLayer":"colorado_natural_stream_detail_tiles_v1","sourceLabel":"Colorado natural stream detail tiles v1","sensitivity":"generalized"},"geometry":{"type":"LineString","coordinates":[[-104.87906,37.14041],[-104.87654,37.13968],[-104.87546,37.13832],[-104.87566,37.13743]]}},{"type":"Feature","properties":{"huc8":"11020010","huc8Name":"Purgatoire","historic":"yellowfin","current":"introduced","recovery":"recoveryWatch","lineageKey":"yellowfin","lineageLabel":"Yellowfin / Arkansas headwaters historical form","basin":"Purgatoire","note":"Arkansas basin historical Yellowfin context; review needed","state":"CO","confidence":"HUC8 drainage context / generalized","geometryStatus":"natural_stream_detail_tile_from_full_interpreted_layer","troutSource":"HUC8 lineage assignment v1 / review needed","sourceName":"Rincon Creek","name":"Rincon Creek","source_id":"131251083","length_km":0.87269905,"FType":460,"FCode":46003,"atlas_class":"streamriver","display_name":"Rincon Creek","stream_role":"natural_stream_detail_context","sourceLayer":"colorado_natural_stream_detail_tiles_v1","sourceLabel":"Colorado natural stream detail tiles v1","sensitivity":"generalized"},"geometry":{"type":"LineString","coordinates":[[-104.99995,37.02322],[-105.00021,37.02538],[-104.99939,37.02683],[-104.99837,37.0273],[-104.99817,37.02938]]}},{"type":"Feature","properties":{"huc8":"11020010","huc8Name":"Purgatoire","historic":"yellowfin","current":"introduced","recovery":"recoveryWatch","lineageKey":"yellowfin","lineageLabel":"Yellowfin / Arkansas headwaters historical form","basin":"Purgatoire","note":"Arkansas basin historical Yellowfin context; review needed","state":"CO","confidence":"HUC8 drainage context / generalized","geometryStatus":"natural_stream_detail_tile_from_full_interpreted_layer","troutSource":"HUC8 lineage assignment v1 / review needed","sourceName":"Purgatoire River","name":"Purgatoire River","source_id":"131277570","length_km":0.34320976,"FType":460,"FCode":46006,"atlas_class":"streamriver","display_name":"Purgatoire River","stream_role":"natural_stream_detail_context","sourceLayer":"colorado_natural_stream_detail_tiles_v1","sourceLabel":"Colorado natural stream detail tiles v1","sensitivity":"generalized"},"geometry":{"type":"LineString","coordinates":[[-104.92056,37.15087],[-104.91938,37.15047],[-104.91724,37.15104]]}},{"type":"Feature","properties":{"huc8":"11020010","huc8Name":"Purgatoire","historic":"yellowfin","current":"introduced","recovery":"recoveryWatch","lineageKey":"yellowfin","lineageLabel":"Yellowfin / Arkansas headwaters historical form","basin":"Purgatoire","note":"Arkansas basin historical Yellowfin context; review needed","state":"CO","confidence":"HUC8 drainage context / generalized","geometryStatus":"natural_stream_detail_tile_from_full_interpreted_layer","troutSource":"HUC8 lineage assignment v1 / review needed","sourceName":"Purgatoire River","name":"Purgatoire River","source_id":"131277552","length_km":0.47554517,"FType":460,"FCode":46006,"atlas_class":"streamriver","display_name":"Purgatoire River","stream_role":"natural_stream_detail_context","sourceLayer":"colorado_natural_stream_detail_tiles_v1","sourceLabel":"Colorado natural stream detail tiles v1","sensitivity":"generalized"},"geometry":{"type":"LineString","coordinates":[[-104.8445,37.13145],[-104.84232,37.13139],[-104.8411,37.13227],[-104.83993,37.13184]]}},{"type":"Feature","properties":{"huc8":"11020010","huc8Name":"Purgatoire","historic":"yellowfin","current":"introduced","recovery":"recoveryWatch","lineageKey":"yellowfin","lineageLabel":"Yellowfin / Arkansas headwaters historical form","basin":"Purgatoire","note":"Arkansas basin historical Yellowfin context; review needed","state":"CO","confidence":"HUC8 drainage context / generalized","geometryStatus":"natural_stream_detail_tile_from_full_interpreted_layer","troutSource":"HUC8 lineage assignment v1 / review needed","sourceName":"South Fork Purgatoire River","name":"South Fork Purgatoire River","source_id":"ef6b6c56-fd4c-449b-a989-87996532b971","length_km":0.5448409,"FType":460,"FCode":46006,"atlas_class":"streamriver","display_name":"South Fork Purgatoire River","stream_role":"natural_stream_detail_context","sourceLayer":"colorado_natural_stream_detail_tiles_v1","sourceLabel":"Colorado natural stream detail tiles v1","sensitivity":"generalized"},"geometry":{"type":"LineString","coordinates":[[-104.86062,37.11646],[-104.85759,37.12037]]}},{"type":"Feature","properties":{"huc8":"11020010","huc8Name":"Purgatoire","historic":"yellowfin","current":"introduced","recovery":"recoveryWatch","lineageKey":"yellowfin","lineageLabel":"Yellowfin / Arkansas headwaters historical form","basin":"Purgatoire","note":"Arkansas basin historical Yellowfin context; review needed","state":"CO","confidence":"HUC8 drainage context / generalized","geometryStatus":"natural_stream_detail_tile_from_full_interpreted_layer","troutSource":"HUC8 lineage assignment v1 / review needed","sourceName":"South Fork Purgatoire River","name":"South Fork Purgatoire River","source_id":"131278819","length_km":0.17215577,"FType":460,"FCode":46006,"atlas_class":"streamriver","display_name":"South Fork Purgatoire River","stream_role":"natural_stream_detail_context","sourceLayer":"colorado_natural_stream_detail_tiles_v1","sourceLabel":"Colorado natural stream detail tiles v1","sensitivity":"generalized"},"geometry":{"type":"LineString","coordinates":[[-104.92784,37.06752],[-104.92723,37.06831],[-104.92658,37.06817]]}},{"type":"Feature","properties":{"huc8":"11020010","huc8Name":"Purgatoire","historic":"yellowfin","current":"introduced","recovery":"recoveryWatch","lineageKey":"yellowfin","lineageLabel":"Yellowfin / Arkansas headwaters historical form","basin":"Purgatoire","note":"Arkansas basin historical Yellowfin context; review needed","state":"CO","confidence":"HUC8 drainage context / generalized","geometryStatus":"natural_stream_detail_tile_from_full_interpreted_layer","troutSource":"HUC8 lineage assignment v1 / review needed","sourceName":"South Fork Purgatoire River","name":"South Fork Purgatoire River","source_id":"131278774","length_km":0.92032802,"FType":460,"FCode":46006,"atlas_class":"streamriver","display_name":"South Fork Purgatoire River","stream_role":"natural_stream_detail_context","sourceLayer":"colorado_natural_stream_detail_tiles_v1","sourceLabel":"Colorado natural stream detail tiles v1","sensitivity":"generalized"},"geometry":{"type":"LineString","coordinates":[[-104.87966,37.09442],[-104.87947,37.09525],[-104.8789,37.09533],[-104.87906,37.09649],[-104.87825,37.09577],[-104.87807,37.09664],[-104.87684,37.09636],[-104.876,37.09792],[-104.87544,37.09798]]}},{"type":"Feature","properties":{"huc8":"11020010","huc8Name":"Purgatoire","historic":"yellowfin","current":"introduced","recovery":"recoveryWatch","lineageKey":"yellowfin","lineageLabel":"Yellowfin / Arkansas headwaters historical form","basin":"Purgatoire","note":"Arkansas basin historical Yellowfin context; review needed","state":"CO","confidence":"HUC8 drainage context / generalized","geometryStatus":"natural_stream_detail_tile_from_full_interpreted_layer","troutSource":"HUC8 lineage assignment v1 / review needed","sourceName":"South Fork Purgatoire River","name":"South Fork Purgatoire River","source_id":"131278770","length_km":0.8280001,"FType":460,"FCode":46006,"atlas_class":"streamriver","display_name":"South Fork Purgatoire River","stream_role":"natural_stream_detail_context","sourceLayer":"colorado_natural_stream_detail_tiles_v1","sourceLabel":"Colorado natural stream detail tiles v1","sensitivity":"generalized"},"geometry":{"type":"LineString","coordinates":[[-104.87562,37.09911],[-104.87555,37.09959],[-104.87097,37.10026],[-104.86972,37.10279]]}},{"type":"Feature","properties":{"huc8":"11020010","huc8Name":"Purgatoire","historic":"yellowfin","current":"introduced","recovery":"recoveryWatch","lineageKey":"yellowfin","lineageLabel":"Yellowfin / Arkansas headwaters historical form","basin":"Purgatoire","note":"Arkansas basin historical Yellowfin context; review needed","state":"CO","confidence":"HUC8 drainage context / generalized","geometryStatus":"natural_stream_detail_tile_from_full_interpreted_layer","troutSource":"HUC8 lineage assignment v1 / review needed","sourceName":"South Fork Purgatoire River","name":"South Fork Purgatoire River","source_id":"131278813","length_km":0.30183275,"FType":460,"FCode":46006,"atlas_class":"streamriver","display_name":"South Fork Purgatoire River","stream_role":"natural_stream_detail_context","sourceLayer":"colorado_natural_stream_detail_tiles_v1","sourceLabel":"Colorado natural stream detail tiles v1","sensitivity":"generalized"},"geometry":{"type":"LineString","coordinates":[[-104.90488,37.07564],[-104.90345,37.07638],[-104.9018,37.07615]]}},{"type":"Feature","properties":{"huc8":"11020010","huc8Name":"Purgatoire","historic":"yellowfin","current":"introduced","recovery":"recoveryWatch","lineageKey":"yellowfin","lineageLabel":"Yellowfin / Arkansas headwaters historical form","basin":"Purgatoire","note":"Arkansas basin historical Yellowfin context; review needed","state":"CO","confidence":"HUC8 drainage context / generalized","geometryStatus":"natural_stream_detail_tile_from_full_interpreted_layer","troutSource":"HUC8 lineage assignment v1 / review needed","sourceName":"North Fork Purgatoire River","name":"North Fork Purgatoire River","source_id":"131277578","length_km":0.60909003,"FType":460,"FCode":46006,"atlas_class":"streamriver","display_name":"North Fork Purgatoire River","stream_role":"natural_stream_detail_context","sourceLayer":"colorado_natural_stream_detail_tiles_v1","sourceLabel":"Colorado natural stream detail tiles v1","sensitivity":"generalized"},"geometry":{"type":"LineString","coordinates":[[-104.95605,37.17429],[-104.95626,37.17294],[-104.95542,37.17332],[-104.95471,37.17232],[-104.95304,37.17211]]}},{"type":"Feature","properties":{"huc8":"11020010","huc8Name":"Purgatoire","historic":"yellowfin","current":"introduced","recovery":"recoveryWatch","lineageKey":"yellowfin","lineageLabel":"Yellowfin / Arkansas headwaters historical form","basin":"Purgatoire","note":"Arkansas basin historical Yellowfin context; review needed","state":"CO","confidence":"HUC8 drainage context / generalized","geometryStatus":"natural_stream_detail_tile_from_full_interpreted_layer","troutSource":"HUC8 lineage assignment v1 / review needed","sourceName":"North Fork Purgatoire River","name":"North Fork Purgatoire River","source_id":"131277576","length_km":2.25512826,"FType":460,"FCode":46006,"atlas_class":"streamriver","display_name":"North Fork Purgatoire River","stream_role":"natural_stream_detail_context","sourceLayer":"colorado_natural_stream_detail_tiles_v1","sourceLabel":"Colorado natural stream detail tiles v1","sensitivity":"generalized"},"geometry":{"type":"LineString","coordinates":[[-104.95304,37.17211],[-104.95241,37.17191],[-104.95246,37.17131],[-104.9512,37.17111],[-104.9498,37.16763],[-104.94841,37.16749],[-104.94637,37.16502],[-104.94469,37.1641],[-104.94328,37.16173],[-104.9431,37.16004],[-104.94151,37.15916],[-104.94073,37.15735]]}},{"type":"Feature","properties":{"huc8":"11020010","huc8Name":"Purgatoire","historic":"yellowfin","current":"introduced","recovery":"recoveryWatch","lineageKey":"yellowfin","lineageLabel":"Yellowfin / Arkansas headwaters historical form","basin":"Purgatoire","note":"Arkansas basin historical Yellowfin context; review needed","state":"CO","confidence":"HUC8 drainage context / generalized","geometryStatus":"natural_stream_detail_tile_from_full_interpreted_layer","troutSource":"HUC8 lineage assignment v1 / review needed","sourceName":"South Fork Purgatoire River","name":"South Fork Purgatoire River","source_id":"131278805","length_km":0.18404215,"FType":460,"FCode":46006,"atlas_class":"streamriver","display_name":"South Fork Purgatoire River","stream_role":"natural_stream_detail_context","sourceLayer":"colorado_natural_stream_detail_tiles_v1","sourceLabel":"Colorado natural stream detail tiles v1","sensitivity":"generalized"},"geometry":{"type":"LineString","coordinates":[[-104.93922,37.06842],[-104.93859,37.06913],[-104.93768,37.06915]]}},{"type":"Feature","properties":{"huc8":"11020010","huc8Name":"Purgatoire","historic":"yellowfin","current":"introduced","recovery":"recoveryWatch","lineageKey":"yellowfin","lineageLabel":"Yellowfin / Arkansas headwaters historical form","basin":"Purgatoire","note":"Arkansas basin historical Yellowfin context; review needed","state":"CO","confidence":"HUC8 drainage context / generalized","geometryStatus":"natural_stream_detail_tile_from_full_interpreted_layer","troutSource":"HUC8 lineage assignment v1 / review needed","sourceName":"South Fork Purgatoire River","name":"South Fork Purgatoire River","source_id":"131278807","length_km":1.09774191,"FType":460,"FCode":46006,"atlas_class":"streamriver","display_name":"South Fork Purgatoire River","stream_role":"natural_stream_detail_context","sourceLayer":"colorado_natural_stream_detail_tiles_v1","sourceLabel":"Colorado natural stream detail tiles v1","sensitivity":"generalized"},"geometry":{"type":"LineString","coordinates":[[-104.93768,37.06915],[-104.93659,37.06903],[-104.93357,37.06673],[-104.93105,37.06607],[-104.92784,37.06752]]}},{"type":"Feature","properties":{"huc8":"11020010","huc8Name":"Purgatoire","historic":"yellowfin","current":"introduced","recovery":"recoveryWatch","lineageKey":"yellowfin","lineageLabel":"Yellowfin / Arkansas headwaters historical form","basin":"Purgatoire","note":"Arkansas basin historical Yellowfin context; review needed","state":"CO","confidence":"HUC8 drainage context / generalized","geometryStatus":"natural_stream_detail_tile_from_full_interpreted_layer","troutSource":"HUC8 lineage assignment v1 / review needed","sourceName":"Rincon Creek","name":"Rincon Creek","source_id":"131251092","length_km":0.51327249,"FType":460,"FCode":46003,"atlas_class":"streamriver","display_name":"Rincon Creek","stream_role":"natural_stream_detail_context","sourceLayer":"colorado_natural_stream_detail_tiles_v1","sourceLabel":"Colorado natural stream detail tiles v1","sensitivity":"generalized"},"geometry":{"type":"LineString","coordinates":[[-105.001,37.01457],[-104.99994,37.01761],[-104.99913,37.01847]]}},{"type":"Feature","properties":{"huc8":"11020010","huc8Name":"Purgatoire","historic":"yellowfin","current":"introduced","recovery":"recoveryWatch","lineageKey":"yellowfin","lineageLabel":"Yellowfin / Arkansas headwaters historical form","basin":"Purgatoire","note":"Arkansas basin historical Yellowfin context; review needed","state":"CO","confidence":"HUC8 drainage context / generalized","geometryStatus":"natural_stream_detail_tile_from_full_interpreted_layer","troutSource":"HUC8 lineage assignment v1 / review needed","sourceName":"Rincon Creek","name":"Rincon Creek","source_id":"131251086","length_km":0.39382089,"FType":460,"FCode":46003,"atlas_class":"streamriver","display_name":"Rincon Creek","stream_role":"natural_stream_detail_context","sourceLayer":"colorado_natural_stream_detail_tiles_v1","sourceLabel":"Colorado natural stream detail tiles v1","sensitivity":"generalized"},"geometry":{"type":"LineString","coordinates":[[-104.99869,37.02056],[-104.99841,37.02094],[-104.99905,37.02208],[-104.99964,37.02211],[-104.99995,37.02322]]}},{"type":"Feature","properties":{"huc8":"11020010","huc8Name":"Purgatoire","historic":"yellowfin","current":"introduced","recovery":"recoveryWatch","lineageKey":"yellowfin","lineageLabel":"Yellowfin / Arkansas headwaters historical form","basin":"Purgatoire","note":"Arkansas basin historical Yellowfin context; review needed","state":"CO","confidence":"HUC8 drainage context / generalized","geometryStatus":"natural_stream_detail_tile_from_full_interpreted_layer","troutSource":"HUC8 lineage assignment v1 / review needed","sourceName":"South Fork Purgatoire River","name":"South Fork Purgatoire River","source_id":"131278783","length_km":1.06546021,"FType":460,"FCode":46006,"atlas_class":"streamriver","display_name":"South Fork Purgatoire River","stream_role":"natural_stream_detail_context","sourceLayer":"colorado_natural_stream_detail_tiles_v1","sourceLabel":"Colorado natural stream detail tiles v1","sensitivity":"generalized"},"geometry":{"type":"LineString","coordinates":[[-104.97816,37.06438],[-104.9768,37.06429],[-104.97417,37.06634],[-104.96801,37.06636]]}},{"type":"Feature","properties":{"huc8":"11020010","huc8Name":"Purgatoire","historic":"yellowfin","current":"introduced","recovery":"recoveryWatch","lineageKey":"yellowfin","lineageLabel":"Yellowfin / Arkansas headwaters historical form","basin":"Purgatoire","note":"Arkansas basin historical Yellowfin context; review needed","state":"CO","confidence":"HUC8 drainage context / generalized","geometryStatus":"natural_stream_detail_tile_from_full_interpreted_layer","troutSource":"HUC8 lineage assignment v1 / review needed","sourceName":"South Fork Purgatoire River","name":"South Fork Purgatoire River","source_id":"131278797","length_km":0.04634398,"FType":460,"FCode":46006,"atlas_class":"streamriver","display_name":"South Fork Purgatoire River","stream_role":"natural_stream_detail_context","sourceLayer":"colorado_natural_stream_detail_tiles_v1","sourceLabel":"Colorado natural stream detail tiles v1","sensitivity":"generalized"},"geometry":{"type":"LineString","coordinates":[[-104.95157,37.06742],[-104.95142,37.06702]]}},{"type":"Feature","properties":{"huc8":"11020010","huc8Name":"Purgatoire","historic":"yellowfin","current":"introduced","recovery":"recoveryWatch","lineageKey":"yellowfin","lineageLabel":"Yellowfin / Arkansas headwaters historical form","basin":"Purgatoire","note":"Arkansas basin historical Yellowfin context; review needed","state":"CO","confidence":"HUC8 drainage context / generalized","geometryStatus":"natural_stream_detail_tile_from_full_interpreted_layer","troutSource":"HUC8 lineage assignment v1 / review needed","sourceName":"Rincon Creek","name":"Rincon Creek","source_id":"131256090","length_km":1.174121,"FType":460,"FCode":46003,"atlas_class":"streamriver","display_name":"Rincon Creek","stream_role":"natural_stream_detail_context","sourceLayer":"colorado_natural_stream_detail_tiles_v1","sourceLabel":"Colorado natural stream detail tiles v1","sensitivity":"generalized"},"geometry":{"type":"LineString","coordinates":[[-104.99882,37.04891],[-104.99834,37.04929],[-104.99885,37.04953],[-104.99772,37.04972],[-104.99639,37.05176],[-104.99563,37.05168],[-104.99536,37.05259],[-104.99465,37.05257],[-104.99484,37.05304],[-104.99417,37.05304],[-104.99301,37.05446]]}},{"type":"Feature","properties":{"huc8":"11020010","huc8Name":"Purgatoire","historic":"yellowfin","current":"introduced","recovery":"recoveryWatch","lineageKey":"yellowfin","lineageLabel":"Yellowfin / Arkansas headwaters historical form","basin":"Purgatoire","note":"Arkansas basin historical Yellowfin context; review needed","state":"CO","confidence":"HUC8 drainage context / generalized","geometryStatus":"natural_stream_detail_tile_from_full_interpreted_layer","troutSource":"HUC8 lineage assignment v1 / review needed","sourceName":"South Fork Purgatoire River","name":"South Fork Purgatoire River","source_id":"131278795","length_km":0.76822029,"FType":460,"FCode":46006,"atlas_class":"streamriver","display_name":"South Fork Purgatoire River","stream_role":"natural_stream_detail_context","sourceLayer":"colorado_natural_stream_detail_tiles_v1","sourceLabel":"Colorado natural stream detail tiles v1","sensitivity":"generalized"},"geometry":{"type":"LineString","coordinates":[[-104.99301,37.05446],[-104.99247,37.05444],[-104.98735,37.05928]]}},{"type":"Feature","properties":{"huc8":"11020010","huc8Name":"Purgatoire","historic":"yellowfin","current":"introduced","recovery":"recoveryWatch","lineageKey":"yellowfin","lineageLabel":"Yellowfin / Arkansas headwaters historical form","basin":"Purgatoire","note":"Arkansas basin historical Yellowfin context; review needed","state":"CO","confidence":"HUC8 drainage context / generalized","geometryStatus":"natural_stream_detail_tile_from_full_interpreted_layer","troutSource":"HUC8 lineage assignment v1 / review needed","sourceName":"Middle Fork Purgatoire River","name":"Middle Fork Purgatoire River","source_id":"131277684","length_km":2.31259131,"FType":460,"FCode":46006,"atlas_class":"streamriver","display_name":"Middle Fork Purgatoire River","stream_role":"natural_stream_detail_context","sourceLayer":"colorado_natural_stream_detail_tiles_v1","sourceLabel":"Colorado natural stream detail tiles v1","sensitivity":"generalized"},"geometry":{"type":"LineString","coordinates":[[-104.96533,37.15839],[-104.9587,37.15972],[-104.95574,37.15944],[-104.95066,37.1601],[-104.94073,37.15735]]}},{"type":"Feature","properties":{"huc8":"11020010","huc8Name":"Purgatoire","historic":"yellowfin","current":"introduced","recovery":"recoveryWatch","lineageKey":"yellowfin","lineageLabel":"Yellowfin / Arkansas headwaters historical form","basin":"Purgatoire","note":"Arkansas basin historical Yellowfin context; review needed","state":"CO","confidence":"HUC8 drainage context / generalized","geometryStatus":"natural_stream_detail_tile_from_full_interpreted_layer","troutSource":"HUC8 lineage assignment v1 / review needed","sourceName":"South Fork Purgatoire River","name":"South Fork Purgatoire River","source_id":"131278821","length_km":1.10405465,"FType":460,"FCode":46006,"atlas_class":"streamriver","display_name":"South Fork Purgatoire River","stream_role":"natural_stream_detail_context","sourceLayer":"colorado_natural_stream_detail_tiles_v1","sourceLabel":"Colorado natural stream detail tiles v1","sensitivity":"generalized"},"geometry":{"type":"LineString","coordinates":[[-104.92658,37.06817],[-104.92321,37.06868],[-104.92266,37.06935],[-104.92189,37.06884],[-104.91909,37.06941],[-104.91781,37.06992],[-104.91736,37.07082],[-104.91653,37.0708]]}},{"type":"Feature","properties":{"huc8":"11020010","huc8Name":"Purgatoire","historic":"yellowfin","current":"introduced","recovery":"recoveryWatch","lineageKey":"yellowfin","lineageLabel":"Yellowfin / Arkansas headwaters historical form","basin":"Purgatoire","note":"Arkansas basin historical Yellowfin context; review needed","state":"CO","confidence":"HUC8 drainage context / generalized","geometryStatus":"natural_stream_detail_tile_from_full_interpreted_layer","troutSource":"HUC8 lineage assignment v1 / review needed","sourceName":"Purgatoire River","name":"Purgatoire River","source_id":"131277553","length_km":0.22203879,"FType":460,"FCode":46006,"atlas_class":"streamriver","display_name":"Purgatoire River","stream_role":"natural_stream_detail_context","sourceLayer":"colorado_natural_stream_detail_tiles_v1","sourceLabel":"Colorado natural stream detail tiles v1","sensitivity":"generalized"},"geometry":{"type":"LineString","coordinates":[[-104.83848,37.13248],[-104.83778,37.13302],[-104.83647,37.13268]]}},{"type":"Feature","properties":{"huc8":"11020010","huc8Name":"Purgatoire","historic":"yellowfin","current":"introduced","recovery":"recoveryWatch","lineageKey":"yellowfin","lineageLabel":"Yellowfin / Arkansas headwaters historical form","basin":"Purgatoire","note":"Arkansas basin historical Yellowfin context; review needed","state":"CO","confidence":"HUC8 drainage context / generalized","geometryStatus":"natural_stream_detail_tile_from_full_interpreted_layer","troutSource":"HUC8 lineage assignment v1 / review needed","sourceName":"South Fork Purgatoire River","name":"South Fork Purgatoire River","source_id":"131278815","length_km":0.09582119,"FType":460,"FCode":46006,"atlas_class":"streamriver","display_name":"South Fork Purgatoire River","stream_role":"natural_stream_detail_context","sourceLayer":"colorado_natural_stream_detail_tiles_v1","sourceLabel":"Colorado natural stream detail tiles v1","sensitivity":"generalized"},"geometry":{"type":"LineString","coordinates":[[-104.90582,37.07522],[-104.90488,37.07564]]}},{"type":"Feature","properties":{"huc8":"11020010","huc8Name":"Purgatoire","historic":"yellowfin","current":"introduced","recovery":"recoveryWatch","lineageKey":"yellowfin","lineageLabel":"Yellowfin / Arkansas headwaters historical form","basin":"Purgatoire","note":"Arkansas basin historical Yellowfin context; review needed","state":"CO","confidence":"HUC8 drainage context / generalized","geometryStatus":"natural_stream_detail_tile_from_full_interpreted_layer","troutSource":"HUC8 lineage assignment v1 / review needed","sourceName":"South Fork Purgatoire River","name":"South Fork Purgatoire River","source_id":"131278799","length_km":0.8922944,"FType":460,"FCode":46006,"atlas_class":"streamriver","display_name":"South Fork Purgatoire River","stream_role":"natural_stream_detail_context","sourceLayer":"colorado_natural_stream_detail_tiles_v1","sourceLabel":"Colorado natural stream detail tiles v1","sensitivity":"generalized"},"geometry":{"type":"LineString","coordinates":[[-104.89767,37.07925],[-104.89734,37.08043],[-104.89581,37.08156],[-104.893,37.08255],[-104.89195,37.08381],[-104.8909,37.08412]]}},{"type":"Feature","properties":{"huc8":"11020010","huc8Name":"Purgatoire","historic":"yellowfin","current":"introduced","recovery":"recoveryWatch","lineageKey":"yellowfin","lineageLabel":"Yellowfin / Arkansas headwaters historical form","basin":"Purgatoire","note":"Arkansas basin historical Yellowfin context; review needed","state":"CO","confidence":"HUC8 drainage context / generalized","geometryStatus":"natural_stream_detail_tile_from_full_interpreted_layer","troutSource":"HUC8 lineage assignment v1 / review needed","sourceName":"South Fork Purgatoire River","name":"South Fork Purgatoire River","source_id":"131278785","length_km":0.84758705,"FType":460,"FCode":46006,"atlas_class":"streamriver","display_name":"South Fork Purgatoire River","stream_role":"natural_stream_detail_context","sourceLayer":"colorado_natural_stream_detail_tiles_v1","sourceLabel":"Colorado natural stream detail tiles v1","sensitivity":"generalized"},"geometry":{"type":"LineString","coordinates":[[-104.88764,37.08596],[-104.88556,37.08693],[-104.88544,37.08786],[-104.88425,37.089],[-104.88271,37.08912],[-104.88296,37.09029],[-104.88222,37.09031]]}},{"type":"Feature","properties":{"huc8":"11020010","huc8Name":"Purgatoire","historic":"yellowfin","current":"introduced","recovery":"recoveryWatch","lineageKey":"yellowfin","lineageLabel":"Yellowfin / Arkansas headwaters historical form","basin":"Purgatoire","note":"Arkansas basin historical Yellowfin context; review needed","state":"CO","confidence":"HUC8 drainage context / generalized","geometryStatus":"natural_stream_detail_tile_from_full_interpreted_layer","troutSource":"HUC8 lineage assignment v1 / review needed","sourceName":"Purgatoire River","name":"Purgatoire River","source_id":"131278752","length_km":0.90402289,"FType":460,"FCode":46006,"atlas_class":"streamriver","display_name":"Purgatoire River","stream_role":"natural_stream_detail_context","sourceLayer":"colorado_natural_stream_detail_tiles_v1","sourceLabel":"Colorado natural stream detail tiles v1","sensitivity":"generalized"},"geometry":{"type":"LineString","coordinates":[[-104.90625,37.14946],[-104.90021,37.14582],[-104.89938,37.14608],[-104.89821,37.14534]]}},{"type":"Feature","properties":{"huc8":"11020010","huc8Name":"Purgatoire","historic":"yellowfin","current":"introduced","recovery":"recoveryWatch","lineageKey":"yellowfin","lineageLabel":"Yellowfin / Arkansas headwaters historical form","basin":"Purgatoire","note":"Arkansas basin historical Yellowfin context; review needed","state":"CO","confidence":"HUC8 drainage context / generalized","geometryStatus":"natural_stream_detail_tile_from_full_interpreted_layer","troutSource":"HUC8 lineage assignment v1 / review needed","sourceName":"South Fork Purgatoire River","name":"South Fork Purgatoire River","source_id":"131278817","length_km":1.49300296,"FType":460,"FCode":46006,"atlas_class":"streamriver","display_name":"South Fork Purgatoire River","stream_role":"natural_stream_detail_context","sourceLayer":"colorado_natural_stream_detail_tiles_v1","sourceLabel":"Colorado natural stream detail tiles v1","sensitivity":"generalized"},"geometry":{"type":"LineString","coordinates":[[-104.91653,37.0708],[-104.91518,37.07136],[-104.91467,37.07104],[-104.91444,37.07154],[-104.91223,37.07157],[-104.91167,37.07206],[-104.91235,37.07274],[-104.91124,37.07351],[-104.90923,37.07354],[-104.9085,37.07501],[-104.90582,37.07522]]}},{"type":"Feature","properties":{"huc8":"11020010","huc8Name":"Purgatoire","historic":"yellowfin","current":"introduced","recovery":"recoveryWatch","lineageKey":"yellowfin","lineageLabel":"Yellowfin / Arkansas headwaters historical form","basin":"Purgatoire","note":"Arkansas basin historical Yellowfin context; review needed","state":"CO","confidence":"HUC8 drainage context / generalized","geometryStatus":"natural_stream_detail_tile_from_full_interpreted_layer","troutSource":"HUC8 lineage assignment v1 / review needed","sourceName":"Purgatoire River","name":"Purgatoire River","source_id":"131277566","length_km":1.09896686,"FType":460,"FCode":46006,"atlas_class":"streamriver","display_name":"Purgatoire River","stream_role":"natural_stream_detail_context","sourceLayer":"colorado_natural_stream_detail_tiles_v1","sourceLabel":"Colorado natural stream detail tiles v1","sensitivity":"generalized"},"geometry":{"type":"LineString","coordinates":[[-104.89463,37.14192],[-104.89382,37.14215],[-104.8935,37.14153],[-104.89142,37.14134],[-104.88902,37.1417],[-104.88762,37.14128],[-104.88756,37.14053],[-104.88464,37.14069]]}},{"type":"Feature","properties":{"huc8":"11020010","huc8Name":"Purgatoire","historic":"yellowfin","current":"introduced","recovery":"recoveryWatch","lineageKey":"yellowfin","lineageLabel":"Yellowfin / Arkansas headwaters historical form","basin":"Purgatoire","note":"Arkansas basin historical Yellowfin context; review needed","state":"CO","confidence":"HUC8 drainage context / generalized","geometryStatus":"natural_stream_detail_tile_from_full_interpreted_layer","troutSource":"HUC8 lineage assignment v1 / review needed","sourceName":"Rincon Creek","name":"Rincon Creek","source_id":"131251089","length_km":0.25441591,"FType":460,"FCode":46003,"atlas_class":"streamriver","display_name":"Rincon Creek","stream_role":"natural_stream_detail_context","sourceLayer":"colorado_natural_stream_detail_tiles_v1","sourceLabel":"Colorado natural stream detail tiles v1","sensitivity":"generalized"},"geometry":{"type":"LineString","coordinates":[[-104.99913,37.01847],[-104.99869,37.02056]]}},{"type":"Feature","properties":{"huc8":"11020010","huc8Name":"Purgatoire","historic":"yellowfin","current":"introduced","recovery":"recoveryWatch","lineageKey":"yellowfin","lineageLabel":"Yellowfin / Arkansas headwaters historical form","basin":"Purgatoire","note":"Arkansas basin historical Yellowfin context; review needed","state":"CO","confidence":"HUC8 drainage context / generalized","geometryStatus":"natural_stream_detail_tile_from_full_interpreted_layer","troutSource":"HUC8 lineage assignment v1 / review needed","sourceName":"South Fork Purgatoire River","name":"South Fork Purgatoire River","source_id":"131278791","length_km":0.86119928,"FType":460,"FCode":46006,"atlas_class":"streamriver","display_name":"South Fork Purgatoire River","stream_role":"natural_stream_detail_context","sourceLayer":"colorado_natural_stream_detail_tiles_v1","sourceLabel":"Colorado natural stream detail tiles v1","sensitivity":"generalized"},"geometry":{"type":"LineString","coordinates":[[-105.00178,37.05663],[-104.9976,37.05494],[-104.99301,37.05446]]}},{"type":"Feature","properties":{"huc8":"11020010","huc8Name":"Purgatoire","historic":"yellowfin","current":"introduced","recovery":"recoveryWatch","lineageKey":"yellowfin","lineageLabel":"Yellowfin / Arkansas headwaters historical form","basin":"Purgatoire","note":"Arkansas basin historical Yellowfin context; review needed","state":"CO","confidence":"HUC8 drainage context / generalized","geometryStatus":"natural_stream_detail_tile_from_full_interpreted_layer","troutSource":"HUC8 lineage assignment v1 / review needed","sourceName":"Rincon Creek","name":"Rincon Creek","source_id":"131256234","length_km":1.07399563,"FType":460,"FCode":46003,"atlas_class":"streamriver","display_name":"Rincon Creek","stream_role":"natural_stream_detail_context","sourceLayer":"colorado_natural_stream_detail_tiles_v1","sourceLabel":"Colorado natural stream detail tiles v1","sensitivity":"generalized"},"geometry":{"type":"LineString","coordinates":[[-105.00003,37.04282],[-104.99879,37.04383],[-104.9989,37.04533],[-104.99858,37.04648],[-104.99809,37.04649],[-104.99972,37.0478],[-104.99882,37.04891]]}},{"type":"Feature","properties":{"huc8":"11020010","huc8Name":"Purgatoire","historic":"yellowfin","current":"introduced","recovery":"recoveryWatch","lineageKey":"yellowfin","lineageLabel":"Yellowfin / Arkansas headwaters historical form","basin":"Purgatoire","note":"Arkansas basin historical Yellowfin context; review needed","state":"CO","confidence":"HUC8 drainage context / generalized","geometryStatus":"natural_stream_detail_tile_from_full_interpreted_layer","troutSource":"HUC8 lineage assignment v1 / review needed","sourceName":"Purgatoire River","name":"Purgatoire River","source_id":"131277572","length_km":0.08144915,"FType":460,"FCode":46006,"atlas_class":"streamriver","display_name":"Purgatoire River","stream_role":"natural_stream_detail_context","sourceLayer":"colorado_natural_stream_detail_tiles_v1","sourceLabel":"Colorado natural stream detail tiles v1","sensitivity":"generalized"},"geometry":{"type":"LineString","coordinates":[[-104.91724,37.15104],[-104.91671,37.15044]]}},{"type":"Feature","properties":{"huc8":"11020010","huc8Name":"Purgatoire","historic":"yellowfin","current":"introduced","recovery":"recoveryWatch","lineageKey":"yellowfin","lineageLabel":"Yellowfin / Arkansas headwaters historical form","basin":"Purgatoire","note":"Arkansas basin historical Yellowfin context; review needed","state":"CO","confidence":"HUC8 drainage context / generalized","geometryStatus":"natural_stream_detail_tile_from_full_interpreted_layer","troutSource":"HUC8 lineage assignment v1 / review needed","sourceName":"South Fork Purgatoire River","name":"South Fork Purgatoire River","source_id":"131278787","length_km":0.03410554,"FType":460,"FCode":46006,"atlas_class":"streamriver","display_name":"South Fork Purgatoire River","stream_role":"natural_stream_detail_context","sourceLayer":"colorado_natural_stream_detail_tiles_v1","sourceLabel":"Colorado natural stream detail tiles v1","sensitivity":"generalized"},"geometry":{"type":"LineString","coordinates":[[-104.96801,37.06636],[-104.96764,37.06634]]}},{"type":"Feature","properties":{"huc8":"11020010","huc8Name":"Purgatoire","historic":"yellowfin","current":"introduced","recovery":"recoveryWatch","lineageKey":"yellowfin","lineageLabel":"Yellowfin / Arkansas headwaters historical form","basin":"Purgatoire","note":"Arkansas basin historical Yellowfin context; review needed","state":"CO","confidence":"HUC8 drainage context / generalized","geometryStatus":"natural_stream_detail_tile_from_full_interpreted_layer","troutSource":"HUC8 lineage assignment v1 / review needed","sourceName":"Purgatoire River","name":"Purgatoire River","source_id":"131277568","length_km":0.64436731,"FType":460,"FCode":46006,"atlas_class":"streamriver","display_name":"Purgatoire River","stream_role":"natural_stream_detail_context","sourceLayer":"colorado_natural_stream_detail_tiles_v1","sourceLabel":"Colorado natural stream detail tiles v1","sensitivity":"generalized"},"geometry":{"type":"LineString","coordinates":[[-104.88464,37.14069],[-104.88417,37.13996],[-104.88261,37.13957],[-104.8797,37.13973],[-104.87906,37.14041]]}},{"type":"Feature","properties":{"huc8":"11020010","huc8Name":"Purgatoire","historic":"yellowfin","current":"introduced","recovery":"recoveryWatch","lineageKey":"yellowfin","lineageLabel":"Yellowfin / Arkansas headwaters historical form","basin":"Purgatoire","note":"Arkansas basin historical Yellowfin context; review needed","state":"CO","confidence":"HUC8 drainage context / generalized","geometryStatus":"natural_stream_detail_tile_from_full_interpreted_layer","troutSource":"HUC8 lineage assignment v1 / review needed","sourceName":"South Fork Purgatoire River","name":"South Fork Purgatoire River","source_id":"131278772","length_km":0.14257394,"FType":460,"FCode":46006,"atlas_class":"streamriver","display_name":"South Fork Purgatoire River","stream_role":"natural_stream_detail_context","sourceLayer":"colorado_natural_stream_detail_tiles_v1","sourceLabel":"Colorado natural stream detail tiles v1","sensitivity":"generalized"},"geometry":{"type":"LineString","coordinates":[[-104.87544,37.09798],[-104.87562,37.09911]]}},{"type":"Feature","properties":{"huc8":"11020010","huc8Name":"Purgatoire","historic":"yellowfin","current":"introduced","recovery":"recoveryWatch","lineageKey":"yellowfin","lineageLabel":"Yellowfin / Arkansas headwaters historical form","basin":"Purgatoire","note":"Arkansas basin historical Yellowfin context; review needed","state":"CO","confidence":"HUC8 drainage context / generalized","geometryStatus":"natural_stream_detail_tile_from_full_interpreted_layer","troutSource":"HUC8 lineage assignment v1 / review needed","sourceName":"South Fork Purgatoire River","name":"South Fork Purgatoire River","source_id":"131278766","length_km":1.21167509,"FType":460,"FCode":46006,"atlas_class":"streamriver","display_name":"South Fork Purgatoire River","stream_role":"natural_stream_detail_context","sourceLayer":"colorado_natural_stream_detail_tiles_v1","sourceLabel":"Colorado natural stream detail tiles v1","sensitivity":"generalized"},"geometry":{"type":"LineString","coordinates":[[-104.86922,37.10349],[-104.86833,37.10398],[-104.86901,37.10565],[-104.86689,37.1081],[-104.86742,37.10914],[-104.86568,37.11045],[-104.86574,37.11195]]}},{"type":"Feature","properties":{"huc8":"11020010","huc8Name":"Purgatoire","historic":"yellowfin","current":"introduced","recovery":"recoveryWatch","lineageKey":"yellowfin","lineageLabel":"Yellowfin / Arkansas headwaters historical form","basin":"Purgatoire","note":"Arkansas basin historical Yellowfin context; review needed","state":"CO","confidence":"HUC8 drainage context / generalized","geometryStatus":"natural_stream_detail_tile_from_full_interpreted_layer","troutSource":"HUC8 lineage assignment v1 / review needed","sourceName":"Purgatoire River","name":"Purgatoire River","source_id":"131277564","length_km":0.62644068,"FType":460,"FCode":46006,"atlas_class":"streamriver","display_name":"Purgatoire River","stream_role":"natural_stream_detail_context","sourceLayer":"colorado_natural_stream_detail_tiles_v1","sourceLabel":"Colorado natural stream detail tiles v1","sensitivity":"generalized"},"geometry":{"type":"LineString","coordinates":[[-104.89821,37.14534],[-104.89754,37.14473],[-104.89734,37.14273],[-104.89463,37.14192]]}},{"type":"Feature","properties":{"huc8":"11020010","huc8Name":"Purgatoire","historic":"yellowfin","current":"introduced","recovery":"recoveryWatch","lineageKey":"yellowfin","lineageLabel":"Yellowfin / Arkansas headwaters historical form","basin":"Purgatoire","note":"Arkansas basin historical Yellowfin context; review needed","state":"CO","confidence":"HUC8 drainage context / generalized","geometryStatus":"natural_stream_detail_tile_from_full_interpreted_layer","troutSource":"HUC8 lineage assignment v1 / review needed","sourceName":"Purgatoire River","name":"Purgatoire River","source_id":"131277555","length_km":0.54548131,"FType":460,"FCode":46006,"atlas_class":"streamriver","display_name":"Purgatoire River","stream_role":"natural_stream_detail_context","sourceLayer":"colorado_natural_stream_detail_tiles_v1","sourceLabel":"Colorado natural stream detail tiles v1","sensitivity":"generalized"},"geometry":{"type":"LineString","coordinates":[[-104.83634,37.13264],[-104.83477,37.1325],[-104.83324,37.1335],[-104.8312,37.13242]]}},{"type":"Feature","properties":{"huc8":"11020010","huc8Name":"Purgatoire","historic":"yellowfin","current":"introduced","recovery":"recoveryWatch","lineageKey":"yellowfin","lineageLabel":"Yellowfin / Arkansas headwaters historical form","basin":"Purgatoire","note":"Arkansas basin historical Yellowfin context; review needed","state":"CO","confidence":"HUC8 drainage context / generalized","geometryStatus":"natural_stream_detail_tile_from_full_interpreted_layer","troutSource":"HUC8 lineage assignment v1 / review needed","sourceName":"Purgatoire River","name":"Purgatoire River","source_id":"131277558","length_km":0.25524351,"FType":460,"FCode":46006,"atlas_class":"streamriver","display_name":"Purgatoire River","stream_role":"natural_stream_detail_context","sourceLayer":"colorado_natural_stream_detail_tiles_v1","sourceLabel":"Colorado natural stream detail tiles v1","sensitivity":"generalized"},"geometry":{"type":"LineString","coordinates":[[-104.84722,37.13195],[-104.8445,37.13145]]}},{"type":"Feature","properties":{"huc8":"11020010","huc8Name":"Purgatoire","historic":"yellowfin","current":"introduced","recovery":"recoveryWatch","lineageKey":"yellowfin","lineageLabel":"Yellowfin / Arkansas headwaters historical form","basin":"Purgatoire","note":"Arkansas basin historical Yellowfin context; review needed","state":"CO","confidence":"HUC8 drainage context / generalized","geometryStatus":"natural_stream_detail_tile_from_full_interpreted_layer","troutSource":"HUC8 lineage assignment v1 / review needed","sourceName":"Middle Fork Purgatoire River","name":"Middle Fork Purgatoire River","source_id":"131277676","length_km":0.85914326,"FType":460,"FCode":46006,"atlas_class":"streamriver","display_name":"Middle Fork Purgatoire River","stream_role":"natural_stream_detail_context","sourceLayer":"colorado_natural_stream_detail_tiles_v1","sourceLabel":"Colorado natural stream detail tiles v1","sensitivity":"generalized"},"geometry":{"type":"LineString","coordinates":[[-105.00414,37.1537],[-105.00358,37.15334],[-105.00218,37.15398],[-104.99868,37.15393],[-104.99839,37.15325],[-104.99681,37.15324]]}},{"type":"Feature","properties":{"huc8":"11020010","huc8Name":"Purgatoire","historic":"yellowfin","current":"introduced","recovery":"recoveryWatch","lineageKey":"yellowfin","lineageLabel":"Yellowfin / Arkansas headwaters historical form","basin":"Purgatoire","note":"Arkansas basin historical Yellowfin context; review needed","state":"CO","confidence":"HUC8 drainage context / generalized","geometryStatus":"natural_stream_detail_tile_from_full_interpreted_layer","troutSource":"HUC8 lineage assignment v1 / review needed","sourceName":"South Fork Purgatoire River","name":"South Fork Purgatoire River","source_id":"131278760","length_km":1.6301457,"FType":460,"FCode":46006,"atlas_class":"streamriver","display_name":"South Fork Purgatoire River","stream_role":"natural_stream_detail_context","sourceLayer":"colorado_natural_stream_detail_tiles_v1","sourceLabel":"Colorado natural stream detail tiles v1","sensitivity":"generalized"},"geometry":{"type":"LineString","coordinates":[[-104.85616,37.12374],[-104.85493,37.12376],[-104.8542,37.12517],[-104.85263,37.12562],[-104.85263,37.12727],[-104.84916,37.12738],[-104.84484,37.13039],[-104.8445,37.13145]]}},{"type":"Feature","properties":{"huc8":"11020010","huc8Name":"Purgatoire","historic":"yellowfin","current":"introduced","recovery":"recoveryWatch","lineageKey":"yellowfin","lineageLabel":"Yellowfin / Arkansas headwaters historical form","basin":"Purgatoire","note":"Arkansas basin historical Yellowfin context; review needed","state":"CO","confidence":"HUC8 drainage context / generalized","geometryStatus":"natural_stream_detail_tile_from_full_interpreted_layer","troutSource":"HUC8 lineage assignment v1 / review needed","sourceName":"South Fork Purgatoire River","name":"South Fork Purgatoire River","source_id":"131278778","length_km":0.64788246,"FType":460,"FCode":46006,"atlas_class":"streamriver","display_name":"South Fork Purgatoire River","stream_role":"natural_stream_detail_context","sourceLayer":"colorado_natural_stream_detail_tiles_v1","sourceLabel":"Colorado natural stream detail tiles v1","sensitivity":"generalized"},"geometry":{"type":"LineString","coordinates":[[-104.88222,37.09031],[-104.8827,37.09136],[-104.88211,37.09249],[-104.88135,37.09252],[-104.87966,37.09442]]}},{"type":"Feature","properties":{"huc8":"11020010","huc8Name":"Purgatoire","historic":"yellowfin","current":"introduced","recovery":"recoveryWatch","lineageKey":"yellowfin","lineageLabel":"Yellowfin / Arkansas headwaters historical form","basin":"Purgatoire","note":"Arkansas basin historical Yellowfin context; review needed","state":"CO","confidence":"HUC8 drainage context / generalized","geometryStatus":"natural_stream_detail_tile_from_full_interpreted_layer","troutSource":"HUC8 lineage assignment v1 / review needed","sourceName":"Purgatoire River","name":"Purgatoire River","source_id":"131277562","length_km":3.06707527,"FType":460,"FCode":46006,"atlas_class":"streamriver","display_name":"Purgatoire River","stream_role":"natural_stream_detail_context","sourceLayer":"colorado_natural_stream_detail_tiles_v1","sourceLabel":"Colorado natural stream detail tiles v1","sensitivity":"generalized"},"geometry":{"type":"LineString","coordinates":[[-104.87566,37.13743],[-104.87548,37.13664],[-104.87395,37.13637],[-104.87235,37.13714],[-104.87012,37.135],[-104.86837,37.13422],[-104.86727,37.13405],[-104.86564,37.13473],[-104.86392,37.13345],[-104.85949,37.13377],[-104.85845,37.13253],[-104.85628,37.13295],[-104.85386,37.13215],[-104.84722,37.13195]]}},{"type":"Feature","properties":{"huc8":"11020010","huc8Name":"Purgatoire","historic":"yellowfin","current":"introduced","recovery":"recoveryWatch","lineageKey":"yellowfin","lineageLabel":"Yellowfin / Arkansas headwaters historical form","basin":"Purgatoire","note":"Arkansas basin historical Yellowfin context; review needed","state":"CO","confidence":"HUC8 drainage context / generalized","geometryStatus":"natural_stream_detail_tile_from_full_interpreted_layer","troutSource":"HUC8 lineage assignment v1 / review needed","sourceName":"North Fork Purgatoire River","name":"North Fork Purgatoire River","source_id":"131277584","length_km":0.76053639,"FType":460,"FCode":46006,"atlas_class":"streamriver","display_name":"North Fork Purgatoire River","stream_role":"natural_stream_detail_context","sourceLayer":"colorado_natural_stream_detail_tiles_v1","sourceLabel":"Colorado natural stream detail tiles v1","sensitivity":"generalized"},"geometry":{"type":"LineString","coordinates":[[-104.97703,37.20091],[-104.97383,37.19908],[-104.97347,37.19752],[-104.97286,37.19741],[-104.97244,37.1965]]}},{"type":"Feature","properties":{"huc8":"11020010","huc8Name":"Purgatoire","historic":"yellowfin","current":"introduced","recovery":"recoveryWatch","lineageKey":"yellowfin","lineageLabel":"Yellowfin / Arkansas headwaters historical form","basin":"Purgatoire","note":"Arkansas basin historical Yellowfin context; review needed","state":"CO","confidence":"HUC8 drainage context / generalized","geometryStatus":"natural_stream_detail_tile_from_full_interpreted_layer","troutSource":"HUC8 lineage assignment v1 / review needed","sourceName":"Middle Fork Purgatoire River","name":"Middle Fork Purgatoire River","source_id":"131277680","length_km":0.70707954,"FType":460,"FCode":46006,"atlas_class":"streamriver","display_name":"Middle Fork Purgatoire River","stream_role":"natural_stream_detail_context","sourceLayer":"colorado_natural_stream_detail_tiles_v1","sourceLabel":"Colorado natural stream detail tiles v1","sensitivity":"generalized"},"geometry":{"type":"LineString","coordinates":[[-104.98412,37.15467],[-104.98068,37.15469],[-104.97661,37.15557]]}}]}