{"type":"FeatureCollection","features":[{"type":"Feature","properties":{"corridor_id":"co_corridor_colorado_river","water_id":"co_corridor_colorado_river","display_name":"Colorado River","normalized_name":"colorado river","state":"CO","atlas_layer":"named_water_corridor","object_role":"named_water_corridor","atlas_class":"named_water_corridor","member_occurrence_ids":["co_colorado_river_14010001_coloradoRiver_001","co_colorado_river_14010001_coloradoRiver_002"],"occurrence_count":2,"huc8s":["14010001"],"huc8Names":["Colorado Headwaters"],"lineageKeys":["coloradoRiver"],"lineageKey":"coloradoRiver","lineage":"coloradoRiver","historic":"coloradoRiver","current":"coloradoRiver","recovery":"coloradoRiver","minZoom":8,"maxZoom":18,"bounds":{"west":-109.051584385,"south":39.046907473,"east":-105.816921213,"north":40.474506337},"center":{"lng":-107.434253,"lat":39.760707},"source_tile_count":0,"source_feature_count":1263,"unique_line_part_count":1263,"geometry_status_public":"Aggregate named-water corridor","geometry_source_public":"Source-backed NHD named mainstem from flowlines_colorado_streamriver and flowlines_colorado_connectors; GNIS_ID 00045730; FType 460/558; exact endpoint-connected component touched by approved occurrence anchors; Colorado River anchor tolerance 1.1 meters","vertex_count":11117,"source_length_km":491.584,"source_component_count":1,"endpoint_node_count":1264,"degree_one_endpoint_count":2,"maximum_endpoint_degree":2,"loop_count":0,"branch_node_count":0,"anchor_matched_feature_count":35,"ftype_460_count":71,"ftype_558_count":1192,"anchor_match_counts":{"co_colorado_river_14010001_coloradoRiver_001":5,"co_colorado_river_14010001_coloradoRiver_002":30},"anchor_minimum_distances_m":{"co_colorado_river_14010001_coloradoRiver_001":0.41328,"co_colorado_river_14010001_coloradoRiver_002":0.021526},"maximum_anchor_tolerance_m":1.1},"geometry":{"type":"MultiLineString","coordinates":[[[-106.25,40.0617145747],[-106.250023412,40.061714671],[-106.250583279,40.061763204]],[[-106.250583279,40.061763204],[-106.250875279,40.061880004],[-106.251403012,40.062089004],[-106.251729812,40.062391404],[-106.252359479,40.062830004],[-106.252966279,40.063156204],[-106.253361812,40.063393471],[-106.253574479,40.063562871],[-106.253898479,40.063709671],[-106.254367079,40.063742204],[-106.254799279,40.063694604],[-106.255264012,40.063517804],[-106.255652012,40.063347271],[-106.255927812,40.063145671],[-106.256184679,40.063057004]],[[-106.256184679,40.063057004],[-106.256466012,40.062978804],[-106.256990079,40.062989204],[-106.257452612,40.063064804],[-106.257941612,40.063070204],[-106.258443012,40.062989604],[-106.259056679,40.062929204],[-106.259831079,40.062883204],[-106.260521079,40.062607404],[-106.260796412,40.062384271],[-106.261001412,40.062135204],[-106.261156679,40.061849071],[-106.261298812,40.061600604],[-106.261435212,40.061422004],[-106.261635079,40.061275004],[-106.261934812,40.061051604],[-106.262065079,40.060921471],[-106.262139279,40.060775671]],[[-106.262139279,40.060775671],[-106.262411279,40.060375604],[-106.262740412,40.060044604],[-106.263064212,40.059799471],[-106.263402212,40.059570404],[-106.263720812,40.059427404],[-106.264115079,40.059213804]],[[-106.264115079,40.059213804],[-106.264406412,40.059103271],[-106.264586879,40.059042271],[-106.264789012,40.059018604]],[[-106.264789012,40.059018604],[-106.265127879,40.059025604],[-106.265618612,40.059122271],[-106.266340079,40.059232471],[-106.266718012,40.059271204],[-106.267220679,40.059265671],[-106.267555879,40.059262071],[-106.268049812,40.059149404],[-106.268507612,40.058978004],[-106.268978812,40.058774204],[-106.269741412,40.058465271],[-106.270211879,40.058224004],[-106.270564279,40.058021604],[-106.270805279,40.057836404],[-106.271045612,40.057613804],[-106.271323079,40.057133071],[-106.271506479,40.056857271],[-106.271698812,40.056683404],[-106.271913612,40.056584471],[-106.272562812,40.056566604],[-106.272961279,40.056589071],[-106.273698212,40.056779604],[-106.274506412,40.057044404],[-106.275301612,40.057180604],[-106.275875079,40.057222604],[-106.276322479,40.057239071],[-106.276594879,40.057241471],[-106.276998679,40.057172604]],[[-106.276998679,40.057172604],[-106.277799879,40.056874004],[-106.278152812,40.056698271],[-106.278583679,40.056580871],[-106.278833279,40.056486871],[-106.279115679,40.056274471],[-106.279260612,40.056176271],[-106.279490479,40.056146871],[-106.280656679,40.055951471],[-106.281596612,40.055790804],[-106.282173612,40.055645004],[-106.282891279,40.055556471],[-106.283588812,40.055505871],[-106.283805212,40.055498071]],[[-106.283805212,40.055498071],[-106.284571079,40.055559271],[-106.284934079,40.055550004],[-106.285156412,40.055488471],[-106.285355479,40.055298404]],[[-106.285355479,40.055298404],[-106.285751412,40.054810871],[-106.286198612,40.054451671],[-106.286605479,40.054178871],[-106.286937212,40.053992671],[-106.287263479,40.053887071],[-106.288134412,40.053770071],[-106.288990412,40.053798204],[-106.289468079,40.053948471],[-106.289800612,40.054170204],[-106.290156479,40.054520471],[-106.290571479,40.055047204],[-106.290834412,40.055285804],[-106.291032279,40.055412404],[-106.291320279,40.055495071],[-106.291704679,40.055512204],[-106.292336879,40.055516004],[-106.292837279,40.055387004],[-106.293206879,40.055356004],[-106.293551012,40.055454071],[-106.294141612,40.055662204],[-106.294590612,40.055769871],[-106.295038279,40.055802471],[-106.295997279,40.055732671],[-106.296574612,40.055608204],[-106.297317279,40.055358271],[-106.298211679,40.055020871],[-106.299455012,40.054470271],[-106.300103879,40.054436204],[-106.300838079,40.054481604],[-106.301406012,40.054598671],[-106.302885679,40.054727004],[-106.303439212,40.054822671],[-106.303756279,40.054969471],[-106.304145412,40.055233471],[-106.305155279,40.055629871],[-106.305576612,40.055748604]],[[-106.305576612,40.055748604],[-106.306680612,40.056138671],[-106.307206479,40.056245604],[-106.307534079,40.056209604],[-106.307999079,40.056054071],[-106.308532212,40.055806471],[-106.308912879,40.055630471],[-106.309824879,40.054933204],[-106.310256812,40.054504404],[-106.310536012,40.054130871],[-106.310711612,40.053817604],[-106.310742479,40.053608004],[-106.310607679,40.053314271],[-106.310293412,40.052952804],[-106.309980212,40.052645071],[-106.309474412,40.052307271],[-106.309392812,40.052056004],[-106.309471612,40.051797471],[-106.309688212,40.051435404],[-106.309991279,40.051217271],[-106.310511679,40.051039671],[-106.311020279,40.050974871],[-106.311813812,40.050837071],[-106.312381279,40.050567671],[-106.313323012,40.049961271],[-106.313780679,40.049800405],[-106.314316212,40.049681671],[-106.314767479,40.049537005],[-106.315192012,40.049462405]],[[-106.315192012,40.049462405],[-106.315610279,40.049425405],[-106.315932012,40.049448605],[-106.316898212,40.049759671],[-106.317412879,40.050011471],[-106.317648479,40.050277205],[-106.317808079,40.050586605],[-106.317939212,40.051052071],[-106.318070079,40.051313604],[-106.318248679,40.051526204],[-106.318475412,40.051695404]],[[-106.318475412,40.051695404],[-106.318791479,40.051788404],[-106.319050679,40.051828404],[-106.319364812,40.051819471],[-106.319740679,40.051750804],[-106.320114679,40.051590804]],[[-106.320114679,40.051590804],[-106.320299879,40.051417004],[-106.320414812,40.051217071],[-106.320466279,40.050991071],[-106.320515012,40.050620205],[-106.320628279,40.050339805],[-106.320779612,40.049855071],[-106.320857412,40.049542871],[-106.320816612,40.049060271],[-106.320719012,40.048707205],[-106.320508212,40.048274871],[-106.320221212,40.047880871],[-106.320139212,40.047608205],[-106.319805212,40.046769271],[-106.319664612,40.046363071],[-106.319638879,40.046116405],[-106.319669879,40.045912205],[-106.319769679,40.045653405],[-106.320024612,40.045290871],[-106.320244612,40.045116605],[-106.320758079,40.044939071],[-106.321174012,40.044784005],[-106.321463079,40.044566005],[-106.321632079,40.044279671],[-106.321897879,40.043938471],[-106.322361412,40.043530671],[-106.322892412,40.043546071],[-106.323698079,40.043681871],[-106.324717879,40.044056605],[-106.325577212,40.044438605],[-106.326112879,40.044695405],[-106.327107612,40.045032871],[-106.328055812,40.045317271],[-106.328652479,40.045476805],[-106.329054279,40.045665405],[-106.329386212,40.045860205],[-106.329693212,40.046205471],[-106.329779479,40.046510471],[-106.329768012,40.046999005],[-106.329601612,40.047419471],[-106.329288812,40.047852471],[-106.328800479,40.048244471],[-106.327944212,40.048742671],[-106.327333012,40.049093205],[-106.326996612,40.049392271],[-106.326860612,40.049581671],[-106.326808212,40.049759471],[-106.326777612,40.049985205],[-106.326787612,40.050135405],[-106.326882012,40.050327471]],[[-106.326882012,40.050327471],[-106.327226412,40.050618671],[-106.327931879,40.050980871],[-106.328461079,40.051264671],[-106.329326279,40.051582204],[-106.330027679,40.051735204],[-106.330580812,40.051809271],[-106.331104879,40.051824804],[-106.331782012,40.051623804],[-106.332641479,40.051286471],[-106.333724612,40.050608471],[-106.334164212,40.050227805],[-106.334395479,40.049908405],[-106.334644079,40.049229271],[-106.334711412,40.048740205],[-106.334742079,40.048170871],[-106.334729479,40.047881205],[-106.334464479,40.046649871],[-106.334479612,40.045989471],[-106.334802879,40.044837271],[-106.335090879,40.044565605],[-106.335408412,40.044379471],[-106.335707212,40.044300871],[-106.336154479,40.044322471],[-106.336591012,40.044500005],[-106.337206479,40.044906071],[-106.337616212,40.045148271],[-106.337933279,40.045295005],[-106.339314012,40.046084071],[-106.339921879,40.046463471],[-106.340503612,40.046923671],[-106.340948612,40.047181471],[-106.342326212,40.048163871],[-106.342754879,40.048663271],[-106.342980812,40.049138405],[-106.343116279,40.049458871],[-106.343220812,40.049801071],[-106.343370279,40.049949805],[-106.343510879,40.049991005],[-106.343803679,40.049966205],[-106.344385279,40.049712605],[-106.345237812,40.049380605],[-106.345458212,40.049222405],[-106.345628079,40.048984205],[-106.345906079,40.048562405],[-106.346331479,40.048176405],[-106.346469812,40.047927871],[-106.346860479,40.047553005],[-106.347426812,40.047229871],[-106.348098479,40.046942871],[-106.348959212,40.046680671],[-106.349784679,40.046397271],[-106.352100479,40.045731671],[-106.353217879,40.045380471],[-106.353757079,40.045277605],[-106.354342879,40.045238471],[-106.354909612,40.045296271],[-106.356001012,40.045390871],[-106.356595212,40.045426871],[-106.357111012,40.045377871],[-106.357681412,40.045263871],[-106.358302812,40.045256605],[-106.358933612,40.045378005],[-106.359722012,40.045690805],[-106.360658212,40.046066271],[-106.361567279,40.046479605],[-106.362357212,40.046872805],[-106.362711879,40.047147671],[-106.363015412,40.047305205],[-106.363724412,40.047318405],[-106.364847412,40.047251405],[-106.365625479,40.047049005],[-106.366769879,40.046654471],[-106.367523812,40.046114271],[-106.367721279,40.045859671],[-106.367908279,40.045433471],[-106.368091412,40.045162871],[-106.368310812,40.044956471],[-106.368934212,40.044707471],[-106.369784279,40.044434471],[-106.370141679,40.044156605],[-106.370351212,40.043805271],[-106.370476612,40.043438805],[-106.370562812,40.042863471],[-106.370607879,40.042675071],[-106.370723679,40.042351671],[-106.370902012,40.042193871]],[[-106.370902012,40.042193871],[-106.371514279,40.042079405],[-106.372280412,40.041979071],[-106.372831012,40.041929605],[-106.373487412,40.041927205],[-106.374096479,40.042005871],[-106.374627079,40.042182005],[-106.374932479,40.042430671],[-106.375007279,40.042676605],[-106.375048479,40.042992805],[-106.374972612,40.043385605],[-106.374810279,40.043650471],[-106.374495679,40.043976205],[-106.373918412,40.044439271],[-106.373374879,40.044848205],[-106.373087812,40.045157605],[-106.372959012,40.045352271],[-106.372866212,40.045600271],[-106.372878479,40.045863205],[-106.373023812,40.046145871],[-106.373044612,40.046483671],[-106.373073479,40.046880605],[-106.373157812,40.047249871],[-106.373293879,40.047425405],[-106.373795079,40.047865005],[-106.374319679,40.048250471],[-106.374757212,40.048481471],[-106.375201012,40.048669405],[-106.375585279,40.048797671]],[[-106.375585279,40.048797671],[-106.376946679,40.048979471],[-106.378039079,40.049132205],[-106.379283879,40.049518471],[-106.380406212,40.050028405],[-106.380964412,40.050135205],[-106.381430812,40.050190605],[-106.381896012,40.050185071],[-106.382313679,40.050075471],[-106.382882479,40.049589071],[-106.383765812,40.048375005],[-106.384145079,40.047489605],[-106.384448879,40.046238871],[-106.385267412,40.044912205],[-106.385787012,40.044234471],[-106.386198679,40.043837071],[-106.386826612,40.043463405],[-106.387742279,40.043295471],[-106.388228412,40.043202405],[-106.388989479,40.043245471],[-106.389799412,40.043453871],[-106.390995079,40.043945405],[-106.392508079,40.044694671],[-106.392887679,40.044943005],[-106.393302679,40.045260805],[-106.393462879,40.045328605],[-106.393724079,40.045342871],[-106.394074079,40.045251471],[-106.394453879,40.044959071],[-106.394696612,40.044616005],[-106.394859079,40.044239071],[-106.394987012,40.044115405],[-106.395280612,40.044042071],[-106.395653479,40.043967871],[-106.395968012,40.043807071],[-106.396372012,40.043592871],[-106.396639679,40.043362871],[-106.397021279,40.043157805],[-106.397641079,40.042949805],[-106.397899879,40.042842005]],[[-106.397899879,40.042842005],[-106.398121212,40.042568871]],[[-106.398121212,40.042568871],[-106.398526612,40.042415805],[-106.399251079,40.042337271],[-106.400067412,40.042301271],[-106.400772012,40.042353805],[-106.402280812,40.042614605],[-106.403142879,40.043153605],[-106.403655212,40.043792805],[-106.404324812,40.044901005],[-106.404575612,40.045517205],[-106.404751212,40.046605071],[-106.405025012,40.047779205],[-106.405284879,40.048281805],[-106.405474612,40.048680671],[-106.405925212,40.049346671],[-106.406483412,40.050002805],[-106.407159812,40.050334671],[-106.408196012,40.050505205],[-106.409149412,40.050511071],[-106.409919679,40.050449405],[-106.410346812,40.050243671],[-106.410769879,40.049854671],[-106.410987812,40.049416005],[-106.411118479,40.048873805],[-106.410972879,40.048422005],[-106.410555479,40.047982271],[-106.409736479,40.047338205],[-106.408724612,40.046696405],[-106.407985079,40.046051405],[-106.407370479,40.045404805],[-106.406963879,40.044947405],[-106.406759679,40.044400471],[-106.406801879,40.043964005],[-106.407189412,40.043497005],[-106.407370012,40.042901805],[-106.407720879,40.042304471],[-106.408067479,40.041506605],[-106.408292812,40.040876005],[-106.408948212,40.039917471],[-106.409316412,40.039616405],[-106.409689212,40.039533405],[-106.410006679,40.039529605],[-106.410608879,40.039565805],[-106.411360212,40.039687471],[-106.411895479,40.039785671],[-106.412537612,40.040109205],[-106.412834879,40.040219005],[-106.413269012,40.040362005]],[[-106.413269012,40.040362005],[-106.414584279,40.040869205],[-106.415765479,40.041474005],[-106.417328879,40.042457805],[-106.418222212,40.043127005],[-106.418977412,40.043431805],[-106.419617012,40.043633271],[-106.420733279,40.043837605],[-106.421919079,40.044110871],[-106.423069679,40.044332205],[-106.425079012,40.044377405],[-106.426687012,40.044218005],[-106.427544279,40.043971871],[-106.428800812,40.043825605],[-106.429544079,40.043563605],[-106.430368612,40.043379005],[-106.431000079,40.043188071],[-106.431383412,40.043070005],[-106.431877479,40.042828405]],[[-106.431877479,40.042828405],[-106.432449879,40.041984071],[-106.433144812,40.041574405],[-106.433838812,40.040850605],[-106.434642812,40.040230205],[-106.435043679,40.039867671],[-106.435287812,40.039611671],[-106.435474079,40.039295471]],[[-106.435474079,40.039295471],[-106.435942679,40.038644271],[-106.436270479,40.038047271],[-106.436479412,40.037730671],[-106.436679679,40.037536271]],[[-106.436679679,40.037536271],[-106.437150279,40.037260205]],[[-106.437150279,40.037260205],[-106.438165479,40.036977205],[-106.438933612,40.036810805],[-106.439555812,40.036724471],[-106.439871079,40.036616005],[-106.440071879,40.036447805],[-106.440269412,40.036131405],[-106.440477012,40.035753671],[-106.440654612,40.035568405],[-106.440933212,40.035329471]],[[-106.440933212,40.035329471],[-106.441173612,40.035160805],[-106.441486812,40.034947605]],[[-106.441486812,40.034947605],[-106.441958812,40.034732405],[-106.442128012,40.034686671],[-106.442377212,40.034666205],[-106.442752012,40.034687605],[-106.443070212,40.034709871],[-106.443295612,40.034637271],[-106.443530412,40.034477405],[-106.443819612,40.034203405],[-106.444164612,40.033885071],[-106.444510879,40.033627871],[-106.444802279,40.033458605],[-106.445060412,40.033324605]],[[-106.445060412,40.033324605],[-106.445542679,40.033065671],[-106.445855879,40.032852471],[-106.446301879,40.032480605],[-106.446523212,40.032216205],[-106.446730612,40.032100271]],[[-106.446730612,40.032100271],[-106.447215412,40.031954671],[-106.447588412,40.031888871],[-106.447983679,40.031805471]],[[-106.447983679,40.031805471],[-106.448343079,40.031635405],[-106.448623079,40.031466205],[-106.448969012,40.031191471],[-106.449281612,40.030952071],[-106.449663012,40.030746805],[-106.450347612,40.030398071],[-106.450919412,40.030077005],[-106.451845812,40.029358871],[-106.452505879,40.028923405],[-106.453268479,40.028242205],[-106.453770612,40.027843471],[-106.454136279,40.027437805],[-106.454313279,40.027226205],[-106.454455479,40.026980271],[-106.454571612,40.026568871],[-106.454754012,40.026078271],[-106.454873879,40.025850005],[-106.455099012,40.025498405],[-106.455309479,40.025260205],[-106.455599479,40.025029805],[-106.456013412,40.024754271],[-106.456382479,40.024505471],[-106.456963479,40.024088271],[-106.457603212,40.023766271],[-106.458108079,40.023507071],[-106.458614679,40.023326271],[-106.459366212,40.022924405],[-106.459950412,40.022664071],[-106.460523612,40.022412671],[-106.461157812,40.022099405],[-106.461662079,40.021814005],[-106.461965212,40.021661871],[-106.462098679,40.021538205]],[[-106.462098679,40.021538205],[-106.462567679,40.021192071],[-106.463047679,40.020828471],[-106.463360212,40.020589071],[-106.463560012,40.020386005],[-106.463837279,40.020094605],[-106.464202812,40.019680205],[-106.464458212,40.019424071],[-106.464961012,40.019068871],[-106.465334612,40.018767605],[-106.465717279,40.018631871],[-106.466100479,40.018513671]],[[-106.466100479,40.018513671],[-106.466731212,40.018305205],[-106.467136612,40.018169271],[-106.467442279,40.018139205],[-106.467963212,40.018097671],[-106.468949412,40.018076605],[-106.469515879,40.018043205],[-106.469912612,40.018029405]],[[-106.469912612,40.018029405],[-106.470521679,40.017873471],[-106.471684812,40.017370271],[-106.472416079,40.017090605],[-106.472866079,40.016919205],[-106.473475279,40.016763271],[-106.473792612,40.016750471],[-106.474302679,40.016735271],[-106.474984479,40.016796405],[-106.475393079,40.016808605],[-106.475810212,40.016690005],[-106.476158679,40.016546005],[-106.476769412,40.016198071],[-106.477081812,40.015958605],[-106.477282812,40.015807805],[-106.477551878,40.015664871],[-106.477832012,40.015504271],[-106.478245812,40.015237405],[-106.478782212,40.014864271],[-106.479241278,40.014588005],[-106.479675412,40.014207471],[-106.480119478,40.013765805],[-106.480518478,40.013333405],[-106.480844078,40.012919271],[-106.481140878,40.012479471],[-106.481439812,40.012144271],[-106.481639012,40.011915005],[-106.482209412,40.011541405],[-106.482724812,40.011255805],[-106.483094878,40.011059071],[-106.483353878,40.010977405],[-106.483930478,40.010891471],[-106.484722278,40.010794071],[-106.485205212,40.010569871],[-106.485753878,40.010248871],[-106.486193412,40.009859605],[-106.486499812,40.009341071],[-106.486786612,40.008971071],[-106.487253678,40.008546605],[-106.487741078,40.008017071],[-106.488003478,40.007560205],[-106.488106078,40.007061671],[-106.488118278,40.006320271],[-106.488174678,40.005787605],[-106.488291478,40.005419805],[-106.488339812,40.005035471]],[[-106.488339812,40.005035471],[-106.488561678,40.003759405],[-106.488705012,40.003312671],[-106.488825678,40.003128005],[-106.488968812,40.002925671]],[[-106.488968812,40.002925671],[-106.489203878,40.002791805],[-106.489575878,40.002682405],[-106.490197278,40.002578405],[-106.490500412,40.002435005],[-106.490610478,40.002285271],[-106.490954678,40.001949605],[-106.491276878,40.001640205],[-106.491622878,40.001391471],[-106.492331078,40.001103271],[-106.492916412,40.000903871],[-106.493797478,40.000744271],[-106.494238412,40.000686271],[-106.495352078,40.000532405],[-106.495779212,40.000361205],[-106.496115478,40.000182405],[-106.496370634,40.0]]]}}]}
