{"type":"FeatureCollection","features":[{"type":"Feature","properties":{"corridor_id":"co_corridor_colorado_river","water_id":"co_corridor_colorado_river","display_name":"Colorado River","normalized_name":"colorado river","state":"CO","atlas_layer":"named_water_corridor","object_role":"named_water_corridor","atlas_class":"named_water_corridor","member_occurrence_ids":["co_colorado_river_14010001_coloradoRiver_001","co_colorado_river_14010001_coloradoRiver_002"],"occurrence_count":2,"huc8s":["14010001"],"huc8Names":["Colorado Headwaters"],"lineageKeys":["coloradoRiver"],"lineageKey":"coloradoRiver","lineage":"coloradoRiver","historic":"coloradoRiver","current":"coloradoRiver","recovery":"coloradoRiver","minZoom":8,"maxZoom":18,"bounds":{"west":-109.051584385,"south":39.046907473,"east":-105.816921213,"north":40.474506337},"center":{"lng":-107.434253,"lat":39.760707},"source_tile_count":0,"source_feature_count":1263,"unique_line_part_count":1263,"geometry_status_public":"Aggregate named-water corridor","geometry_source_public":"Source-backed NHD named mainstem from flowlines_colorado_streamriver and flowlines_colorado_connectors; GNIS_ID 00045730; FType 460/558; exact endpoint-connected component touched by approved occurrence anchors; Colorado River anchor tolerance 1.1 meters","vertex_count":11117,"source_length_km":491.584,"source_component_count":1,"endpoint_node_count":1264,"degree_one_endpoint_count":2,"maximum_endpoint_degree":2,"loop_count":0,"branch_node_count":0,"anchor_matched_feature_count":35,"ftype_460_count":71,"ftype_558_count":1192,"anchor_match_counts":{"co_colorado_river_14010001_coloradoRiver_001":5,"co_colorado_river_14010001_coloradoRiver_002":30},"anchor_minimum_distances_m":{"co_colorado_river_14010001_coloradoRiver_001":0.41328,"co_colorado_river_14010001_coloradoRiver_002":0.021526},"maximum_anchor_tolerance_m":1.1},"geometry":{"type":"MultiLineString","coordinates":[[[-106.75,39.9046296131],[-106.750106611,39.904625871],[-106.750596478,39.904551005]],[[-106.750596478,39.904551005],[-106.752419011,39.904056671],[-106.753238611,39.903973205],[-106.754126678,39.903953405],[-106.754650078,39.904094005],[-106.755499078,39.904513671]],[[-106.755499078,39.904513671],[-106.756127811,39.904833471]],[[-106.756127811,39.904833471],[-106.757271411,39.905132605],[-106.757828078,39.905266205],[-106.758083478,39.905417271],[-106.758336478,39.905800805],[-106.758530478,39.906178805],[-106.758780078,39.906426871],[-106.759126811,39.906544271],[-106.759987678,39.906440805],[-106.760802278,39.906163671],[-106.761628611,39.905531271],[-106.762003011,39.905093005],[-106.762304011,39.904733271],[-106.762649878,39.904489205],[-106.763271478,39.904208605]],[[-106.763271478,39.904208605],[-106.763777878,39.904013605]],[[-106.763777878,39.904013605],[-106.765248478,39.903661871],[-106.765591478,39.903630805],[-106.765935678,39.903651405]],[[-106.765935678,39.903651405],[-106.766919878,39.903778471],[-106.767875611,39.904106071],[-106.768563878,39.904463605],[-106.768738611,39.904570805]],[[-106.768738611,39.904570805],[-106.769934878,39.905450005],[-106.770540078,39.905834671],[-106.771329478,39.906210005],[-106.771782011,39.906525871],[-106.772115811,39.906792005]],[[-106.772115811,39.906792005],[-106.772359878,39.906994871],[-106.772500678,39.907251005],[-106.772552678,39.907644071],[-106.772636478,39.907965605],[-106.772734878,39.908203071],[-106.772838811,39.908330605],[-106.773002611,39.908508871]],[[-106.773002611,39.908508871],[-106.774101811,39.909350805],[-106.774273478,39.909509605]],[[-106.774273478,39.909509605],[-106.774880478,39.909958671],[-106.775127478,39.910110005],[-106.775518211,39.910304071],[-106.776263878,39.910609071],[-106.776476478,39.910722005],[-106.776638611,39.910835805]],[[-106.776638611,39.910835805],[-106.777989078,39.911667405],[-106.778503278,39.912098605],[-106.778869678,39.912648271],[-106.779206878,39.913043405],[-106.779686411,39.913423405],[-106.780334278,39.913833205],[-106.781228478,39.914206805],[-106.781884278,39.914274205],[-106.782970678,39.914134871],[-106.783818211,39.913837671],[-106.784499278,39.913588271],[-106.784870011,39.913330805],[-106.785335011,39.912348671],[-106.785364278,39.911864005],[-106.785305078,39.911522605],[-106.785110611,39.911138205]],[[-106.785110611,39.911138205],[-106.784648678,39.910460871],[-106.784247011,39.909518005],[-106.783886878,39.908729271],[-106.783904678,39.908445005],[-106.784103811,39.908041471],[-106.784408211,39.907817405],[-106.785215011,39.906920271]],[[-106.785215011,39.906920271],[-106.785712078,39.906531671],[-106.786020011,39.906120205],[-106.786129678,39.905828005],[-106.786269011,39.905057405]],[[-106.786269011,39.905057405],[-106.786922411,39.903581605],[-106.787337678,39.903110405],[-106.787680611,39.902756405],[-106.788359478,39.902429605],[-106.788864411,39.902176405],[-106.790306478,39.901702205],[-106.791546411,39.901347271],[-106.792257211,39.900961805],[-106.792941411,39.900512205],[-106.793598411,39.900153271],[-106.793814478,39.900078871],[-106.794364011,39.899934805],[-106.794770411,39.899767071]],[[-106.794770411,39.899767071],[-106.796009211,39.899050605],[-106.796694078,39.898633205],[-106.797073078,39.898220471],[-106.797385411,39.897660405],[-106.797637411,39.897359471],[-106.798256678,39.897001205]],[[-106.798256678,39.897001205],[-106.798931011,39.896661471],[-106.799595478,39.896425071],[-106.800163411,39.896345271],[-106.800933678,39.896307471],[-106.801261011,39.896321805]],[[-106.801261011,39.896321805],[-106.801706011,39.896353605],[-106.802458078,39.896258005],[-106.803238011,39.896271671],[-106.804166078,39.896502671],[-106.805225211,39.896931671],[-106.805893278,39.897315071],[-106.806084078,39.897557471],[-106.806183611,39.897833605],[-106.806373478,39.898043671]],[[-106.806373478,39.898043671],[-106.806519478,39.898177005],[-106.806648211,39.898291205]],[[-106.806648211,39.898291205],[-106.807047878,39.898504605],[-106.807209211,39.898586005],[-106.807411411,39.898621605],[-106.807896411,39.898575271],[-106.808163611,39.898532405],[-106.808670078,39.898350205]],[[-106.808670078,39.898350205],[-106.808982478,39.898274205],[-106.809288011,39.898095071]],[[-106.809288011,39.898095071],[-106.809570478,39.897683871],[-106.809618011,39.897579871]],[[-106.809585411,39.896973405],[-106.809524411,39.896567605],[-106.809831278,39.895646005],[-106.810255478,39.895200271],[-106.810776678,39.894940271],[-106.811324811,39.894744471],[-106.811666078,39.894655205],[-106.812150411,39.894583071]],[[-106.809618011,39.897579871],[-106.809585411,39.896973405]],[[-106.812150411,39.894583071],[-106.814127478,39.894539271],[-106.814799478,39.894593271],[-106.815401678,39.894700071]],[[-106.815401678,39.894700071],[-106.816472811,39.894631671],[-106.817180878,39.894465671],[-106.817872211,39.894293405],[-106.818587678,39.894094871]],[[-106.818587678,39.894094871],[-106.819836211,39.893597471],[-106.820511611,39.893147805],[-106.821093011,39.892628605],[-106.821703078,39.892244605],[-106.822151411,39.892082605],[-106.822476411,39.892006405],[-106.822919878,39.891980005],[-106.823544611,39.891989605],[-106.824331411,39.891945005]],[[-106.824331411,39.891945005],[-106.824942478,39.891916005],[-106.825660878,39.891820671],[-106.827105411,39.891610671],[-106.829178011,39.891222871],[-106.829995878,39.891087271]],[[-106.829995878,39.891087271],[-106.830652078,39.891018805],[-106.831029811,39.891038671],[-106.831704078,39.891183005],[-106.831966011,39.891256405],[-106.832159078,39.891272671],[-106.832335678,39.891289271]],[[-106.832335678,39.891289271],[-106.832778878,39.891250005],[-106.833610678,39.891010805],[-106.834485811,39.890822605],[-106.834986611,39.890743671],[-106.835669878,39.890752271],[-106.836830878,39.890908205],[-106.837388478,39.891073671],[-106.837806011,39.891325405],[-106.838276411,39.891679471],[-106.838699278,39.892137605],[-106.839053478,39.892842271],[-106.839329478,39.893134871],[-106.840250478,39.893875671],[-106.841109611,39.894656271],[-106.841477878,39.894947405],[-106.842020811,39.895190671],[-106.843275611,39.895564605],[-106.843741478,39.895744405],[-106.843987811,39.895863205]],[[-106.843987811,39.895863205],[-106.844514211,39.896113071],[-106.844956211,39.896338605],[-106.845252411,39.896443605],[-106.845831678,39.896479605],[-106.846266411,39.896433871],[-106.846851811,39.896379405]],[[-106.846851811,39.896379405],[-106.847883611,39.896253205],[-106.848283011,39.896143471],[-106.848548811,39.896048805]],[[-106.848548811,39.896048805],[-106.849044211,39.895769671],[-106.850362811,39.894928671],[-106.851463211,39.894388071],[-106.852171811,39.894092805],[-106.852771411,39.893941071],[-106.853251278,39.893713871],[-106.853539078,39.893502671],[-106.853726411,39.893299471],[-106.853829611,39.893084805],[-106.853824478,39.892897605],[-106.853731478,39.892556871]],[[-106.853731478,39.892556871],[-106.853738878,39.892363071],[-106.853791211,39.892129805],[-106.854001078,39.891829405],[-106.854319278,39.891198005],[-106.854552278,39.890819805],[-106.854674611,39.890385205],[-106.854988411,39.889896005]],[[-106.854988411,39.889896005],[-106.855853078,39.888552005],[-106.856109211,39.888102405],[-106.856406411,39.887309871]],[[-106.856406411,39.887309871],[-106.856825478,39.886224871],[-106.856907611,39.885855471],[-106.856986878,39.885066471]],[[-106.856986878,39.885066471],[-106.857017078,39.883232271]],[[-106.857017078,39.883232271],[-106.856999278,39.882574005],[-106.856887811,39.880148005],[-106.856931078,39.879114271],[-106.857038611,39.878750871],[-106.857147878,39.878452205],[-106.857217211,39.878225071]],[[-106.857217211,39.878225071],[-106.857515878,39.877652071],[-106.857686278,39.877442805]],[[-106.857686278,39.877442805],[-106.858299678,39.877194005]],[[-106.858299678,39.877194005],[-106.858639078,39.877040071],[-106.858931878,39.877016005],[-106.859150011,39.877025405],[-106.859698278,39.877158671]],[[-106.859698278,39.877158671],[-106.860359678,39.877445005],[-106.860632611,39.877621471],[-106.860778878,39.877761205],[-106.860877678,39.878004871]],[[-106.860877678,39.878004871],[-106.860974878,39.878500605],[-106.861154811,39.878956071],[-106.861465611,39.879293405],[-106.861939611,39.879621471],[-106.862095478,39.879806205]],[[-106.862095478,39.879806205],[-106.863125478,39.880706471],[-106.863499078,39.880881271],[-106.864100411,39.881117071],[-106.864769078,39.881358071],[-106.865354611,39.881626271],[-106.865947678,39.881862205],[-106.866762678,39.882094405],[-106.867818011,39.882374405],[-106.868451678,39.882564405],[-106.869259611,39.882686871],[-106.869964478,39.882720805],[-106.870689211,39.882709071],[-106.870974278,39.882717405]],[[-106.870974278,39.882717405],[-106.872326011,39.882805271],[-106.873526478,39.882876271],[-106.875601011,39.882928405]],[[-106.875601011,39.882928405],[-106.877323278,39.882949271],[-106.878054811,39.882904271],[-106.878931811,39.882657471]],[[-106.878931811,39.882657471],[-106.880126011,39.882189871],[-106.880780611,39.881697671],[-106.881044811,39.881112271],[-106.881052678,39.880614005],[-106.880772878,39.879838205],[-106.880391211,39.879279871],[-106.880100278,39.878886005],[-106.879750678,39.878709071],[-106.879250678,39.878551071],[-106.878835011,39.878325271],[-106.878586211,39.877897805],[-106.878676811,39.877265271],[-106.878836811,39.876814405],[-106.879041811,39.876429205],[-106.879315478,39.876192205]],[[-106.879315478,39.876192205],[-106.879738611,39.875903071],[-106.880179278,39.875464205]],[[-106.880179278,39.875464205],[-106.880731878,39.874985871]],[[-106.880731878,39.874985871],[-106.881676678,39.874794205],[-106.881838611,39.874768205]],[[-106.881838611,39.874768205],[-106.882557878,39.874652605],[-106.883403478,39.874502405],[-106.884121878,39.874445271],[-106.884721611,39.874362805],[-106.885201678,39.874227671],[-106.885624611,39.874157205]],[[-106.885624611,39.874157205],[-106.886198411,39.873993271],[-106.886738011,39.873875271],[-106.887216878,39.873694805],[-106.887461211,39.873563605],[-106.887816878,39.873194005]],[[-106.887816878,39.873194005],[-106.888406878,39.872975271],[-106.889101878,39.872927605],[-106.889444411,39.872954938]],[[-106.889444411,39.872954938],[-106.889858678,39.872988005],[-106.890586011,39.873258005],[-106.890635011,39.873294138]],[[-106.890635011,39.873294138],[-106.891465411,39.873907471],[-106.892287811,39.874203205],[-106.892861011,39.874448405],[-106.893290478,39.874614205]],[[-106.893290478,39.874614205],[-106.893447278,39.874739005],[-106.893649611,39.874799271],[-106.893991478,39.874784671],[-106.894367478,39.874723871],[-106.894737278,39.874654271],[-106.895151678,39.874702005],[-106.895364878,39.874734871],[-106.895530078,39.874732205],[-106.895693478,39.874665871]],[[-106.895693478,39.874665871],[-106.895981678,39.874415605],[-106.896198011,39.874130205],[-106.896422878,39.873726405],[-106.896606678,39.873541605],[-106.897352411,39.873192871],[-106.899257478,39.872097871],[-106.901225211,39.871129005],[-106.902009078,39.870670605],[-106.902371011,39.870528205],[-106.902790611,39.870339605]],[[-106.902790611,39.870339605],[-106.903359811,39.870011871],[-106.903822478,39.869676871],[-106.904131678,39.869335471],[-106.904313078,39.869068805],[-106.904526411,39.868674271]],[[-106.904526411,39.868674271],[-106.905128611,39.867618605],[-106.905482211,39.867176405],[-106.905674478,39.866882205],[-106.905794478,39.866525605],[-106.905911678,39.866069071]],[[-106.905911678,39.866069071],[-106.906260478,39.865454005],[-106.906649078,39.865002205],[-106.907006878,39.864714405],[-106.907366278,39.864481071],[-106.907774078,39.864292605],[-106.908224878,39.864166871],[-106.908732611,39.864102471]],[[-106.908732611,39.864102471],[-106.908801011,39.864093805],[-106.909294078,39.864003805],[-106.909654878,39.863825071],[-106.909954611,39.863565605],[-106.910380878,39.863194871],[-106.910901811,39.862831605],[-106.911678011,39.862318671],[-106.912130011,39.862020205],[-106.912141944,39.862015738]],[[-106.912141944,39.862015738],[-106.912433611,39.861906071],[-106.912797678,39.861845471],[-106.913184678,39.861757271],[-106.913393811,39.861644805]],[[-106.913393811,39.861644805],[-106.913712878,39.861448471],[-106.914080678,39.861097005],[-106.914425678,39.860773005],[-106.914855211,39.860520405],[-106.915557278,39.860308671]],[[-106.915557278,39.860308671],[-106.915973144,39.860147338]],[[-106.915973144,39.860147338],[-106.916561078,39.859919271],[-106.916973011,39.859791005]],[[-106.916973011,39.859791005],[-106.917578811,39.859602405],[-106.917756478,39.859522138]],[[-106.917756478,39.859522138],[-106.918685811,39.859102205],[-106.919382278,39.858690605],[-106.920505878,39.858153671],[-106.921424278,39.857665605],[-106.923356878,39.856733271],[-106.923844611,39.856452471],[-106.923939944,39.856360271]],[[-106.923939944,39.856360271],[-106.924304078,39.856008271],[-106.924859278,39.855608071],[-106.925594344,39.855160805]],[[-106.925594344,39.855160805],[-106.925996078,39.854916405],[-106.926118544,39.854839405]],[[-106.926118544,39.854839405],[-106.926813611,39.854402671],[-106.927134744,39.854116671]],[[-106.927134744,39.854116671],[-106.927354611,39.853920805],[-106.927551011,39.853772005],[-106.927854944,39.853584738]],[[-106.927854944,39.853584738],[-106.927945278,39.853529071]],[[-106.927945278,39.853529071],[-106.928281878,39.853183205]],[[-106.928281878,39.853183205],[-106.928584878,39.852772805],[-106.928583878,39.852527271],[-106.928495011,39.851883205],[-106.928515878,39.851364471],[-106.928691078,39.850879605],[-106.928882078,39.850540071],[-106.929345078,39.850223205]],[[-106.929345078,39.850223205],[-106.929727411,39.849971271],[-106.929965144,39.849852338]],[[-106.929965144,39.849852338],[-106.930216011,39.849726805],[-106.931124078,39.849293405],[-106.931777278,39.849027871]],[[-106.931777278,39.849027871],[-106.932572211,39.848769071],[-106.933191078,39.848540471],[-106.933514411,39.848289605],[-106.933784278,39.848030471],[-106.934061678,39.847825805],[-106.934282678,39.847713005],[-106.934621611,39.847598271],[-106.935124011,39.847426205],[-106.935519678,39.847237671]],[[-106.935519678,39.847237671],[-106.935912211,39.846931205],[-106.936163811,39.846645071],[-106.936597478,39.846128605]],[[-106.936597478,39.846128605],[-106.936734411,39.845962605]],[[-106.936734411,39.845962605],[-106.937129478,39.845328605]],[[-106.937129478,39.845328605],[-106.937264811,39.845108071]],[[-106.937264811,39.845108071],[-106.937355611,39.844770071],[-106.937487811,39.844440605],[-106.937576878,39.844248071]],[[-106.937576878,39.844248071],[-106.937736811,39.844063605],[-106.937899278,39.843969871],[-106.938181211,39.843928871],[-106.938533411,39.843868405],[-106.938661278,39.843802605],[-106.938833611,39.843636071]],[[-106.938833611,39.843636071],[-106.939155811,39.843348805],[-106.939394211,39.843017405],[-106.939504344,39.842680271]],[[-106.939504344,39.842680271],[-106.939513678,39.842651671],[-106.939764678,39.842347405],[-106.939969411,39.842080271],[-106.940257811,39.841848205],[-106.940766878,39.841494071]],[[-106.940766878,39.841494071],[-106.941155411,39.841260271],[-106.941686211,39.841260471],[-106.942050011,39.841190671],[-106.942503811,39.840974005],[-106.942581144,39.840931071]],[[-106.942581144,39.840931071],[-106.943061411,39.840664605],[-106.943444811,39.840458205],[-106.943685411,39.840208471],[-106.943789411,39.840134071],[-106.944091678,39.839974405]],[[-106.944091678,39.839974405],[-106.944414878,39.839723471],[-106.944758878,39.839372205],[-106.945064078,39.838903271],[-106.945194811,39.838519205],[-106.945117611,39.838084005],[-106.945096811,39.837766071],[-106.945123478,39.837456605]],[[-106.945123478,39.837456605],[-106.945217478,39.836609271]],[[-106.945217478,39.836609271],[-106.945426411,39.835860072],[-106.945657811,39.835701672],[-106.945937411,39.835578672],[-106.946169078,39.835429272]],[[-106.946169078,39.835429272],[-106.946361611,39.835144272],[-106.946436611,39.834879272],[-106.946484611,39.834487472],[-106.946492478,39.833932605],[-106.946495344,39.833867205]],[[-106.946495344,39.833867205],[-106.946514011,39.833441272],[-106.946636678,39.833193672]],[[-106.946636678,39.833193672],[-106.947088278,39.832895205],[-106.947731211,39.832693405],[-106.948560878,39.832415672],[-106.949793678,39.832222272],[-106.949989078,39.832181138]],[[-106.949989078,39.832181138],[-106.951247611,39.831916005],[-106.951973811,39.831740005],[-106.952412278,39.831605405]],[[-106.952412278,39.831605405],[-106.953064211,39.831303405],[-106.953726611,39.830955805]],[[-106.953726611,39.830955805],[-106.954224678,39.830638205],[-106.954500078,39.830369872],[-106.954750478,39.830047405]],[[-106.954750478,39.830047405],[-106.955127411,39.829613672],[-106.955271678,39.829293005],[-106.955264678,39.829047605],[-106.955152078,39.828822072],[-106.955025678,39.828524205],[-106.955134878,39.828004005],[-106.955364811,39.827381872],[-106.955615878,39.826765205]],[[-106.955615878,39.826765205],[-106.955629478,39.826731805],[-106.955743678,39.826184272],[-106.955808278,39.825555672],[-106.955813278,39.824900872],[-106.955868078,39.824545405],[-106.955857811,39.824181805],[-106.955781211,39.823813072]],[[-106.955748611,39.823656272],[-106.955757544,39.823557805]],[[-106.955781211,39.823813072],[-106.955748611,39.823656272]],[[-106.955757544,39.823557805],[-106.955811478,39.822964072],[-106.955947078,39.822424938]],[[-106.955947078,39.822424938],[-106.955949278,39.822416205],[-106.956232411,39.822002205],[-106.956291878,39.821914138]],[[-106.956291878,39.821914138],[-106.956424811,39.821717205],[-106.956675011,39.821185472],[-106.957133811,39.820732205],[-106.957468878,39.820490072],[-106.957735611,39.820433872]],[[-106.956473278,39.811000605],[-106.956424878,39.810914405],[-106.956431478,39.810732472],[-106.956555011,39.810512072]],[[-106.957061478,39.811609405],[-106.957039611,39.811595072],[-106.956561478,39.811157672],[-106.956473278,39.811000605]],[[-106.956555011,39.810512072],[-106.956731678,39.810090805],[-106.956945278,39.809723472],[-106.957209078,39.809464472],[-106.957662478,39.809238605],[-106.958277278,39.808882672],[-106.959147211,39.808377005],[-106.959441478,39.808362872],[-106.960258278,39.808476405],[-106.961308611,39.808513272],[-106.962285011,39.808582672]],[[-106.957986211,39.812445005],[-106.957897011,39.812308072],[-106.957688411,39.812020672],[-106.957061478,39.811609405]],[[-106.957735611,39.820433872],[-106.958078411,39.820361605],[-106.958794611,39.820195338]],[[-106.958254478,39.812856805],[-106.957986211,39.812445005]],[[-106.959639411,39.814478072],[-106.959205811,39.813968205],[-106.958793678,39.813575072],[-106.958609678,39.813323605],[-106.958254478,39.812856805]],[[-106.958794611,39.820195338],[-106.959683411,39.819989005],[-106.960277478,39.819807738]],[[-106.960012411,39.815032072],[-106.959846211,39.814721272],[-106.959639411,39.814478072]],[[-106.961637278,39.817121672],[-106.961635878,39.817118872],[-106.961220411,39.816607605],[-106.960294478,39.815559405],[-106.960012411,39.815032072]],[[-106.960277478,39.819807738],[-106.960314611,39.819796405],[-106.960616811,39.819636672],[-106.961010011,39.819366405],[-106.961322478,39.819161072],[-106.961562011,39.818875072],[-106.961694678,39.818563672]],[[-106.961918211,39.817828072],[-106.961848678,39.817551805],[-106.961637278,39.817121672]],[[-106.961694678,39.818563672],[-106.961879078,39.818206005],[-106.961928411,39.817868672],[-106.961918211,39.817828072]],[[-106.962285011,39.808582672],[-106.962549078,39.808601405],[-106.963238078,39.808571472]],[[-106.963238078,39.808571472],[-106.963756611,39.808562672],[-106.963874678,39.808537272]],[[-106.963874678,39.808537272],[-106.964260478,39.808454205],[-106.964727678,39.808300805],[-106.965091411,39.808240005]],[[-106.965091411,39.808240005],[-106.965597078,39.808195072],[-106.966386411,39.808172605],[-106.966962611,39.808117405],[-106.967185744,39.808017272]],[[-106.967185744,39.808017272],[-106.967404878,39.807918872],[-106.967928944,39.807478472]],[[-106.967928944,39.807478472],[-106.967946078,39.807464072],[-106.968567544,39.806727138]],[[-106.968567544,39.806727138],[-106.969035078,39.806172672],[-106.969709411,39.805424605],[-106.970466678,39.804693472],[-106.970852478,39.804168472],[-106.971150611,39.803872605],[-106.971406678,39.803759005],[-106.971536278,39.803756805],[-106.971842678,39.803751605]],[[-106.971842678,39.803751605],[-106.972376478,39.803869805]],[[-106.972725611,39.796698472],[-106.972416878,39.796412805],[-106.972316678,39.796205272],[-106.972288678,39.796051205],[-106.972345011,39.795959405]],[[-106.972345011,39.795959405],[-106.972682011,39.795789872],[-106.973476411,39.795540005],[-106.973812411,39.795334205],[-106.974144478,39.794992205],[-106.974581878,39.794621005],[-106.975291411,39.794290605],[-106.976259678,39.793937672],[-106.977148078,39.793677005],[-106.978212411,39.793386072]],[[-106.972376478,39.803869805],[-106.972781878,39.803817472],[-106.973359478,39.803407605],[-106.973464878,39.803378472]],[[-106.974292011,39.802209672],[-106.974323811,39.801672472],[-106.974452211,39.800806605],[-106.974457278,39.800160872],[-106.974413078,39.799852405],[-106.974126011,39.799084405],[-106.973601811,39.797656605],[-106.973328078,39.797152005],[-106.973050211,39.796920405],[-106.972725611,39.796698472]],[[-106.973464878,39.803378472],[-106.973733478,39.803292205],[-106.974012611,39.803160072],[-106.974267478,39.803001205],[-106.974464211,39.802870472],[-106.974541211,39.802678205]],[[-106.974541211,39.802678205],[-106.974368678,39.802417472],[-106.974292011,39.802209672]],[[-106.976332078,39.786998405],[-106.976183878,39.786555272],[-106.976115411,39.786220005],[-106.976085811,39.786011405]],[[-106.976085811,39.786011405],[-106.976224611,39.785918072],[-106.976494211,39.785868005],[-106.976855011,39.785707272]],[[-106.976762411,39.788027672],[-106.976527811,39.787658805],[-106.976332078,39.786998405]],[[-106.977455144,39.788991005],[-106.977324878,39.788736472],[-106.977114678,39.788394405],[-106.976762411,39.788027672]],[[-106.976855011,39.785707272],[-106.977313211,39.785654005],[-106.978478411,39.785597805],[-106.979372211,39.785528005],[-106.979886278,39.785373672],[-106.980398878,39.785165005],[-106.980804411,39.784921472]],[[-106.978257611,39.789640738],[-106.978210611,39.789621472],[-106.977873211,39.789363605],[-106.977537078,39.789151072],[-106.977455144,39.788991005]],[[-106.978212411,39.793386072],[-106.978824411,39.793148272]],[[-106.980727811,39.792431938],[-106.980909611,39.792285272],[-106.980996411,39.792020072],[-106.980967611,39.791838672],[-106.980877478,39.791576472],[-106.980717811,39.791351872],[-106.980394478,39.791175605],[-106.980093811,39.790962472],[-106.979757411,39.790740872],[-106.979427678,39.790346472],[-106.979063278,39.789970672],[-106.978257611,39.789640738]],[[-106.978824411,39.793148272],[-106.979466811,39.792937272],[-106.979637344,39.792870472]],[[-106.979637344,39.792870472],[-106.980049478,39.792709072],[-106.980679278,39.792471072],[-106.980727811,39.792431938]],[[-106.980804411,39.784921472],[-106.981142611,39.784797605],[-106.981482411,39.784728205],[-106.982012278,39.784710005],[-106.982387278,39.784710205]],[[-106.982387278,39.784710205],[-106.982525078,39.784710272],[-106.982975811,39.784811672],[-106.983268478,39.785152205],[-106.983431611,39.785495005],[-106.983431811,39.785913272],[-106.983336811,39.786296872],[-106.983453411,39.786667672],[-106.983658411,39.787237005],[-106.984015411,39.787551605]],[[-106.984015411,39.787551605],[-106.984457678,39.788187272],[-106.984747678,39.788436872],[-106.985083611,39.788640272],[-106.985404878,39.788743872],[-106.986185011,39.788821472],[-106.986868278,39.788809805],[-106.987749011,39.788694672],[-106.988216811,39.788568472],[-106.988517678,39.788372272],[-106.988666878,39.788233405],[-106.988892478,39.787884005],[-106.989073411,39.787617205],[-106.989302478,39.787385872]],[[-106.989302478,39.787385872],[-106.989750411,39.786978072]],[[-106.989750411,39.786978072],[-106.990211078,39.786397272],[-106.990565811,39.786027472],[-106.990868078,39.785886005],[-106.991335611,39.785750605],[-106.992226811,39.785589805],[-106.992778211,39.785707672],[-106.993433278,39.785941872],[-106.994076011,39.786158205],[-106.994397211,39.786261805],[-106.995009611,39.786242205],[-106.995407878,39.786162605]],[[-106.995407878,39.786162605],[-106.995607078,39.786122805],[-106.996016878,39.786024805]],[[-106.996016878,39.786024805],[-106.996317611,39.785828672],[-106.996538078,39.785706672],[-106.996874211,39.785509872],[-106.997301278,39.785202472],[-106.997759678,39.784749072],[-106.998166078,39.784132805],[-106.998446411,39.783637005],[-106.998721811,39.783377605],[-106.999104811,39.783170872],[-106.999607611,39.783035005],[-107.0,39.7829075306]]]}}]}
