{"type":"FeatureCollection","features":[{"type":"Feature","properties":{"corridor_id":"co_corridor_rio_grande","water_id":"co_corridor_rio_grande","display_name":"Rio Grande","normalized_name":"rio grande","state":"CO","atlas_layer":"named_water_corridor","object_role":"named_water_corridor","atlas_class":"named_water_corridor","member_occurrence_ids":["co_rio_grande_13010001_rioGrande_001","co_rio_grande_13010001_rioGrande_002","co_rio_grande_13010001_rioGrande_003","co_rio_grande_13010002_rioGrande_001","co_rio_grande_13010002_rioGrande_002","co_rio_grande_13010002_rioGrande_003"],"occurrence_count":6,"huc8s":["13010001","13010002"],"huc8Names":["Alamosa-Trinchera","Rio Grande Headwaters"],"lineageKeys":["rioGrande"],"lineageKey":"rioGrande","lineage":"rioGrande","historic":"rioGrande","current":"rioGrande","recovery":"rioGrande","minZoom":8,"maxZoom":18,"bounds":{"west":-107.54317441,"south":36.995845921,"east":-105.718020013,"north":37.824488808},"center":{"lng":-106.630597,"lat":37.410167},"source_tile_count":0,"source_feature_count":669,"unique_line_part_count":669,"geometry_status_public":"Aggregate named-water corridor","geometry_source_public":"Source-backed NHD named mainstem from flowlines_colorado_streamriver and flowlines_colorado_connectors; GNIS_ID 01385432; FType 460/558; exact endpoint-connected component touched by approved occurrence anchors; Rio Grande anchor tolerance 3.0 meters","vertex_count":17455,"source_length_km":319.748,"source_component_count":1,"endpoint_node_count":670,"degree_one_endpoint_count":2,"maximum_endpoint_degree":2,"loop_count":0,"branch_node_count":0,"anchor_matched_feature_count":91,"ftype_460_count":104,"ftype_558_count":565,"anchor_match_counts":{"co_rio_grande_13010001_rioGrande_001":50,"co_rio_grande_13010001_rioGrande_002":17,"co_rio_grande_13010001_rioGrande_003":2,"co_rio_grande_13010002_rioGrande_001":30,"co_rio_grande_13010002_rioGrande_002":5,"co_rio_grande_13010002_rioGrande_003":3},"anchor_minimum_distances_m":{"co_rio_grande_13010001_rioGrande_001":0.03882,"co_rio_grande_13010001_rioGrande_002":0.148162,"co_rio_grande_13010001_rioGrande_003":2.901325,"co_rio_grande_13010002_rioGrande_001":0.017588,"co_rio_grande_13010002_rioGrande_002":0.387679,"co_rio_grande_13010002_rioGrande_003":2.016469},"maximum_anchor_tolerance_m":3.0},"geometry":{"type":"MultiLineString","coordinates":[[[-105.75,37.0872929319],[-105.75020628,37.087080276],[-105.75033708,37.086982209],[-105.75048788,37.086904209],[-105.750528213,37.086887876],[-105.75069528,37.086832809],[-105.750824613,37.086800209],[-105.750956613,37.086774276],[-105.751042013,37.086750409],[-105.751248813,37.086677076],[-105.75130448,37.086652409]],[[-105.75,37.0224491311],[-105.750018813,37.022439609],[-105.750092013,37.022397876],[-105.750158613,37.022349476],[-105.75021748,37.022295476],[-105.750291213,37.022205876],[-105.75037708,37.022080476],[-105.750514013,37.021895809],[-105.75058788,37.021765809],[-105.75061968,37.021699009],[-105.75068048,37.021603476],[-105.750712413,37.021536809],[-105.75072908,37.021466809],[-105.750733013,37.021360009],[-105.750712413,37.021182809],[-105.750684813,37.021115009],[-105.750666013,37.021045409],[-105.75065208,37.020903209],[-105.750644813,37.020868076],[-105.750621613,37.020799609],[-105.75058728,37.020733609],[-105.750568813,37.020663876],[-105.750568413,37.020592476],[-105.75057868,37.020486209],[-105.75057888,37.020450476],[-105.75057188,37.020379476],[-105.750556813,37.020309209],[-105.750499813,37.020100409],[-105.750468413,37.020033476]],[[-105.751950413,37.027943209],[-105.751907613,37.027927676],[-105.75171148,37.027838676],[-105.75163468,37.027800809],[-105.75156308,37.027757276],[-105.751494013,37.027752809],[-105.751449813,37.027744409],[-105.75140768,37.027731409],[-105.75129148,37.027676276],[-105.751156213,37.027581476],[-105.751057213,37.027508209],[-105.751026813,37.027481876],[-105.750953813,37.027391609],[-105.750936013,37.027358676],[-105.750743013,37.027265409],[-105.750400213,37.027033076],[-105.75028188,37.026980409],[-105.750238813,37.026969076],[-105.75014988,37.026955009],[-105.75011228,37.026935676],[-105.75004208,37.026890676],[-105.75,37.0268665815]],[[-105.750468413,37.020033476],[-105.75044068,37.019975476],[-105.75039268,37.019838209],[-105.750219613,37.019433809],[-105.750022813,37.018997876],[-105.750064413,37.018906476],[-105.750073413,37.018871409],[-105.75007328,37.018800476],[-105.75005548,37.018696209],[-105.75004048,37.018628676],[-105.750023413,37.018596009],[-105.75,37.0185349608]],[[-105.75130448,37.086652409],[-105.751412013,37.086587076],[-105.751515413,37.086517609],[-105.751580413,37.086468009],[-105.75163608,37.086415009]],[[-105.75163608,37.086415009],[-105.75179848,37.086243476],[-105.752037213,37.085940609],[-105.752111613,37.085851009],[-105.752328013,37.085622076],[-105.752550213,37.085397009],[-105.75267988,37.085250676],[-105.752729013,37.085190676],[-105.753014613,37.084826876],[-105.753224813,37.084552209],[-105.75348968,37.084179076],[-105.75387748,37.083615409],[-105.753940613,37.083520676],[-105.754005813,37.083387809],[-105.75415088,37.082975476],[-105.75425488,37.082702076],[-105.754403813,37.082264676]],[[-105.75997488,37.025966276],[-105.759908013,37.025985676],[-105.75982108,37.026006076],[-105.759776813,37.026013209],[-105.759686413,37.026016076],[-105.759596813,37.026004209],[-105.759424813,37.025960276],[-105.75933548,37.025949276],[-105.75915448,37.025948876],[-105.759019013,37.025957009],[-105.75897408,37.025954409],[-105.758612213,37.025960609],[-105.75852228,37.025967609],[-105.758346213,37.026001409],[-105.758210813,37.026011209],[-105.75807648,37.026027009],[-105.757990413,37.025989876],[-105.757948813,37.025975676],[-105.75790488,37.025966676],[-105.75785988,37.025962276],[-105.757769413,37.025964476],[-105.757679613,37.025973609],[-105.75759088,37.025988609],[-105.757428413,37.026050676],[-105.757325813,37.026120809],[-105.75729788,37.026148609],[-105.75727468,37.026179276],[-105.75713608,37.026203209],[-105.75695548,37.026213009],[-105.756911813,37.026222676],[-105.756703213,37.026292276],[-105.75658408,37.026343609],[-105.756391813,37.026437476],[-105.756312213,37.026471476],[-105.755965013,37.026639009],[-105.75562208,37.026812009],[-105.75543388,37.026911409],[-105.75498968,37.027158076],[-105.754699813,37.027328809],[-105.75455688,37.027416409],[-105.75416748,37.027597409],[-105.754127613,37.027614276],[-105.754044613,37.027643009],[-105.753709013,37.027749809],[-105.75332468,37.027855476],[-105.75293368,37.027946676],[-105.752845413,37.027962209],[-105.752622013,37.027990209],[-105.75248708,37.028002009],[-105.752441813,37.028002476],[-105.752306213,37.027996276],[-105.75221588,37.027988676],[-105.752082413,37.027969076],[-105.751950413,37.027943209]],[[-105.754403813,37.082264676],[-105.75446248,37.082168476],[-105.75450848,37.082107009],[-105.754686413,37.081900409],[-105.75473488,37.081840276],[-105.75477828,37.081777876],[-105.75500728,37.081429676],[-105.755178213,37.081138876],[-105.75525848,37.081011276],[-105.75530108,37.080948409],[-105.755418413,37.080795809],[-105.755484013,37.080702209],[-105.75563808,37.080444676],[-105.75576508,37.080255876],[-105.755866813,37.080096876],[-105.75592068,37.079998609],[-105.75598408,37.079864876],[-105.756010613,37.079796809],[-105.75610448,37.079521209],[-105.756185013,37.079316876],[-105.756266213,37.079150209],[-105.75639408,37.078845609],[-105.756455213,37.078711209],[-105.756489413,37.078645076],[-105.756513013,37.078614809],[-105.75664388,37.078469209],[-105.75672908,37.078385876],[-105.75685048,37.078279809],[-105.757012613,37.078155009],[-105.75711908,37.078088409],[-105.75726988,37.078009276],[-105.757389213,37.077957676],[-105.757511213,37.077910409],[-105.757738813,37.077792876],[-105.757778813,37.077776476],[-105.757906413,37.077739076],[-105.758027613,37.077690409],[-105.758143413,37.077634076],[-105.758256413,37.077574409],[-105.75841268,37.077501609],[-105.75933988,37.077124209],[-105.75966668,37.076999609],[-105.759782813,37.076943476],[-105.75985648,37.076901876],[-105.75995648,37.076829276],[-105.76001928,37.076777676],[-105.760195013,37.076614076],[-105.760249213,37.076556876],[-105.760271813,37.076526076],[-105.760312213,37.076462209],[-105.76032808,37.076428809],[-105.760474213,37.076091076],[-105.76050648,37.076024476],[-105.760562013,37.075926809],[-105.760608413,37.075809809]],[[-105.768729213,37.036453409],[-105.76865288,37.036384609],[-105.768587213,37.036335676],[-105.768484813,37.036265809],[-105.76837468,37.036203276],[-105.768307613,37.036155409],[-105.768244813,37.036104276],[-105.76821968,37.036074409],[-105.768183813,37.036057409],[-105.768051213,37.036035409],[-105.768006413,37.036030676],[-105.76791928,37.036011009],[-105.76783688,37.035981409],[-105.767416013,37.035771476],[-105.76692188,37.035518609],[-105.76660648,37.035380009],[-105.766530413,37.035341409],[-105.766457213,37.035299476],[-105.76638928,37.035252276],[-105.76633028,37.035198076],[-105.766244813,37.035207609],[-105.766199413,37.035205476],[-105.766155413,37.035197476],[-105.76606928,37.035175876],[-105.765952613,37.035121676],[-105.76591648,37.035099876],[-105.76583228,37.035016476],[-105.76576668,37.034923476],[-105.76568728,37.034756676],[-105.765648813,37.034654609],[-105.76561368,37.034551676],[-105.765576413,37.034376076],[-105.76552488,37.034166676],[-105.76546848,37.033957876],[-105.765327613,37.033546209],[-105.765180813,37.033172076],[-105.76510408,37.033004409],[-105.76501828,37.032839876],[-105.76499648,37.032808676],[-105.764898613,37.032688876],[-105.76484148,37.032592209],[-105.76477208,37.032460876],[-105.76461328,37.032051809],[-105.764525613,37.031849409],[-105.76420188,37.031184876],[-105.764029413,37.030817209],[-105.76392928,37.030618609],[-105.763908013,37.030587209],[-105.76381828,37.030506876],[-105.763770213,37.030446476],[-105.76375108,37.030414076],[-105.76372588,37.030345876],[-105.763718613,37.030310609],[-105.76371448,37.030239276],[-105.76362868,37.030113876],[-105.763581613,37.030053076],[-105.76342668,37.029877409],[-105.763378613,37.029817076],[-105.76324308,37.029632209],[-105.763203213,37.029568076],[-105.763023813,37.029203009],[-105.76286528,37.028908009],[-105.762625213,37.028485609],[-105.762591613,37.028419609],[-105.76243748,37.028085409],[-105.762155013,37.027599276],[-105.76212348,37.027532409],[-105.76210148,37.027463209],[-105.76208128,37.027431609],[-105.76203268,37.027371409],[-105.761945213,37.027289676],[-105.76186548,37.027203076],[-105.761821813,37.027140609],[-105.761639413,37.026854276],[-105.761602613,37.026789076],[-105.76153308,37.026697076],[-105.76148268,37.026637876],[-105.761398013,37.026554076],[-105.761338613,37.026500209],[-105.76120908,37.026400676],[-105.76111628,37.026322609],[-105.76101548,37.026204076],[-105.760961213,37.026147276],[-105.76092668,37.026124276],[-105.76077228,37.026049476],[-105.760603013,37.025998609],[-105.760559013,37.025989876],[-105.76038188,37.025958876],[-105.760336613,37.025956276],[-105.75997488,37.025966276]],[[-105.760608413,37.075809809],[-105.760641613,37.075669876],[-105.76065188,37.075599209],[-105.760654813,37.075456609],[-105.76064548,37.075207676],[-105.760647013,37.075172076],[-105.760661013,37.075030076],[-105.76068668,37.074853209],[-105.760705213,37.074604209],[-105.76073028,37.074499209],[-105.760753413,37.074430276],[-105.760785013,37.074363409],[-105.760845413,37.074267809],[-105.760950813,37.074151809],[-105.761041413,37.074072409],[-105.761105013,37.074021476],[-105.76113928,37.073998609],[-105.76117448,37.073976209],[-105.76125088,37.073938276],[-105.761331813,37.073906409],[-105.761457013,37.073865209],[-105.762057213,37.073703809],[-105.762181013,37.073660009],[-105.76230248,37.073612076],[-105.762542413,37.073511009],[-105.76261948,37.073473609],[-105.762656613,37.073453209],[-105.762723813,37.073405609],[-105.762941413,37.073224676],[-105.76305908,37.073116409],[-105.763165613,37.073001076],[-105.76321488,37.072941276],[-105.763258413,37.072878676],[-105.76329748,37.072814409],[-105.763332213,37.072748476],[-105.763358213,37.072680209],[-105.763427013,37.072473209],[-105.763524013,37.072236009],[-105.76359208,37.072103676],[-105.76370648,37.071909809],[-105.763786613,37.071782076],[-105.763907813,37.071551276],[-105.76395948,37.071414809],[-105.764043413,37.071137009],[-105.764091813,37.070962876],[-105.764104413,37.070928676],[-105.76418188,37.070799876],[-105.76422648,37.070737809],[-105.764521613,37.070336609],[-105.76470968,37.070092676],[-105.76477728,37.070000076],[-105.76488008,37.069842409],[-105.76492528,37.069755209]],[[-105.76492528,37.069755209],[-105.76494028,37.069721409],[-105.76502228,37.069595276],[-105.76520708,37.069270609],[-105.765395813,37.068869276],[-105.76543928,37.068768009],[-105.76546928,37.068681209],[-105.765541213,37.068626876],[-105.76556968,37.068599076],[-105.76559388,37.068568876],[-105.76563948,37.068507409],[-105.765657813,37.068474676],[-105.765703813,37.068374209],[-105.765747613,37.068273209],[-105.765825413,37.068069609],[-105.76591028,37.067831276],[-105.76598628,37.067665409],[-105.76605348,37.067534276],[-105.76613888,37.067333209],[-105.76616148,37.067264609],[-105.76617628,37.067230809],[-105.76621468,37.067092076],[-105.76622828,37.067058209],[-105.76626108,37.066991676],[-105.766349213,37.066867276],[-105.76639888,37.066767676],[-105.76640748,37.066732676],[-105.766411413,37.066697076],[-105.76640868,37.066661609],[-105.766390013,37.066591809],[-105.76656468,37.066383609],[-105.76660788,37.066320876],[-105.766658013,37.066261609],[-105.766687613,37.066234876],[-105.76675708,37.066189076],[-105.76682948,37.066146276],[-105.76689768,37.066099276],[-105.76695868,37.066046409],[-105.766991613,37.066022009],[-105.767183213,37.065927476],[-105.76726328,37.065894276],[-105.76734108,37.065857876],[-105.767524013,37.065752676],[-105.76760388,37.065719009],[-105.76768588,37.065688809],[-105.76777468,37.065674209],[-105.76790408,37.065640876],[-105.768154413,37.065557476],[-105.76831928,37.065515476],[-105.768362213,37.065527209],[-105.76845148,37.065539876],[-105.76854188,37.065542676],[-105.768587013,37.065538209],[-105.768630213,37.065527409],[-105.768757213,37.065489009],[-105.76883508,37.065452676],[-105.76887048,37.065430609],[-105.76890288,37.065405476],[-105.76894968,37.065347409],[-105.769118413,37.065294609],[-105.76922708,37.065231009],[-105.769260813,37.065207409],[-105.769441013,37.065100209],[-105.769687413,37.064944276],[-105.769833813,37.064860476],[-105.769975613,37.064772409],[-105.77007908,37.064703676],[-105.770260213,37.064596809],[-105.770290213,37.064570076],[-105.77031548,37.064540476],[-105.770348613,37.064474076],[-105.770357413,37.064439076],[-105.77035708,37.064403476],[-105.770366413,37.064369676],[-105.770437413,37.064238276],[-105.77047848,37.064136476],[-105.770526613,37.063999076],[-105.77056908,37.063788476],[-105.77061108,37.063613809],[-105.770754213,37.063128076],[-105.770786813,37.062988076],[-105.770805613,37.062882276],[-105.770821013,37.062740209],[-105.770821213,37.062669009],[-105.77080668,37.062526676],[-105.77075888,37.062352276],[-105.770666813,37.062151276],[-105.77053328,37.061773876],[-105.770514213,37.061741476],[-105.77042728,37.061616609],[-105.770346813,37.061489076],[-105.77030008,37.061388476],[-105.770250213,37.061251809],[-105.77023108,37.061219609],[-105.770170813,37.061166276],[-105.77013608,37.061143276],[-105.77006288,37.061101476],[-105.769946213,37.061046676],[-105.769865213,37.061015009],[-105.76978088,37.060988676],[-105.76969608,37.060963476],[-105.76956268,37.060931876]],[[-105.766818413,37.041314409],[-105.76663768,37.041154609],[-105.76655368,37.041070876],[-105.766528213,37.041041609],[-105.766480613,37.040981009],[-105.76643828,37.040918076],[-105.766389413,37.040818676],[-105.766356213,37.040715076],[-105.76633888,37.040609276],[-105.76633368,37.040538409],[-105.76634468,37.040431876],[-105.766372013,37.040327276],[-105.76639968,37.040259609],[-105.766474213,37.040129876],[-105.766516413,37.040066809],[-105.766562613,37.040006076],[-105.766640213,37.039919076],[-105.76680348,37.039796609],[-105.767196213,37.039556276],[-105.767455613,37.039357676],[-105.76761228,37.039229676],[-105.76767048,37.039175409],[-105.76775308,37.039090609],[-105.767803013,37.039031076],[-105.768024613,37.038722476],[-105.768049813,37.038692876],[-105.76810188,37.038634476],[-105.768216413,37.038524809],[-105.76829748,37.038439209],[-105.76831808,37.038407276],[-105.768351013,37.038341276],[-105.76839888,37.038204009],[-105.76844948,37.038105009],[-105.768670013,37.037793276],[-105.76877548,37.037635609],[-105.768794813,37.037603276],[-105.76880828,37.037569276],[-105.76882628,37.037499476],[-105.768848613,37.037358276],[-105.768855613,37.037216009],[-105.768897813,37.036933209],[-105.76889808,37.036897476],[-105.768890813,37.036862276],[-105.768855413,37.036759076],[-105.768821413,37.036693009],[-105.76879248,37.036625476],[-105.76874748,37.036487809],[-105.768729213,37.036453409]],[[-105.770841013,37.046682009],[-105.770867613,37.046653076],[-105.77104168,37.046489609],[-105.77106688,37.046460009],[-105.77111008,37.046397476],[-105.771170613,37.046301609],[-105.77126288,37.046138809],[-105.771333413,37.045969609],[-105.771364013,37.045865609],[-105.77138908,37.045760609],[-105.77139108,37.045725276],[-105.77133448,37.045628209],[-105.77130348,37.045561276],[-105.77128648,37.045491276],[-105.77128028,37.045420409],[-105.771256413,37.045351809],[-105.77118228,37.045311076],[-105.771103413,37.045277009],[-105.77106108,37.045264009],[-105.77098788,37.045222609],[-105.770954413,37.045198609],[-105.77090308,37.045139676],[-105.77087948,37.045109276],[-105.770804613,37.044979676],[-105.770638213,37.044767209],[-105.770596813,37.044703809],[-105.77052508,37.044612809],[-105.77050508,37.044580876],[-105.77047108,37.044514876],[-105.77044088,37.044411009],[-105.770425813,37.044341009],[-105.770391813,37.044129009],[-105.77039148,37.044022276],[-105.770399413,37.043951276],[-105.770428013,37.043847076],[-105.77046288,37.043743876],[-105.770582813,37.043437476],[-105.770627813,37.043299809],[-105.77065548,37.043195409],[-105.77067668,37.043053876],[-105.770689613,37.042840809],[-105.77068948,37.042556476],[-105.77070788,37.042059476],[-105.770695413,37.041882009],[-105.77068268,37.041811476],[-105.77067288,37.041776809],[-105.77061148,37.041642809],[-105.77059288,37.041610676],[-105.77057008,37.041579876],[-105.77052148,37.041519809],[-105.770494413,37.041491276],[-105.77039768,37.041416476],[-105.77032408,37.041374876],[-105.77028688,37.041354609],[-105.770208613,37.041318876],[-105.77008608,37.041272609],[-105.770042813,37.041263009],[-105.76999788,37.041258476],[-105.76990728,37.041259609],[-105.769817213,37.041267276],[-105.769772813,37.041274276],[-105.76973108,37.041288076],[-105.769691813,37.041306009],[-105.76960748,37.041331409],[-105.769562213,37.041334809],[-105.769472413,37.041328209],[-105.76942908,37.041317809],[-105.76930828,37.041270209],[-105.769266013,37.041258009],[-105.769175813,37.041252409],[-105.769040213,37.041254676],[-105.768949813,37.041258209],[-105.76881648,37.041272809],[-105.768729413,37.041292676],[-105.768688013,37.041306676],[-105.76861148,37.041344276],[-105.768501213,37.041405409],[-105.768424613,37.041443476],[-105.768384013,37.041459009],[-105.76825808,37.041497409],[-105.768127613,37.041527076],[-105.76803948,37.041543876],[-105.767724613,37.041570209],[-105.76767928,37.041570676],[-105.76754448,37.041559009],[-105.767324013,37.041519276],[-105.76723448,37.041509876],[-105.767148413,37.041487876],[-105.767106013,37.041475076],[-105.767066213,37.041458209],[-105.766951613,37.041400876],[-105.766878613,37.041358809],[-105.766818413,37.041314409]],[[-105.76956268,37.060931876],[-105.76901008,37.060796609],[-105.768882613,37.060759809],[-105.76875348,37.060727609],[-105.76870908,37.060720476],[-105.768622813,37.060699609],[-105.76858088,37.060685809],[-105.768503413,37.060649276],[-105.768365413,37.060557009],[-105.768328013,37.060536809],[-105.76828568,37.060524809],[-105.768059413,37.060515809],[-105.76792388,37.060507009],[-105.767837413,37.060485876],[-105.76776008,37.060450476],[-105.76772388,37.060429009],[-105.76763028,37.060352209],[-105.767552213,37.060265476],[-105.767505213,37.060204676],[-105.767376813,37.060016276],[-105.76726908,37.059820276],[-105.76719568,37.059651476],[-105.76715668,37.059633276],[-105.76712088,37.059611409],[-105.767088013,37.059586876],[-105.767029213,37.059532609],[-105.766976013,37.059475476],[-105.76693168,37.059414276],[-105.76691308,37.059381676],[-105.76690208,37.059347676],[-105.76690308,37.059277076],[-105.76693108,37.059209476],[-105.76694948,37.059176876],[-105.766995813,37.059121276],[-105.76694208,37.059023076],[-105.766917213,37.058993409],[-105.766861613,37.058937209],[-105.766800413,37.058884476],[-105.766698413,37.058814476],[-105.76655668,37.058726476],[-105.766369613,37.058626276],[-105.76622388,37.058542209],[-105.76606648,37.058414209],[-105.766043413,37.058383676],[-105.765939813,37.058267809],[-105.76591848,37.058236409],[-105.76589228,37.058207609],[-105.76580928,37.058123676],[-105.765719013,37.058044009],[-105.76568548,37.058020209],[-105.76562768,37.057965476],[-105.765498413,37.057819409],[-105.765432213,37.057726209],[-105.765245413,37.057441609],[-105.76512848,37.057288676],[-105.765002813,37.057140676],[-105.764919413,37.057056409],[-105.764773013,37.056920609],[-105.764531613,37.056707809],[-105.764477813,37.056650676],[-105.764376613,37.056532609],[-105.76424268,37.056389076],[-105.764172813,37.056297276],[-105.764120013,37.056198876],[-105.76410508,37.056128809],[-105.764097413,37.056057809],[-105.76409848,37.055951209],[-105.76411468,37.055881276],[-105.764126213,37.055846876],[-105.764142213,37.055813476],[-105.76418068,37.055749076],[-105.76420648,37.055719876],[-105.76430968,37.055650476],[-105.76433768,37.055622276],[-105.76439988,37.055570676],[-105.76445088,37.055511809],[-105.76447208,37.055480276],[-105.76454548,37.055350409],[-105.76469108,37.055214076],[-105.764724013,37.055179076],[-105.76471588,37.055108076],[-105.76472808,37.055037609],[-105.764767813,37.054935809],[-105.76478428,37.054902476],[-105.76482328,37.054838876],[-105.76485248,37.054811809],[-105.764897213,37.054751209],[-105.765005413,37.054639209],[-105.76506788,37.054588409],[-105.765102613,37.054565476],[-105.765176613,37.054524476],[-105.76521608,37.054506809],[-105.765257813,37.054493609],[-105.765301613,37.054483876],[-105.76536228,37.054475876],[-105.76547688,37.054365676],[-105.765585413,37.054251609],[-105.765715013,37.054105276],[-105.76585708,37.053923409],[-105.76592048,37.053829009],[-105.76599868,37.053700476],[-105.76608488,37.053575409],[-105.766196013,37.053380209],[-105.76636328,37.053127876],[-105.766451413,37.053003476],[-105.76684888,37.052482809]],[[-105.76684888,37.052482809],[-105.76690348,37.052425876],[-105.76711688,37.052155809]],[[-105.76711688,37.052155809],[-105.76716448,37.052095209],[-105.767293613,37.051948609],[-105.76736588,37.051858009],[-105.76760568,37.051514476],[-105.767652413,37.051453609],[-105.76772528,37.051411076],[-105.76778908,37.051360609],[-105.76781788,37.051332876],[-105.76783968,37.051301676],[-105.767869613,37.051234476],[-105.767881813,37.051200209],[-105.76788948,37.051165076],[-105.767904813,37.051059209],[-105.767908413,37.050988009],[-105.76789508,37.050881676],[-105.76788148,37.050811276],[-105.76787708,37.050740209],[-105.767870613,37.050705009],[-105.767836013,37.050601876],[-105.76777368,37.050468209],[-105.76772628,37.050407609],[-105.767642413,37.050323409],[-105.767607613,37.050300676],[-105.767493413,37.050242876],[-105.767457213,37.050221276],[-105.767389413,37.050174276],[-105.767357813,37.050148676],[-105.767329813,37.050120809],[-105.767306013,37.050090409],[-105.76726968,37.050025076],[-105.767254813,37.049991476],[-105.76721248,37.049852876],[-105.767184413,37.049785209],[-105.767000813,37.049382609],[-105.76694968,37.049209276],[-105.76691748,37.049032876],[-105.766920413,37.048997276],[-105.766915613,37.048926409],[-105.766915813,37.048855276],[-105.766923813,37.048748476],[-105.76693308,37.048713676],[-105.76695908,37.048536876],[-105.766982413,37.048432009],[-105.767018213,37.048328809],[-105.76703328,37.048295076],[-105.76709128,37.048198609],[-105.767175213,37.048072209],[-105.76725248,37.047984609],[-105.76728228,37.047957809],[-105.767384013,37.047887009],[-105.767500413,37.047832409],[-105.767541613,37.047817276],[-105.767627413,37.047794809],[-105.767716213,37.047780609],[-105.76794028,37.047757676],[-105.76836488,37.047744276],[-105.76842268,37.047689476],[-105.768457613,37.047666476],[-105.76853348,37.047627609],[-105.768661013,37.047591609],[-105.76870588,37.047586476],[-105.76888588,37.047581276],[-105.768930013,37.047589209],[-105.768973413,37.047597876],[-105.76901428,37.047613409],[-105.769053413,37.047631209],[-105.76910208,37.047663009],[-105.76914668,37.047656876],[-105.769234213,37.047639009],[-105.76948988,37.047567609],[-105.769658413,37.047517009],[-105.769735813,37.047481609],[-105.76989748,37.047419476],[-105.76993348,37.047397809],[-105.770012013,37.047363609],[-105.770125213,37.047304809],[-105.77030568,37.047197409],[-105.77040148,37.047122009],[-105.77051868,37.047013076],[-105.770841013,37.046682009]]]}}]}
