{"type":"FeatureCollection","features":[{"type":"Feature","properties":{"corridor_id":"co_corridor_rio_grande","water_id":"co_corridor_rio_grande","display_name":"Rio Grande","normalized_name":"rio grande","state":"CO","atlas_layer":"named_water_corridor","object_role":"named_water_corridor","atlas_class":"named_water_corridor","member_occurrence_ids":["co_rio_grande_13010001_rioGrande_001","co_rio_grande_13010001_rioGrande_002","co_rio_grande_13010001_rioGrande_003","co_rio_grande_13010002_rioGrande_001","co_rio_grande_13010002_rioGrande_002","co_rio_grande_13010002_rioGrande_003"],"occurrence_count":6,"huc8s":["13010001","13010002"],"huc8Names":["Alamosa-Trinchera","Rio Grande Headwaters"],"lineageKeys":["rioGrande"],"lineageKey":"rioGrande","lineage":"rioGrande","historic":"rioGrande","current":"rioGrande","recovery":"rioGrande","minZoom":8,"maxZoom":18,"bounds":{"west":-107.54317441,"south":36.995845921,"east":-105.718020013,"north":37.824488808},"center":{"lng":-106.630597,"lat":37.410167},"source_tile_count":0,"source_feature_count":669,"unique_line_part_count":669,"geometry_status_public":"Aggregate named-water corridor","geometry_source_public":"Source-backed NHD named mainstem from flowlines_colorado_streamriver and flowlines_colorado_connectors; GNIS_ID 01385432; FType 460/558; exact endpoint-connected component touched by approved occurrence anchors; Rio Grande anchor tolerance 3.0 meters","vertex_count":17455,"source_length_km":319.748,"source_component_count":1,"endpoint_node_count":670,"degree_one_endpoint_count":2,"maximum_endpoint_degree":2,"loop_count":0,"branch_node_count":0,"anchor_matched_feature_count":91,"ftype_460_count":104,"ftype_558_count":565,"anchor_match_counts":{"co_rio_grande_13010001_rioGrande_001":50,"co_rio_grande_13010001_rioGrande_002":17,"co_rio_grande_13010001_rioGrande_003":2,"co_rio_grande_13010002_rioGrande_001":30,"co_rio_grande_13010002_rioGrande_002":5,"co_rio_grande_13010002_rioGrande_003":3},"anchor_minimum_distances_m":{"co_rio_grande_13010001_rioGrande_001":0.03882,"co_rio_grande_13010001_rioGrande_002":0.148162,"co_rio_grande_13010001_rioGrande_003":2.901325,"co_rio_grande_13010002_rioGrande_001":0.017588,"co_rio_grande_13010002_rioGrande_002":0.387679,"co_rio_grande_13010002_rioGrande_003":2.016469},"maximum_anchor_tolerance_m":3.0},"geometry":{"type":"MultiLineString","coordinates":[[[-106.766751345,37.752106875],[-106.766432278,37.751620275],[-106.765914878,37.750953275],[-106.765249811,37.750534608],[-106.764384411,37.750295275],[-106.763744278,37.750241675],[-106.763286278,37.750142675],[-106.7629516174,37.75]],[[-106.769819811,37.754619675],[-106.769391211,37.754334275],[-106.768975211,37.753812675],[-106.767996611,37.753024875],[-106.766905878,37.752342608],[-106.766751345,37.752106875]],[[-106.779213611,37.757417075],[-106.778354011,37.757089075],[-106.777767411,37.756950075],[-106.776841211,37.756973475],[-106.775806478,37.756932875],[-106.774646878,37.756683008],[-106.773959811,37.756244208],[-106.773055878,37.755677675],[-106.772053078,37.755112475],[-106.771143078,37.754891875],[-106.769819811,37.754619675]],[[-106.797891278,37.768781208],[-106.797279011,37.768468075],[-106.796825078,37.767303275],[-106.796395011,37.766687408],[-106.795963278,37.766446475],[-106.795007811,37.765884675],[-106.793817411,37.765490675],[-106.792854811,37.765105808],[-106.792427611,37.764702808],[-106.790620278,37.763415608],[-106.789919478,37.762948675],[-106.789128211,37.762636808],[-106.787457678,37.762219208],[-106.786847878,37.761986675],[-106.786279278,37.761390475],[-106.786000278,37.761290275],[-106.785071078,37.760939208],[-106.784132078,37.760295008],[-106.783250878,37.759755875],[-106.782347678,37.759130608],[-106.780345011,37.757860475],[-106.779213611,37.757417075]],[[-106.803575411,37.766666675],[-106.802807611,37.766323408],[-106.801899211,37.765889675],[-106.801530211,37.765819608],[-106.801216878,37.765935608],[-106.800985478,37.766095808],[-106.800686678,37.766504475],[-106.800327811,37.766889208],[-106.799827078,37.767595075],[-106.799439878,37.768173275],[-106.798955211,37.768569075],[-106.798516678,37.768733008],[-106.798125478,37.768833875],[-106.797891278,37.768781208]],[[-106.806302145,37.767021608],[-106.805764478,37.767111408],[-106.804737878,37.767063075],[-106.803890811,37.766822408],[-106.803575411,37.766666675]],[[-106.809007945,37.766426008],[-106.808496078,37.766589275],[-106.807270878,37.766859875],[-106.806302145,37.767021608]],[[-106.810642078,37.766034675],[-106.809966011,37.766120475],[-106.809007945,37.766426008]],[[-106.818805811,37.764825008],[-106.817558611,37.765114208],[-106.816502478,37.765443408],[-106.815902678,37.765665808],[-106.815408878,37.765709808],[-106.814784278,37.765699208],[-106.814106078,37.765869808],[-106.813416611,37.765931075],[-106.812094011,37.765923875],[-106.810934411,37.765997608],[-106.810642078,37.766034675]],[[-106.824864278,37.764316808],[-106.824353678,37.764230008],[-106.823517011,37.764229208],[-106.823201078,37.764279275],[-106.822356611,37.764402275],[-106.821329078,37.764580208],[-106.820310411,37.764834408],[-106.819590011,37.764918675],[-106.819087211,37.764853208],[-106.818805811,37.764825008]],[[-106.830484611,37.765682675],[-106.829929078,37.765467608],[-106.828947211,37.765209675],[-106.827694678,37.765100808],[-106.826887878,37.764974275],[-106.825858878,37.764588275],[-106.824864278,37.764316808]],[[-106.831468811,37.766726808],[-106.830996678,37.766276408],[-106.830484611,37.765682675]],[[-106.832030278,37.769550275],[-106.831910211,37.768348275],[-106.831633678,37.767013408],[-106.831468811,37.766726808]],[[-106.832475878,37.775051808],[-106.831990278,37.774735008],[-106.831669878,37.774160875],[-106.831271011,37.772925075],[-106.831242011,37.772310275],[-106.831612611,37.771299808],[-106.831681745,37.771126941]],[[-106.831681745,37.771126941],[-106.831950811,37.770453875],[-106.832030278,37.769550275]],[[-106.836327411,37.776942675],[-106.836009611,37.776610875],[-106.835546078,37.776027475],[-106.834907811,37.775731675],[-106.834168611,37.775584408],[-106.833067278,37.775285675],[-106.832475878,37.775051808]],[[-106.836936411,37.778835875],[-106.836769611,37.778343675],[-106.836551278,37.777437208],[-106.836327411,37.776942675]],[[-106.838281211,37.780907475],[-106.838232411,37.780873675],[-106.837490278,37.780322475],[-106.837095211,37.779497875],[-106.836936411,37.778835875]],[[-106.839781478,37.781777475],[-106.839162811,37.781518275],[-106.838281211,37.780907475]],[[-106.842180878,37.783035075],[-106.841367011,37.782637275],[-106.840088478,37.781906075],[-106.839781478,37.781777475]],[[-106.843365878,37.783612808],[-106.842531478,37.783268408],[-106.842180878,37.783035075]],[[-106.845302678,37.784454275],[-106.844065611,37.783939875],[-106.843365878,37.783612808]],[[-106.846483478,37.786862408],[-106.846222411,37.786371208],[-106.845872811,37.785344075],[-106.845648478,37.784879075],[-106.845302678,37.784454275]],[[-106.852095278,37.792424808],[-106.851760411,37.792138608],[-106.851196878,37.791711208],[-106.850697611,37.791270675],[-106.850207611,37.790476608],[-106.849246478,37.789849475],[-106.848240078,37.788947208],[-106.847317611,37.788390075],[-106.846873678,37.787812408],[-106.846483478,37.786862408]],[[-106.852259611,37.795526208],[-106.852169678,37.795108008],[-106.851795278,37.794009608],[-106.851657078,37.793360475],[-106.851890811,37.793023608],[-106.852087211,37.792690075],[-106.852095278,37.792424808]],[[-106.855112411,37.800144075],[-106.854783878,37.799453208],[-106.853893211,37.798055475],[-106.853010878,37.797259675],[-106.852843678,37.796605875],[-106.852655211,37.796159675],[-106.852393478,37.795793475],[-106.852259611,37.795526208]],[[-106.856698278,37.803853608],[-106.856284611,37.803802408],[-106.855931611,37.803554608],[-106.855740278,37.802961675],[-106.855672411,37.801924075],[-106.855535878,37.801319008],[-106.855112411,37.800144075]],[[-106.861865411,37.804531275],[-106.861349078,37.804040875],[-106.860955011,37.803738075],[-106.859768078,37.803087075],[-106.859118878,37.802976008],[-106.858472478,37.803011675],[-106.857891878,37.803173808],[-106.857169278,37.803524875],[-106.856698278,37.803853608]],[[-106.864995611,37.807661808],[-106.864118878,37.806777408],[-106.863329878,37.806039408],[-106.862157611,37.804975608],[-106.861865411,37.804531275]],[[-106.872144011,37.810624075],[-106.871906678,37.810424875],[-106.871437611,37.810158075],[-106.870886078,37.810133875],[-106.869950411,37.810577675],[-106.869440211,37.811152475],[-106.868520811,37.811322808],[-106.867897278,37.811194808],[-106.867294078,37.810308008],[-106.866266411,37.808944608],[-106.865145278,37.807876275],[-106.864995611,37.807661808]],[[-106.872688011,37.812868475],[-106.872680878,37.812148875],[-106.872560478,37.811461475],[-106.872144011,37.810624075]],[[-106.872825411,37.819235608],[-106.872518811,37.819270408],[-106.872266078,37.819094475],[-106.871615011,37.818395675],[-106.870757678,37.817708008],[-106.870126878,37.817242608],[-106.869950011,37.816876208],[-106.870148411,37.816108808],[-106.870958211,37.815323608],[-106.871612011,37.814537475],[-106.871849078,37.813840208],[-106.872478411,37.813240075],[-106.872688011,37.812868475]],[[-106.874907811,37.822907875],[-106.874445478,37.822464208],[-106.873964411,37.821478275],[-106.873647078,37.820801075],[-106.873626611,37.820406008],[-106.873758811,37.819894408],[-106.873527411,37.819510875],[-106.873127278,37.819296808],[-106.872825411,37.819235608]],[[-106.875589145,37.823445408],[-106.875124278,37.823094275],[-106.874907811,37.822907875]],[[-106.876887011,37.824090608],[-106.876097211,37.823859875],[-106.875602878,37.823455808],[-106.875589145,37.823445408]],[[-106.878590011,37.824298408],[-106.877867411,37.824267475],[-106.876887011,37.824090608]],[[-106.892621078,37.820499475],[-106.892313078,37.820461008],[-106.891896411,37.820454208],[-106.891496211,37.820431208],[-106.891181678,37.820540275],[-106.890751678,37.820762475],[-106.890334811,37.821329008],[-106.889947011,37.821709208],[-106.889461278,37.822002475],[-106.888636078,37.822267475],[-106.887611811,37.822623808],[-106.886829278,37.822635008],[-106.886381011,37.822734008],[-106.885780278,37.822824475],[-106.885439211,37.823009275],[-106.884280011,37.823443808],[-106.883060611,37.823758675],[-106.881764411,37.824065808],[-106.879828678,37.824488808],[-106.879168211,37.824430275],[-106.878758278,37.824342008],[-106.878590011,37.824298408]],[[-106.910479811,37.822081208],[-106.909595078,37.822167875],[-106.908744811,37.822295608],[-106.907778411,37.822022208],[-106.906994878,37.821644075],[-106.906436611,37.821319275],[-106.905090811,37.821131275],[-106.904333811,37.821059608],[-106.903078011,37.821128008],[-106.902168211,37.821172875],[-106.901382078,37.821383008],[-106.900695011,37.821591475],[-106.899951878,37.821805075],[-106.899318211,37.822310275],[-106.898606278,37.822447608],[-106.897690411,37.822514875],[-106.897317078,37.822673275],[-106.896672611,37.822914808],[-106.895667611,37.823401675],[-106.894683878,37.823680875],[-106.894146011,37.823493875],[-106.893792878,37.823150675],[-106.893575011,37.822699875],[-106.893545078,37.822114608],[-106.893087078,37.821222208],[-106.892799278,37.820682008],[-106.892621078,37.820499475]],[[-106.914397011,37.816959675],[-106.913607678,37.817434808],[-106.913193478,37.817890875],[-106.912281611,37.818685675],[-106.912031278,37.819354875],[-106.911595811,37.820592008],[-106.911171478,37.821490008],[-106.910479811,37.822081208]],[[-106.921557144,37.816518275],[-106.920818011,37.816684608],[-106.919539011,37.816850875],[-106.917903878,37.817005075],[-106.915923078,37.816771275],[-106.915040278,37.816806408],[-106.914397011,37.816959675]],[[-106.924368878,37.815689475],[-106.923733478,37.815864208],[-106.922774411,37.816244275],[-106.921557144,37.816518275]],[[-106.926623478,37.815222275],[-106.925649278,37.815405408],[-106.924997478,37.815596275],[-106.924368878,37.815689475]],[[-106.940899878,37.812842141],[-106.940771211,37.812811075],[-106.940379678,37.812846275],[-106.939802478,37.813030475],[-106.939450078,37.813393008],[-106.939015678,37.813902475],[-106.938337078,37.814676475],[-106.937729811,37.814848675],[-106.936962078,37.814895675],[-106.936019811,37.814943675],[-106.935002478,37.815027808],[-106.933599078,37.814992275],[-106.932415811,37.814848808],[-106.930226278,37.814641275],[-106.929419211,37.814677075],[-106.928346411,37.814832275],[-106.926623478,37.815222275]],[[-106.942198078,37.813226608],[-106.941655811,37.813010808],[-106.941148411,37.812902075],[-106.940899878,37.812842141]],[[-106.950311078,37.817722275],[-106.949397078,37.817929475],[-106.948700811,37.817948075],[-106.947560811,37.817778808],[-106.946679878,37.817255408],[-106.945838678,37.816522608],[-106.945582211,37.816067875],[-106.945389478,37.815725075],[-106.945162611,37.815025208],[-106.944400011,37.814248608],[-106.943624278,37.813796475],[-106.942882278,37.813635408],[-106.942371611,37.813313875],[-106.942198078,37.813226608]],[[-106.963428611,37.816386008],[-106.962062011,37.815774208],[-106.961192678,37.815455675],[-106.960707011,37.815176008],[-106.959998411,37.815048808],[-106.958748878,37.814683608],[-106.958006411,37.814772608],[-106.957129078,37.815035408],[-106.956284611,37.815581875],[-106.955538678,37.816156275],[-106.954461678,37.817076475],[-106.953675411,37.817316408],[-106.952946078,37.817367408],[-106.952146811,37.817329075],[-106.951173678,37.817519608],[-106.950311078,37.817722275]],[[-106.964136611,37.816667675],[-106.963428611,37.816386008]],[[-106.971895411,37.819407875],[-106.971071878,37.819239608],[-106.970773878,37.819141475],[-106.970197611,37.819142008],[-106.969243011,37.819139875],[-106.968205411,37.818770475],[-106.968019411,37.818441808],[-106.968118011,37.817962475],[-106.968187478,37.817287275],[-106.968095011,37.816729675],[-106.967893011,37.816578808],[-106.967421078,37.816518475],[-106.966650878,37.816676208],[-106.965795211,37.816893008],[-106.965087278,37.816898008],[-106.964136611,37.816667675]],[[-106.973581744,37.819001475],[-106.973172211,37.819226475],[-106.972836278,37.819381808],[-106.972502811,37.819426608],[-106.971895411,37.819407875]],[[-106.974426411,37.818610408],[-106.973844611,37.818857075],[-106.973581744,37.819001475]],[[-106.975270478,37.818083141],[-106.975236011,37.818114075],[-106.974857611,37.818427608],[-106.974426411,37.818610408]],[[-106.976747344,37.815566408],[-106.976700478,37.815865008],[-106.976475878,37.816576208],[-106.975735878,37.817664675],[-106.975270478,37.818083141]],[[-106.977184811,37.813505875],[-106.977127278,37.814260875],[-106.977050878,37.814635275],[-106.976768278,37.815432608],[-106.976747344,37.815566408]],[[-106.978462611,37.811651208],[-106.978298211,37.811817675],[-106.977852078,37.812247608],[-106.977335411,37.813058675],[-106.977184811,37.813505875]],[[-106.979099611,37.810214141],[-106.978865278,37.810869808],[-106.978569011,37.811543408],[-106.978462611,37.811651208]],[[-106.980640811,37.807857475],[-106.980348078,37.808111808],[-106.980058611,37.808387808],[-106.979720278,37.808969675],[-106.979275211,37.809722808],[-106.979099611,37.810214141]],[[-106.983371144,37.806807141],[-106.982581411,37.806903075],[-106.981765211,37.807131075],[-106.980949678,37.807712008],[-106.980640811,37.807857475]],[[-106.981038411,37.789592408],[-106.980741078,37.789847075],[-106.980548478,37.790202608],[-106.980481678,37.790451208],[-106.980654478,37.790913408],[-106.980974211,37.791663675],[-106.981392078,37.792787275],[-106.981700278,37.793523875],[-106.982425011,37.794678608],[-106.982674811,37.795023608],[-106.983262278,37.795352675],[-106.984400078,37.796110008],[-106.985157878,37.796504608],[-106.985668211,37.797075875],[-106.985925678,37.797662675],[-106.985852011,37.798529408],[-106.985730278,37.799106408],[-106.985261811,37.799575008],[-106.985077278,37.800047408],[-106.984809011,37.801130208]],[[-106.981714011,37.789150875],[-106.981307411,37.789369608],[-106.981038411,37.789592408]],[[-106.982968278,37.788095008],[-106.982375678,37.788743875],[-106.981980611,37.789007475],[-106.981714011,37.789150875]],[[-106.987589211,37.784979675],[-106.987086011,37.785025208],[-106.986294211,37.785287875],[-106.985395611,37.786038008],[-106.984197411,37.786932808],[-106.982968278,37.788095008]],[[-106.985009744,37.803823875],[-106.985026278,37.803947808],[-106.985306878,37.804562008],[-106.985616011,37.805335208],[-106.985525678,37.805806475],[-106.985348278,37.806263475],[-106.985068811,37.806479875],[-106.984001011,37.806730675],[-106.983371144,37.806807141]],[[-106.984809011,37.801130208],[-106.984715811,37.801961808],[-106.984944811,37.803337675]],[[-106.984944811,37.803337675],[-106.985009744,37.803823875]],[[-106.988992878,37.785051275],[-106.988012478,37.785000275],[-106.987589211,37.784979675]],[[-106.993616878,37.785059475],[-106.992862611,37.785193875],[-106.991827078,37.785184608],[-106.990331011,37.785158208],[-106.988992878,37.785051275]],[[-106.996539278,37.783222075],[-106.995565611,37.783626275],[-106.995009678,37.784014675],[-106.994542211,37.784615608],[-106.994017211,37.784957075],[-106.993616878,37.785059475]],[[-106.998744211,37.782809475],[-106.998105411,37.783021608],[-106.997390011,37.783101008],[-106.996539278,37.783222075]],[[-107.0,37.7817293506],[-106.999772011,37.782040208],[-106.999463411,37.782376808],[-106.999069411,37.782647675],[-106.998744211,37.782809475]]]}}]}
