{"type":"FeatureCollection","metadata":{"source":"C:\\ct-atlas-data\\processed\\geojson\\interpreted\\colorado_named_natural_streams_complete_v1.geojson","tier":"tier2","tile_size_degrees":0.25,"x":-410,"y":163,"bounds":{"west":-102.5,"south":40.75,"east":-102.25,"north":41}},"features":[{"type":"Feature","geometry":{"type":"LineString","coordinates":[[-102.3365,40.8196],[-102.3289,40.818],[-102.3189,40.8145],[-102.312,40.8201],[-102.307,40.82],[-102.3046,40.8205],[-102.304,40.8215],[-102.3014,40.8216],[-102.2997,40.8259],[-102.2974,40.8271],[-102.2886,40.8244],[-102.2856,40.8248],[-102.2828,40.8227],[-102.2805,40.8242],[-102.2766,40.8237],[-102.2712,40.8199],[-102.2621,40.8201],[-102.2516,40.8174],[-102.2443,40.8181]]},"properties":{"source_id":"co_named_stream_026134","name":"Sand Creek","display_name":"Sand Creek","mapped_name":"Sand Creek","source_name":"Sand Creek","state":"CO","atlas_class":"named_natural_stream","huc8":"10250006","huc8Name":"Stinking Water","huc8States":"CO,NE","lineageKey":"statewideContext","lineage":"statewideContext","historic":"statewideContext","current":"statewideContext","recovery":"statewideContext","lineageLabel":"Statewide Colorado hydrography context","lineageBasin":"","lineageNote":"","atlas_context":"statewide_hydrography_context","confidence":"Statewide hydrography context outside current cutthroat lineage model","geometryStatus":"Named natural stream segment from statewide hydrography","note":"This named natural stream is included for statewide Colorado hydrography completeness and is outside the current cutthroat lineage assignment set.","source_segment_id":"co_named_stream_026134","water_id":"co_sand_creek_10250006_statewideContext_002","occurrence_id":"co_sand_creek_10250006_statewideContext_002","occurrence_number":"002","segment_count":22,"disambiguator":"Stinking Water · Statewide Colorado hydrography context · occurrence 002","basin":"Stinking Water","atlas_layer":"named_water_occurrence","object_role":"named_water_occurrence","historic_label":"Statewide Colorado hydrography context","current_label":"Statewide Colorado hydrography context","recovery_label":"Statewide Colorado hydrography context","tier":"tier2","minZoom":12,"confidence_public":"Statewide hydrography context outside current cutthroat lineage model","geometry_status_public":"Named natural stream occurrence from statewide hydrography","geometry_source_public":"Grouped public hydrography segments","trout_source_public":"Included for Colorado statewide hydrography completeness","public_notes":"Sand Creek is shown as statewide Colorado hydrography context outside the current cutthroat lineage assignment set."}}]}