{"type":"FeatureCollection","metadata":{"source":"C:\\ct-atlas-data\\processed\\geojson\\interpreted\\colorado_named_natural_streams_complete_v1.geojson","tier":"tier2","tile_size_degrees":0.25,"x":-414,"y":154,"bounds":{"west":-103.5,"south":38.5,"east":-103.25,"north":38.75}},"features":[{"type":"Feature","geometry":{"type":"LineString","coordinates":[[-103.2638,38.7109],[-103.2623,38.7129]]},"properties":{"source_id":"co_named_stream_032091","name":"Rush Creek","display_name":"Rush Creek","mapped_name":"Rush Creek","source_name":"Rush Creek","state":"CO","atlas_class":"named_natural_stream","huc8":"11020012","huc8Name":"Rush","huc8States":"CO","lineageKey":"statewideContext","lineage":"statewideContext","historic":"statewideContext","current":"statewideContext","recovery":"statewideContext","lineageLabel":"Statewide Colorado hydrography context","lineageBasin":"","lineageNote":"","atlas_context":"statewide_hydrography_context","confidence":"Statewide hydrography context outside current cutthroat lineage model","geometryStatus":"Named natural stream segment from statewide hydrography","note":"This named natural stream is included for statewide Colorado hydrography completeness and is outside the current cutthroat lineage assignment set.","source_segment_id":"co_named_stream_032091","water_id":"co_rush_creek_11020012_statewideContext_001","occurrence_id":"co_rush_creek_11020012_statewideContext_001","occurrence_number":"001","segment_count":77,"disambiguator":"Rush · Statewide Colorado hydrography context · occurrence 001","basin":"Rush","atlas_layer":"named_water_occurrence","object_role":"named_water_occurrence","historic_label":"Statewide Colorado hydrography context","current_label":"Statewide Colorado hydrography context","recovery_label":"Statewide Colorado hydrography context","tier":"tier2","minZoom":12,"confidence_public":"Statewide hydrography context outside current cutthroat lineage model","geometry_status_public":"Named natural stream occurrence from statewide hydrography","geometry_source_public":"Grouped public hydrography segments","trout_source_public":"Included for Colorado statewide hydrography completeness","public_notes":"Rush Creek is shown as statewide Colorado hydrography context outside the current cutthroat lineage assignment set."}},{"type":"Feature","geometry":{"type":"LineString","coordinates":[[-103.2515,38.7017],[-103.2502,38.6955]]},"properties":{"source_id":"co_named_stream_032092","name":"Rush Creek","display_name":"Rush Creek","mapped_name":"Rush Creek","source_name":"Rush Creek","state":"CO","atlas_class":"named_natural_stream","huc8":"11020012","huc8Name":"Rush","huc8States":"CO","lineageKey":"statewideContext","lineage":"statewideContext","historic":"statewideContext","current":"statewideContext","recovery":"statewideContext","lineageLabel":"Statewide Colorado hydrography context","lineageBasin":"","lineageNote":"","atlas_context":"statewide_hydrography_context","confidence":"Statewide hydrography context outside current cutthroat lineage model","geometryStatus":"Named natural stream segment from statewide hydrography","note":"This named natural stream is included for statewide Colorado hydrography completeness and is outside the current cutthroat lineage assignment set.","source_segment_id":"co_named_stream_032092","water_id":"co_rush_creek_11020012_statewideContext_001","occurrence_id":"co_rush_creek_11020012_statewideContext_001","occurrence_number":"001","segment_count":77,"disambiguator":"Rush · Statewide Colorado hydrography context · occurrence 001","basin":"Rush","atlas_layer":"named_water_occurrence","object_role":"named_water_occurrence","historic_label":"Statewide Colorado hydrography context","current_label":"Statewide Colorado hydrography context","recovery_label":"Statewide Colorado hydrography context","tier":"tier2","minZoom":12,"confidence_public":"Statewide hydrography context outside current cutthroat lineage model","geometry_status_public":"Named natural stream occurrence from statewide hydrography","geometry_source_public":"Grouped public hydrography segments","trout_source_public":"Included for Colorado statewide hydrography completeness","public_notes":"Rush Creek is shown as statewide Colorado hydrography context outside the current cutthroat lineage assignment set."}},{"type":"Feature","geometry":{"type":"LineString","coordinates":[[-103.2623,38.7129],[-103.2595,38.7134],[-103.2564,38.7113],[-103.2529,38.7108],[-103.2513,38.7096],[-103.2511,38.7073]]},"properties":{"source_id":"co_named_stream_035550","name":"Rush Creek","display_name":"Rush Creek","mapped_name":"Rush Creek","source_name":"Rush Creek","state":"CO","atlas_class":"named_natural_stream","huc8":"11020012","huc8Name":"Rush","huc8States":"CO","lineageKey":"statewideContext","lineage":"statewideContext","historic":"statewideContext","current":"statewideContext","recovery":"statewideContext","lineageLabel":"Statewide Colorado hydrography context","lineageBasin":"","lineageNote":"","atlas_context":"statewide_hydrography_context","confidence":"Statewide hydrography context outside current cutthroat lineage model","geometryStatus":"Named natural stream segment from statewide hydrography","note":"This named natural stream is included for statewide Colorado hydrography completeness and is outside the current cutthroat lineage assignment set.","source_segment_id":"co_named_stream_035550","water_id":"co_rush_creek_11020012_statewideContext_001","occurrence_id":"co_rush_creek_11020012_statewideContext_001","occurrence_number":"001","segment_count":77,"disambiguator":"Rush · Statewide Colorado hydrography context · occurrence 001","basin":"Rush","atlas_layer":"named_water_occurrence","object_role":"named_water_occurrence","historic_label":"Statewide Colorado hydrography context","current_label":"Statewide Colorado hydrography context","recovery_label":"Statewide Colorado hydrography context","tier":"tier2","minZoom":12,"confidence_public":"Statewide hydrography context outside current cutthroat lineage model","geometry_status_public":"Named natural stream occurrence from statewide hydrography","geometry_source_public":"Grouped public hydrography segments","trout_source_public":"Included for Colorado statewide hydrography completeness","public_notes":"Rush Creek is shown as statewide Colorado hydrography context outside the current cutthroat lineage assignment set."}},{"type":"Feature","geometry":{"type":"LineString","coordinates":[[-103.2901,38.742],[-103.2869,38.741],[-103.284,38.738]]},"properties":{"source_id":"co_named_stream_035628","name":"Rush Creek","display_name":"Rush Creek","mapped_name":"Rush Creek","source_name":"Rush Creek","state":"CO","atlas_class":"named_natural_stream","huc8":"11020012","huc8Name":"Rush","huc8States":"CO","lineageKey":"statewideContext","lineage":"statewideContext","historic":"statewideContext","current":"statewideContext","recovery":"statewideContext","lineageLabel":"Statewide Colorado hydrography context","lineageBasin":"","lineageNote":"","atlas_context":"statewide_hydrography_context","confidence":"Statewide hydrography context outside current cutthroat lineage model","geometryStatus":"Named natural stream segment from statewide hydrography","note":"This named natural stream is included for statewide Colorado hydrography completeness and is outside the current cutthroat lineage assignment set.","source_segment_id":"co_named_stream_035628","water_id":"co_rush_creek_11020012_statewideContext_001","occurrence_id":"co_rush_creek_11020012_statewideContext_001","occurrence_number":"001","segment_count":77,"disambiguator":"Rush · Statewide Colorado hydrography context · occurrence 001","basin":"Rush","atlas_layer":"named_water_occurrence","object_role":"named_water_occurrence","historic_label":"Statewide Colorado hydrography context","current_label":"Statewide Colorado hydrography context","recovery_label":"Statewide Colorado hydrography context","tier":"tier2","minZoom":12,"confidence_public":"Statewide hydrography context outside current cutthroat lineage model","geometry_status_public":"Named natural stream occurrence from statewide hydrography","geometry_source_public":"Grouped public hydrography segments","trout_source_public":"Included for Colorado statewide hydrography completeness","public_notes":"Rush Creek is shown as statewide Colorado hydrography context outside the current cutthroat lineage assignment set."}},{"type":"Feature","geometry":{"type":"LineString","coordinates":[[-103.2964,38.7444],[-103.2932,38.7442]]},"properties":{"source_id":"co_named_stream_038475","name":"Rush Creek","display_name":"Rush Creek","mapped_name":"Rush Creek","source_name":"Rush Creek","state":"CO","atlas_class":"named_natural_stream","huc8":"11020012","huc8Name":"Rush","huc8States":"CO","lineageKey":"statewideContext","lineage":"statewideContext","historic":"statewideContext","current":"statewideContext","recovery":"statewideContext","lineageLabel":"Statewide Colorado hydrography context","lineageBasin":"","lineageNote":"","atlas_context":"statewide_hydrography_context","confidence":"Statewide hydrography context outside current cutthroat lineage model","geometryStatus":"Named natural stream segment from statewide hydrography","note":"This named natural stream is included for statewide Colorado hydrography completeness and is outside the current cutthroat lineage assignment set.","source_segment_id":"co_named_stream_038475","water_id":"co_rush_creek_11020012_statewideContext_001","occurrence_id":"co_rush_creek_11020012_statewideContext_001","occurrence_number":"001","segment_count":77,"disambiguator":"Rush · Statewide Colorado hydrography context · occurrence 001","basin":"Rush","atlas_layer":"named_water_occurrence","object_role":"named_water_occurrence","historic_label":"Statewide Colorado hydrography context","current_label":"Statewide Colorado hydrography context","recovery_label":"Statewide Colorado hydrography context","tier":"tier2","minZoom":12,"confidence_public":"Statewide hydrography context outside current cutthroat lineage model","geometry_status_public":"Named natural stream occurrence from statewide hydrography","geometry_source_public":"Grouped public hydrography segments","trout_source_public":"Included for Colorado statewide hydrography completeness","public_notes":"Rush Creek is shown as statewide Colorado hydrography context outside the current cutthroat lineage assignment set."}},{"type":"Feature","geometry":{"type":"LineString","coordinates":[[-103.2907,38.7424],[-103.2901,38.742]]},"properties":{"source_id":"co_named_stream_042877","name":"Rush Creek","display_name":"Rush Creek","mapped_name":"Rush Creek","source_name":"Rush Creek","state":"CO","atlas_class":"named_natural_stream","huc8":"11020012","huc8Name":"Rush","huc8States":"CO","lineageKey":"statewideContext","lineage":"statewideContext","historic":"statewideContext","current":"statewideContext","recovery":"statewideContext","lineageLabel":"Statewide Colorado hydrography context","lineageBasin":"","lineageNote":"","atlas_context":"statewide_hydrography_context","confidence":"Statewide hydrography context outside current cutthroat lineage model","geometryStatus":"Named natural stream segment from statewide hydrography","note":"This named natural stream is included for statewide Colorado hydrography completeness and is outside the current cutthroat lineage assignment set.","source_segment_id":"co_named_stream_042877","water_id":"co_rush_creek_11020012_statewideContext_001","occurrence_id":"co_rush_creek_11020012_statewideContext_001","occurrence_number":"001","segment_count":77,"disambiguator":"Rush · Statewide Colorado hydrography context · occurrence 001","basin":"Rush","atlas_layer":"named_water_occurrence","object_role":"named_water_occurrence","historic_label":"Statewide Colorado hydrography context","current_label":"Statewide Colorado hydrography context","recovery_label":"Statewide Colorado hydrography context","tier":"tier2","minZoom":12,"confidence_public":"Statewide hydrography context outside current cutthroat lineage model","geometry_status_public":"Named natural stream occurrence from statewide hydrography","geometry_source_public":"Grouped public hydrography segments","trout_source_public":"Included for Colorado statewide hydrography completeness","public_notes":"Rush Creek is shown as statewide Colorado hydrography context outside the current cutthroat lineage assignment set."}},{"type":"Feature","geometry":{"type":"LineString","coordinates":[[-103.298,38.7438],[-103.2964,38.7444]]},"properties":{"source_id":"co_named_stream_043789","name":"Rush Creek","display_name":"Rush Creek","mapped_name":"Rush Creek","source_name":"Rush Creek","state":"CO","atlas_class":"named_natural_stream","huc8":"11020012","huc8Name":"Rush","huc8States":"CO","lineageKey":"statewideContext","lineage":"statewideContext","historic":"statewideContext","current":"statewideContext","recovery":"statewideContext","lineageLabel":"Statewide Colorado hydrography context","lineageBasin":"","lineageNote":"","atlas_context":"statewide_hydrography_context","confidence":"Statewide hydrography context outside current cutthroat lineage model","geometryStatus":"Named natural stream segment from statewide hydrography","note":"This named natural stream is included for statewide Colorado hydrography completeness and is outside the current cutthroat lineage assignment set.","source_segment_id":"co_named_stream_043789","water_id":"co_rush_creek_11020012_statewideContext_001","occurrence_id":"co_rush_creek_11020012_statewideContext_001","occurrence_number":"001","segment_count":77,"disambiguator":"Rush · Statewide Colorado hydrography context · occurrence 001","basin":"Rush","atlas_layer":"named_water_occurrence","object_role":"named_water_occurrence","historic_label":"Statewide Colorado hydrography context","current_label":"Statewide Colorado hydrography context","recovery_label":"Statewide Colorado hydrography context","tier":"tier2","minZoom":12,"confidence_public":"Statewide hydrography context outside current cutthroat lineage model","geometry_status_public":"Named natural stream occurrence from statewide hydrography","geometry_source_public":"Grouped public hydrography segments","trout_source_public":"Included for Colorado statewide hydrography completeness","public_notes":"Rush Creek is shown as statewide Colorado hydrography context outside the current cutthroat lineage assignment set."}},{"type":"Feature","geometry":{"type":"LineString","coordinates":[[-103.3009,38.7518],[-103.2998,38.7487]]},"properties":{"source_id":"co_named_stream_043806","name":"Rush Creek","display_name":"Rush Creek","mapped_name":"Rush Creek","source_name":"Rush Creek","state":"CO","atlas_class":"named_natural_stream","huc8":"11020012","huc8Name":"Rush","huc8States":"CO","lineageKey":"statewideContext","lineage":"statewideContext","historic":"statewideContext","current":"statewideContext","recovery":"statewideContext","lineageLabel":"Statewide Colorado hydrography context","lineageBasin":"","lineageNote":"","atlas_context":"statewide_hydrography_context","confidence":"Statewide hydrography context outside current cutthroat lineage model","geometryStatus":"Named natural stream segment from statewide hydrography","note":"This named natural stream is included for statewide Colorado hydrography completeness and is outside the current cutthroat lineage assignment set.","source_segment_id":"co_named_stream_043806","water_id":"co_rush_creek_11020012_statewideContext_001","occurrence_id":"co_rush_creek_11020012_statewideContext_001","occurrence_number":"001","segment_count":77,"disambiguator":"Rush · Statewide Colorado hydrography context · occurrence 001","basin":"Rush","atlas_layer":"named_water_occurrence","object_role":"named_water_occurrence","historic_label":"Statewide Colorado hydrography context","current_label":"Statewide Colorado hydrography context","recovery_label":"Statewide Colorado hydrography context","tier":"tier2","minZoom":12,"confidence_public":"Statewide hydrography context outside current cutthroat lineage model","geometry_status_public":"Named natural stream occurrence from statewide hydrography","geometry_source_public":"Grouped public hydrography segments","trout_source_public":"Included for Colorado statewide hydrography completeness","public_notes":"Rush Creek is shown as statewide Colorado hydrography context outside the current cutthroat lineage assignment set."}},{"type":"Feature","geometry":{"type":"LineString","coordinates":[[-103.299,38.7469],[-103.2991,38.7462]]},"properties":{"source_id":"co_named_stream_043807","name":"Rush Creek","display_name":"Rush Creek","mapped_name":"Rush Creek","source_name":"Rush Creek","state":"CO","atlas_class":"named_natural_stream","huc8":"11020012","huc8Name":"Rush","huc8States":"CO","lineageKey":"statewideContext","lineage":"statewideContext","historic":"statewideContext","current":"statewideContext","recovery":"statewideContext","lineageLabel":"Statewide Colorado hydrography context","lineageBasin":"","lineageNote":"","atlas_context":"statewide_hydrography_context","confidence":"Statewide hydrography context outside current cutthroat lineage model","geometryStatus":"Named natural stream segment from statewide hydrography","note":"This named natural stream is included for statewide Colorado hydrography completeness and is outside the current cutthroat lineage assignment set.","source_segment_id":"co_named_stream_043807","water_id":"co_rush_creek_11020012_statewideContext_001","occurrence_id":"co_rush_creek_11020012_statewideContext_001","occurrence_number":"001","segment_count":77,"disambiguator":"Rush · Statewide Colorado hydrography context · occurrence 001","basin":"Rush","atlas_layer":"named_water_occurrence","object_role":"named_water_occurrence","historic_label":"Statewide Colorado hydrography context","current_label":"Statewide Colorado hydrography context","recovery_label":"Statewide Colorado hydrography context","tier":"tier2","minZoom":12,"confidence_public":"Statewide hydrography context outside current cutthroat lineage model","geometry_status_public":"Named natural stream occurrence from statewide hydrography","geometry_source_public":"Grouped public hydrography segments","trout_source_public":"Included for Colorado statewide hydrography completeness","public_notes":"Rush Creek is shown as statewide Colorado hydrography context outside the current cutthroat lineage assignment set."}},{"type":"Feature","geometry":{"type":"LineString","coordinates":[[-103.2932,38.7442],[-103.2907,38.7424]]},"properties":{"source_id":"co_named_stream_043808","name":"Rush Creek","display_name":"Rush Creek","mapped_name":"Rush Creek","source_name":"Rush Creek","state":"CO","atlas_class":"named_natural_stream","huc8":"11020012","huc8Name":"Rush","huc8States":"CO","lineageKey":"statewideContext","lineage":"statewideContext","historic":"statewideContext","current":"statewideContext","recovery":"statewideContext","lineageLabel":"Statewide Colorado hydrography context","lineageBasin":"","lineageNote":"","atlas_context":"statewide_hydrography_context","confidence":"Statewide hydrography context outside current cutthroat lineage model","geometryStatus":"Named natural stream segment from statewide hydrography","note":"This named natural stream is included for statewide Colorado hydrography completeness and is outside the current cutthroat lineage assignment set.","source_segment_id":"co_named_stream_043808","water_id":"co_rush_creek_11020012_statewideContext_001","occurrence_id":"co_rush_creek_11020012_statewideContext_001","occurrence_number":"001","segment_count":77,"disambiguator":"Rush · Statewide Colorado hydrography context · occurrence 001","basin":"Rush","atlas_layer":"named_water_occurrence","object_role":"named_water_occurrence","historic_label":"Statewide Colorado hydrography context","current_label":"Statewide Colorado hydrography context","recovery_label":"Statewide Colorado hydrography context","tier":"tier2","minZoom":12,"confidence_public":"Statewide hydrography context outside current cutthroat lineage model","geometry_status_public":"Named natural stream occurrence from statewide hydrography","geometry_source_public":"Grouped public hydrography segments","trout_source_public":"Included for Colorado statewide hydrography completeness","public_notes":"Rush Creek is shown as statewide Colorado hydrography context outside the current cutthroat lineage assignment set."}},{"type":"Feature","geometry":{"type":"LineString","coordinates":[[-103.2502,38.6955],[-103.244,38.6928]]},"properties":{"source_id":"co_named_stream_047797","name":"Rush Creek","display_name":"Rush Creek","mapped_name":"Rush Creek","source_name":"Rush Creek","state":"CO","atlas_class":"named_natural_stream","huc8":"11020012","huc8Name":"Rush","huc8States":"CO","lineageKey":"statewideContext","lineage":"statewideContext","historic":"statewideContext","current":"statewideContext","recovery":"statewideContext","lineageLabel":"Statewide Colorado hydrography context","lineageBasin":"","lineageNote":"","atlas_context":"statewide_hydrography_context","confidence":"Statewide hydrography context outside current cutthroat lineage model","geometryStatus":"Named natural stream segment from statewide hydrography","note":"This named natural stream is included for statewide Colorado hydrography completeness and is outside the current cutthroat lineage assignment set.","source_segment_id":"co_named_stream_047797","water_id":"co_rush_creek_11020012_statewideContext_001","occurrence_id":"co_rush_creek_11020012_statewideContext_001","occurrence_number":"001","segment_count":77,"disambiguator":"Rush · Statewide Colorado hydrography context · occurrence 001","basin":"Rush","atlas_layer":"named_water_occurrence","object_role":"named_water_occurrence","historic_label":"Statewide Colorado hydrography context","current_label":"Statewide Colorado hydrography context","recovery_label":"Statewide Colorado hydrography context","tier":"tier2","minZoom":12,"confidence_public":"Statewide hydrography context outside current cutthroat lineage model","geometry_status_public":"Named natural stream occurrence from statewide hydrography","geometry_source_public":"Grouped public hydrography segments","trout_source_public":"Included for Colorado statewide hydrography completeness","public_notes":"Rush Creek is shown as statewide Colorado hydrography context outside the current cutthroat lineage assignment set."}},{"type":"Feature","geometry":{"type":"LineString","coordinates":[[-103.2513,38.7054],[-103.2515,38.7017]]},"properties":{"source_id":"co_named_stream_047938","name":"Rush Creek","display_name":"Rush Creek","mapped_name":"Rush Creek","source_name":"Rush Creek","state":"CO","atlas_class":"named_natural_stream","huc8":"11020012","huc8Name":"Rush","huc8States":"CO","lineageKey":"statewideContext","lineage":"statewideContext","historic":"statewideContext","current":"statewideContext","recovery":"statewideContext","lineageLabel":"Statewide Colorado hydrography context","lineageBasin":"","lineageNote":"","atlas_context":"statewide_hydrography_context","confidence":"Statewide hydrography context outside current cutthroat lineage model","geometryStatus":"Named natural stream segment from statewide hydrography","note":"This named natural stream is included for statewide Colorado hydrography completeness and is outside the current cutthroat lineage assignment set.","source_segment_id":"co_named_stream_047938","water_id":"co_rush_creek_11020012_statewideContext_001","occurrence_id":"co_rush_creek_11020012_statewideContext_001","occurrence_number":"001","segment_count":77,"disambiguator":"Rush · Statewide Colorado hydrography context · occurrence 001","basin":"Rush","atlas_layer":"named_water_occurrence","object_role":"named_water_occurrence","historic_label":"Statewide Colorado hydrography context","current_label":"Statewide Colorado hydrography context","recovery_label":"Statewide Colorado hydrography context","tier":"tier2","minZoom":12,"confidence_public":"Statewide hydrography context outside current cutthroat lineage model","geometry_status_public":"Named natural stream occurrence from statewide hydrography","geometry_source_public":"Grouped public hydrography segments","trout_source_public":"Included for Colorado statewide hydrography completeness","public_notes":"Rush Creek is shown as statewide Colorado hydrography context outside the current cutthroat lineage assignment set."}},{"type":"Feature","geometry":{"type":"LineString","coordinates":[[-103.2998,38.7487],[-103.299,38.7469]]},"properties":{"source_id":"co_named_stream_048005","name":"Rush Creek","display_name":"Rush Creek","mapped_name":"Rush Creek","source_name":"Rush Creek","state":"CO","atlas_class":"named_natural_stream","huc8":"11020012","huc8Name":"Rush","huc8States":"CO","lineageKey":"statewideContext","lineage":"statewideContext","historic":"statewideContext","current":"statewideContext","recovery":"statewideContext","lineageLabel":"Statewide Colorado hydrography context","lineageBasin":"","lineageNote":"","atlas_context":"statewide_hydrography_context","confidence":"Statewide hydrography context outside current cutthroat lineage model","geometryStatus":"Named natural stream segment from statewide hydrography","note":"This named natural stream is included for statewide Colorado hydrography completeness and is outside the current cutthroat lineage assignment set.","source_segment_id":"co_named_stream_048005","water_id":"co_rush_creek_11020012_statewideContext_001","occurrence_id":"co_rush_creek_11020012_statewideContext_001","occurrence_number":"001","segment_count":77,"disambiguator":"Rush · Statewide Colorado hydrography context · occurrence 001","basin":"Rush","atlas_layer":"named_water_occurrence","object_role":"named_water_occurrence","historic_label":"Statewide Colorado hydrography context","current_label":"Statewide Colorado hydrography context","recovery_label":"Statewide Colorado hydrography context","tier":"tier2","minZoom":12,"confidence_public":"Statewide hydrography context outside current cutthroat lineage model","geometry_status_public":"Named natural stream occurrence from statewide hydrography","geometry_source_public":"Grouped public hydrography segments","trout_source_public":"Included for Colorado statewide hydrography completeness","public_notes":"Rush Creek is shown as statewide Colorado hydrography context outside the current cutthroat lineage assignment set."}},{"type":"Feature","geometry":{"type":"LineString","coordinates":[[-103.3644,38.513],[-103.363,38.5124]]},"properties":{"source_id":"co_named_stream_036686","name":"Adobe Creek","display_name":"Adobe Creek","mapped_name":"Adobe Creek","source_name":"Adobe Creek","state":"CO","atlas_class":"named_natural_stream","huc8":"11020009","huc8Name":"Upper Arkansas-John Martin Reservoir","huc8States":"CO,KS","lineageKey":"statewideContext","lineage":"statewideContext","historic":"statewideContext","current":"statewideContext","recovery":"statewideContext","lineageLabel":"Statewide Colorado hydrography context","lineageBasin":"","lineageNote":"","atlas_context":"statewide_hydrography_context","confidence":"Statewide hydrography context outside current cutthroat lineage model","geometryStatus":"Named natural stream segment from statewide hydrography","note":"This named natural stream is included for statewide Colorado hydrography completeness and is outside the current cutthroat lineage assignment set.","source_segment_id":"co_named_stream_036686","water_id":"co_adobe_creek_11020009_statewideContext_002","occurrence_id":"co_adobe_creek_11020009_statewideContext_002","occurrence_number":"002","segment_count":33,"disambiguator":"Upper Arkansas-John Martin Reservoir · Statewide Colorado hydrography context · occurrence 002","basin":"Upper Arkansas-John Martin Reservoir","atlas_layer":"named_water_occurrence","object_role":"named_water_occurrence","historic_label":"Statewide Colorado hydrography context","current_label":"Statewide Colorado hydrography context","recovery_label":"Statewide Colorado hydrography context","tier":"tier2","minZoom":12,"confidence_public":"Statewide hydrography context outside current cutthroat lineage model","geometry_status_public":"Named natural stream occurrence from statewide hydrography","geometry_source_public":"Grouped public hydrography segments","trout_source_public":"Included for Colorado statewide hydrography completeness","public_notes":"Adobe Creek is shown as statewide Colorado hydrography context outside the current cutthroat lineage assignment set."}},{"type":"Feature","geometry":{"type":"LineString","coordinates":[[-103.3598,38.5029],[-103.3602,38.5012]]},"properties":{"source_id":"co_named_stream_036687","name":"Adobe Creek","display_name":"Adobe Creek","mapped_name":"Adobe Creek","source_name":"Adobe Creek","state":"CO","atlas_class":"named_natural_stream","huc8":"11020009","huc8Name":"Upper Arkansas-John Martin Reservoir","huc8States":"CO,KS","lineageKey":"statewideContext","lineage":"statewideContext","historic":"statewideContext","current":"statewideContext","recovery":"statewideContext","lineageLabel":"Statewide Colorado hydrography context","lineageBasin":"","lineageNote":"","atlas_context":"statewide_hydrography_context","confidence":"Statewide hydrography context outside current cutthroat lineage model","geometryStatus":"Named natural stream segment from statewide hydrography","note":"This named natural stream is included for statewide Colorado hydrography completeness and is outside the current cutthroat lineage assignment set.","source_segment_id":"co_named_stream_036687","water_id":"co_adobe_creek_11020009_statewideContext_002","occurrence_id":"co_adobe_creek_11020009_statewideContext_002","occurrence_number":"002","segment_count":33,"disambiguator":"Upper Arkansas-John Martin Reservoir · Statewide Colorado hydrography context · occurrence 002","basin":"Upper Arkansas-John Martin Reservoir","atlas_layer":"named_water_occurrence","object_role":"named_water_occurrence","historic_label":"Statewide Colorado hydrography context","current_label":"Statewide Colorado hydrography context","recovery_label":"Statewide Colorado hydrography context","tier":"tier2","minZoom":12,"confidence_public":"Statewide hydrography context outside current cutthroat lineage model","geometry_status_public":"Named natural stream occurrence from statewide hydrography","geometry_source_public":"Grouped public hydrography segments","trout_source_public":"Included for Colorado statewide hydrography completeness","public_notes":"Adobe Creek is shown as statewide Colorado hydrography context outside the current cutthroat lineage assignment set."}},{"type":"Feature","geometry":{"type":"LineString","coordinates":[[-103.3602,38.5012],[-103.3591,38.4994]]},"properties":{"source_id":"co_named_stream_038734","name":"Adobe Creek","display_name":"Adobe Creek","mapped_name":"Adobe Creek","source_name":"Adobe Creek","state":"CO","atlas_class":"named_natural_stream","huc8":"11020009","huc8Name":"Upper Arkansas-John Martin Reservoir","huc8States":"CO,KS","lineageKey":"statewideContext","lineage":"statewideContext","historic":"statewideContext","current":"statewideContext","recovery":"statewideContext","lineageLabel":"Statewide Colorado hydrography context","lineageBasin":"","lineageNote":"","atlas_context":"statewide_hydrography_context","confidence":"Statewide hydrography context outside current cutthroat lineage model","geometryStatus":"Named natural stream segment from statewide hydrography","note":"This named natural stream is included for statewide Colorado hydrography completeness and is outside the current cutthroat lineage assignment set.","source_segment_id":"co_named_stream_038734","water_id":"co_adobe_creek_11020009_statewideContext_002","occurrence_id":"co_adobe_creek_11020009_statewideContext_002","occurrence_number":"002","segment_count":33,"disambiguator":"Upper Arkansas-John Martin Reservoir · Statewide Colorado hydrography context · occurrence 002","basin":"Upper Arkansas-John Martin Reservoir","atlas_layer":"named_water_occurrence","object_role":"named_water_occurrence","historic_label":"Statewide Colorado hydrography context","current_label":"Statewide Colorado hydrography context","recovery_label":"Statewide Colorado hydrography context","tier":"tier2","minZoom":12,"confidence_public":"Statewide hydrography context outside current cutthroat lineage model","geometry_status_public":"Named natural stream occurrence from statewide hydrography","geometry_source_public":"Grouped public hydrography segments","trout_source_public":"Included for Colorado statewide hydrography completeness","public_notes":"Adobe Creek is shown as statewide Colorado hydrography context outside the current cutthroat lineage assignment set."}},{"type":"Feature","geometry":{"type":"LineString","coordinates":[[-103.4117,38.539],[-103.4125,38.5354],[-103.4101,38.5346],[-103.4112,38.5343],[-103.4112,38.5328],[-103.4087,38.531],[-103.4089,38.5276],[-103.4047,38.5268],[-103.4034,38.528]]},"properties":{"source_id":"co_named_stream_038746","name":"Adobe Creek","display_name":"Adobe Creek","mapped_name":"Adobe Creek","source_name":"Adobe Creek","state":"CO","atlas_class":"named_natural_stream","huc8":"11020009","huc8Name":"Upper Arkansas-John Martin Reservoir","huc8States":"CO,KS","lineageKey":"statewideContext","lineage":"statewideContext","historic":"statewideContext","current":"statewideContext","recovery":"statewideContext","lineageLabel":"Statewide Colorado hydrography context","lineageBasin":"","lineageNote":"","atlas_context":"statewide_hydrography_context","confidence":"Statewide hydrography context outside current cutthroat lineage model","geometryStatus":"Named natural stream segment from statewide hydrography","note":"This named natural stream is included for statewide Colorado hydrography completeness and is outside the current cutthroat lineage assignment set.","source_segment_id":"co_named_stream_038746","water_id":"co_adobe_creek_11020009_statewideContext_002","occurrence_id":"co_adobe_creek_11020009_statewideContext_002","occurrence_number":"002","segment_count":33,"disambiguator":"Upper Arkansas-John Martin Reservoir · Statewide Colorado hydrography context · occurrence 002","basin":"Upper Arkansas-John Martin Reservoir","atlas_layer":"named_water_occurrence","object_role":"named_water_occurrence","historic_label":"Statewide Colorado hydrography context","current_label":"Statewide Colorado hydrography context","recovery_label":"Statewide Colorado hydrography context","tier":"tier2","minZoom":12,"confidence_public":"Statewide hydrography context outside current cutthroat lineage model","geometry_status_public":"Named natural stream occurrence from statewide hydrography","geometry_source_public":"Grouped public hydrography segments","trout_source_public":"Included for Colorado statewide hydrography completeness","public_notes":"Adobe Creek is shown as statewide Colorado hydrography context outside the current cutthroat lineage assignment set."}},{"type":"Feature","geometry":{"type":"LineString","coordinates":[[-103.4342,38.6028],[-103.4345,38.602],[-103.4289,38.5991],[-103.4288,38.5932],[-103.4256,38.5901],[-103.4254,38.5864],[-103.4264,38.5843],[-103.4239,38.5792]]},"properties":{"source_id":"co_named_stream_040415","name":"Adobe Creek","display_name":"Adobe Creek","mapped_name":"Adobe Creek","source_name":"Adobe Creek","state":"CO","atlas_class":"named_natural_stream","huc8":"11020009","huc8Name":"Upper Arkansas-John Martin Reservoir","huc8States":"CO,KS","lineageKey":"statewideContext","lineage":"statewideContext","historic":"statewideContext","current":"statewideContext","recovery":"statewideContext","lineageLabel":"Statewide Colorado hydrography context","lineageBasin":"","lineageNote":"","atlas_context":"statewide_hydrography_context","confidence":"Statewide hydrography context outside current cutthroat lineage model","geometryStatus":"Named natural stream segment from statewide hydrography","note":"This named natural stream is included for statewide Colorado hydrography completeness and is outside the current cutthroat lineage assignment set.","source_segment_id":"co_named_stream_040415","water_id":"co_adobe_creek_11020009_statewideContext_002","occurrence_id":"co_adobe_creek_11020009_statewideContext_002","occurrence_number":"002","segment_count":33,"disambiguator":"Upper Arkansas-John Martin Reservoir · Statewide Colorado hydrography context · occurrence 002","basin":"Upper Arkansas-John Martin Reservoir","atlas_layer":"named_water_occurrence","object_role":"named_water_occurrence","historic_label":"Statewide Colorado hydrography context","current_label":"Statewide Colorado hydrography context","recovery_label":"Statewide Colorado hydrography context","tier":"tier2","minZoom":12,"confidence_public":"Statewide hydrography context outside current cutthroat lineage model","geometry_status_public":"Named natural stream occurrence from statewide hydrography","geometry_source_public":"Grouped public hydrography segments","trout_source_public":"Included for Colorado statewide hydrography completeness","public_notes":"Adobe Creek is shown as statewide Colorado hydrography context outside the current cutthroat lineage assignment set."}},{"type":"Feature","geometry":{"type":"LineString","coordinates":[[-103.3697,38.5167],[-103.3687,38.5147]]},"properties":{"source_id":"co_named_stream_041830","name":"Adobe Creek","display_name":"Adobe Creek","mapped_name":"Adobe Creek","source_name":"Adobe Creek","state":"CO","atlas_class":"named_natural_stream","huc8":"11020009","huc8Name":"Upper Arkansas-John Martin Reservoir","huc8States":"CO,KS","lineageKey":"statewideContext","lineage":"statewideContext","historic":"statewideContext","current":"statewideContext","recovery":"statewideContext","lineageLabel":"Statewide Colorado hydrography context","lineageBasin":"","lineageNote":"","atlas_context":"statewide_hydrography_context","confidence":"Statewide hydrography context outside current cutthroat lineage model","geometryStatus":"Named natural stream segment from statewide hydrography","note":"This named natural stream is included for statewide Colorado hydrography completeness and is outside the current cutthroat lineage assignment set.","source_segment_id":"co_named_stream_041830","water_id":"co_adobe_creek_11020009_statewideContext_002","occurrence_id":"co_adobe_creek_11020009_statewideContext_002","occurrence_number":"002","segment_count":33,"disambiguator":"Upper Arkansas-John Martin Reservoir · Statewide Colorado hydrography context · occurrence 002","basin":"Upper Arkansas-John Martin Reservoir","atlas_layer":"named_water_occurrence","object_role":"named_water_occurrence","historic_label":"Statewide Colorado hydrography context","current_label":"Statewide Colorado hydrography context","recovery_label":"Statewide Colorado hydrography context","tier":"tier2","minZoom":12,"confidence_public":"Statewide hydrography context outside current cutthroat lineage model","geometry_status_public":"Named natural stream occurrence from statewide hydrography","geometry_source_public":"Grouped public hydrography segments","trout_source_public":"Included for Colorado statewide hydrography completeness","public_notes":"Adobe Creek is shown as statewide Colorado hydrography context outside the current cutthroat lineage assignment set."}},{"type":"Feature","geometry":{"type":"LineString","coordinates":[[-103.363,38.5124],[-103.3614,38.5095],[-103.3635,38.5074]]},"properties":{"source_id":"co_named_stream_041831","name":"Adobe Creek","display_name":"Adobe Creek","mapped_name":"Adobe Creek","source_name":"Adobe Creek","state":"CO","atlas_class":"named_natural_stream","huc8":"11020009","huc8Name":"Upper Arkansas-John Martin Reservoir","huc8States":"CO,KS","lineageKey":"statewideContext","lineage":"statewideContext","historic":"statewideContext","current":"statewideContext","recovery":"statewideContext","lineageLabel":"Statewide Colorado hydrography context","lineageBasin":"","lineageNote":"","atlas_context":"statewide_hydrography_context","confidence":"Statewide hydrography context outside current cutthroat lineage model","geometryStatus":"Named natural stream segment from statewide hydrography","note":"This named natural stream is included for statewide Colorado hydrography completeness and is outside the current cutthroat lineage assignment set.","source_segment_id":"co_named_stream_041831","water_id":"co_adobe_creek_11020009_statewideContext_002","occurrence_id":"co_adobe_creek_11020009_statewideContext_002","occurrence_number":"002","segment_count":33,"disambiguator":"Upper Arkansas-John Martin Reservoir · Statewide Colorado hydrography context · occurrence 002","basin":"Upper Arkansas-John Martin Reservoir","atlas_layer":"named_water_occurrence","object_role":"named_water_occurrence","historic_label":"Statewide Colorado hydrography context","current_label":"Statewide Colorado hydrography context","recovery_label":"Statewide Colorado hydrography context","tier":"tier2","minZoom":12,"confidence_public":"Statewide hydrography context outside current cutthroat lineage model","geometry_status_public":"Named natural stream occurrence from statewide hydrography","geometry_source_public":"Grouped public hydrography segments","trout_source_public":"Included for Colorado statewide hydrography completeness","public_notes":"Adobe Creek is shown as statewide Colorado hydrography context outside the current cutthroat lineage assignment set."}},{"type":"Feature","geometry":{"type":"LineString","coordinates":[[-103.3687,38.5147],[-103.3684,38.5142]]},"properties":{"source_id":"co_named_stream_043171","name":"Adobe Creek","display_name":"Adobe Creek","mapped_name":"Adobe Creek","source_name":"Adobe Creek","state":"CO","atlas_class":"named_natural_stream","huc8":"11020009","huc8Name":"Upper Arkansas-John Martin Reservoir","huc8States":"CO,KS","lineageKey":"statewideContext","lineage":"statewideContext","historic":"statewideContext","current":"statewideContext","recovery":"statewideContext","lineageLabel":"Statewide Colorado hydrography context","lineageBasin":"","lineageNote":"","atlas_context":"statewide_hydrography_context","confidence":"Statewide hydrography context outside current cutthroat lineage model","geometryStatus":"Named natural stream segment from statewide hydrography","note":"This named natural stream is included for statewide Colorado hydrography completeness and is outside the current cutthroat lineage assignment set.","source_segment_id":"co_named_stream_043171","water_id":"co_adobe_creek_11020009_statewideContext_002","occurrence_id":"co_adobe_creek_11020009_statewideContext_002","occurrence_number":"002","segment_count":33,"disambiguator":"Upper Arkansas-John Martin Reservoir · Statewide Colorado hydrography context · occurrence 002","basin":"Upper Arkansas-John Martin Reservoir","atlas_layer":"named_water_occurrence","object_role":"named_water_occurrence","historic_label":"Statewide Colorado hydrography context","current_label":"Statewide Colorado hydrography context","recovery_label":"Statewide Colorado hydrography context","tier":"tier2","minZoom":12,"confidence_public":"Statewide hydrography context outside current cutthroat lineage model","geometry_status_public":"Named natural stream occurrence from statewide hydrography","geometry_source_public":"Grouped public hydrography segments","trout_source_public":"Included for Colorado statewide hydrography completeness","public_notes":"Adobe Creek is shown as statewide Colorado hydrography context outside the current cutthroat lineage assignment set."}},{"type":"Feature","geometry":{"type":"LineString","coordinates":[[-103.3623,38.5036],[-103.3604,38.5038],[-103.3598,38.5029]]},"properties":{"source_id":"co_named_stream_043172","name":"Adobe Creek","display_name":"Adobe Creek","mapped_name":"Adobe Creek","source_name":"Adobe Creek","state":"CO","atlas_class":"named_natural_stream","huc8":"11020009","huc8Name":"Upper Arkansas-John Martin Reservoir","huc8States":"CO,KS","lineageKey":"statewideContext","lineage":"statewideContext","historic":"statewideContext","current":"statewideContext","recovery":"statewideContext","lineageLabel":"Statewide Colorado hydrography context","lineageBasin":"","lineageNote":"","atlas_context":"statewide_hydrography_context","confidence":"Statewide hydrography context outside current cutthroat lineage model","geometryStatus":"Named natural stream segment from statewide hydrography","note":"This named natural stream is included for statewide Colorado hydrography completeness and is outside the current cutthroat lineage assignment set.","source_segment_id":"co_named_stream_043172","water_id":"co_adobe_creek_11020009_statewideContext_002","occurrence_id":"co_adobe_creek_11020009_statewideContext_002","occurrence_number":"002","segment_count":33,"disambiguator":"Upper Arkansas-John Martin Reservoir · Statewide Colorado hydrography context · occurrence 002","basin":"Upper Arkansas-John Martin Reservoir","atlas_layer":"named_water_occurrence","object_role":"named_water_occurrence","historic_label":"Statewide Colorado hydrography context","current_label":"Statewide Colorado hydrography context","recovery_label":"Statewide Colorado hydrography context","tier":"tier2","minZoom":12,"confidence_public":"Statewide hydrography context outside current cutthroat lineage model","geometry_status_public":"Named natural stream occurrence from statewide hydrography","geometry_source_public":"Grouped public hydrography segments","trout_source_public":"Included for Colorado statewide hydrography completeness","public_notes":"Adobe Creek is shown as statewide Colorado hydrography context outside the current cutthroat lineage assignment set."}},{"type":"Feature","geometry":{"type":"LineString","coordinates":[[-103.466,38.6434],[-103.4661,38.6426]]},"properties":{"source_id":"co_named_stream_043232","name":"Adobe Creek","display_name":"Adobe Creek","mapped_name":"Adobe Creek","source_name":"Adobe Creek","state":"CO","atlas_class":"named_natural_stream","huc8":"11020009","huc8Name":"Upper Arkansas-John Martin Reservoir","huc8States":"CO,KS","lineageKey":"statewideContext","lineage":"statewideContext","historic":"statewideContext","current":"statewideContext","recovery":"statewideContext","lineageLabel":"Statewide Colorado hydrography context","lineageBasin":"","lineageNote":"","atlas_context":"statewide_hydrography_context","confidence":"Statewide hydrography context outside current cutthroat lineage model","geometryStatus":"Named natural stream segment from statewide hydrography","note":"This named natural stream is included for statewide Colorado hydrography completeness and is outside the current cutthroat lineage assignment set.","source_segment_id":"co_named_stream_043232","water_id":"co_adobe_creek_11020009_statewideContext_002","occurrence_id":"co_adobe_creek_11020009_statewideContext_002","occurrence_number":"002","segment_count":33,"disambiguator":"Upper Arkansas-John Martin Reservoir · Statewide Colorado hydrography context · occurrence 002","basin":"Upper Arkansas-John Martin Reservoir","atlas_layer":"named_water_occurrence","object_role":"named_water_occurrence","historic_label":"Statewide Colorado hydrography context","current_label":"Statewide Colorado hydrography context","recovery_label":"Statewide Colorado hydrography context","tier":"tier2","minZoom":12,"confidence_public":"Statewide hydrography context outside current cutthroat lineage model","geometry_status_public":"Named natural stream occurrence from statewide hydrography","geometry_source_public":"Grouped public hydrography segments","trout_source_public":"Included for Colorado statewide hydrography completeness","public_notes":"Adobe Creek is shown as statewide Colorado hydrography context outside the current cutthroat lineage assignment set."}},{"type":"Feature","geometry":{"type":"LineString","coordinates":[[-103.4027,38.5272],[-103.4022,38.5247],[-103.399,38.5253],[-103.3977,38.5224],[-103.3949,38.5228],[-103.3942,38.5199],[-103.3916,38.5202],[-103.3919,38.5184],[-103.3901,38.5181],[-103.389,38.5163],[-103.3856,38.5163],[-103.3835,38.5152],[-103.3826,38.516],[-103.3755,38.5155],[-103.3743,38.5171],[-103.3726,38.5157],[-103.3697,38.5167]]},"properties":{"source_id":"co_named_stream_043432","name":"Adobe Creek","display_name":"Adobe Creek","mapped_name":"Adobe Creek","source_name":"Adobe Creek","state":"CO","atlas_class":"named_natural_stream","huc8":"11020009","huc8Name":"Upper Arkansas-John Martin Reservoir","huc8States":"CO,KS","lineageKey":"statewideContext","lineage":"statewideContext","historic":"statewideContext","current":"statewideContext","recovery":"statewideContext","lineageLabel":"Statewide Colorado hydrography context","lineageBasin":"","lineageNote":"","atlas_context":"statewide_hydrography_context","confidence":"Statewide hydrography context outside current cutthroat lineage model","geometryStatus":"Named natural stream segment from statewide hydrography","note":"This named natural stream is included for statewide Colorado hydrography completeness and is outside the current cutthroat lineage assignment set.","source_segment_id":"co_named_stream_043432","water_id":"co_adobe_creek_11020009_statewideContext_002","occurrence_id":"co_adobe_creek_11020009_statewideContext_002","occurrence_number":"002","segment_count":33,"disambiguator":"Upper Arkansas-John Martin Reservoir · Statewide Colorado hydrography context · occurrence 002","basin":"Upper Arkansas-John Martin Reservoir","atlas_layer":"named_water_occurrence","object_role":"named_water_occurrence","historic_label":"Statewide Colorado hydrography context","current_label":"Statewide Colorado hydrography context","recovery_label":"Statewide Colorado hydrography context","tier":"tier2","minZoom":12,"confidence_public":"Statewide hydrography context outside current cutthroat lineage model","geometry_status_public":"Named natural stream occurrence from statewide hydrography","geometry_source_public":"Grouped public hydrography segments","trout_source_public":"Included for Colorado statewide hydrography completeness","public_notes":"Adobe Creek is shown as statewide Colorado hydrography context outside the current cutthroat lineage assignment set."}},{"type":"Feature","geometry":{"type":"LineString","coordinates":[[-103.4661,38.6426],[-103.464,38.6394],[-103.466,38.6374],[-103.4648,38.6366],[-103.4656,38.6348],[-103.4628,38.6327],[-103.4605,38.6328],[-103.457,38.6308],[-103.4582,38.6285]]},"properties":{"source_id":"co_named_stream_046817","name":"Adobe Creek","display_name":"Adobe Creek","mapped_name":"Adobe Creek","source_name":"Adobe Creek","state":"CO","atlas_class":"named_natural_stream","huc8":"11020009","huc8Name":"Upper Arkansas-John Martin Reservoir","huc8States":"CO,KS","lineageKey":"statewideContext","lineage":"statewideContext","historic":"statewideContext","current":"statewideContext","recovery":"statewideContext","lineageLabel":"Statewide Colorado hydrography context","lineageBasin":"","lineageNote":"","atlas_context":"statewide_hydrography_context","confidence":"Statewide hydrography context outside current cutthroat lineage model","geometryStatus":"Named natural stream segment from statewide hydrography","note":"This named natural stream is included for statewide Colorado hydrography completeness and is outside the current cutthroat lineage assignment set.","source_segment_id":"co_named_stream_046817","water_id":"co_adobe_creek_11020009_statewideContext_002","occurrence_id":"co_adobe_creek_11020009_statewideContext_002","occurrence_number":"002","segment_count":33,"disambiguator":"Upper Arkansas-John Martin Reservoir · Statewide Colorado hydrography context · occurrence 002","basin":"Upper Arkansas-John Martin Reservoir","atlas_layer":"named_water_occurrence","object_role":"named_water_occurrence","historic_label":"Statewide Colorado hydrography context","current_label":"Statewide Colorado hydrography context","recovery_label":"Statewide Colorado hydrography context","tier":"tier2","minZoom":12,"confidence_public":"Statewide hydrography context outside current cutthroat lineage model","geometry_status_public":"Named natural stream occurrence from statewide hydrography","geometry_source_public":"Grouped public hydrography segments","trout_source_public":"Included for Colorado statewide hydrography completeness","public_notes":"Adobe Creek is shown as statewide Colorado hydrography context outside the current cutthroat lineage assignment set."}},{"type":"Feature","geometry":{"type":"LineString","coordinates":[[-103.4803,38.6633],[-103.4768,38.6589]]},"properties":{"source_id":"co_named_stream_046916","name":"Adobe Creek","display_name":"Adobe Creek","mapped_name":"Adobe Creek","source_name":"Adobe Creek","state":"CO","atlas_class":"named_natural_stream","huc8":"11020009","huc8Name":"Upper Arkansas-John Martin Reservoir","huc8States":"CO,KS","lineageKey":"statewideContext","lineage":"statewideContext","historic":"statewideContext","current":"statewideContext","recovery":"statewideContext","lineageLabel":"Statewide Colorado hydrography context","lineageBasin":"","lineageNote":"","atlas_context":"statewide_hydrography_context","confidence":"Statewide hydrography context outside current cutthroat lineage model","geometryStatus":"Named natural stream segment from statewide hydrography","note":"This named natural stream is included for statewide Colorado hydrography completeness and is outside the current cutthroat lineage assignment set.","source_segment_id":"co_named_stream_046916","water_id":"co_adobe_creek_11020009_statewideContext_002","occurrence_id":"co_adobe_creek_11020009_statewideContext_002","occurrence_number":"002","segment_count":33,"disambiguator":"Upper Arkansas-John Martin Reservoir · Statewide Colorado hydrography context · occurrence 002","basin":"Upper Arkansas-John Martin Reservoir","atlas_layer":"named_water_occurrence","object_role":"named_water_occurrence","historic_label":"Statewide Colorado hydrography context","current_label":"Statewide Colorado hydrography context","recovery_label":"Statewide Colorado hydrography context","tier":"tier2","minZoom":12,"confidence_public":"Statewide hydrography context outside current cutthroat lineage model","geometry_status_public":"Named natural stream occurrence from statewide hydrography","geometry_source_public":"Grouped public hydrography segments","trout_source_public":"Included for Colorado statewide hydrography completeness","public_notes":"Adobe Creek is shown as statewide Colorado hydrography context outside the current cutthroat lineage assignment set."}},{"type":"Feature","geometry":{"type":"LineString","coordinates":[[-103.4768,38.6589],[-103.4752,38.6548],[-103.4721,38.6506]]},"properties":{"source_id":"co_named_stream_047721","name":"Adobe Creek","display_name":"Adobe Creek","mapped_name":"Adobe Creek","source_name":"Adobe Creek","state":"CO","atlas_class":"named_natural_stream","huc8":"11020009","huc8Name":"Upper Arkansas-John Martin Reservoir","huc8States":"CO,KS","lineageKey":"statewideContext","lineage":"statewideContext","historic":"statewideContext","current":"statewideContext","recovery":"statewideContext","lineageLabel":"Statewide Colorado hydrography context","lineageBasin":"","lineageNote":"","atlas_context":"statewide_hydrography_context","confidence":"Statewide hydrography context outside current cutthroat lineage model","geometryStatus":"Named natural stream segment from statewide hydrography","note":"This named natural stream is included for statewide Colorado hydrography completeness and is outside the current cutthroat lineage assignment set.","source_segment_id":"co_named_stream_047721","water_id":"co_adobe_creek_11020009_statewideContext_002","occurrence_id":"co_adobe_creek_11020009_statewideContext_002","occurrence_number":"002","segment_count":33,"disambiguator":"Upper Arkansas-John Martin Reservoir · Statewide Colorado hydrography context · occurrence 002","basin":"Upper Arkansas-John Martin Reservoir","atlas_layer":"named_water_occurrence","object_role":"named_water_occurrence","historic_label":"Statewide Colorado hydrography context","current_label":"Statewide Colorado hydrography context","recovery_label":"Statewide Colorado hydrography context","tier":"tier2","minZoom":12,"confidence_public":"Statewide hydrography context outside current cutthroat lineage model","geometry_status_public":"Named natural stream occurrence from statewide hydrography","geometry_source_public":"Grouped public hydrography segments","trout_source_public":"Included for Colorado statewide hydrography completeness","public_notes":"Adobe Creek is shown as statewide Colorado hydrography context outside the current cutthroat lineage assignment set."}},{"type":"Feature","geometry":{"type":"LineString","coordinates":[[-103.3684,38.5142],[-103.3644,38.513]]},"properties":{"source_id":"co_named_stream_048377","name":"Adobe Creek","display_name":"Adobe Creek","mapped_name":"Adobe Creek","source_name":"Adobe Creek","state":"CO","atlas_class":"named_natural_stream","huc8":"11020009","huc8Name":"Upper Arkansas-John Martin Reservoir","huc8States":"CO,KS","lineageKey":"statewideContext","lineage":"statewideContext","historic":"statewideContext","current":"statewideContext","recovery":"statewideContext","lineageLabel":"Statewide Colorado hydrography context","lineageBasin":"","lineageNote":"","atlas_context":"statewide_hydrography_context","confidence":"Statewide hydrography context outside current cutthroat lineage model","geometryStatus":"Named natural stream segment from statewide hydrography","note":"This named natural stream is included for statewide Colorado hydrography completeness and is outside the current cutthroat lineage assignment set.","source_segment_id":"co_named_stream_048377","water_id":"co_adobe_creek_11020009_statewideContext_002","occurrence_id":"co_adobe_creek_11020009_statewideContext_002","occurrence_number":"002","segment_count":33,"disambiguator":"Upper Arkansas-John Martin Reservoir · Statewide Colorado hydrography context · occurrence 002","basin":"Upper Arkansas-John Martin Reservoir","atlas_layer":"named_water_occurrence","object_role":"named_water_occurrence","historic_label":"Statewide Colorado hydrography context","current_label":"Statewide Colorado hydrography context","recovery_label":"Statewide Colorado hydrography context","tier":"tier2","minZoom":12,"confidence_public":"Statewide hydrography context outside current cutthroat lineage model","geometry_status_public":"Named natural stream occurrence from statewide hydrography","geometry_source_public":"Grouped public hydrography segments","trout_source_public":"Included for Colorado statewide hydrography completeness","public_notes":"Adobe Creek is shown as statewide Colorado hydrography context outside the current cutthroat lineage assignment set."}}]}