{"type":"FeatureCollection","metadata":{"source":"C:\\ct-atlas-data\\processed\\geojson\\interpreted\\colorado_named_natural_streams_complete_v1.geojson","tier":"tier2","tile_size_degrees":0.25,"x":-414,"y":158,"bounds":{"west":-103.5,"south":39.5,"east":-103.25,"north":39.75}},"features":[{"type":"Feature","geometry":{"type":"LineString","coordinates":[[-103.3906,39.745],[-103.3893,39.7452]]},"properties":{"source_id":"co_named_stream_005708","name":"Sand Creek","display_name":"Sand Creek","mapped_name":"Sand Creek","source_name":"Sand Creek","state":"CO","atlas_class":"named_natural_stream","huc8":"10190013","huc8Name":"Beaver","huc8States":"CO","lineageKey":"statewideContext","lineage":"statewideContext","historic":"statewideContext","current":"statewideContext","recovery":"statewideContext","lineageLabel":"Statewide Colorado hydrography context","lineageBasin":"","lineageNote":"","atlas_context":"statewide_hydrography_context","confidence":"Statewide hydrography context outside current cutthroat lineage model","geometryStatus":"Named natural stream segment from statewide hydrography","note":"This named natural stream is included for statewide Colorado hydrography completeness and is outside the current cutthroat lineage assignment set.","source_segment_id":"co_named_stream_005708","water_id":"co_sand_creek_10190013_statewideContext_001","occurrence_id":"co_sand_creek_10190013_statewideContext_001","occurrence_number":"001","segment_count":68,"disambiguator":"Beaver · Statewide Colorado hydrography context · occurrence 001","basin":"Beaver","atlas_layer":"named_water_occurrence","object_role":"named_water_occurrence","historic_label":"Statewide Colorado hydrography context","current_label":"Statewide Colorado hydrography context","recovery_label":"Statewide Colorado hydrography context","tier":"tier2","minZoom":12,"confidence_public":"Statewide hydrography context outside current cutthroat lineage model","geometry_status_public":"Named natural stream occurrence from statewide hydrography","geometry_source_public":"Grouped public hydrography segments","trout_source_public":"Included for Colorado statewide hydrography completeness","public_notes":"Sand Creek is shown as statewide Colorado hydrography context outside the current cutthroat lineage assignment set."}},{"type":"Feature","geometry":{"type":"LineString","coordinates":[[-103.4202,39.6905],[-103.4206,39.6934]]},"properties":{"source_id":"co_named_stream_008636","name":"Sand Creek","display_name":"Sand Creek","mapped_name":"Sand Creek","source_name":"Sand Creek","state":"CO","atlas_class":"named_natural_stream","huc8":"10190013","huc8Name":"Beaver","huc8States":"CO","lineageKey":"statewideContext","lineage":"statewideContext","historic":"statewideContext","current":"statewideContext","recovery":"statewideContext","lineageLabel":"Statewide Colorado hydrography context","lineageBasin":"","lineageNote":"","atlas_context":"statewide_hydrography_context","confidence":"Statewide hydrography context outside current cutthroat lineage model","geometryStatus":"Named natural stream segment from statewide hydrography","note":"This named natural stream is included for statewide Colorado hydrography completeness and is outside the current cutthroat lineage assignment set.","source_segment_id":"co_named_stream_008636","water_id":"co_sand_creek_10190013_statewideContext_001","occurrence_id":"co_sand_creek_10190013_statewideContext_001","occurrence_number":"001","segment_count":68,"disambiguator":"Beaver · Statewide Colorado hydrography context · occurrence 001","basin":"Beaver","atlas_layer":"named_water_occurrence","object_role":"named_water_occurrence","historic_label":"Statewide Colorado hydrography context","current_label":"Statewide Colorado hydrography context","recovery_label":"Statewide Colorado hydrography context","tier":"tier2","minZoom":12,"confidence_public":"Statewide hydrography context outside current cutthroat lineage model","geometry_status_public":"Named natural stream occurrence from statewide hydrography","geometry_source_public":"Grouped public hydrography segments","trout_source_public":"Included for Colorado statewide hydrography completeness","public_notes":"Sand Creek is shown as statewide Colorado hydrography context outside the current cutthroat lineage assignment set."}},{"type":"Feature","geometry":{"type":"LineString","coordinates":[[-103.4188,39.7137],[-103.4162,39.7126],[-103.4145,39.7156],[-103.4129,39.7161],[-103.4094,39.7151],[-103.4082,39.7175]]},"properties":{"source_id":"co_named_stream_008637","name":"Sand Creek","display_name":"Sand Creek","mapped_name":"Sand Creek","source_name":"Sand Creek","state":"CO","atlas_class":"named_natural_stream","huc8":"10190013","huc8Name":"Beaver","huc8States":"CO","lineageKey":"statewideContext","lineage":"statewideContext","historic":"statewideContext","current":"statewideContext","recovery":"statewideContext","lineageLabel":"Statewide Colorado hydrography context","lineageBasin":"","lineageNote":"","atlas_context":"statewide_hydrography_context","confidence":"Statewide hydrography context outside current cutthroat lineage model","geometryStatus":"Named natural stream segment from statewide hydrography","note":"This named natural stream is included for statewide Colorado hydrography completeness and is outside the current cutthroat lineage assignment set.","source_segment_id":"co_named_stream_008637","water_id":"co_sand_creek_10190013_statewideContext_001","occurrence_id":"co_sand_creek_10190013_statewideContext_001","occurrence_number":"001","segment_count":68,"disambiguator":"Beaver · Statewide Colorado hydrography context · occurrence 001","basin":"Beaver","atlas_layer":"named_water_occurrence","object_role":"named_water_occurrence","historic_label":"Statewide Colorado hydrography context","current_label":"Statewide Colorado hydrography context","recovery_label":"Statewide Colorado hydrography context","tier":"tier2","minZoom":12,"confidence_public":"Statewide hydrography context outside current cutthroat lineage model","geometry_status_public":"Named natural stream occurrence from statewide hydrography","geometry_source_public":"Grouped public hydrography segments","trout_source_public":"Included for Colorado statewide hydrography completeness","public_notes":"Sand Creek is shown as statewide Colorado hydrography context outside the current cutthroat lineage assignment set."}},{"type":"Feature","geometry":{"type":"LineString","coordinates":[[-103.4142,39.6536],[-103.4135,39.6544],[-103.4145,39.6549],[-103.4147,39.6566],[-103.4138,39.6592],[-103.4153,39.66],[-103.4171,39.6631],[-103.4134,39.6633],[-103.413,39.6656],[-103.41,39.666]]},"properties":{"source_id":"co_named_stream_008691","name":"Sand Creek","display_name":"Sand Creek","mapped_name":"Sand Creek","source_name":"Sand Creek","state":"CO","atlas_class":"named_natural_stream","huc8":"10190013","huc8Name":"Beaver","huc8States":"CO","lineageKey":"statewideContext","lineage":"statewideContext","historic":"statewideContext","current":"statewideContext","recovery":"statewideContext","lineageLabel":"Statewide Colorado hydrography context","lineageBasin":"","lineageNote":"","atlas_context":"statewide_hydrography_context","confidence":"Statewide hydrography context outside current cutthroat lineage model","geometryStatus":"Named natural stream segment from statewide hydrography","note":"This named natural stream is included for statewide Colorado hydrography completeness and is outside the current cutthroat lineage assignment set.","source_segment_id":"co_named_stream_008691","water_id":"co_sand_creek_10190013_statewideContext_001","occurrence_id":"co_sand_creek_10190013_statewideContext_001","occurrence_number":"001","segment_count":68,"disambiguator":"Beaver · Statewide Colorado hydrography context · occurrence 001","basin":"Beaver","atlas_layer":"named_water_occurrence","object_role":"named_water_occurrence","historic_label":"Statewide Colorado hydrography context","current_label":"Statewide Colorado hydrography context","recovery_label":"Statewide Colorado hydrography context","tier":"tier2","minZoom":12,"confidence_public":"Statewide hydrography context outside current cutthroat lineage model","geometry_status_public":"Named natural stream occurrence from statewide hydrography","geometry_source_public":"Grouped public hydrography segments","trout_source_public":"Included for Colorado statewide hydrography completeness","public_notes":"Sand Creek is shown as statewide Colorado hydrography context outside the current cutthroat lineage assignment set."}},{"type":"Feature","geometry":{"type":"LineString","coordinates":[[-103.4093,39.6681],[-103.4087,39.6685],[-103.4088,39.6693],[-103.41,39.6692],[-103.4096,39.673]]},"properties":{"source_id":"co_named_stream_009484","name":"Sand Creek","display_name":"Sand Creek","mapped_name":"Sand Creek","source_name":"Sand Creek","state":"CO","atlas_class":"named_natural_stream","huc8":"10190013","huc8Name":"Beaver","huc8States":"CO","lineageKey":"statewideContext","lineage":"statewideContext","historic":"statewideContext","current":"statewideContext","recovery":"statewideContext","lineageLabel":"Statewide Colorado hydrography context","lineageBasin":"","lineageNote":"","atlas_context":"statewide_hydrography_context","confidence":"Statewide hydrography context outside current cutthroat lineage model","geometryStatus":"Named natural stream segment from statewide hydrography","note":"This named natural stream is included for statewide Colorado hydrography completeness and is outside the current cutthroat lineage assignment set.","source_segment_id":"co_named_stream_009484","water_id":"co_sand_creek_10190013_statewideContext_001","occurrence_id":"co_sand_creek_10190013_statewideContext_001","occurrence_number":"001","segment_count":68,"disambiguator":"Beaver · Statewide Colorado hydrography context · occurrence 001","basin":"Beaver","atlas_layer":"named_water_occurrence","object_role":"named_water_occurrence","historic_label":"Statewide Colorado hydrography context","current_label":"Statewide Colorado hydrography context","recovery_label":"Statewide Colorado hydrography context","tier":"tier2","minZoom":12,"confidence_public":"Statewide hydrography context outside current cutthroat lineage model","geometry_status_public":"Named natural stream occurrence from statewide hydrography","geometry_source_public":"Grouped public hydrography segments","trout_source_public":"Included for Colorado statewide hydrography completeness","public_notes":"Sand Creek is shown as statewide Colorado hydrography context outside the current cutthroat lineage assignment set."}},{"type":"Feature","geometry":{"type":"LineString","coordinates":[[-103.4122,39.6767],[-103.4132,39.6775],[-103.4127,39.6786],[-103.415,39.6803],[-103.4137,39.6835],[-103.416,39.6856],[-103.4154,39.6863],[-103.4169,39.6892],[-103.4192,39.6899]]},"properties":{"source_id":"co_named_stream_010066","name":"Sand Creek","display_name":"Sand Creek","mapped_name":"Sand Creek","source_name":"Sand Creek","state":"CO","atlas_class":"named_natural_stream","huc8":"10190013","huc8Name":"Beaver","huc8States":"CO","lineageKey":"statewideContext","lineage":"statewideContext","historic":"statewideContext","current":"statewideContext","recovery":"statewideContext","lineageLabel":"Statewide Colorado hydrography context","lineageBasin":"","lineageNote":"","atlas_context":"statewide_hydrography_context","confidence":"Statewide hydrography context outside current cutthroat lineage model","geometryStatus":"Named natural stream segment from statewide hydrography","note":"This named natural stream is included for statewide Colorado hydrography completeness and is outside the current cutthroat lineage assignment set.","source_segment_id":"co_named_stream_010066","water_id":"co_sand_creek_10190013_statewideContext_001","occurrence_id":"co_sand_creek_10190013_statewideContext_001","occurrence_number":"001","segment_count":68,"disambiguator":"Beaver · Statewide Colorado hydrography context · occurrence 001","basin":"Beaver","atlas_layer":"named_water_occurrence","object_role":"named_water_occurrence","historic_label":"Statewide Colorado hydrography context","current_label":"Statewide Colorado hydrography context","recovery_label":"Statewide Colorado hydrography context","tier":"tier2","minZoom":12,"confidence_public":"Statewide hydrography context outside current cutthroat lineage model","geometry_status_public":"Named natural stream occurrence from statewide hydrography","geometry_source_public":"Grouped public hydrography segments","trout_source_public":"Included for Colorado statewide hydrography completeness","public_notes":"Sand Creek is shown as statewide Colorado hydrography context outside the current cutthroat lineage assignment set."}},{"type":"Feature","geometry":{"type":"LineString","coordinates":[[-103.3893,39.7452],[-103.389,39.7459],[-103.391,39.7486],[-103.3904,39.7504],[-103.3892,39.7504],[-103.3885,39.7486],[-103.3869,39.7481],[-103.386,39.7488],[-103.3866,39.7501],[-103.3846,39.7502]]},"properties":{"source_id":"co_named_stream_011046","name":"Sand Creek","display_name":"Sand Creek","mapped_name":"Sand Creek","source_name":"Sand Creek","state":"CO","atlas_class":"named_natural_stream","huc8":"10190013","huc8Name":"Beaver","huc8States":"CO","lineageKey":"statewideContext","lineage":"statewideContext","historic":"statewideContext","current":"statewideContext","recovery":"statewideContext","lineageLabel":"Statewide Colorado hydrography context","lineageBasin":"","lineageNote":"","atlas_context":"statewide_hydrography_context","confidence":"Statewide hydrography context outside current cutthroat lineage model","geometryStatus":"Named natural stream segment from statewide hydrography","note":"This named natural stream is included for statewide Colorado hydrography completeness and is outside the current cutthroat lineage assignment set.","source_segment_id":"co_named_stream_011046","water_id":"co_sand_creek_10190013_statewideContext_001","occurrence_id":"co_sand_creek_10190013_statewideContext_001","occurrence_number":"001","segment_count":68,"disambiguator":"Beaver · Statewide Colorado hydrography context · occurrence 001","basin":"Beaver","atlas_layer":"named_water_occurrence","object_role":"named_water_occurrence","historic_label":"Statewide Colorado hydrography context","current_label":"Statewide Colorado hydrography context","recovery_label":"Statewide Colorado hydrography context","tier":"tier2","minZoom":12,"confidence_public":"Statewide hydrography context outside current cutthroat lineage model","geometry_status_public":"Named natural stream occurrence from statewide hydrography","geometry_source_public":"Grouped public hydrography segments","trout_source_public":"Included for Colorado statewide hydrography completeness","public_notes":"Sand Creek is shown as statewide Colorado hydrography context outside the current cutthroat lineage assignment set."}},{"type":"Feature","geometry":{"type":"LineString","coordinates":[[-103.4175,39.7093],[-103.4175,39.7108],[-103.4191,39.7123],[-103.4188,39.7137]]},"properties":{"source_id":"co_named_stream_013552","name":"Sand Creek","display_name":"Sand Creek","mapped_name":"Sand Creek","source_name":"Sand Creek","state":"CO","atlas_class":"named_natural_stream","huc8":"10190013","huc8Name":"Beaver","huc8States":"CO","lineageKey":"statewideContext","lineage":"statewideContext","historic":"statewideContext","current":"statewideContext","recovery":"statewideContext","lineageLabel":"Statewide Colorado hydrography context","lineageBasin":"","lineageNote":"","atlas_context":"statewide_hydrography_context","confidence":"Statewide hydrography context outside current cutthroat lineage model","geometryStatus":"Named natural stream segment from statewide hydrography","note":"This named natural stream is included for statewide Colorado hydrography completeness and is outside the current cutthroat lineage assignment set.","source_segment_id":"co_named_stream_013552","water_id":"co_sand_creek_10190013_statewideContext_001","occurrence_id":"co_sand_creek_10190013_statewideContext_001","occurrence_number":"001","segment_count":68,"disambiguator":"Beaver · Statewide Colorado hydrography context · occurrence 001","basin":"Beaver","atlas_layer":"named_water_occurrence","object_role":"named_water_occurrence","historic_label":"Statewide Colorado hydrography context","current_label":"Statewide Colorado hydrography context","recovery_label":"Statewide Colorado hydrography context","tier":"tier2","minZoom":12,"confidence_public":"Statewide hydrography context outside current cutthroat lineage model","geometry_status_public":"Named natural stream occurrence from statewide hydrography","geometry_source_public":"Grouped public hydrography segments","trout_source_public":"Included for Colorado statewide hydrography completeness","public_notes":"Sand Creek is shown as statewide Colorado hydrography context outside the current cutthroat lineage assignment set."}},{"type":"Feature","geometry":{"type":"LineString","coordinates":[[-103.4029,39.6352],[-103.4079,39.6424]]},"properties":{"source_id":"co_named_stream_017709","name":"Sand Creek","display_name":"Sand Creek","mapped_name":"Sand Creek","source_name":"Sand Creek","state":"CO","atlas_class":"named_natural_stream","huc8":"10190013","huc8Name":"Beaver","huc8States":"CO","lineageKey":"statewideContext","lineage":"statewideContext","historic":"statewideContext","current":"statewideContext","recovery":"statewideContext","lineageLabel":"Statewide Colorado hydrography context","lineageBasin":"","lineageNote":"","atlas_context":"statewide_hydrography_context","confidence":"Statewide hydrography context outside current cutthroat lineage model","geometryStatus":"Named natural stream segment from statewide hydrography","note":"This named natural stream is included for statewide Colorado hydrography completeness and is outside the current cutthroat lineage assignment set.","source_segment_id":"co_named_stream_017709","water_id":"co_sand_creek_10190013_statewideContext_001","occurrence_id":"co_sand_creek_10190013_statewideContext_001","occurrence_number":"001","segment_count":68,"disambiguator":"Beaver · Statewide Colorado hydrography context · occurrence 001","basin":"Beaver","atlas_layer":"named_water_occurrence","object_role":"named_water_occurrence","historic_label":"Statewide Colorado hydrography context","current_label":"Statewide Colorado hydrography context","recovery_label":"Statewide Colorado hydrography context","tier":"tier2","minZoom":12,"confidence_public":"Statewide hydrography context outside current cutthroat lineage model","geometry_status_public":"Named natural stream occurrence from statewide hydrography","geometry_source_public":"Grouped public hydrography segments","trout_source_public":"Included for Colorado statewide hydrography completeness","public_notes":"Sand Creek is shown as statewide Colorado hydrography context outside the current cutthroat lineage assignment set."}},{"type":"Feature","geometry":{"type":"LineString","coordinates":[[-103.4082,39.7175],[-103.4077,39.7191],[-103.405,39.719]]},"properties":{"source_id":"co_named_stream_018113","name":"Sand Creek","display_name":"Sand Creek","mapped_name":"Sand Creek","source_name":"Sand Creek","state":"CO","atlas_class":"named_natural_stream","huc8":"10190013","huc8Name":"Beaver","huc8States":"CO","lineageKey":"statewideContext","lineage":"statewideContext","historic":"statewideContext","current":"statewideContext","recovery":"statewideContext","lineageLabel":"Statewide Colorado hydrography context","lineageBasin":"","lineageNote":"","atlas_context":"statewide_hydrography_context","confidence":"Statewide hydrography context outside current cutthroat lineage model","geometryStatus":"Named natural stream segment from statewide hydrography","note":"This named natural stream is included for statewide Colorado hydrography completeness and is outside the current cutthroat lineage assignment set.","source_segment_id":"co_named_stream_018113","water_id":"co_sand_creek_10190013_statewideContext_001","occurrence_id":"co_sand_creek_10190013_statewideContext_001","occurrence_number":"001","segment_count":68,"disambiguator":"Beaver · Statewide Colorado hydrography context · occurrence 001","basin":"Beaver","atlas_layer":"named_water_occurrence","object_role":"named_water_occurrence","historic_label":"Statewide Colorado hydrography context","current_label":"Statewide Colorado hydrography context","recovery_label":"Statewide Colorado hydrography context","tier":"tier2","minZoom":12,"confidence_public":"Statewide hydrography context outside current cutthroat lineage model","geometry_status_public":"Named natural stream occurrence from statewide hydrography","geometry_source_public":"Grouped public hydrography segments","trout_source_public":"Included for Colorado statewide hydrography completeness","public_notes":"Sand Creek is shown as statewide Colorado hydrography context outside the current cutthroat lineage assignment set."}},{"type":"Feature","geometry":{"type":"LineString","coordinates":[[-103.4002,39.7387],[-103.3998,39.7408],[-103.3976,39.7425],[-103.3985,39.7442]]},"properties":{"source_id":"co_named_stream_018114","name":"Sand Creek","display_name":"Sand Creek","mapped_name":"Sand Creek","source_name":"Sand Creek","state":"CO","atlas_class":"named_natural_stream","huc8":"10190013","huc8Name":"Beaver","huc8States":"CO","lineageKey":"statewideContext","lineage":"statewideContext","historic":"statewideContext","current":"statewideContext","recovery":"statewideContext","lineageLabel":"Statewide Colorado hydrography context","lineageBasin":"","lineageNote":"","atlas_context":"statewide_hydrography_context","confidence":"Statewide hydrography context outside current cutthroat lineage model","geometryStatus":"Named natural stream segment from statewide hydrography","note":"This named natural stream is included for statewide Colorado hydrography completeness and is outside the current cutthroat lineage assignment set.","source_segment_id":"co_named_stream_018114","water_id":"co_sand_creek_10190013_statewideContext_001","occurrence_id":"co_sand_creek_10190013_statewideContext_001","occurrence_number":"001","segment_count":68,"disambiguator":"Beaver · Statewide Colorado hydrography context · occurrence 001","basin":"Beaver","atlas_layer":"named_water_occurrence","object_role":"named_water_occurrence","historic_label":"Statewide Colorado hydrography context","current_label":"Statewide Colorado hydrography context","recovery_label":"Statewide Colorado hydrography context","tier":"tier2","minZoom":12,"confidence_public":"Statewide hydrography context outside current cutthroat lineage model","geometry_status_public":"Named natural stream occurrence from statewide hydrography","geometry_source_public":"Grouped public hydrography segments","trout_source_public":"Included for Colorado statewide hydrography completeness","public_notes":"Sand Creek is shown as statewide Colorado hydrography context outside the current cutthroat lineage assignment set."}},{"type":"Feature","geometry":{"type":"LineString","coordinates":[[-103.4079,39.6424],[-103.4128,39.6505]]},"properties":{"source_id":"co_named_stream_018204","name":"Sand Creek","display_name":"Sand Creek","mapped_name":"Sand Creek","source_name":"Sand Creek","state":"CO","atlas_class":"named_natural_stream","huc8":"10190013","huc8Name":"Beaver","huc8States":"CO","lineageKey":"statewideContext","lineage":"statewideContext","historic":"statewideContext","current":"statewideContext","recovery":"statewideContext","lineageLabel":"Statewide Colorado hydrography context","lineageBasin":"","lineageNote":"","atlas_context":"statewide_hydrography_context","confidence":"Statewide hydrography context outside current cutthroat lineage model","geometryStatus":"Named natural stream segment from statewide hydrography","note":"This named natural stream is included for statewide Colorado hydrography completeness and is outside the current cutthroat lineage assignment set.","source_segment_id":"co_named_stream_018204","water_id":"co_sand_creek_10190013_statewideContext_001","occurrence_id":"co_sand_creek_10190013_statewideContext_001","occurrence_number":"001","segment_count":68,"disambiguator":"Beaver · Statewide Colorado hydrography context · occurrence 001","basin":"Beaver","atlas_layer":"named_water_occurrence","object_role":"named_water_occurrence","historic_label":"Statewide Colorado hydrography context","current_label":"Statewide Colorado hydrography context","recovery_label":"Statewide Colorado hydrography context","tier":"tier2","minZoom":12,"confidence_public":"Statewide hydrography context outside current cutthroat lineage model","geometry_status_public":"Named natural stream occurrence from statewide hydrography","geometry_source_public":"Grouped public hydrography segments","trout_source_public":"Included for Colorado statewide hydrography completeness","public_notes":"Sand Creek is shown as statewide Colorado hydrography context outside the current cutthroat lineage assignment set."}},{"type":"Feature","geometry":{"type":"LineString","coordinates":[[-103.4096,39.673],[-103.4124,39.6731],[-103.412,39.6756],[-103.4129,39.6762],[-103.4122,39.6767]]},"properties":{"source_id":"co_named_stream_019993","name":"Sand Creek","display_name":"Sand Creek","mapped_name":"Sand Creek","source_name":"Sand Creek","state":"CO","atlas_class":"named_natural_stream","huc8":"10190013","huc8Name":"Beaver","huc8States":"CO","lineageKey":"statewideContext","lineage":"statewideContext","historic":"statewideContext","current":"statewideContext","recovery":"statewideContext","lineageLabel":"Statewide Colorado hydrography context","lineageBasin":"","lineageNote":"","atlas_context":"statewide_hydrography_context","confidence":"Statewide hydrography context outside current cutthroat lineage model","geometryStatus":"Named natural stream segment from statewide hydrography","note":"This named natural stream is included for statewide Colorado hydrography completeness and is outside the current cutthroat lineage assignment set.","source_segment_id":"co_named_stream_019993","water_id":"co_sand_creek_10190013_statewideContext_001","occurrence_id":"co_sand_creek_10190013_statewideContext_001","occurrence_number":"001","segment_count":68,"disambiguator":"Beaver · Statewide Colorado hydrography context · occurrence 001","basin":"Beaver","atlas_layer":"named_water_occurrence","object_role":"named_water_occurrence","historic_label":"Statewide Colorado hydrography context","current_label":"Statewide Colorado hydrography context","recovery_label":"Statewide Colorado hydrography context","tier":"tier2","minZoom":12,"confidence_public":"Statewide hydrography context outside current cutthroat lineage model","geometry_status_public":"Named natural stream occurrence from statewide hydrography","geometry_source_public":"Grouped public hydrography segments","trout_source_public":"Included for Colorado statewide hydrography completeness","public_notes":"Sand Creek is shown as statewide Colorado hydrography context outside the current cutthroat lineage assignment set."}},{"type":"Feature","geometry":{"type":"LineString","coordinates":[[-103.4136,39.7072],[-103.4145,39.7092],[-103.4168,39.7091]]},"properties":{"source_id":"co_named_stream_020017","name":"Sand Creek","display_name":"Sand Creek","mapped_name":"Sand Creek","source_name":"Sand Creek","state":"CO","atlas_class":"named_natural_stream","huc8":"10190013","huc8Name":"Beaver","huc8States":"CO","lineageKey":"statewideContext","lineage":"statewideContext","historic":"statewideContext","current":"statewideContext","recovery":"statewideContext","lineageLabel":"Statewide Colorado hydrography context","lineageBasin":"","lineageNote":"","atlas_context":"statewide_hydrography_context","confidence":"Statewide hydrography context outside current cutthroat lineage model","geometryStatus":"Named natural stream segment from statewide hydrography","note":"This named natural stream is included for statewide Colorado hydrography completeness and is outside the current cutthroat lineage assignment set.","source_segment_id":"co_named_stream_020017","water_id":"co_sand_creek_10190013_statewideContext_001","occurrence_id":"co_sand_creek_10190013_statewideContext_001","occurrence_number":"001","segment_count":68,"disambiguator":"Beaver · Statewide Colorado hydrography context · occurrence 001","basin":"Beaver","atlas_layer":"named_water_occurrence","object_role":"named_water_occurrence","historic_label":"Statewide Colorado hydrography context","current_label":"Statewide Colorado hydrography context","recovery_label":"Statewide Colorado hydrography context","tier":"tier2","minZoom":12,"confidence_public":"Statewide hydrography context outside current cutthroat lineage model","geometry_status_public":"Named natural stream occurrence from statewide hydrography","geometry_source_public":"Grouped public hydrography segments","trout_source_public":"Included for Colorado statewide hydrography completeness","public_notes":"Sand Creek is shown as statewide Colorado hydrography context outside the current cutthroat lineage assignment set."}},{"type":"Feature","geometry":{"type":"LineString","coordinates":[[-103.4207,39.7063],[-103.4171,39.7051],[-103.4161,39.7071],[-103.4136,39.7072]]},"properties":{"source_id":"co_named_stream_020453","name":"Sand Creek","display_name":"Sand Creek","mapped_name":"Sand Creek","source_name":"Sand Creek","state":"CO","atlas_class":"named_natural_stream","huc8":"10190013","huc8Name":"Beaver","huc8States":"CO","lineageKey":"statewideContext","lineage":"statewideContext","historic":"statewideContext","current":"statewideContext","recovery":"statewideContext","lineageLabel":"Statewide Colorado hydrography context","lineageBasin":"","lineageNote":"","atlas_context":"statewide_hydrography_context","confidence":"Statewide hydrography context outside current cutthroat lineage model","geometryStatus":"Named natural stream segment from statewide hydrography","note":"This named natural stream is included for statewide Colorado hydrography completeness and is outside the current cutthroat lineage assignment set.","source_segment_id":"co_named_stream_020453","water_id":"co_sand_creek_10190013_statewideContext_001","occurrence_id":"co_sand_creek_10190013_statewideContext_001","occurrence_number":"001","segment_count":68,"disambiguator":"Beaver · Statewide Colorado hydrography context · occurrence 001","basin":"Beaver","atlas_layer":"named_water_occurrence","object_role":"named_water_occurrence","historic_label":"Statewide Colorado hydrography context","current_label":"Statewide Colorado hydrography context","recovery_label":"Statewide Colorado hydrography context","tier":"tier2","minZoom":12,"confidence_public":"Statewide hydrography context outside current cutthroat lineage model","geometry_status_public":"Named natural stream occurrence from statewide hydrography","geometry_source_public":"Grouped public hydrography segments","trout_source_public":"Included for Colorado statewide hydrography completeness","public_notes":"Sand Creek is shown as statewide Colorado hydrography context outside the current cutthroat lineage assignment set."}},{"type":"Feature","geometry":{"type":"LineString","coordinates":[[-103.4023,39.7287],[-103.4007,39.7311]]},"properties":{"source_id":"co_named_stream_021438","name":"Sand Creek","display_name":"Sand Creek","mapped_name":"Sand Creek","source_name":"Sand Creek","state":"CO","atlas_class":"named_natural_stream","huc8":"10190013","huc8Name":"Beaver","huc8States":"CO","lineageKey":"statewideContext","lineage":"statewideContext","historic":"statewideContext","current":"statewideContext","recovery":"statewideContext","lineageLabel":"Statewide Colorado hydrography context","lineageBasin":"","lineageNote":"","atlas_context":"statewide_hydrography_context","confidence":"Statewide hydrography context outside current cutthroat lineage model","geometryStatus":"Named natural stream segment from statewide hydrography","note":"This named natural stream is included for statewide Colorado hydrography completeness and is outside the current cutthroat lineage assignment set.","source_segment_id":"co_named_stream_021438","water_id":"co_sand_creek_10190013_statewideContext_001","occurrence_id":"co_sand_creek_10190013_statewideContext_001","occurrence_number":"001","segment_count":68,"disambiguator":"Beaver · Statewide Colorado hydrography context · occurrence 001","basin":"Beaver","atlas_layer":"named_water_occurrence","object_role":"named_water_occurrence","historic_label":"Statewide Colorado hydrography context","current_label":"Statewide Colorado hydrography context","recovery_label":"Statewide Colorado hydrography context","tier":"tier2","minZoom":12,"confidence_public":"Statewide hydrography context outside current cutthroat lineage model","geometry_status_public":"Named natural stream occurrence from statewide hydrography","geometry_source_public":"Grouped public hydrography segments","trout_source_public":"Included for Colorado statewide hydrography completeness","public_notes":"Sand Creek is shown as statewide Colorado hydrography context outside the current cutthroat lineage assignment set."}},{"type":"Feature","geometry":{"type":"LineString","coordinates":[[-103.4135,39.6512],[-103.4142,39.6536]]},"properties":{"source_id":"co_named_stream_021470","name":"Sand Creek","display_name":"Sand Creek","mapped_name":"Sand Creek","source_name":"Sand Creek","state":"CO","atlas_class":"named_natural_stream","huc8":"10190013","huc8Name":"Beaver","huc8States":"CO","lineageKey":"statewideContext","lineage":"statewideContext","historic":"statewideContext","current":"statewideContext","recovery":"statewideContext","lineageLabel":"Statewide Colorado hydrography context","lineageBasin":"","lineageNote":"","atlas_context":"statewide_hydrography_context","confidence":"Statewide hydrography context outside current cutthroat lineage model","geometryStatus":"Named natural stream segment from statewide hydrography","note":"This named natural stream is included for statewide Colorado hydrography completeness and is outside the current cutthroat lineage assignment set.","source_segment_id":"co_named_stream_021470","water_id":"co_sand_creek_10190013_statewideContext_001","occurrence_id":"co_sand_creek_10190013_statewideContext_001","occurrence_number":"001","segment_count":68,"disambiguator":"Beaver · Statewide Colorado hydrography context · occurrence 001","basin":"Beaver","atlas_layer":"named_water_occurrence","object_role":"named_water_occurrence","historic_label":"Statewide Colorado hydrography context","current_label":"Statewide Colorado hydrography context","recovery_label":"Statewide Colorado hydrography context","tier":"tier2","minZoom":12,"confidence_public":"Statewide hydrography context outside current cutthroat lineage model","geometry_status_public":"Named natural stream occurrence from statewide hydrography","geometry_source_public":"Grouped public hydrography segments","trout_source_public":"Included for Colorado statewide hydrography completeness","public_notes":"Sand Creek is shown as statewide Colorado hydrography context outside the current cutthroat lineage assignment set."}},{"type":"Feature","geometry":{"type":"LineString","coordinates":[[-103.405,39.719],[-103.4049,39.7211],[-103.4024,39.7219],[-103.4023,39.7287]]},"properties":{"source_id":"co_named_stream_022888","name":"Sand Creek","display_name":"Sand Creek","mapped_name":"Sand Creek","source_name":"Sand Creek","state":"CO","atlas_class":"named_natural_stream","huc8":"10190013","huc8Name":"Beaver","huc8States":"CO","lineageKey":"statewideContext","lineage":"statewideContext","historic":"statewideContext","current":"statewideContext","recovery":"statewideContext","lineageLabel":"Statewide Colorado hydrography context","lineageBasin":"","lineageNote":"","atlas_context":"statewide_hydrography_context","confidence":"Statewide hydrography context outside current cutthroat lineage model","geometryStatus":"Named natural stream segment from statewide hydrography","note":"This named natural stream is included for statewide Colorado hydrography completeness and is outside the current cutthroat lineage assignment set.","source_segment_id":"co_named_stream_022888","water_id":"co_sand_creek_10190013_statewideContext_001","occurrence_id":"co_sand_creek_10190013_statewideContext_001","occurrence_number":"001","segment_count":68,"disambiguator":"Beaver · Statewide Colorado hydrography context · occurrence 001","basin":"Beaver","atlas_layer":"named_water_occurrence","object_role":"named_water_occurrence","historic_label":"Statewide Colorado hydrography context","current_label":"Statewide Colorado hydrography context","recovery_label":"Statewide Colorado hydrography context","tier":"tier2","minZoom":12,"confidence_public":"Statewide hydrography context outside current cutthroat lineage model","geometry_status_public":"Named natural stream occurrence from statewide hydrography","geometry_source_public":"Grouped public hydrography segments","trout_source_public":"Included for Colorado statewide hydrography completeness","public_notes":"Sand Creek is shown as statewide Colorado hydrography context outside the current cutthroat lineage assignment set."}},{"type":"Feature","geometry":{"type":"LineString","coordinates":[[-103.3985,39.7442],[-103.3954,39.7471],[-103.3941,39.7459],[-103.3919,39.7463],[-103.3906,39.745]]},"properties":{"source_id":"co_named_stream_022889","name":"Sand Creek","display_name":"Sand Creek","mapped_name":"Sand Creek","source_name":"Sand Creek","state":"CO","atlas_class":"named_natural_stream","huc8":"10190013","huc8Name":"Beaver","huc8States":"CO","lineageKey":"statewideContext","lineage":"statewideContext","historic":"statewideContext","current":"statewideContext","recovery":"statewideContext","lineageLabel":"Statewide Colorado hydrography context","lineageBasin":"","lineageNote":"","atlas_context":"statewide_hydrography_context","confidence":"Statewide hydrography context outside current cutthroat lineage model","geometryStatus":"Named natural stream segment from statewide hydrography","note":"This named natural stream is included for statewide Colorado hydrography completeness and is outside the current cutthroat lineage assignment set.","source_segment_id":"co_named_stream_022889","water_id":"co_sand_creek_10190013_statewideContext_001","occurrence_id":"co_sand_creek_10190013_statewideContext_001","occurrence_number":"001","segment_count":68,"disambiguator":"Beaver · Statewide Colorado hydrography context · occurrence 001","basin":"Beaver","atlas_layer":"named_water_occurrence","object_role":"named_water_occurrence","historic_label":"Statewide Colorado hydrography context","current_label":"Statewide Colorado hydrography context","recovery_label":"Statewide Colorado hydrography context","tier":"tier2","minZoom":12,"confidence_public":"Statewide hydrography context outside current cutthroat lineage model","geometry_status_public":"Named natural stream occurrence from statewide hydrography","geometry_source_public":"Grouped public hydrography segments","trout_source_public":"Included for Colorado statewide hydrography completeness","public_notes":"Sand Creek is shown as statewide Colorado hydrography context outside the current cutthroat lineage assignment set."}},{"type":"Feature","geometry":{"type":"LineString","coordinates":[[-103.41,39.666],[-103.4093,39.6681]]},"properties":{"source_id":"co_named_stream_023704","name":"Sand Creek","display_name":"Sand Creek","mapped_name":"Sand Creek","source_name":"Sand Creek","state":"CO","atlas_class":"named_natural_stream","huc8":"10190013","huc8Name":"Beaver","huc8States":"CO","lineageKey":"statewideContext","lineage":"statewideContext","historic":"statewideContext","current":"statewideContext","recovery":"statewideContext","lineageLabel":"Statewide Colorado hydrography context","lineageBasin":"","lineageNote":"","atlas_context":"statewide_hydrography_context","confidence":"Statewide hydrography context outside current cutthroat lineage model","geometryStatus":"Named natural stream segment from statewide hydrography","note":"This named natural stream is included for statewide Colorado hydrography completeness and is outside the current cutthroat lineage assignment set.","source_segment_id":"co_named_stream_023704","water_id":"co_sand_creek_10190013_statewideContext_001","occurrence_id":"co_sand_creek_10190013_statewideContext_001","occurrence_number":"001","segment_count":68,"disambiguator":"Beaver · Statewide Colorado hydrography context · occurrence 001","basin":"Beaver","atlas_layer":"named_water_occurrence","object_role":"named_water_occurrence","historic_label":"Statewide Colorado hydrography context","current_label":"Statewide Colorado hydrography context","recovery_label":"Statewide Colorado hydrography context","tier":"tier2","minZoom":12,"confidence_public":"Statewide hydrography context outside current cutthroat lineage model","geometry_status_public":"Named natural stream occurrence from statewide hydrography","geometry_source_public":"Grouped public hydrography segments","trout_source_public":"Included for Colorado statewide hydrography completeness","public_notes":"Sand Creek is shown as statewide Colorado hydrography context outside the current cutthroat lineage assignment set."}},{"type":"Feature","geometry":{"type":"LineString","coordinates":[[-103.4202,39.694],[-103.4207,39.6952],[-103.423,39.6956],[-103.4248,39.6992],[-103.4232,39.7004],[-103.4248,39.7039],[-103.4226,39.7037],[-103.4231,39.7041]]},"properties":{"source_id":"co_named_stream_023886","name":"Sand Creek","display_name":"Sand Creek","mapped_name":"Sand Creek","source_name":"Sand Creek","state":"CO","atlas_class":"named_natural_stream","huc8":"10190013","huc8Name":"Beaver","huc8States":"CO","lineageKey":"statewideContext","lineage":"statewideContext","historic":"statewideContext","current":"statewideContext","recovery":"statewideContext","lineageLabel":"Statewide Colorado hydrography context","lineageBasin":"","lineageNote":"","atlas_context":"statewide_hydrography_context","confidence":"Statewide hydrography context outside current cutthroat lineage model","geometryStatus":"Named natural stream segment from statewide hydrography","note":"This named natural stream is included for statewide Colorado hydrography completeness and is outside the current cutthroat lineage assignment set.","source_segment_id":"co_named_stream_023886","water_id":"co_sand_creek_10190013_statewideContext_001","occurrence_id":"co_sand_creek_10190013_statewideContext_001","occurrence_number":"001","segment_count":68,"disambiguator":"Beaver · Statewide Colorado hydrography context · occurrence 001","basin":"Beaver","atlas_layer":"named_water_occurrence","object_role":"named_water_occurrence","historic_label":"Statewide Colorado hydrography context","current_label":"Statewide Colorado hydrography context","recovery_label":"Statewide Colorado hydrography context","tier":"tier2","minZoom":12,"confidence_public":"Statewide hydrography context outside current cutthroat lineage model","geometry_status_public":"Named natural stream occurrence from statewide hydrography","geometry_source_public":"Grouped public hydrography segments","trout_source_public":"Included for Colorado statewide hydrography completeness","public_notes":"Sand Creek is shown as statewide Colorado hydrography context outside the current cutthroat lineage assignment set."}},{"type":"Feature","geometry":{"type":"LineString","coordinates":[[-103.4911,39.6791],[-103.4891,39.6806],[-103.4899,39.6845]]},"properties":{"source_id":"co_named_stream_004629","name":"Vega Creek","display_name":"Vega Creek","mapped_name":"Vega Creek","source_name":"Vega Creek","state":"CO","atlas_class":"named_natural_stream","huc8":"10190013","huc8Name":"Beaver","huc8States":"CO","lineageKey":"statewideContext","lineage":"statewideContext","historic":"statewideContext","current":"statewideContext","recovery":"statewideContext","lineageLabel":"Statewide Colorado hydrography context","lineageBasin":"","lineageNote":"","atlas_context":"statewide_hydrography_context","confidence":"Statewide hydrography context outside current cutthroat lineage model","geometryStatus":"Named natural stream segment from statewide hydrography","note":"This named natural stream is included for statewide Colorado hydrography completeness and is outside the current cutthroat lineage assignment set.","source_segment_id":"co_named_stream_004629","water_id":"co_vega_creek_10190013_statewideContext_001","occurrence_id":"co_vega_creek_10190013_statewideContext_001","occurrence_number":"001","segment_count":70,"disambiguator":"Beaver · Statewide Colorado hydrography context · occurrence 001","basin":"Beaver","atlas_layer":"named_water_occurrence","object_role":"named_water_occurrence","historic_label":"Statewide Colorado hydrography context","current_label":"Statewide Colorado hydrography context","recovery_label":"Statewide Colorado hydrography context","tier":"tier2","minZoom":12,"confidence_public":"Statewide hydrography context outside current cutthroat lineage model","geometry_status_public":"Named natural stream occurrence from statewide hydrography","geometry_source_public":"Grouped public hydrography segments","trout_source_public":"Included for Colorado statewide hydrography completeness","public_notes":"Vega Creek is shown as statewide Colorado hydrography context outside the current cutthroat lineage assignment set."}},{"type":"Feature","geometry":{"type":"LineString","coordinates":[[-103.4879,39.6699],[-103.4908,39.6716],[-103.4917,39.6734],[-103.4878,39.6748],[-103.4879,39.6758],[-103.4893,39.6764]]},"properties":{"source_id":"co_named_stream_007629","name":"Vega Creek","display_name":"Vega Creek","mapped_name":"Vega Creek","source_name":"Vega Creek","state":"CO","atlas_class":"named_natural_stream","huc8":"10190013","huc8Name":"Beaver","huc8States":"CO","lineageKey":"statewideContext","lineage":"statewideContext","historic":"statewideContext","current":"statewideContext","recovery":"statewideContext","lineageLabel":"Statewide Colorado hydrography context","lineageBasin":"","lineageNote":"","atlas_context":"statewide_hydrography_context","confidence":"Statewide hydrography context outside current cutthroat lineage model","geometryStatus":"Named natural stream segment from statewide hydrography","note":"This named natural stream is included for statewide Colorado hydrography completeness and is outside the current cutthroat lineage assignment set.","source_segment_id":"co_named_stream_007629","water_id":"co_vega_creek_10190013_statewideContext_001","occurrence_id":"co_vega_creek_10190013_statewideContext_001","occurrence_number":"001","segment_count":70,"disambiguator":"Beaver · Statewide Colorado hydrography context · occurrence 001","basin":"Beaver","atlas_layer":"named_water_occurrence","object_role":"named_water_occurrence","historic_label":"Statewide Colorado hydrography context","current_label":"Statewide Colorado hydrography context","recovery_label":"Statewide Colorado hydrography context","tier":"tier2","minZoom":12,"confidence_public":"Statewide hydrography context outside current cutthroat lineage model","geometry_status_public":"Named natural stream occurrence from statewide hydrography","geometry_source_public":"Grouped public hydrography segments","trout_source_public":"Included for Colorado statewide hydrography completeness","public_notes":"Vega Creek is shown as statewide Colorado hydrography context outside the current cutthroat lineage assignment set."}},{"type":"Feature","geometry":{"type":"LineString","coordinates":[[-103.4893,39.6764],[-103.4927,39.6779]]},"properties":{"source_id":"co_named_stream_009410","name":"Vega Creek","display_name":"Vega Creek","mapped_name":"Vega Creek","source_name":"Vega Creek","state":"CO","atlas_class":"named_natural_stream","huc8":"10190013","huc8Name":"Beaver","huc8States":"CO","lineageKey":"statewideContext","lineage":"statewideContext","historic":"statewideContext","current":"statewideContext","recovery":"statewideContext","lineageLabel":"Statewide Colorado hydrography context","lineageBasin":"","lineageNote":"","atlas_context":"statewide_hydrography_context","confidence":"Statewide hydrography context outside current cutthroat lineage model","geometryStatus":"Named natural stream segment from statewide hydrography","note":"This named natural stream is included for statewide Colorado hydrography completeness and is outside the current cutthroat lineage assignment set.","source_segment_id":"co_named_stream_009410","water_id":"co_vega_creek_10190013_statewideContext_001","occurrence_id":"co_vega_creek_10190013_statewideContext_001","occurrence_number":"001","segment_count":70,"disambiguator":"Beaver · Statewide Colorado hydrography context · occurrence 001","basin":"Beaver","atlas_layer":"named_water_occurrence","object_role":"named_water_occurrence","historic_label":"Statewide Colorado hydrography context","current_label":"Statewide Colorado hydrography context","recovery_label":"Statewide Colorado hydrography context","tier":"tier2","minZoom":12,"confidence_public":"Statewide hydrography context outside current cutthroat lineage model","geometry_status_public":"Named natural stream occurrence from statewide hydrography","geometry_source_public":"Grouped public hydrography segments","trout_source_public":"Included for Colorado statewide hydrography completeness","public_notes":"Vega Creek is shown as statewide Colorado hydrography context outside the current cutthroat lineage assignment set."}},{"type":"Feature","geometry":{"type":"LineString","coordinates":[[-103.5022,39.6568],[-103.5013,39.6582],[-103.5031,39.6623],[-103.4999,39.6612],[-103.5008,39.6642],[-103.5001,39.6654],[-103.4941,39.6659],[-103.4915,39.6677],[-103.4893,39.6677],[-103.4879,39.6699]]},"properties":{"source_id":"co_named_stream_014229","name":"Vega Creek","display_name":"Vega Creek","mapped_name":"Vega Creek","source_name":"Vega Creek","state":"CO","atlas_class":"named_natural_stream","huc8":"10190013","huc8Name":"Beaver","huc8States":"CO","lineageKey":"statewideContext","lineage":"statewideContext","historic":"statewideContext","current":"statewideContext","recovery":"statewideContext","lineageLabel":"Statewide Colorado hydrography context","lineageBasin":"","lineageNote":"","atlas_context":"statewide_hydrography_context","confidence":"Statewide hydrography context outside current cutthroat lineage model","geometryStatus":"Named natural stream segment from statewide hydrography","note":"This named natural stream is included for statewide Colorado hydrography completeness and is outside the current cutthroat lineage assignment set.","source_segment_id":"co_named_stream_014229","water_id":"co_vega_creek_10190013_statewideContext_001","occurrence_id":"co_vega_creek_10190013_statewideContext_001","occurrence_number":"001","segment_count":70,"disambiguator":"Beaver · Statewide Colorado hydrography context · occurrence 001","basin":"Beaver","atlas_layer":"named_water_occurrence","object_role":"named_water_occurrence","historic_label":"Statewide Colorado hydrography context","current_label":"Statewide Colorado hydrography context","recovery_label":"Statewide Colorado hydrography context","tier":"tier2","minZoom":12,"confidence_public":"Statewide hydrography context outside current cutthroat lineage model","geometry_status_public":"Named natural stream occurrence from statewide hydrography","geometry_source_public":"Grouped public hydrography segments","trout_source_public":"Included for Colorado statewide hydrography completeness","public_notes":"Vega Creek is shown as statewide Colorado hydrography context outside the current cutthroat lineage assignment set."}},{"type":"Feature","geometry":{"type":"LineString","coordinates":[[-103.4887,39.6874],[-103.4881,39.6883],[-103.4899,39.6919],[-103.4949,39.6922],[-103.4953,39.6932],[-103.493,39.6976],[-103.4852,39.6989],[-103.4847,39.6999],[-103.4855,39.7025]]},"properties":{"source_id":"co_named_stream_020970","name":"Vega Creek","display_name":"Vega Creek","mapped_name":"Vega Creek","source_name":"Vega Creek","state":"CO","atlas_class":"named_natural_stream","huc8":"10190013","huc8Name":"Beaver","huc8States":"CO","lineageKey":"statewideContext","lineage":"statewideContext","historic":"statewideContext","current":"statewideContext","recovery":"statewideContext","lineageLabel":"Statewide Colorado hydrography context","lineageBasin":"","lineageNote":"","atlas_context":"statewide_hydrography_context","confidence":"Statewide hydrography context outside current cutthroat lineage model","geometryStatus":"Named natural stream segment from statewide hydrography","note":"This named natural stream is included for statewide Colorado hydrography completeness and is outside the current cutthroat lineage assignment set.","source_segment_id":"co_named_stream_020970","water_id":"co_vega_creek_10190013_statewideContext_001","occurrence_id":"co_vega_creek_10190013_statewideContext_001","occurrence_number":"001","segment_count":70,"disambiguator":"Beaver · Statewide Colorado hydrography context · occurrence 001","basin":"Beaver","atlas_layer":"named_water_occurrence","object_role":"named_water_occurrence","historic_label":"Statewide Colorado hydrography context","current_label":"Statewide Colorado hydrography context","recovery_label":"Statewide Colorado hydrography context","tier":"tier2","minZoom":12,"confidence_public":"Statewide hydrography context outside current cutthroat lineage model","geometry_status_public":"Named natural stream occurrence from statewide hydrography","geometry_source_public":"Grouped public hydrography segments","trout_source_public":"Included for Colorado statewide hydrography completeness","public_notes":"Vega Creek is shown as statewide Colorado hydrography context outside the current cutthroat lineage assignment set."}},{"type":"Feature","geometry":{"type":"LineString","coordinates":[[-103.4899,39.6845],[-103.4899,39.6861],[-103.4887,39.6874]]},"properties":{"source_id":"co_named_stream_023745","name":"Vega Creek","display_name":"Vega Creek","mapped_name":"Vega Creek","source_name":"Vega Creek","state":"CO","atlas_class":"named_natural_stream","huc8":"10190013","huc8Name":"Beaver","huc8States":"CO","lineageKey":"statewideContext","lineage":"statewideContext","historic":"statewideContext","current":"statewideContext","recovery":"statewideContext","lineageLabel":"Statewide Colorado hydrography context","lineageBasin":"","lineageNote":"","atlas_context":"statewide_hydrography_context","confidence":"Statewide hydrography context outside current cutthroat lineage model","geometryStatus":"Named natural stream segment from statewide hydrography","note":"This named natural stream is included for statewide Colorado hydrography completeness and is outside the current cutthroat lineage assignment set.","source_segment_id":"co_named_stream_023745","water_id":"co_vega_creek_10190013_statewideContext_001","occurrence_id":"co_vega_creek_10190013_statewideContext_001","occurrence_number":"001","segment_count":70,"disambiguator":"Beaver · Statewide Colorado hydrography context · occurrence 001","basin":"Beaver","atlas_layer":"named_water_occurrence","object_role":"named_water_occurrence","historic_label":"Statewide Colorado hydrography context","current_label":"Statewide Colorado hydrography context","recovery_label":"Statewide Colorado hydrography context","tier":"tier2","minZoom":12,"confidence_public":"Statewide hydrography context outside current cutthroat lineage model","geometry_status_public":"Named natural stream occurrence from statewide hydrography","geometry_source_public":"Grouped public hydrography segments","trout_source_public":"Included for Colorado statewide hydrography completeness","public_notes":"Vega Creek is shown as statewide Colorado hydrography context outside the current cutthroat lineage assignment set."}},{"type":"Feature","geometry":{"type":"LineString","coordinates":[[-103.4855,39.7025],[-103.4889,39.7032],[-103.494,39.7017],[-103.495,39.703],[-103.4947,39.7052],[-103.4968,39.7056],[-103.4986,39.7073],[-103.504,39.7087]]},"properties":{"source_id":"co_named_stream_024888","name":"Vega Creek","display_name":"Vega Creek","mapped_name":"Vega Creek","source_name":"Vega Creek","state":"CO","atlas_class":"named_natural_stream","huc8":"10190013","huc8Name":"Beaver","huc8States":"CO","lineageKey":"statewideContext","lineage":"statewideContext","historic":"statewideContext","current":"statewideContext","recovery":"statewideContext","lineageLabel":"Statewide Colorado hydrography context","lineageBasin":"","lineageNote":"","atlas_context":"statewide_hydrography_context","confidence":"Statewide hydrography context outside current cutthroat lineage model","geometryStatus":"Named natural stream segment from statewide hydrography","note":"This named natural stream is included for statewide Colorado hydrography completeness and is outside the current cutthroat lineage assignment set.","source_segment_id":"co_named_stream_024888","water_id":"co_vega_creek_10190013_statewideContext_001","occurrence_id":"co_vega_creek_10190013_statewideContext_001","occurrence_number":"001","segment_count":70,"disambiguator":"Beaver · Statewide Colorado hydrography context · occurrence 001","basin":"Beaver","atlas_layer":"named_water_occurrence","object_role":"named_water_occurrence","historic_label":"Statewide Colorado hydrography context","current_label":"Statewide Colorado hydrography context","recovery_label":"Statewide Colorado hydrography context","tier":"tier2","minZoom":12,"confidence_public":"Statewide hydrography context outside current cutthroat lineage model","geometry_status_public":"Named natural stream occurrence from statewide hydrography","geometry_source_public":"Grouped public hydrography segments","trout_source_public":"Included for Colorado statewide hydrography completeness","public_notes":"Vega Creek is shown as statewide Colorado hydrography context outside the current cutthroat lineage assignment set."}}]}