{"type":"FeatureCollection","metadata":{"source":"C:\\ct-atlas-data\\processed\\geojson\\interpreted\\colorado_named_natural_streams_complete_v1.geojson","tier":"tier2","tile_size_degrees":0.25,"x":-434,"y":158,"bounds":{"west":-108.5,"south":39.5,"east":-108.25,"north":39.75}},"features":[{"type":"Feature","geometry":{"type":"LineString","coordinates":[[-108.5004,39.5644],[-108.4945,39.5572]]},"properties":{"source_id":"co_named_stream_064918","name":"Carr Creek","display_name":"Carr Creek","mapped_name":"Carr Creek","source_name":"Carr Creek","state":"CO","atlas_class":"named_natural_stream","huc8":"14010005","huc8Name":"Colorado Headwaters-Plateau","huc8States":"CO,UT","lineageKey":"statewideContext","lineage":"statewideContext","historic":"statewideContext","current":"statewideContext","recovery":"statewideContext","lineageLabel":"Statewide Colorado hydrography context","lineageBasin":"","lineageNote":"","atlas_context":"statewide_hydrography_context","confidence":"Statewide hydrography context outside current cutthroat lineage model","geometryStatus":"Named natural stream segment from statewide hydrography","note":"This named natural stream is included for statewide Colorado hydrography completeness and is outside the current cutthroat lineage assignment set.","source_segment_id":"co_named_stream_064918","water_id":"co_carr_creek_14010005_statewideContext_001","occurrence_id":"co_carr_creek_14010005_statewideContext_001","occurrence_number":"001","segment_count":52,"disambiguator":"Colorado Headwaters-Plateau · Statewide Colorado hydrography context · occurrence 001","basin":"Colorado Headwaters-Plateau","atlas_layer":"named_water_occurrence","object_role":"named_water_occurrence","historic_label":"Statewide Colorado hydrography context","current_label":"Statewide Colorado hydrography context","recovery_label":"Statewide Colorado hydrography context","tier":"tier2","minZoom":12,"confidence_public":"Statewide hydrography context outside current cutthroat lineage model","geometry_status_public":"Named natural stream occurrence from statewide hydrography","geometry_source_public":"Grouped public hydrography segments","trout_source_public":"Included for Colorado statewide hydrography completeness","public_notes":"Carr Creek is shown as statewide Colorado hydrography context outside the current cutthroat lineage assignment set."}},{"type":"Feature","geometry":{"type":"LineString","coordinates":[[-108.4726,39.5366],[-108.4722,39.5362]]},"properties":{"source_id":"co_named_stream_064919","name":"Carr Creek","display_name":"Carr Creek","mapped_name":"Carr Creek","source_name":"Carr Creek","state":"CO","atlas_class":"named_natural_stream","huc8":"14010005","huc8Name":"Colorado Headwaters-Plateau","huc8States":"CO,UT","lineageKey":"statewideContext","lineage":"statewideContext","historic":"statewideContext","current":"statewideContext","recovery":"statewideContext","lineageLabel":"Statewide Colorado hydrography context","lineageBasin":"","lineageNote":"","atlas_context":"statewide_hydrography_context","confidence":"Statewide hydrography context outside current cutthroat lineage model","geometryStatus":"Named natural stream segment from statewide hydrography","note":"This named natural stream is included for statewide Colorado hydrography completeness and is outside the current cutthroat lineage assignment set.","source_segment_id":"co_named_stream_064919","water_id":"co_carr_creek_14010005_statewideContext_001","occurrence_id":"co_carr_creek_14010005_statewideContext_001","occurrence_number":"001","segment_count":52,"disambiguator":"Colorado Headwaters-Plateau · Statewide Colorado hydrography context · occurrence 001","basin":"Colorado Headwaters-Plateau","atlas_layer":"named_water_occurrence","object_role":"named_water_occurrence","historic_label":"Statewide Colorado hydrography context","current_label":"Statewide Colorado hydrography context","recovery_label":"Statewide Colorado hydrography context","tier":"tier2","minZoom":12,"confidence_public":"Statewide hydrography context outside current cutthroat lineage model","geometry_status_public":"Named natural stream occurrence from statewide hydrography","geometry_source_public":"Grouped public hydrography segments","trout_source_public":"Included for Colorado statewide hydrography completeness","public_notes":"Carr Creek is shown as statewide Colorado hydrography context outside the current cutthroat lineage assignment set."}},{"type":"Feature","geometry":{"type":"LineString","coordinates":[[-108.4926,39.5556],[-108.4914,39.5541]]},"properties":{"source_id":"co_named_stream_064920","name":"Carr Creek","display_name":"Carr Creek","mapped_name":"Carr Creek","source_name":"Carr Creek","state":"CO","atlas_class":"named_natural_stream","huc8":"14010005","huc8Name":"Colorado Headwaters-Plateau","huc8States":"CO,UT","lineageKey":"statewideContext","lineage":"statewideContext","historic":"statewideContext","current":"statewideContext","recovery":"statewideContext","lineageLabel":"Statewide Colorado hydrography context","lineageBasin":"","lineageNote":"","atlas_context":"statewide_hydrography_context","confidence":"Statewide hydrography context outside current cutthroat lineage model","geometryStatus":"Named natural stream segment from statewide hydrography","note":"This named natural stream is included for statewide Colorado hydrography completeness and is outside the current cutthroat lineage assignment set.","source_segment_id":"co_named_stream_064920","water_id":"co_carr_creek_14010005_statewideContext_001","occurrence_id":"co_carr_creek_14010005_statewideContext_001","occurrence_number":"001","segment_count":52,"disambiguator":"Colorado Headwaters-Plateau · Statewide Colorado hydrography context · occurrence 001","basin":"Colorado Headwaters-Plateau","atlas_layer":"named_water_occurrence","object_role":"named_water_occurrence","historic_label":"Statewide Colorado hydrography context","current_label":"Statewide Colorado hydrography context","recovery_label":"Statewide Colorado hydrography context","tier":"tier2","minZoom":12,"confidence_public":"Statewide hydrography context outside current cutthroat lineage model","geometry_status_public":"Named natural stream occurrence from statewide hydrography","geometry_source_public":"Grouped public hydrography segments","trout_source_public":"Included for Colorado statewide hydrography completeness","public_notes":"Carr Creek is shown as statewide Colorado hydrography context outside the current cutthroat lineage assignment set."}},{"type":"Feature","geometry":{"type":"LineString","coordinates":[[-108.4631,39.5257],[-108.463,39.5246]]},"properties":{"source_id":"co_named_stream_064921","name":"Carr Creek","display_name":"Carr Creek","mapped_name":"Carr Creek","source_name":"Carr Creek","state":"CO","atlas_class":"named_natural_stream","huc8":"14010005","huc8Name":"Colorado Headwaters-Plateau","huc8States":"CO,UT","lineageKey":"statewideContext","lineage":"statewideContext","historic":"statewideContext","current":"statewideContext","recovery":"statewideContext","lineageLabel":"Statewide Colorado hydrography context","lineageBasin":"","lineageNote":"","atlas_context":"statewide_hydrography_context","confidence":"Statewide hydrography context outside current cutthroat lineage model","geometryStatus":"Named natural stream segment from statewide hydrography","note":"This named natural stream is included for statewide Colorado hydrography completeness and is outside the current cutthroat lineage assignment set.","source_segment_id":"co_named_stream_064921","water_id":"co_carr_creek_14010005_statewideContext_001","occurrence_id":"co_carr_creek_14010005_statewideContext_001","occurrence_number":"001","segment_count":52,"disambiguator":"Colorado Headwaters-Plateau · Statewide Colorado hydrography context · occurrence 001","basin":"Colorado Headwaters-Plateau","atlas_layer":"named_water_occurrence","object_role":"named_water_occurrence","historic_label":"Statewide Colorado hydrography context","current_label":"Statewide Colorado hydrography context","recovery_label":"Statewide Colorado hydrography context","tier":"tier2","minZoom":12,"confidence_public":"Statewide hydrography context outside current cutthroat lineage model","geometry_status_public":"Named natural stream occurrence from statewide hydrography","geometry_source_public":"Grouped public hydrography segments","trout_source_public":"Included for Colorado statewide hydrography completeness","public_notes":"Carr Creek is shown as statewide Colorado hydrography context outside the current cutthroat lineage assignment set."}},{"type":"Feature","geometry":{"type":"LineString","coordinates":[[-108.4657,39.5296],[-108.4637,39.5278],[-108.4631,39.5257]]},"properties":{"source_id":"co_named_stream_064928","name":"Carr Creek","display_name":"Carr Creek","mapped_name":"Carr Creek","source_name":"Carr Creek","state":"CO","atlas_class":"named_natural_stream","huc8":"14010005","huc8Name":"Colorado Headwaters-Plateau","huc8States":"CO,UT","lineageKey":"statewideContext","lineage":"statewideContext","historic":"statewideContext","current":"statewideContext","recovery":"statewideContext","lineageLabel":"Statewide Colorado hydrography context","lineageBasin":"","lineageNote":"","atlas_context":"statewide_hydrography_context","confidence":"Statewide hydrography context outside current cutthroat lineage model","geometryStatus":"Named natural stream segment from statewide hydrography","note":"This named natural stream is included for statewide Colorado hydrography completeness and is outside the current cutthroat lineage assignment set.","source_segment_id":"co_named_stream_064928","water_id":"co_carr_creek_14010005_statewideContext_001","occurrence_id":"co_carr_creek_14010005_statewideContext_001","occurrence_number":"001","segment_count":52,"disambiguator":"Colorado Headwaters-Plateau · Statewide Colorado hydrography context · occurrence 001","basin":"Colorado Headwaters-Plateau","atlas_layer":"named_water_occurrence","object_role":"named_water_occurrence","historic_label":"Statewide Colorado hydrography context","current_label":"Statewide Colorado hydrography context","recovery_label":"Statewide Colorado hydrography context","tier":"tier2","minZoom":12,"confidence_public":"Statewide hydrography context outside current cutthroat lineage model","geometry_status_public":"Named natural stream occurrence from statewide hydrography","geometry_source_public":"Grouped public hydrography segments","trout_source_public":"Included for Colorado statewide hydrography completeness","public_notes":"Carr Creek is shown as statewide Colorado hydrography context outside the current cutthroat lineage assignment set."}},{"type":"Feature","geometry":{"type":"LineString","coordinates":[[-108.4834,39.5497],[-108.4798,39.548]]},"properties":{"source_id":"co_named_stream_064932","name":"Carr Creek","display_name":"Carr Creek","mapped_name":"Carr Creek","source_name":"Carr Creek","state":"CO","atlas_class":"named_natural_stream","huc8":"14010005","huc8Name":"Colorado Headwaters-Plateau","huc8States":"CO,UT","lineageKey":"statewideContext","lineage":"statewideContext","historic":"statewideContext","current":"statewideContext","recovery":"statewideContext","lineageLabel":"Statewide Colorado hydrography context","lineageBasin":"","lineageNote":"","atlas_context":"statewide_hydrography_context","confidence":"Statewide hydrography context outside current cutthroat lineage model","geometryStatus":"Named natural stream segment from statewide hydrography","note":"This named natural stream is included for statewide Colorado hydrography completeness and is outside the current cutthroat lineage assignment set.","source_segment_id":"co_named_stream_064932","water_id":"co_carr_creek_14010005_statewideContext_001","occurrence_id":"co_carr_creek_14010005_statewideContext_001","occurrence_number":"001","segment_count":52,"disambiguator":"Colorado Headwaters-Plateau · Statewide Colorado hydrography context · occurrence 001","basin":"Colorado Headwaters-Plateau","atlas_layer":"named_water_occurrence","object_role":"named_water_occurrence","historic_label":"Statewide Colorado hydrography context","current_label":"Statewide Colorado hydrography context","recovery_label":"Statewide Colorado hydrography context","tier":"tier2","minZoom":12,"confidence_public":"Statewide hydrography context outside current cutthroat lineage model","geometry_status_public":"Named natural stream occurrence from statewide hydrography","geometry_source_public":"Grouped public hydrography segments","trout_source_public":"Included for Colorado statewide hydrography completeness","public_notes":"Carr Creek is shown as statewide Colorado hydrography context outside the current cutthroat lineage assignment set."}},{"type":"Feature","geometry":{"type":"LineString","coordinates":[[-108.4914,39.5541],[-108.4902,39.5539]]},"properties":{"source_id":"co_named_stream_064933","name":"Carr Creek","display_name":"Carr Creek","mapped_name":"Carr Creek","source_name":"Carr Creek","state":"CO","atlas_class":"named_natural_stream","huc8":"14010005","huc8Name":"Colorado Headwaters-Plateau","huc8States":"CO,UT","lineageKey":"statewideContext","lineage":"statewideContext","historic":"statewideContext","current":"statewideContext","recovery":"statewideContext","lineageLabel":"Statewide Colorado hydrography context","lineageBasin":"","lineageNote":"","atlas_context":"statewide_hydrography_context","confidence":"Statewide hydrography context outside current cutthroat lineage model","geometryStatus":"Named natural stream segment from statewide hydrography","note":"This named natural stream is included for statewide Colorado hydrography completeness and is outside the current cutthroat lineage assignment set.","source_segment_id":"co_named_stream_064933","water_id":"co_carr_creek_14010005_statewideContext_001","occurrence_id":"co_carr_creek_14010005_statewideContext_001","occurrence_number":"001","segment_count":52,"disambiguator":"Colorado Headwaters-Plateau · Statewide Colorado hydrography context · occurrence 001","basin":"Colorado Headwaters-Plateau","atlas_layer":"named_water_occurrence","object_role":"named_water_occurrence","historic_label":"Statewide Colorado hydrography context","current_label":"Statewide Colorado hydrography context","recovery_label":"Statewide Colorado hydrography context","tier":"tier2","minZoom":12,"confidence_public":"Statewide hydrography context outside current cutthroat lineage model","geometry_status_public":"Named natural stream occurrence from statewide hydrography","geometry_source_public":"Grouped public hydrography segments","trout_source_public":"Included for Colorado statewide hydrography completeness","public_notes":"Carr Creek is shown as statewide Colorado hydrography context outside the current cutthroat lineage assignment set."}},{"type":"Feature","geometry":{"type":"LineString","coordinates":[[-108.4641,39.5229],[-108.4642,39.52],[-108.4629,39.5186]]},"properties":{"source_id":"co_named_stream_064946","name":"Carr Creek","display_name":"Carr Creek","mapped_name":"Carr Creek","source_name":"Carr Creek","state":"CO","atlas_class":"named_natural_stream","huc8":"14010005","huc8Name":"Colorado Headwaters-Plateau","huc8States":"CO,UT","lineageKey":"statewideContext","lineage":"statewideContext","historic":"statewideContext","current":"statewideContext","recovery":"statewideContext","lineageLabel":"Statewide Colorado hydrography context","lineageBasin":"","lineageNote":"","atlas_context":"statewide_hydrography_context","confidence":"Statewide hydrography context outside current cutthroat lineage model","geometryStatus":"Named natural stream segment from statewide hydrography","note":"This named natural stream is included for statewide Colorado hydrography completeness and is outside the current cutthroat lineage assignment set.","source_segment_id":"co_named_stream_064946","water_id":"co_carr_creek_14010005_statewideContext_001","occurrence_id":"co_carr_creek_14010005_statewideContext_001","occurrence_number":"001","segment_count":52,"disambiguator":"Colorado Headwaters-Plateau · Statewide Colorado hydrography context · occurrence 001","basin":"Colorado Headwaters-Plateau","atlas_layer":"named_water_occurrence","object_role":"named_water_occurrence","historic_label":"Statewide Colorado hydrography context","current_label":"Statewide Colorado hydrography context","recovery_label":"Statewide Colorado hydrography context","tier":"tier2","minZoom":12,"confidence_public":"Statewide hydrography context outside current cutthroat lineage model","geometry_status_public":"Named natural stream occurrence from statewide hydrography","geometry_source_public":"Grouped public hydrography segments","trout_source_public":"Included for Colorado statewide hydrography completeness","public_notes":"Carr Creek is shown as statewide Colorado hydrography context outside the current cutthroat lineage assignment set."}},{"type":"Feature","geometry":{"type":"LineString","coordinates":[[-108.4798,39.548],[-108.4801,39.5469],[-108.4774,39.5458],[-108.4768,39.5437]]},"properties":{"source_id":"co_named_stream_064948","name":"Carr Creek","display_name":"Carr Creek","mapped_name":"Carr Creek","source_name":"Carr Creek","state":"CO","atlas_class":"named_natural_stream","huc8":"14010005","huc8Name":"Colorado Headwaters-Plateau","huc8States":"CO,UT","lineageKey":"statewideContext","lineage":"statewideContext","historic":"statewideContext","current":"statewideContext","recovery":"statewideContext","lineageLabel":"Statewide Colorado hydrography context","lineageBasin":"","lineageNote":"","atlas_context":"statewide_hydrography_context","confidence":"Statewide hydrography context outside current cutthroat lineage model","geometryStatus":"Named natural stream segment from statewide hydrography","note":"This named natural stream is included for statewide Colorado hydrography completeness and is outside the current cutthroat lineage assignment set.","source_segment_id":"co_named_stream_064948","water_id":"co_carr_creek_14010005_statewideContext_001","occurrence_id":"co_carr_creek_14010005_statewideContext_001","occurrence_number":"001","segment_count":52,"disambiguator":"Colorado Headwaters-Plateau · Statewide Colorado hydrography context · occurrence 001","basin":"Colorado Headwaters-Plateau","atlas_layer":"named_water_occurrence","object_role":"named_water_occurrence","historic_label":"Statewide Colorado hydrography context","current_label":"Statewide Colorado hydrography context","recovery_label":"Statewide Colorado hydrography context","tier":"tier2","minZoom":12,"confidence_public":"Statewide hydrography context outside current cutthroat lineage model","geometry_status_public":"Named natural stream occurrence from statewide hydrography","geometry_source_public":"Grouped public hydrography segments","trout_source_public":"Included for Colorado statewide hydrography completeness","public_notes":"Carr Creek is shown as statewide Colorado hydrography context outside the current cutthroat lineage assignment set."}},{"type":"Feature","geometry":{"type":"LineString","coordinates":[[-108.4902,39.5539],[-108.4894,39.5529],[-108.4861,39.5528],[-108.4834,39.5497]]},"properties":{"source_id":"co_named_stream_064949","name":"Carr Creek","display_name":"Carr Creek","mapped_name":"Carr Creek","source_name":"Carr Creek","state":"CO","atlas_class":"named_natural_stream","huc8":"14010005","huc8Name":"Colorado Headwaters-Plateau","huc8States":"CO,UT","lineageKey":"statewideContext","lineage":"statewideContext","historic":"statewideContext","current":"statewideContext","recovery":"statewideContext","lineageLabel":"Statewide Colorado hydrography context","lineageBasin":"","lineageNote":"","atlas_context":"statewide_hydrography_context","confidence":"Statewide hydrography context outside current cutthroat lineage model","geometryStatus":"Named natural stream segment from statewide hydrography","note":"This named natural stream is included for statewide Colorado hydrography completeness and is outside the current cutthroat lineage assignment set.","source_segment_id":"co_named_stream_064949","water_id":"co_carr_creek_14010005_statewideContext_001","occurrence_id":"co_carr_creek_14010005_statewideContext_001","occurrence_number":"001","segment_count":52,"disambiguator":"Colorado Headwaters-Plateau · Statewide Colorado hydrography context · occurrence 001","basin":"Colorado Headwaters-Plateau","atlas_layer":"named_water_occurrence","object_role":"named_water_occurrence","historic_label":"Statewide Colorado hydrography context","current_label":"Statewide Colorado hydrography context","recovery_label":"Statewide Colorado hydrography context","tier":"tier2","minZoom":12,"confidence_public":"Statewide hydrography context outside current cutthroat lineage model","geometry_status_public":"Named natural stream occurrence from statewide hydrography","geometry_source_public":"Grouped public hydrography segments","trout_source_public":"Included for Colorado statewide hydrography completeness","public_notes":"Carr Creek is shown as statewide Colorado hydrography context outside the current cutthroat lineage assignment set."}},{"type":"Feature","geometry":{"type":"LineString","coordinates":[[-108.4747,39.5413],[-108.4729,39.5399],[-108.4725,39.5391],[-108.4734,39.5379],[-108.4726,39.5366]]},"properties":{"source_id":"co_named_stream_073570","name":"Carr Creek","display_name":"Carr Creek","mapped_name":"Carr Creek","source_name":"Carr Creek","state":"CO","atlas_class":"named_natural_stream","huc8":"14010005","huc8Name":"Colorado Headwaters-Plateau","huc8States":"CO,UT","lineageKey":"statewideContext","lineage":"statewideContext","historic":"statewideContext","current":"statewideContext","recovery":"statewideContext","lineageLabel":"Statewide Colorado hydrography context","lineageBasin":"","lineageNote":"","atlas_context":"statewide_hydrography_context","confidence":"Statewide hydrography context outside current cutthroat lineage model","geometryStatus":"Named natural stream segment from statewide hydrography","note":"This named natural stream is included for statewide Colorado hydrography completeness and is outside the current cutthroat lineage assignment set.","source_segment_id":"co_named_stream_073570","water_id":"co_carr_creek_14010005_statewideContext_001","occurrence_id":"co_carr_creek_14010005_statewideContext_001","occurrence_number":"001","segment_count":52,"disambiguator":"Colorado Headwaters-Plateau · Statewide Colorado hydrography context · occurrence 001","basin":"Colorado Headwaters-Plateau","atlas_layer":"named_water_occurrence","object_role":"named_water_occurrence","historic_label":"Statewide Colorado hydrography context","current_label":"Statewide Colorado hydrography context","recovery_label":"Statewide Colorado hydrography context","tier":"tier2","minZoom":12,"confidence_public":"Statewide hydrography context outside current cutthroat lineage model","geometry_status_public":"Named natural stream occurrence from statewide hydrography","geometry_source_public":"Grouped public hydrography segments","trout_source_public":"Included for Colorado statewide hydrography completeness","public_notes":"Carr Creek is shown as statewide Colorado hydrography context outside the current cutthroat lineage assignment set."}},{"type":"Feature","geometry":{"type":"LineString","coordinates":[[-108.4717,39.5354],[-108.4678,39.5337],[-108.4667,39.532],[-108.4676,39.531],[-108.4657,39.5296]]},"properties":{"source_id":"co_named_stream_073573","name":"Carr Creek","display_name":"Carr Creek","mapped_name":"Carr Creek","source_name":"Carr Creek","state":"CO","atlas_class":"named_natural_stream","huc8":"14010005","huc8Name":"Colorado Headwaters-Plateau","huc8States":"CO,UT","lineageKey":"statewideContext","lineage":"statewideContext","historic":"statewideContext","current":"statewideContext","recovery":"statewideContext","lineageLabel":"Statewide Colorado hydrography context","lineageBasin":"","lineageNote":"","atlas_context":"statewide_hydrography_context","confidence":"Statewide hydrography context outside current cutthroat lineage model","geometryStatus":"Named natural stream segment from statewide hydrography","note":"This named natural stream is included for statewide Colorado hydrography completeness and is outside the current cutthroat lineage assignment set.","source_segment_id":"co_named_stream_073573","water_id":"co_carr_creek_14010005_statewideContext_001","occurrence_id":"co_carr_creek_14010005_statewideContext_001","occurrence_number":"001","segment_count":52,"disambiguator":"Colorado Headwaters-Plateau · Statewide Colorado hydrography context · occurrence 001","basin":"Colorado Headwaters-Plateau","atlas_layer":"named_water_occurrence","object_role":"named_water_occurrence","historic_label":"Statewide Colorado hydrography context","current_label":"Statewide Colorado hydrography context","recovery_label":"Statewide Colorado hydrography context","tier":"tier2","minZoom":12,"confidence_public":"Statewide hydrography context outside current cutthroat lineage model","geometry_status_public":"Named natural stream occurrence from statewide hydrography","geometry_source_public":"Grouped public hydrography segments","trout_source_public":"Included for Colorado statewide hydrography completeness","public_notes":"Carr Creek is shown as statewide Colorado hydrography context outside the current cutthroat lineage assignment set."}},{"type":"Feature","geometry":{"type":"LineString","coordinates":[[-108.4768,39.5437],[-108.4747,39.5413]]},"properties":{"source_id":"co_named_stream_073574","name":"Carr Creek","display_name":"Carr Creek","mapped_name":"Carr Creek","source_name":"Carr Creek","state":"CO","atlas_class":"named_natural_stream","huc8":"14010005","huc8Name":"Colorado Headwaters-Plateau","huc8States":"CO,UT","lineageKey":"statewideContext","lineage":"statewideContext","historic":"statewideContext","current":"statewideContext","recovery":"statewideContext","lineageLabel":"Statewide Colorado hydrography context","lineageBasin":"","lineageNote":"","atlas_context":"statewide_hydrography_context","confidence":"Statewide hydrography context outside current cutthroat lineage model","geometryStatus":"Named natural stream segment from statewide hydrography","note":"This named natural stream is included for statewide Colorado hydrography completeness and is outside the current cutthroat lineage assignment set.","source_segment_id":"co_named_stream_073574","water_id":"co_carr_creek_14010005_statewideContext_001","occurrence_id":"co_carr_creek_14010005_statewideContext_001","occurrence_number":"001","segment_count":52,"disambiguator":"Colorado Headwaters-Plateau · Statewide Colorado hydrography context · occurrence 001","basin":"Colorado Headwaters-Plateau","atlas_layer":"named_water_occurrence","object_role":"named_water_occurrence","historic_label":"Statewide Colorado hydrography context","current_label":"Statewide Colorado hydrography context","recovery_label":"Statewide Colorado hydrography context","tier":"tier2","minZoom":12,"confidence_public":"Statewide hydrography context outside current cutthroat lineage model","geometry_status_public":"Named natural stream occurrence from statewide hydrography","geometry_source_public":"Grouped public hydrography segments","trout_source_public":"Included for Colorado statewide hydrography completeness","public_notes":"Carr Creek is shown as statewide Colorado hydrography context outside the current cutthroat lineage assignment set."}},{"type":"Feature","geometry":{"type":"LineString","coordinates":[[-108.4629,39.5186],[-108.4624,39.5168]]},"properties":{"source_id":"co_named_stream_073575","name":"Carr Creek","display_name":"Carr Creek","mapped_name":"Carr Creek","source_name":"Carr Creek","state":"CO","atlas_class":"named_natural_stream","huc8":"14010005","huc8Name":"Colorado Headwaters-Plateau","huc8States":"CO,UT","lineageKey":"statewideContext","lineage":"statewideContext","historic":"statewideContext","current":"statewideContext","recovery":"statewideContext","lineageLabel":"Statewide Colorado hydrography context","lineageBasin":"","lineageNote":"","atlas_context":"statewide_hydrography_context","confidence":"Statewide hydrography context outside current cutthroat lineage model","geometryStatus":"Named natural stream segment from statewide hydrography","note":"This named natural stream is included for statewide Colorado hydrography completeness and is outside the current cutthroat lineage assignment set.","source_segment_id":"co_named_stream_073575","water_id":"co_carr_creek_14010005_statewideContext_001","occurrence_id":"co_carr_creek_14010005_statewideContext_001","occurrence_number":"001","segment_count":52,"disambiguator":"Colorado Headwaters-Plateau · Statewide Colorado hydrography context · occurrence 001","basin":"Colorado Headwaters-Plateau","atlas_layer":"named_water_occurrence","object_role":"named_water_occurrence","historic_label":"Statewide Colorado hydrography context","current_label":"Statewide Colorado hydrography context","recovery_label":"Statewide Colorado hydrography context","tier":"tier2","minZoom":12,"confidence_public":"Statewide hydrography context outside current cutthroat lineage model","geometry_status_public":"Named natural stream occurrence from statewide hydrography","geometry_source_public":"Grouped public hydrography segments","trout_source_public":"Included for Colorado statewide hydrography completeness","public_notes":"Carr Creek is shown as statewide Colorado hydrography context outside the current cutthroat lineage assignment set."}},{"type":"Feature","geometry":{"type":"LineString","coordinates":[[-108.4722,39.5362],[-108.4717,39.5354]]},"properties":{"source_id":"co_named_stream_073579","name":"Carr Creek","display_name":"Carr Creek","mapped_name":"Carr Creek","source_name":"Carr Creek","state":"CO","atlas_class":"named_natural_stream","huc8":"14010005","huc8Name":"Colorado Headwaters-Plateau","huc8States":"CO,UT","lineageKey":"statewideContext","lineage":"statewideContext","historic":"statewideContext","current":"statewideContext","recovery":"statewideContext","lineageLabel":"Statewide Colorado hydrography context","lineageBasin":"","lineageNote":"","atlas_context":"statewide_hydrography_context","confidence":"Statewide hydrography context outside current cutthroat lineage model","geometryStatus":"Named natural stream segment from statewide hydrography","note":"This named natural stream is included for statewide Colorado hydrography completeness and is outside the current cutthroat lineage assignment set.","source_segment_id":"co_named_stream_073579","water_id":"co_carr_creek_14010005_statewideContext_001","occurrence_id":"co_carr_creek_14010005_statewideContext_001","occurrence_number":"001","segment_count":52,"disambiguator":"Colorado Headwaters-Plateau · Statewide Colorado hydrography context · occurrence 001","basin":"Colorado Headwaters-Plateau","atlas_layer":"named_water_occurrence","object_role":"named_water_occurrence","historic_label":"Statewide Colorado hydrography context","current_label":"Statewide Colorado hydrography context","recovery_label":"Statewide Colorado hydrography context","tier":"tier2","minZoom":12,"confidence_public":"Statewide hydrography context outside current cutthroat lineage model","geometry_status_public":"Named natural stream occurrence from statewide hydrography","geometry_source_public":"Grouped public hydrography segments","trout_source_public":"Included for Colorado statewide hydrography completeness","public_notes":"Carr Creek is shown as statewide Colorado hydrography context outside the current cutthroat lineage assignment set."}},{"type":"Feature","geometry":{"type":"LineString","coordinates":[[-108.463,39.5246],[-108.4641,39.5229]]},"properties":{"source_id":"co_named_stream_073580","name":"Carr Creek","display_name":"Carr Creek","mapped_name":"Carr Creek","source_name":"Carr Creek","state":"CO","atlas_class":"named_natural_stream","huc8":"14010005","huc8Name":"Colorado Headwaters-Plateau","huc8States":"CO,UT","lineageKey":"statewideContext","lineage":"statewideContext","historic":"statewideContext","current":"statewideContext","recovery":"statewideContext","lineageLabel":"Statewide Colorado hydrography context","lineageBasin":"","lineageNote":"","atlas_context":"statewide_hydrography_context","confidence":"Statewide hydrography context outside current cutthroat lineage model","geometryStatus":"Named natural stream segment from statewide hydrography","note":"This named natural stream is included for statewide Colorado hydrography completeness and is outside the current cutthroat lineage assignment set.","source_segment_id":"co_named_stream_073580","water_id":"co_carr_creek_14010005_statewideContext_001","occurrence_id":"co_carr_creek_14010005_statewideContext_001","occurrence_number":"001","segment_count":52,"disambiguator":"Colorado Headwaters-Plateau · Statewide Colorado hydrography context · occurrence 001","basin":"Colorado Headwaters-Plateau","atlas_layer":"named_water_occurrence","object_role":"named_water_occurrence","historic_label":"Statewide Colorado hydrography context","current_label":"Statewide Colorado hydrography context","recovery_label":"Statewide Colorado hydrography context","tier":"tier2","minZoom":12,"confidence_public":"Statewide hydrography context outside current cutthroat lineage model","geometry_status_public":"Named natural stream occurrence from statewide hydrography","geometry_source_public":"Grouped public hydrography segments","trout_source_public":"Included for Colorado statewide hydrography completeness","public_notes":"Carr Creek is shown as statewide Colorado hydrography context outside the current cutthroat lineage assignment set."}},{"type":"Feature","geometry":{"type":"LineString","coordinates":[[-108.4624,39.5168],[-108.4616,39.5136],[-108.4622,39.5106]]},"properties":{"source_id":"co_named_stream_073581","name":"Carr Creek","display_name":"Carr Creek","mapped_name":"Carr Creek","source_name":"Carr Creek","state":"CO","atlas_class":"named_natural_stream","huc8":"14010005","huc8Name":"Colorado Headwaters-Plateau","huc8States":"CO,UT","lineageKey":"statewideContext","lineage":"statewideContext","historic":"statewideContext","current":"statewideContext","recovery":"statewideContext","lineageLabel":"Statewide Colorado hydrography context","lineageBasin":"","lineageNote":"","atlas_context":"statewide_hydrography_context","confidence":"Statewide hydrography context outside current cutthroat lineage model","geometryStatus":"Named natural stream segment from statewide hydrography","note":"This named natural stream is included for statewide Colorado hydrography completeness and is outside the current cutthroat lineage assignment set.","source_segment_id":"co_named_stream_073581","water_id":"co_carr_creek_14010005_statewideContext_001","occurrence_id":"co_carr_creek_14010005_statewideContext_001","occurrence_number":"001","segment_count":52,"disambiguator":"Colorado Headwaters-Plateau · Statewide Colorado hydrography context · occurrence 001","basin":"Colorado Headwaters-Plateau","atlas_layer":"named_water_occurrence","object_role":"named_water_occurrence","historic_label":"Statewide Colorado hydrography context","current_label":"Statewide Colorado hydrography context","recovery_label":"Statewide Colorado hydrography context","tier":"tier2","minZoom":12,"confidence_public":"Statewide hydrography context outside current cutthroat lineage model","geometry_status_public":"Named natural stream occurrence from statewide hydrography","geometry_source_public":"Grouped public hydrography segments","trout_source_public":"Included for Colorado statewide hydrography completeness","public_notes":"Carr Creek is shown as statewide Colorado hydrography context outside the current cutthroat lineage assignment set."}},{"type":"Feature","geometry":{"type":"LineString","coordinates":[[-108.4945,39.5572],[-108.4926,39.5556]]},"properties":{"source_id":"co_named_stream_074260","name":"Carr Creek","display_name":"Carr Creek","mapped_name":"Carr Creek","source_name":"Carr Creek","state":"CO","atlas_class":"named_natural_stream","huc8":"14010005","huc8Name":"Colorado Headwaters-Plateau","huc8States":"CO,UT","lineageKey":"statewideContext","lineage":"statewideContext","historic":"statewideContext","current":"statewideContext","recovery":"statewideContext","lineageLabel":"Statewide Colorado hydrography context","lineageBasin":"","lineageNote":"","atlas_context":"statewide_hydrography_context","confidence":"Statewide hydrography context outside current cutthroat lineage model","geometryStatus":"Named natural stream segment from statewide hydrography","note":"This named natural stream is included for statewide Colorado hydrography completeness and is outside the current cutthroat lineage assignment set.","source_segment_id":"co_named_stream_074260","water_id":"co_carr_creek_14010005_statewideContext_001","occurrence_id":"co_carr_creek_14010005_statewideContext_001","occurrence_number":"001","segment_count":52,"disambiguator":"Colorado Headwaters-Plateau · Statewide Colorado hydrography context · occurrence 001","basin":"Colorado Headwaters-Plateau","atlas_layer":"named_water_occurrence","object_role":"named_water_occurrence","historic_label":"Statewide Colorado hydrography context","current_label":"Statewide Colorado hydrography context","recovery_label":"Statewide Colorado hydrography context","tier":"tier2","minZoom":12,"confidence_public":"Statewide hydrography context outside current cutthroat lineage model","geometry_status_public":"Named natural stream occurrence from statewide hydrography","geometry_source_public":"Grouped public hydrography segments","trout_source_public":"Included for Colorado statewide hydrography completeness","public_notes":"Carr Creek is shown as statewide Colorado hydrography context outside the current cutthroat lineage assignment set."}},{"type":"Feature","geometry":{"type":"LineString","coordinates":[[-108.4979,39.7057],[-108.4958,39.7072]]},"properties":{"source_id":"co_named_stream_105483","name":"Black Sulphur Creek","display_name":"Black Sulphur Creek","mapped_name":"Black Sulphur Creek","source_name":"Black Sulphur Creek","state":"CO","atlas_class":"named_natural_stream","huc8":"14050006","huc8Name":"Piceance-Yellow","huc8States":"CO","lineageKey":"greenRiverBlue","lineage":"greenRiverBlue","historic":"greenRiverBlue","current":"greenRiverBlue","recovery":"recoveryWatch","lineageLabel":"Green River / blue-lineage CT","lineageBasin":"Piceance-Yellow","lineageNote":"White River / Piceance context; review needed","atlas_context":"cutthroat_lineage_context","confidence":"Watershed-level lineage context; expert review recommended","geometryStatus":"Named natural stream segment from statewide hydrography","note":"This named natural stream falls within a HUC8 assigned to a cutthroat lineage context.","source_segment_id":"co_named_stream_105483","water_id":"co_black_sulphur_creek_14050006_greenRiverBlue_001","occurrence_id":"co_black_sulphur_creek_14050006_greenRiverBlue_001","occurrence_number":"001","segment_count":26,"disambiguator":"Piceance-Yellow · Green River / blue-lineage CT · occurrence 001","basin":"Piceance-Yellow","atlas_layer":"named_water_occurrence","object_role":"named_water_occurrence","historic_label":"Green River / blue-lineage CT","current_label":"Green River / blue-lineage CT","recovery_label":"Recovery watch / review area","tier":"tier2","minZoom":12,"confidence_public":"Watershed-level lineage context; expert review recommended","geometry_status_public":"Named natural stream occurrence from statewide hydrography","geometry_source_public":"Grouped public hydrography segments","trout_source_public":"Compiled public recovery and lineage context; expert review recommended","public_notes":"Black Sulphur Creek is shown as a named-water occurrence within watershed-level cutthroat lineage context. This is not a precise biological boundary."}},{"type":"Feature","geometry":{"type":"LineString","coordinates":[[-108.502,39.7047],[-108.4979,39.7057]]},"properties":{"source_id":"co_named_stream_105499","name":"Black Sulphur Creek","display_name":"Black Sulphur Creek","mapped_name":"Black Sulphur Creek","source_name":"Black Sulphur Creek","state":"CO","atlas_class":"named_natural_stream","huc8":"14050006","huc8Name":"Piceance-Yellow","huc8States":"CO","lineageKey":"greenRiverBlue","lineage":"greenRiverBlue","historic":"greenRiverBlue","current":"greenRiverBlue","recovery":"recoveryWatch","lineageLabel":"Green River / blue-lineage CT","lineageBasin":"Piceance-Yellow","lineageNote":"White River / Piceance context; review needed","atlas_context":"cutthroat_lineage_context","confidence":"Watershed-level lineage context; expert review recommended","geometryStatus":"Named natural stream segment from statewide hydrography","note":"This named natural stream falls within a HUC8 assigned to a cutthroat lineage context.","source_segment_id":"co_named_stream_105499","water_id":"co_black_sulphur_creek_14050006_greenRiverBlue_001","occurrence_id":"co_black_sulphur_creek_14050006_greenRiverBlue_001","occurrence_number":"001","segment_count":26,"disambiguator":"Piceance-Yellow · Green River / blue-lineage CT · occurrence 001","basin":"Piceance-Yellow","atlas_layer":"named_water_occurrence","object_role":"named_water_occurrence","historic_label":"Green River / blue-lineage CT","current_label":"Green River / blue-lineage CT","recovery_label":"Recovery watch / review area","tier":"tier2","minZoom":12,"confidence_public":"Watershed-level lineage context; expert review recommended","geometry_status_public":"Named natural stream occurrence from statewide hydrography","geometry_source_public":"Grouped public hydrography segments","trout_source_public":"Compiled public recovery and lineage context; expert review recommended","public_notes":"Black Sulphur Creek is shown as a named-water occurrence within watershed-level cutthroat lineage context. This is not a precise biological boundary."}},{"type":"Feature","geometry":{"type":"LineString","coordinates":[[-108.4852,39.716],[-108.4797,39.7278],[-108.4768,39.7392]]},"properties":{"source_id":"co_named_stream_105519","name":"Black Sulphur Creek","display_name":"Black Sulphur Creek","mapped_name":"Black Sulphur Creek","source_name":"Black Sulphur Creek","state":"CO","atlas_class":"named_natural_stream","huc8":"14050006","huc8Name":"Piceance-Yellow","huc8States":"CO","lineageKey":"greenRiverBlue","lineage":"greenRiverBlue","historic":"greenRiverBlue","current":"greenRiverBlue","recovery":"recoveryWatch","lineageLabel":"Green River / blue-lineage CT","lineageBasin":"Piceance-Yellow","lineageNote":"White River / Piceance context; review needed","atlas_context":"cutthroat_lineage_context","confidence":"Watershed-level lineage context; expert review recommended","geometryStatus":"Named natural stream segment from statewide hydrography","note":"This named natural stream falls within a HUC8 assigned to a cutthroat lineage context.","source_segment_id":"co_named_stream_105519","water_id":"co_black_sulphur_creek_14050006_greenRiverBlue_001","occurrence_id":"co_black_sulphur_creek_14050006_greenRiverBlue_001","occurrence_number":"001","segment_count":26,"disambiguator":"Piceance-Yellow · Green River / blue-lineage CT · occurrence 001","basin":"Piceance-Yellow","atlas_layer":"named_water_occurrence","object_role":"named_water_occurrence","historic_label":"Green River / blue-lineage CT","current_label":"Green River / blue-lineage CT","recovery_label":"Recovery watch / review area","tier":"tier2","minZoom":12,"confidence_public":"Watershed-level lineage context; expert review recommended","geometry_status_public":"Named natural stream occurrence from statewide hydrography","geometry_source_public":"Grouped public hydrography segments","trout_source_public":"Compiled public recovery and lineage context; expert review recommended","public_notes":"Black Sulphur Creek is shown as a named-water occurrence within watershed-level cutthroat lineage context. This is not a precise biological boundary."}},{"type":"Feature","geometry":{"type":"LineString","coordinates":[[-108.4768,39.7392],[-108.4765,39.7429],[-108.4737,39.7508]]},"properties":{"source_id":"co_named_stream_111297","name":"Black Sulphur Creek","display_name":"Black Sulphur Creek","mapped_name":"Black Sulphur Creek","source_name":"Black Sulphur Creek","state":"CO","atlas_class":"named_natural_stream","huc8":"14050006","huc8Name":"Piceance-Yellow","huc8States":"CO","lineageKey":"greenRiverBlue","lineage":"greenRiverBlue","historic":"greenRiverBlue","current":"greenRiverBlue","recovery":"recoveryWatch","lineageLabel":"Green River / blue-lineage CT","lineageBasin":"Piceance-Yellow","lineageNote":"White River / Piceance context; review needed","atlas_context":"cutthroat_lineage_context","confidence":"Watershed-level lineage context; expert review recommended","geometryStatus":"Named natural stream segment from statewide hydrography","note":"This named natural stream falls within a HUC8 assigned to a cutthroat lineage context.","source_segment_id":"co_named_stream_111297","water_id":"co_black_sulphur_creek_14050006_greenRiverBlue_001","occurrence_id":"co_black_sulphur_creek_14050006_greenRiverBlue_001","occurrence_number":"001","segment_count":26,"disambiguator":"Piceance-Yellow · Green River / blue-lineage CT · occurrence 001","basin":"Piceance-Yellow","atlas_layer":"named_water_occurrence","object_role":"named_water_occurrence","historic_label":"Green River / blue-lineage CT","current_label":"Green River / blue-lineage CT","recovery_label":"Recovery watch / review area","tier":"tier2","minZoom":12,"confidence_public":"Watershed-level lineage context; expert review recommended","geometry_status_public":"Named natural stream occurrence from statewide hydrography","geometry_source_public":"Grouped public hydrography segments","trout_source_public":"Compiled public recovery and lineage context; expert review recommended","public_notes":"Black Sulphur Creek is shown as a named-water occurrence within watershed-level cutthroat lineage context. This is not a precise biological boundary."}},{"type":"Feature","geometry":{"type":"LineString","coordinates":[[-108.4958,39.7072],[-108.4916,39.7125]]},"properties":{"source_id":"co_named_stream_111299","name":"Black Sulphur Creek","display_name":"Black Sulphur Creek","mapped_name":"Black Sulphur Creek","source_name":"Black Sulphur Creek","state":"CO","atlas_class":"named_natural_stream","huc8":"14050006","huc8Name":"Piceance-Yellow","huc8States":"CO","lineageKey":"greenRiverBlue","lineage":"greenRiverBlue","historic":"greenRiverBlue","current":"greenRiverBlue","recovery":"recoveryWatch","lineageLabel":"Green River / blue-lineage CT","lineageBasin":"Piceance-Yellow","lineageNote":"White River / Piceance context; review needed","atlas_context":"cutthroat_lineage_context","confidence":"Watershed-level lineage context; expert review recommended","geometryStatus":"Named natural stream segment from statewide hydrography","note":"This named natural stream falls within a HUC8 assigned to a cutthroat lineage context.","source_segment_id":"co_named_stream_111299","water_id":"co_black_sulphur_creek_14050006_greenRiverBlue_001","occurrence_id":"co_black_sulphur_creek_14050006_greenRiverBlue_001","occurrence_number":"001","segment_count":26,"disambiguator":"Piceance-Yellow · Green River / blue-lineage CT · occurrence 001","basin":"Piceance-Yellow","atlas_layer":"named_water_occurrence","object_role":"named_water_occurrence","historic_label":"Green River / blue-lineage CT","current_label":"Green River / blue-lineage CT","recovery_label":"Recovery watch / review area","tier":"tier2","minZoom":12,"confidence_public":"Watershed-level lineage context; expert review recommended","geometry_status_public":"Named natural stream occurrence from statewide hydrography","geometry_source_public":"Grouped public hydrography segments","trout_source_public":"Compiled public recovery and lineage context; expert review recommended","public_notes":"Black Sulphur Creek is shown as a named-water occurrence within watershed-level cutthroat lineage context. This is not a precise biological boundary."}},{"type":"Feature","geometry":{"type":"LineString","coordinates":[[-108.4916,39.7125],[-108.4862,39.7157]]},"properties":{"source_id":"co_named_stream_111301","name":"Black Sulphur Creek","display_name":"Black Sulphur Creek","mapped_name":"Black Sulphur Creek","source_name":"Black Sulphur Creek","state":"CO","atlas_class":"named_natural_stream","huc8":"14050006","huc8Name":"Piceance-Yellow","huc8States":"CO","lineageKey":"greenRiverBlue","lineage":"greenRiverBlue","historic":"greenRiverBlue","current":"greenRiverBlue","recovery":"recoveryWatch","lineageLabel":"Green River / blue-lineage CT","lineageBasin":"Piceance-Yellow","lineageNote":"White River / Piceance context; review needed","atlas_context":"cutthroat_lineage_context","confidence":"Watershed-level lineage context; expert review recommended","geometryStatus":"Named natural stream segment from statewide hydrography","note":"This named natural stream falls within a HUC8 assigned to a cutthroat lineage context.","source_segment_id":"co_named_stream_111301","water_id":"co_black_sulphur_creek_14050006_greenRiverBlue_001","occurrence_id":"co_black_sulphur_creek_14050006_greenRiverBlue_001","occurrence_number":"001","segment_count":26,"disambiguator":"Piceance-Yellow · Green River / blue-lineage CT · occurrence 001","basin":"Piceance-Yellow","atlas_layer":"named_water_occurrence","object_role":"named_water_occurrence","historic_label":"Green River / blue-lineage CT","current_label":"Green River / blue-lineage CT","recovery_label":"Recovery watch / review area","tier":"tier2","minZoom":12,"confidence_public":"Watershed-level lineage context; expert review recommended","geometry_status_public":"Named natural stream occurrence from statewide hydrography","geometry_source_public":"Grouped public hydrography segments","trout_source_public":"Compiled public recovery and lineage context; expert review recommended","public_notes":"Black Sulphur Creek is shown as a named-water occurrence within watershed-level cutthroat lineage context. This is not a precise biological boundary."}},{"type":"Feature","geometry":{"type":"LineString","coordinates":[[-108.4862,39.7157],[-108.4852,39.716]]},"properties":{"source_id":"co_named_stream_111302","name":"Black Sulphur Creek","display_name":"Black Sulphur Creek","mapped_name":"Black Sulphur Creek","source_name":"Black Sulphur Creek","state":"CO","atlas_class":"named_natural_stream","huc8":"14050006","huc8Name":"Piceance-Yellow","huc8States":"CO","lineageKey":"greenRiverBlue","lineage":"greenRiverBlue","historic":"greenRiverBlue","current":"greenRiverBlue","recovery":"recoveryWatch","lineageLabel":"Green River / blue-lineage CT","lineageBasin":"Piceance-Yellow","lineageNote":"White River / Piceance context; review needed","atlas_context":"cutthroat_lineage_context","confidence":"Watershed-level lineage context; expert review recommended","geometryStatus":"Named natural stream segment from statewide hydrography","note":"This named natural stream falls within a HUC8 assigned to a cutthroat lineage context.","source_segment_id":"co_named_stream_111302","water_id":"co_black_sulphur_creek_14050006_greenRiverBlue_001","occurrence_id":"co_black_sulphur_creek_14050006_greenRiverBlue_001","occurrence_number":"001","segment_count":26,"disambiguator":"Piceance-Yellow · Green River / blue-lineage CT · occurrence 001","basin":"Piceance-Yellow","atlas_layer":"named_water_occurrence","object_role":"named_water_occurrence","historic_label":"Green River / blue-lineage CT","current_label":"Green River / blue-lineage CT","recovery_label":"Recovery watch / review area","tier":"tier2","minZoom":12,"confidence_public":"Watershed-level lineage context; expert review recommended","geometry_status_public":"Named natural stream occurrence from statewide hydrography","geometry_source_public":"Grouped public hydrography segments","trout_source_public":"Compiled public recovery and lineage context; expert review recommended","public_notes":"Black Sulphur Creek is shown as a named-water occurrence within watershed-level cutthroat lineage context. This is not a precise biological boundary."}},{"type":"Feature","geometry":{"type":"LineString","coordinates":[[-108.3359,39.6502],[-108.3353,39.6607]]},"properties":{"source_id":"co_named_stream_112821","name":"West Willow Creek","display_name":"West Willow Creek","mapped_name":"West Willow Creek","source_name":"West Willow Creek","state":"CO","atlas_class":"named_natural_stream","huc8":"14050006","huc8Name":"Piceance-Yellow","huc8States":"CO","lineageKey":"greenRiverBlue","lineage":"greenRiverBlue","historic":"greenRiverBlue","current":"greenRiverBlue","recovery":"recoveryWatch","lineageLabel":"Green River / blue-lineage CT","lineageBasin":"Piceance-Yellow","lineageNote":"White River / Piceance context; review needed","atlas_context":"cutthroat_lineage_context","confidence":"Watershed-level lineage context; expert review recommended","geometryStatus":"Named natural stream segment from statewide hydrography","note":"This named natural stream falls within a HUC8 assigned to a cutthroat lineage context.","source_segment_id":"co_named_stream_112821","water_id":"co_west_willow_creek_14050006_greenRiverBlue_001","occurrence_id":"co_west_willow_creek_14050006_greenRiverBlue_001","occurrence_number":"001","segment_count":20,"disambiguator":"Piceance-Yellow · Green River / blue-lineage CT · occurrence 001","basin":"Piceance-Yellow","atlas_layer":"named_water_occurrence","object_role":"named_water_occurrence","historic_label":"Green River / blue-lineage CT","current_label":"Green River / blue-lineage CT","recovery_label":"Recovery watch / review area","tier":"tier2","minZoom":12,"confidence_public":"Watershed-level lineage context; expert review recommended","geometry_status_public":"Named natural stream occurrence from statewide hydrography","geometry_source_public":"Grouped public hydrography segments","trout_source_public":"Compiled public recovery and lineage context; expert review recommended","public_notes":"West Willow Creek is shown as a named-water occurrence within watershed-level cutthroat lineage context. This is not a precise biological boundary."}},{"type":"Feature","geometry":{"type":"LineString","coordinates":[[-108.2991,39.7075],[-108.2961,39.7186]]},"properties":{"source_id":"co_named_stream_114182","name":"West Willow Creek","display_name":"West Willow Creek","mapped_name":"West Willow Creek","source_name":"West Willow Creek","state":"CO","atlas_class":"named_natural_stream","huc8":"14050006","huc8Name":"Piceance-Yellow","huc8States":"CO","lineageKey":"greenRiverBlue","lineage":"greenRiverBlue","historic":"greenRiverBlue","current":"greenRiverBlue","recovery":"recoveryWatch","lineageLabel":"Green River / blue-lineage CT","lineageBasin":"Piceance-Yellow","lineageNote":"White River / Piceance context; review needed","atlas_context":"cutthroat_lineage_context","confidence":"Watershed-level lineage context; expert review recommended","geometryStatus":"Named natural stream segment from statewide hydrography","note":"This named natural stream falls within a HUC8 assigned to a cutthroat lineage context.","source_segment_id":"co_named_stream_114182","water_id":"co_west_willow_creek_14050006_greenRiverBlue_001","occurrence_id":"co_west_willow_creek_14050006_greenRiverBlue_001","occurrence_number":"001","segment_count":20,"disambiguator":"Piceance-Yellow · Green River / blue-lineage CT · occurrence 001","basin":"Piceance-Yellow","atlas_layer":"named_water_occurrence","object_role":"named_water_occurrence","historic_label":"Green River / blue-lineage CT","current_label":"Green River / blue-lineage CT","recovery_label":"Recovery watch / review area","tier":"tier2","minZoom":12,"confidence_public":"Watershed-level lineage context; expert review recommended","geometry_status_public":"Named natural stream occurrence from statewide hydrography","geometry_source_public":"Grouped public hydrography segments","trout_source_public":"Compiled public recovery and lineage context; expert review recommended","public_notes":"West Willow Creek is shown as a named-water occurrence within watershed-level cutthroat lineage context. This is not a precise biological boundary."}},{"type":"Feature","geometry":{"type":"LineString","coordinates":[[-108.3047,39.6985],[-108.3036,39.6997]]},"properties":{"source_id":"co_named_stream_114185","name":"West Willow Creek","display_name":"West Willow Creek","mapped_name":"West Willow Creek","source_name":"West Willow Creek","state":"CO","atlas_class":"named_natural_stream","huc8":"14050006","huc8Name":"Piceance-Yellow","huc8States":"CO","lineageKey":"greenRiverBlue","lineage":"greenRiverBlue","historic":"greenRiverBlue","current":"greenRiverBlue","recovery":"recoveryWatch","lineageLabel":"Green River / blue-lineage CT","lineageBasin":"Piceance-Yellow","lineageNote":"White River / Piceance context; review needed","atlas_context":"cutthroat_lineage_context","confidence":"Watershed-level lineage context; expert review recommended","geometryStatus":"Named natural stream segment from statewide hydrography","note":"This named natural stream falls within a HUC8 assigned to a cutthroat lineage context.","source_segment_id":"co_named_stream_114185","water_id":"co_west_willow_creek_14050006_greenRiverBlue_001","occurrence_id":"co_west_willow_creek_14050006_greenRiverBlue_001","occurrence_number":"001","segment_count":20,"disambiguator":"Piceance-Yellow · Green River / blue-lineage CT · occurrence 001","basin":"Piceance-Yellow","atlas_layer":"named_water_occurrence","object_role":"named_water_occurrence","historic_label":"Green River / blue-lineage CT","current_label":"Green River / blue-lineage CT","recovery_label":"Recovery watch / review area","tier":"tier2","minZoom":12,"confidence_public":"Watershed-level lineage context; expert review recommended","geometry_status_public":"Named natural stream occurrence from statewide hydrography","geometry_source_public":"Grouped public hydrography segments","trout_source_public":"Compiled public recovery and lineage context; expert review recommended","public_notes":"West Willow Creek is shown as a named-water occurrence within watershed-level cutthroat lineage context. This is not a precise biological boundary."}},{"type":"Feature","geometry":{"type":"LineString","coordinates":[[-108.3036,39.6997],[-108.3039,39.7008],[-108.3014,39.7032],[-108.2991,39.7075]]},"properties":{"source_id":"co_named_stream_114189","name":"West Willow Creek","display_name":"West Willow Creek","mapped_name":"West Willow Creek","source_name":"West Willow Creek","state":"CO","atlas_class":"named_natural_stream","huc8":"14050006","huc8Name":"Piceance-Yellow","huc8States":"CO","lineageKey":"greenRiverBlue","lineage":"greenRiverBlue","historic":"greenRiverBlue","current":"greenRiverBlue","recovery":"recoveryWatch","lineageLabel":"Green River / blue-lineage CT","lineageBasin":"Piceance-Yellow","lineageNote":"White River / Piceance context; review needed","atlas_context":"cutthroat_lineage_context","confidence":"Watershed-level lineage context; expert review recommended","geometryStatus":"Named natural stream segment from statewide hydrography","note":"This named natural stream falls within a HUC8 assigned to a cutthroat lineage context.","source_segment_id":"co_named_stream_114189","water_id":"co_west_willow_creek_14050006_greenRiverBlue_001","occurrence_id":"co_west_willow_creek_14050006_greenRiverBlue_001","occurrence_number":"001","segment_count":20,"disambiguator":"Piceance-Yellow · Green River / blue-lineage CT · occurrence 001","basin":"Piceance-Yellow","atlas_layer":"named_water_occurrence","object_role":"named_water_occurrence","historic_label":"Green River / blue-lineage CT","current_label":"Green River / blue-lineage CT","recovery_label":"Recovery watch / review area","tier":"tier2","minZoom":12,"confidence_public":"Watershed-level lineage context; expert review recommended","geometry_status_public":"Named natural stream occurrence from statewide hydrography","geometry_source_public":"Grouped public hydrography segments","trout_source_public":"Compiled public recovery and lineage context; expert review recommended","public_notes":"West Willow Creek is shown as a named-water occurrence within watershed-level cutthroat lineage context. This is not a precise biological boundary."}},{"type":"Feature","geometry":{"type":"LineString","coordinates":[[-108.2876,39.7277],[-108.2866,39.7277]]},"properties":{"source_id":"co_named_stream_114209","name":"West Willow Creek","display_name":"West Willow Creek","mapped_name":"West Willow Creek","source_name":"West Willow Creek","state":"CO","atlas_class":"named_natural_stream","huc8":"14050006","huc8Name":"Piceance-Yellow","huc8States":"CO","lineageKey":"greenRiverBlue","lineage":"greenRiverBlue","historic":"greenRiverBlue","current":"greenRiverBlue","recovery":"recoveryWatch","lineageLabel":"Green River / blue-lineage CT","lineageBasin":"Piceance-Yellow","lineageNote":"White River / Piceance context; review needed","atlas_context":"cutthroat_lineage_context","confidence":"Watershed-level lineage context; expert review recommended","geometryStatus":"Named natural stream segment from statewide hydrography","note":"This named natural stream falls within a HUC8 assigned to a cutthroat lineage context.","source_segment_id":"co_named_stream_114209","water_id":"co_west_willow_creek_14050006_greenRiverBlue_001","occurrence_id":"co_west_willow_creek_14050006_greenRiverBlue_001","occurrence_number":"001","segment_count":20,"disambiguator":"Piceance-Yellow · Green River / blue-lineage CT · occurrence 001","basin":"Piceance-Yellow","atlas_layer":"named_water_occurrence","object_role":"named_water_occurrence","historic_label":"Green River / blue-lineage CT","current_label":"Green River / blue-lineage CT","recovery_label":"Recovery watch / review area","tier":"tier2","minZoom":12,"confidence_public":"Watershed-level lineage context; expert review recommended","geometry_status_public":"Named natural stream occurrence from statewide hydrography","geometry_source_public":"Grouped public hydrography segments","trout_source_public":"Compiled public recovery and lineage context; expert review recommended","public_notes":"West Willow Creek is shown as a named-water occurrence within watershed-level cutthroat lineage context. This is not a precise biological boundary."}},{"type":"Feature","geometry":{"type":"LineString","coordinates":[[-108.2866,39.7277],[-108.282,39.7284]]},"properties":{"source_id":"co_named_stream_114217","name":"West Willow Creek","display_name":"West Willow Creek","mapped_name":"West Willow Creek","source_name":"West Willow Creek","state":"CO","atlas_class":"named_natural_stream","huc8":"14050006","huc8Name":"Piceance-Yellow","huc8States":"CO","lineageKey":"greenRiverBlue","lineage":"greenRiverBlue","historic":"greenRiverBlue","current":"greenRiverBlue","recovery":"recoveryWatch","lineageLabel":"Green River / blue-lineage CT","lineageBasin":"Piceance-Yellow","lineageNote":"White River / Piceance context; review needed","atlas_context":"cutthroat_lineage_context","confidence":"Watershed-level lineage context; expert review recommended","geometryStatus":"Named natural stream segment from statewide hydrography","note":"This named natural stream falls within a HUC8 assigned to a cutthroat lineage context.","source_segment_id":"co_named_stream_114217","water_id":"co_west_willow_creek_14050006_greenRiverBlue_001","occurrence_id":"co_west_willow_creek_14050006_greenRiverBlue_001","occurrence_number":"001","segment_count":20,"disambiguator":"Piceance-Yellow · Green River / blue-lineage CT · occurrence 001","basin":"Piceance-Yellow","atlas_layer":"named_water_occurrence","object_role":"named_water_occurrence","historic_label":"Green River / blue-lineage CT","current_label":"Green River / blue-lineage CT","recovery_label":"Recovery watch / review area","tier":"tier2","minZoom":12,"confidence_public":"Watershed-level lineage context; expert review recommended","geometry_status_public":"Named natural stream occurrence from statewide hydrography","geometry_source_public":"Grouped public hydrography segments","trout_source_public":"Compiled public recovery and lineage context; expert review recommended","public_notes":"West Willow Creek is shown as a named-water occurrence within watershed-level cutthroat lineage context. This is not a precise biological boundary."}},{"type":"Feature","geometry":{"type":"LineString","coordinates":[[-108.2949,39.7206],[-108.2908,39.7253]]},"properties":{"source_id":"co_named_stream_114225","name":"West Willow Creek","display_name":"West Willow Creek","mapped_name":"West Willow Creek","source_name":"West Willow Creek","state":"CO","atlas_class":"named_natural_stream","huc8":"14050006","huc8Name":"Piceance-Yellow","huc8States":"CO","lineageKey":"greenRiverBlue","lineage":"greenRiverBlue","historic":"greenRiverBlue","current":"greenRiverBlue","recovery":"recoveryWatch","lineageLabel":"Green River / blue-lineage CT","lineageBasin":"Piceance-Yellow","lineageNote":"White River / Piceance context; review needed","atlas_context":"cutthroat_lineage_context","confidence":"Watershed-level lineage context; expert review recommended","geometryStatus":"Named natural stream segment from statewide hydrography","note":"This named natural stream falls within a HUC8 assigned to a cutthroat lineage context.","source_segment_id":"co_named_stream_114225","water_id":"co_west_willow_creek_14050006_greenRiverBlue_001","occurrence_id":"co_west_willow_creek_14050006_greenRiverBlue_001","occurrence_number":"001","segment_count":20,"disambiguator":"Piceance-Yellow · Green River / blue-lineage CT · occurrence 001","basin":"Piceance-Yellow","atlas_layer":"named_water_occurrence","object_role":"named_water_occurrence","historic_label":"Green River / blue-lineage CT","current_label":"Green River / blue-lineage CT","recovery_label":"Recovery watch / review area","tier":"tier2","minZoom":12,"confidence_public":"Watershed-level lineage context; expert review recommended","geometry_status_public":"Named natural stream occurrence from statewide hydrography","geometry_source_public":"Grouped public hydrography segments","trout_source_public":"Compiled public recovery and lineage context; expert review recommended","public_notes":"West Willow Creek is shown as a named-water occurrence within watershed-level cutthroat lineage context. This is not a precise biological boundary."}},{"type":"Feature","geometry":{"type":"LineString","coordinates":[[-108.3077,39.6952],[-108.3047,39.6985]]},"properties":{"source_id":"co_named_stream_114233","name":"West Willow Creek","display_name":"West Willow Creek","mapped_name":"West Willow Creek","source_name":"West Willow Creek","state":"CO","atlas_class":"named_natural_stream","huc8":"14050006","huc8Name":"Piceance-Yellow","huc8States":"CO","lineageKey":"greenRiverBlue","lineage":"greenRiverBlue","historic":"greenRiverBlue","current":"greenRiverBlue","recovery":"recoveryWatch","lineageLabel":"Green River / blue-lineage CT","lineageBasin":"Piceance-Yellow","lineageNote":"White River / Piceance context; review needed","atlas_context":"cutthroat_lineage_context","confidence":"Watershed-level lineage context; expert review recommended","geometryStatus":"Named natural stream segment from statewide hydrography","note":"This named natural stream falls within a HUC8 assigned to a cutthroat lineage context.","source_segment_id":"co_named_stream_114233","water_id":"co_west_willow_creek_14050006_greenRiverBlue_001","occurrence_id":"co_west_willow_creek_14050006_greenRiverBlue_001","occurrence_number":"001","segment_count":20,"disambiguator":"Piceance-Yellow · Green River / blue-lineage CT · occurrence 001","basin":"Piceance-Yellow","atlas_layer":"named_water_occurrence","object_role":"named_water_occurrence","historic_label":"Green River / blue-lineage CT","current_label":"Green River / blue-lineage CT","recovery_label":"Recovery watch / review area","tier":"tier2","minZoom":12,"confidence_public":"Watershed-level lineage context; expert review recommended","geometry_status_public":"Named natural stream occurrence from statewide hydrography","geometry_source_public":"Grouped public hydrography segments","trout_source_public":"Compiled public recovery and lineage context; expert review recommended","public_notes":"West Willow Creek is shown as a named-water occurrence within watershed-level cutthroat lineage context. This is not a precise biological boundary."}},{"type":"Feature","geometry":{"type":"LineString","coordinates":[[-108.2961,39.7186],[-108.2949,39.7206]]},"properties":{"source_id":"co_named_stream_114241","name":"West Willow Creek","display_name":"West Willow Creek","mapped_name":"West Willow Creek","source_name":"West Willow Creek","state":"CO","atlas_class":"named_natural_stream","huc8":"14050006","huc8Name":"Piceance-Yellow","huc8States":"CO","lineageKey":"greenRiverBlue","lineage":"greenRiverBlue","historic":"greenRiverBlue","current":"greenRiverBlue","recovery":"recoveryWatch","lineageLabel":"Green River / blue-lineage CT","lineageBasin":"Piceance-Yellow","lineageNote":"White River / Piceance context; review needed","atlas_context":"cutthroat_lineage_context","confidence":"Watershed-level lineage context; expert review recommended","geometryStatus":"Named natural stream segment from statewide hydrography","note":"This named natural stream falls within a HUC8 assigned to a cutthroat lineage context.","source_segment_id":"co_named_stream_114241","water_id":"co_west_willow_creek_14050006_greenRiverBlue_001","occurrence_id":"co_west_willow_creek_14050006_greenRiverBlue_001","occurrence_number":"001","segment_count":20,"disambiguator":"Piceance-Yellow · Green River / blue-lineage CT · occurrence 001","basin":"Piceance-Yellow","atlas_layer":"named_water_occurrence","object_role":"named_water_occurrence","historic_label":"Green River / blue-lineage CT","current_label":"Green River / blue-lineage CT","recovery_label":"Recovery watch / review area","tier":"tier2","minZoom":12,"confidence_public":"Watershed-level lineage context; expert review recommended","geometry_status_public":"Named natural stream occurrence from statewide hydrography","geometry_source_public":"Grouped public hydrography segments","trout_source_public":"Compiled public recovery and lineage context; expert review recommended","public_notes":"West Willow Creek is shown as a named-water occurrence within watershed-level cutthroat lineage context. This is not a precise biological boundary."}},{"type":"Feature","geometry":{"type":"LineString","coordinates":[[-108.3284,39.669],[-108.3272,39.6706]]},"properties":{"source_id":"co_named_stream_114462","name":"West Willow Creek","display_name":"West Willow Creek","mapped_name":"West Willow Creek","source_name":"West Willow Creek","state":"CO","atlas_class":"named_natural_stream","huc8":"14050006","huc8Name":"Piceance-Yellow","huc8States":"CO","lineageKey":"greenRiverBlue","lineage":"greenRiverBlue","historic":"greenRiverBlue","current":"greenRiverBlue","recovery":"recoveryWatch","lineageLabel":"Green River / blue-lineage CT","lineageBasin":"Piceance-Yellow","lineageNote":"White River / Piceance context; review needed","atlas_context":"cutthroat_lineage_context","confidence":"Watershed-level lineage context; expert review recommended","geometryStatus":"Named natural stream segment from statewide hydrography","note":"This named natural stream falls within a HUC8 assigned to a cutthroat lineage context.","source_segment_id":"co_named_stream_114462","water_id":"co_west_willow_creek_14050006_greenRiverBlue_001","occurrence_id":"co_west_willow_creek_14050006_greenRiverBlue_001","occurrence_number":"001","segment_count":20,"disambiguator":"Piceance-Yellow · Green River / blue-lineage CT · occurrence 001","basin":"Piceance-Yellow","atlas_layer":"named_water_occurrence","object_role":"named_water_occurrence","historic_label":"Green River / blue-lineage CT","current_label":"Green River / blue-lineage CT","recovery_label":"Recovery watch / review area","tier":"tier2","minZoom":12,"confidence_public":"Watershed-level lineage context; expert review recommended","geometry_status_public":"Named natural stream occurrence from statewide hydrography","geometry_source_public":"Grouped public hydrography segments","trout_source_public":"Compiled public recovery and lineage context; expert review recommended","public_notes":"West Willow Creek is shown as a named-water occurrence within watershed-level cutthroat lineage context. This is not a precise biological boundary."}},{"type":"Feature","geometry":{"type":"LineString","coordinates":[[-108.3167,39.6898],[-108.3135,39.6912]]},"properties":{"source_id":"co_named_stream_114464","name":"West Willow Creek","display_name":"West Willow Creek","mapped_name":"West Willow Creek","source_name":"West Willow Creek","state":"CO","atlas_class":"named_natural_stream","huc8":"14050006","huc8Name":"Piceance-Yellow","huc8States":"CO","lineageKey":"greenRiverBlue","lineage":"greenRiverBlue","historic":"greenRiverBlue","current":"greenRiverBlue","recovery":"recoveryWatch","lineageLabel":"Green River / blue-lineage CT","lineageBasin":"Piceance-Yellow","lineageNote":"White River / Piceance context; review needed","atlas_context":"cutthroat_lineage_context","confidence":"Watershed-level lineage context; expert review recommended","geometryStatus":"Named natural stream segment from statewide hydrography","note":"This named natural stream falls within a HUC8 assigned to a cutthroat lineage context.","source_segment_id":"co_named_stream_114464","water_id":"co_west_willow_creek_14050006_greenRiverBlue_001","occurrence_id":"co_west_willow_creek_14050006_greenRiverBlue_001","occurrence_number":"001","segment_count":20,"disambiguator":"Piceance-Yellow · Green River / blue-lineage CT · occurrence 001","basin":"Piceance-Yellow","atlas_layer":"named_water_occurrence","object_role":"named_water_occurrence","historic_label":"Green River / blue-lineage CT","current_label":"Green River / blue-lineage CT","recovery_label":"Recovery watch / review area","tier":"tier2","minZoom":12,"confidence_public":"Watershed-level lineage context; expert review recommended","geometry_status_public":"Named natural stream occurrence from statewide hydrography","geometry_source_public":"Grouped public hydrography segments","trout_source_public":"Compiled public recovery and lineage context; expert review recommended","public_notes":"West Willow Creek is shown as a named-water occurrence within watershed-level cutthroat lineage context. This is not a precise biological boundary."}},{"type":"Feature","geometry":{"type":"LineString","coordinates":[[-108.3247,39.6728],[-108.3217,39.6773]]},"properties":{"source_id":"co_named_stream_114467","name":"West Willow Creek","display_name":"West Willow Creek","mapped_name":"West Willow Creek","source_name":"West Willow Creek","state":"CO","atlas_class":"named_natural_stream","huc8":"14050006","huc8Name":"Piceance-Yellow","huc8States":"CO","lineageKey":"greenRiverBlue","lineage":"greenRiverBlue","historic":"greenRiverBlue","current":"greenRiverBlue","recovery":"recoveryWatch","lineageLabel":"Green River / blue-lineage CT","lineageBasin":"Piceance-Yellow","lineageNote":"White River / Piceance context; review needed","atlas_context":"cutthroat_lineage_context","confidence":"Watershed-level lineage context; expert review recommended","geometryStatus":"Named natural stream segment from statewide hydrography","note":"This named natural stream falls within a HUC8 assigned to a cutthroat lineage context.","source_segment_id":"co_named_stream_114467","water_id":"co_west_willow_creek_14050006_greenRiverBlue_001","occurrence_id":"co_west_willow_creek_14050006_greenRiverBlue_001","occurrence_number":"001","segment_count":20,"disambiguator":"Piceance-Yellow · Green River / blue-lineage CT · occurrence 001","basin":"Piceance-Yellow","atlas_layer":"named_water_occurrence","object_role":"named_water_occurrence","historic_label":"Green River / blue-lineage CT","current_label":"Green River / blue-lineage CT","recovery_label":"Recovery watch / review area","tier":"tier2","minZoom":12,"confidence_public":"Watershed-level lineage context; expert review recommended","geometry_status_public":"Named natural stream occurrence from statewide hydrography","geometry_source_public":"Grouped public hydrography segments","trout_source_public":"Compiled public recovery and lineage context; expert review recommended","public_notes":"West Willow Creek is shown as a named-water occurrence within watershed-level cutthroat lineage context. This is not a precise biological boundary."}},{"type":"Feature","geometry":{"type":"LineString","coordinates":[[-108.3171,39.688],[-108.317,39.6887]]},"properties":{"source_id":"co_named_stream_114472","name":"West Willow Creek","display_name":"West Willow Creek","mapped_name":"West Willow Creek","source_name":"West Willow Creek","state":"CO","atlas_class":"named_natural_stream","huc8":"14050006","huc8Name":"Piceance-Yellow","huc8States":"CO","lineageKey":"greenRiverBlue","lineage":"greenRiverBlue","historic":"greenRiverBlue","current":"greenRiverBlue","recovery":"recoveryWatch","lineageLabel":"Green River / blue-lineage CT","lineageBasin":"Piceance-Yellow","lineageNote":"White River / Piceance context; review needed","atlas_context":"cutthroat_lineage_context","confidence":"Watershed-level lineage context; expert review recommended","geometryStatus":"Named natural stream segment from statewide hydrography","note":"This named natural stream falls within a HUC8 assigned to a cutthroat lineage context.","source_segment_id":"co_named_stream_114472","water_id":"co_west_willow_creek_14050006_greenRiverBlue_001","occurrence_id":"co_west_willow_creek_14050006_greenRiverBlue_001","occurrence_number":"001","segment_count":20,"disambiguator":"Piceance-Yellow · Green River / blue-lineage CT · occurrence 001","basin":"Piceance-Yellow","atlas_layer":"named_water_occurrence","object_role":"named_water_occurrence","historic_label":"Green River / blue-lineage CT","current_label":"Green River / blue-lineage CT","recovery_label":"Recovery watch / review area","tier":"tier2","minZoom":12,"confidence_public":"Watershed-level lineage context; expert review recommended","geometry_status_public":"Named natural stream occurrence from statewide hydrography","geometry_source_public":"Grouped public hydrography segments","trout_source_public":"Compiled public recovery and lineage context; expert review recommended","public_notes":"West Willow Creek is shown as a named-water occurrence within watershed-level cutthroat lineage context. This is not a precise biological boundary."}},{"type":"Feature","geometry":{"type":"LineString","coordinates":[[-108.3119,39.6914],[-108.3077,39.6952]]},"properties":{"source_id":"co_named_stream_114473","name":"West Willow Creek","display_name":"West Willow Creek","mapped_name":"West Willow Creek","source_name":"West Willow Creek","state":"CO","atlas_class":"named_natural_stream","huc8":"14050006","huc8Name":"Piceance-Yellow","huc8States":"CO","lineageKey":"greenRiverBlue","lineage":"greenRiverBlue","historic":"greenRiverBlue","current":"greenRiverBlue","recovery":"recoveryWatch","lineageLabel":"Green River / blue-lineage CT","lineageBasin":"Piceance-Yellow","lineageNote":"White River / Piceance context; review needed","atlas_context":"cutthroat_lineage_context","confidence":"Watershed-level lineage context; expert review recommended","geometryStatus":"Named natural stream segment from statewide hydrography","note":"This named natural stream falls within a HUC8 assigned to a cutthroat lineage context.","source_segment_id":"co_named_stream_114473","water_id":"co_west_willow_creek_14050006_greenRiverBlue_001","occurrence_id":"co_west_willow_creek_14050006_greenRiverBlue_001","occurrence_number":"001","segment_count":20,"disambiguator":"Piceance-Yellow · Green River / blue-lineage CT · occurrence 001","basin":"Piceance-Yellow","atlas_layer":"named_water_occurrence","object_role":"named_water_occurrence","historic_label":"Green River / blue-lineage CT","current_label":"Green River / blue-lineage CT","recovery_label":"Recovery watch / review area","tier":"tier2","minZoom":12,"confidence_public":"Watershed-level lineage context; expert review recommended","geometry_status_public":"Named natural stream occurrence from statewide hydrography","geometry_source_public":"Grouped public hydrography segments","trout_source_public":"Compiled public recovery and lineage context; expert review recommended","public_notes":"West Willow Creek is shown as a named-water occurrence within watershed-level cutthroat lineage context. This is not a precise biological boundary."}},{"type":"Feature","geometry":{"type":"LineString","coordinates":[[-108.3332,39.6647],[-108.3284,39.669]]},"properties":{"source_id":"co_named_stream_114475","name":"West Willow Creek","display_name":"West Willow Creek","mapped_name":"West Willow Creek","source_name":"West Willow Creek","state":"CO","atlas_class":"named_natural_stream","huc8":"14050006","huc8Name":"Piceance-Yellow","huc8States":"CO","lineageKey":"greenRiverBlue","lineage":"greenRiverBlue","historic":"greenRiverBlue","current":"greenRiverBlue","recovery":"recoveryWatch","lineageLabel":"Green River / blue-lineage CT","lineageBasin":"Piceance-Yellow","lineageNote":"White River / Piceance context; review needed","atlas_context":"cutthroat_lineage_context","confidence":"Watershed-level lineage context; expert review recommended","geometryStatus":"Named natural stream segment from statewide hydrography","note":"This named natural stream falls within a HUC8 assigned to a cutthroat lineage context.","source_segment_id":"co_named_stream_114475","water_id":"co_west_willow_creek_14050006_greenRiverBlue_001","occurrence_id":"co_west_willow_creek_14050006_greenRiverBlue_001","occurrence_number":"001","segment_count":20,"disambiguator":"Piceance-Yellow · Green River / blue-lineage CT · occurrence 001","basin":"Piceance-Yellow","atlas_layer":"named_water_occurrence","object_role":"named_water_occurrence","historic_label":"Green River / blue-lineage CT","current_label":"Green River / blue-lineage CT","recovery_label":"Recovery watch / review area","tier":"tier2","minZoom":12,"confidence_public":"Watershed-level lineage context; expert review recommended","geometry_status_public":"Named natural stream occurrence from statewide hydrography","geometry_source_public":"Grouped public hydrography segments","trout_source_public":"Compiled public recovery and lineage context; expert review recommended","public_notes":"West Willow Creek is shown as a named-water occurrence within watershed-level cutthroat lineage context. This is not a precise biological boundary."}},{"type":"Feature","geometry":{"type":"LineString","coordinates":[[-108.3353,39.6607],[-108.3332,39.6647]]},"properties":{"source_id":"co_named_stream_114476","name":"West Willow Creek","display_name":"West Willow Creek","mapped_name":"West Willow Creek","source_name":"West Willow Creek","state":"CO","atlas_class":"named_natural_stream","huc8":"14050006","huc8Name":"Piceance-Yellow","huc8States":"CO","lineageKey":"greenRiverBlue","lineage":"greenRiverBlue","historic":"greenRiverBlue","current":"greenRiverBlue","recovery":"recoveryWatch","lineageLabel":"Green River / blue-lineage CT","lineageBasin":"Piceance-Yellow","lineageNote":"White River / Piceance context; review needed","atlas_context":"cutthroat_lineage_context","confidence":"Watershed-level lineage context; expert review recommended","geometryStatus":"Named natural stream segment from statewide hydrography","note":"This named natural stream falls within a HUC8 assigned to a cutthroat lineage context.","source_segment_id":"co_named_stream_114476","water_id":"co_west_willow_creek_14050006_greenRiverBlue_001","occurrence_id":"co_west_willow_creek_14050006_greenRiverBlue_001","occurrence_number":"001","segment_count":20,"disambiguator":"Piceance-Yellow · Green River / blue-lineage CT · occurrence 001","basin":"Piceance-Yellow","atlas_layer":"named_water_occurrence","object_role":"named_water_occurrence","historic_label":"Green River / blue-lineage CT","current_label":"Green River / blue-lineage CT","recovery_label":"Recovery watch / review area","tier":"tier2","minZoom":12,"confidence_public":"Watershed-level lineage context; expert review recommended","geometry_status_public":"Named natural stream occurrence from statewide hydrography","geometry_source_public":"Grouped public hydrography segments","trout_source_public":"Compiled public recovery and lineage context; expert review recommended","public_notes":"West Willow Creek is shown as a named-water occurrence within watershed-level cutthroat lineage context. This is not a precise biological boundary."}},{"type":"Feature","geometry":{"type":"LineString","coordinates":[[-108.3121,39.6913],[-108.3119,39.6914]]},"properties":{"source_id":"co_named_stream_114477","name":"West Willow Creek","display_name":"West Willow Creek","mapped_name":"West Willow Creek","source_name":"West Willow Creek","state":"CO","atlas_class":"named_natural_stream","huc8":"14050006","huc8Name":"Piceance-Yellow","huc8States":"CO","lineageKey":"greenRiverBlue","lineage":"greenRiverBlue","historic":"greenRiverBlue","current":"greenRiverBlue","recovery":"recoveryWatch","lineageLabel":"Green River / blue-lineage CT","lineageBasin":"Piceance-Yellow","lineageNote":"White River / Piceance context; review needed","atlas_context":"cutthroat_lineage_context","confidence":"Watershed-level lineage context; expert review recommended","geometryStatus":"Named natural stream segment from statewide hydrography","note":"This named natural stream falls within a HUC8 assigned to a cutthroat lineage context.","source_segment_id":"co_named_stream_114477","water_id":"co_west_willow_creek_14050006_greenRiverBlue_001","occurrence_id":"co_west_willow_creek_14050006_greenRiverBlue_001","occurrence_number":"001","segment_count":20,"disambiguator":"Piceance-Yellow · Green River / blue-lineage CT · occurrence 001","basin":"Piceance-Yellow","atlas_layer":"named_water_occurrence","object_role":"named_water_occurrence","historic_label":"Green River / blue-lineage CT","current_label":"Green River / blue-lineage CT","recovery_label":"Recovery watch / review area","tier":"tier2","minZoom":12,"confidence_public":"Watershed-level lineage context; expert review recommended","geometry_status_public":"Named natural stream occurrence from statewide hydrography","geometry_source_public":"Grouped public hydrography segments","trout_source_public":"Compiled public recovery and lineage context; expert review recommended","public_notes":"West Willow Creek is shown as a named-water occurrence within watershed-level cutthroat lineage context. This is not a precise biological boundary."}},{"type":"Feature","geometry":{"type":"LineString","coordinates":[[-108.3272,39.6706],[-108.3247,39.6728]]},"properties":{"source_id":"co_named_stream_114479","name":"West Willow Creek","display_name":"West Willow Creek","mapped_name":"West Willow Creek","source_name":"West Willow Creek","state":"CO","atlas_class":"named_natural_stream","huc8":"14050006","huc8Name":"Piceance-Yellow","huc8States":"CO","lineageKey":"greenRiverBlue","lineage":"greenRiverBlue","historic":"greenRiverBlue","current":"greenRiverBlue","recovery":"recoveryWatch","lineageLabel":"Green River / blue-lineage CT","lineageBasin":"Piceance-Yellow","lineageNote":"White River / Piceance context; review needed","atlas_context":"cutthroat_lineage_context","confidence":"Watershed-level lineage context; expert review recommended","geometryStatus":"Named natural stream segment from statewide hydrography","note":"This named natural stream falls within a HUC8 assigned to a cutthroat lineage context.","source_segment_id":"co_named_stream_114479","water_id":"co_west_willow_creek_14050006_greenRiverBlue_001","occurrence_id":"co_west_willow_creek_14050006_greenRiverBlue_001","occurrence_number":"001","segment_count":20,"disambiguator":"Piceance-Yellow · Green River / blue-lineage CT · occurrence 001","basin":"Piceance-Yellow","atlas_layer":"named_water_occurrence","object_role":"named_water_occurrence","historic_label":"Green River / blue-lineage CT","current_label":"Green River / blue-lineage CT","recovery_label":"Recovery watch / review area","tier":"tier2","minZoom":12,"confidence_public":"Watershed-level lineage context; expert review recommended","geometry_status_public":"Named natural stream occurrence from statewide hydrography","geometry_source_public":"Grouped public hydrography segments","trout_source_public":"Compiled public recovery and lineage context; expert review recommended","public_notes":"West Willow Creek is shown as a named-water occurrence within watershed-level cutthroat lineage context. This is not a precise biological boundary."}},{"type":"Feature","geometry":{"type":"LineString","coordinates":[[-108.3135,39.6912],[-108.3121,39.6913]]},"properties":{"source_id":"co_named_stream_114484","name":"West Willow Creek","display_name":"West Willow Creek","mapped_name":"West Willow Creek","source_name":"West Willow Creek","state":"CO","atlas_class":"named_natural_stream","huc8":"14050006","huc8Name":"Piceance-Yellow","huc8States":"CO","lineageKey":"greenRiverBlue","lineage":"greenRiverBlue","historic":"greenRiverBlue","current":"greenRiverBlue","recovery":"recoveryWatch","lineageLabel":"Green River / blue-lineage CT","lineageBasin":"Piceance-Yellow","lineageNote":"White River / Piceance context; review needed","atlas_context":"cutthroat_lineage_context","confidence":"Watershed-level lineage context; expert review recommended","geometryStatus":"Named natural stream segment from statewide hydrography","note":"This named natural stream falls within a HUC8 assigned to a cutthroat lineage context.","source_segment_id":"co_named_stream_114484","water_id":"co_west_willow_creek_14050006_greenRiverBlue_001","occurrence_id":"co_west_willow_creek_14050006_greenRiverBlue_001","occurrence_number":"001","segment_count":20,"disambiguator":"Piceance-Yellow · Green River / blue-lineage CT · occurrence 001","basin":"Piceance-Yellow","atlas_layer":"named_water_occurrence","object_role":"named_water_occurrence","historic_label":"Green River / blue-lineage CT","current_label":"Green River / blue-lineage CT","recovery_label":"Recovery watch / review area","tier":"tier2","minZoom":12,"confidence_public":"Watershed-level lineage context; expert review recommended","geometry_status_public":"Named natural stream occurrence from statewide hydrography","geometry_source_public":"Grouped public hydrography segments","trout_source_public":"Compiled public recovery and lineage context; expert review recommended","public_notes":"West Willow Creek is shown as a named-water occurrence within watershed-level cutthroat lineage context. This is not a precise biological boundary."}},{"type":"Feature","geometry":{"type":"LineString","coordinates":[[-108.3217,39.6773],[-108.3183,39.6833],[-108.3171,39.688]]},"properties":{"source_id":"co_named_stream_114487","name":"West Willow Creek","display_name":"West Willow Creek","mapped_name":"West Willow Creek","source_name":"West Willow Creek","state":"CO","atlas_class":"named_natural_stream","huc8":"14050006","huc8Name":"Piceance-Yellow","huc8States":"CO","lineageKey":"greenRiverBlue","lineage":"greenRiverBlue","historic":"greenRiverBlue","current":"greenRiverBlue","recovery":"recoveryWatch","lineageLabel":"Green River / blue-lineage CT","lineageBasin":"Piceance-Yellow","lineageNote":"White River / Piceance context; review needed","atlas_context":"cutthroat_lineage_context","confidence":"Watershed-level lineage context; expert review recommended","geometryStatus":"Named natural stream segment from statewide hydrography","note":"This named natural stream falls within a HUC8 assigned to a cutthroat lineage context.","source_segment_id":"co_named_stream_114487","water_id":"co_west_willow_creek_14050006_greenRiverBlue_001","occurrence_id":"co_west_willow_creek_14050006_greenRiverBlue_001","occurrence_number":"001","segment_count":20,"disambiguator":"Piceance-Yellow · Green River / blue-lineage CT · occurrence 001","basin":"Piceance-Yellow","atlas_layer":"named_water_occurrence","object_role":"named_water_occurrence","historic_label":"Green River / blue-lineage CT","current_label":"Green River / blue-lineage CT","recovery_label":"Recovery watch / review area","tier":"tier2","minZoom":12,"confidence_public":"Watershed-level lineage context; expert review recommended","geometry_status_public":"Named natural stream occurrence from statewide hydrography","geometry_source_public":"Grouped public hydrography segments","trout_source_public":"Compiled public recovery and lineage context; expert review recommended","public_notes":"West Willow Creek is shown as a named-water occurrence within watershed-level cutthroat lineage context. This is not a precise biological boundary."}}]}