{"type":"FeatureCollection","metadata":{"source":"C:\\ct-atlas-data\\processed\\geojson\\interpreted\\colorado_named_natural_streams_complete_v1.geojson","tier":"tier2","tile_size_degrees":0.25,"x":-419,"y":154,"bounds":{"west":-104.75,"south":38.5,"east":-104.5,"north":38.75}},"features":[{"type":"Feature","geometry":{"type":"LineString","coordinates":[[-104.7353,38.6429],[-104.734,38.6415]]},"properties":{"source_id":"co_named_stream_031253","name":"Rock Creek","display_name":"Rock Creek","mapped_name":"Rock Creek","source_name":"Rock Creek","state":"CO","atlas_class":"named_natural_stream","huc8":"11020003","huc8Name":"Fountain","huc8States":"CO","lineageKey":"yellowfin","lineage":"yellowfin","historic":"yellowfin","current":"yellowfin","recovery":"recoveryWatch","lineageLabel":"Yellowfin / Arkansas headwaters historical form","lineageBasin":"Fountain / Bear Creek","lineageNote":"Includes Bear Creek as Arkansas watershed context; modern greenback refuge is a translocation story","atlas_context":"cutthroat_lineage_context","confidence":"Watershed-level lineage context; expert review recommended","geometryStatus":"Named natural stream segment from statewide hydrography","note":"This named natural stream falls within a HUC8 assigned to a cutthroat lineage context.","source_segment_id":"co_named_stream_031253","water_id":"co_rock_creek_11020003_yellowfin_001","occurrence_id":"co_rock_creek_11020003_yellowfin_001","occurrence_number":"001","segment_count":74,"disambiguator":"Fountain · Yellowfin / Arkansas headwaters historical form · occurrence 001","basin":"Fountain","atlas_layer":"named_water_occurrence","object_role":"named_water_occurrence","historic_label":"Yellowfin / Arkansas headwaters historical form","current_label":"Yellowfin / Arkansas headwaters historical form","recovery_label":"Recovery watch / review area","tier":"tier2","minZoom":12,"confidence_public":"Watershed-level lineage context; expert review recommended","geometry_status_public":"Named natural stream occurrence from statewide hydrography","geometry_source_public":"Grouped public hydrography segments","trout_source_public":"Compiled public recovery and lineage context; expert review recommended","public_notes":"Rock Creek is shown as a named-water occurrence within watershed-level cutthroat lineage context. This is not a precise biological boundary."}},{"type":"Feature","geometry":{"type":"LineString","coordinates":[[-104.7471,38.6553],[-104.7468,38.6522],[-104.7414,38.6478]]},"properties":{"source_id":"co_named_stream_031663","name":"Rock Creek","display_name":"Rock Creek","mapped_name":"Rock Creek","source_name":"Rock Creek","state":"CO","atlas_class":"named_natural_stream","huc8":"11020003","huc8Name":"Fountain","huc8States":"CO","lineageKey":"yellowfin","lineage":"yellowfin","historic":"yellowfin","current":"yellowfin","recovery":"recoveryWatch","lineageLabel":"Yellowfin / Arkansas headwaters historical form","lineageBasin":"Fountain / Bear Creek","lineageNote":"Includes Bear Creek as Arkansas watershed context; modern greenback refuge is a translocation story","atlas_context":"cutthroat_lineage_context","confidence":"Watershed-level lineage context; expert review recommended","geometryStatus":"Named natural stream segment from statewide hydrography","note":"This named natural stream falls within a HUC8 assigned to a cutthroat lineage context.","source_segment_id":"co_named_stream_031663","water_id":"co_rock_creek_11020003_yellowfin_001","occurrence_id":"co_rock_creek_11020003_yellowfin_001","occurrence_number":"001","segment_count":74,"disambiguator":"Fountain · Yellowfin / Arkansas headwaters historical form · occurrence 001","basin":"Fountain","atlas_layer":"named_water_occurrence","object_role":"named_water_occurrence","historic_label":"Yellowfin / Arkansas headwaters historical form","current_label":"Yellowfin / Arkansas headwaters historical form","recovery_label":"Recovery watch / review area","tier":"tier2","minZoom":12,"confidence_public":"Watershed-level lineage context; expert review recommended","geometry_status_public":"Named natural stream occurrence from statewide hydrography","geometry_source_public":"Grouped public hydrography segments","trout_source_public":"Compiled public recovery and lineage context; expert review recommended","public_notes":"Rock Creek is shown as a named-water occurrence within watershed-level cutthroat lineage context. This is not a precise biological boundary."}},{"type":"Feature","geometry":{"type":"LineString","coordinates":[[-104.7414,38.6478],[-104.7366,38.6445]]},"properties":{"source_id":"co_named_stream_031664","name":"Rock Creek","display_name":"Rock Creek","mapped_name":"Rock Creek","source_name":"Rock Creek","state":"CO","atlas_class":"named_natural_stream","huc8":"11020003","huc8Name":"Fountain","huc8States":"CO","lineageKey":"yellowfin","lineage":"yellowfin","historic":"yellowfin","current":"yellowfin","recovery":"recoveryWatch","lineageLabel":"Yellowfin / Arkansas headwaters historical form","lineageBasin":"Fountain / Bear Creek","lineageNote":"Includes Bear Creek as Arkansas watershed context; modern greenback refuge is a translocation story","atlas_context":"cutthroat_lineage_context","confidence":"Watershed-level lineage context; expert review recommended","geometryStatus":"Named natural stream segment from statewide hydrography","note":"This named natural stream falls within a HUC8 assigned to a cutthroat lineage context.","source_segment_id":"co_named_stream_031664","water_id":"co_rock_creek_11020003_yellowfin_001","occurrence_id":"co_rock_creek_11020003_yellowfin_001","occurrence_number":"001","segment_count":74,"disambiguator":"Fountain · Yellowfin / Arkansas headwaters historical form · occurrence 001","basin":"Fountain","atlas_layer":"named_water_occurrence","object_role":"named_water_occurrence","historic_label":"Yellowfin / Arkansas headwaters historical form","current_label":"Yellowfin / Arkansas headwaters historical form","recovery_label":"Recovery watch / review area","tier":"tier2","minZoom":12,"confidence_public":"Watershed-level lineage context; expert review recommended","geometry_status_public":"Named natural stream occurrence from statewide hydrography","geometry_source_public":"Grouped public hydrography segments","trout_source_public":"Compiled public recovery and lineage context; expert review recommended","public_notes":"Rock Creek is shown as a named-water occurrence within watershed-level cutthroat lineage context. This is not a precise biological boundary."}},{"type":"Feature","geometry":{"type":"LineString","coordinates":[[-104.7672,38.6638],[-104.7551,38.6608],[-104.7521,38.6573],[-104.7492,38.6576],[-104.7471,38.6553]]},"properties":{"source_id":"co_named_stream_037582","name":"Rock Creek","display_name":"Rock Creek","mapped_name":"Rock Creek","source_name":"Rock Creek","state":"CO","atlas_class":"named_natural_stream","huc8":"11020003","huc8Name":"Fountain","huc8States":"CO","lineageKey":"yellowfin","lineage":"yellowfin","historic":"yellowfin","current":"yellowfin","recovery":"recoveryWatch","lineageLabel":"Yellowfin / Arkansas headwaters historical form","lineageBasin":"Fountain / Bear Creek","lineageNote":"Includes Bear Creek as Arkansas watershed context; modern greenback refuge is a translocation story","atlas_context":"cutthroat_lineage_context","confidence":"Watershed-level lineage context; expert review recommended","geometryStatus":"Named natural stream segment from statewide hydrography","note":"This named natural stream falls within a HUC8 assigned to a cutthroat lineage context.","source_segment_id":"co_named_stream_037582","water_id":"co_rock_creek_11020003_yellowfin_001","occurrence_id":"co_rock_creek_11020003_yellowfin_001","occurrence_number":"001","segment_count":74,"disambiguator":"Fountain · Yellowfin / Arkansas headwaters historical form · occurrence 001","basin":"Fountain","atlas_layer":"named_water_occurrence","object_role":"named_water_occurrence","historic_label":"Yellowfin / Arkansas headwaters historical form","current_label":"Yellowfin / Arkansas headwaters historical form","recovery_label":"Recovery watch / review area","tier":"tier2","minZoom":12,"confidence_public":"Watershed-level lineage context; expert review recommended","geometry_status_public":"Named natural stream occurrence from statewide hydrography","geometry_source_public":"Grouped public hydrography segments","trout_source_public":"Compiled public recovery and lineage context; expert review recommended","public_notes":"Rock Creek is shown as a named-water occurrence within watershed-level cutthroat lineage context. This is not a precise biological boundary."}},{"type":"Feature","geometry":{"type":"LineString","coordinates":[[-104.5036,38.5531],[-104.5018,38.5478],[-104.4959,38.5468],[-104.4924,38.542]]},"properties":{"source_id":"co_named_stream_029660","name":"Chico Creek","display_name":"Chico Creek","mapped_name":"Chico Creek","source_name":"Chico Creek","state":"CO","atlas_class":"named_natural_stream","huc8":"11020004","huc8Name":"Chico","huc8States":"CO","lineageKey":"statewideContext","lineage":"statewideContext","historic":"statewideContext","current":"statewideContext","recovery":"statewideContext","lineageLabel":"Statewide Colorado hydrography context","lineageBasin":"","lineageNote":"","atlas_context":"statewide_hydrography_context","confidence":"Statewide hydrography context outside current cutthroat lineage model","geometryStatus":"Named natural stream segment from statewide hydrography","note":"This named natural stream is included for statewide Colorado hydrography completeness and is outside the current cutthroat lineage assignment set.","source_segment_id":"co_named_stream_029660","water_id":"co_chico_creek_11020004_statewideContext_001","occurrence_id":"co_chico_creek_11020004_statewideContext_001","occurrence_number":"001","segment_count":24,"disambiguator":"Chico · Statewide Colorado hydrography context · occurrence 001","basin":"Chico","atlas_layer":"named_water_occurrence","object_role":"named_water_occurrence","historic_label":"Statewide Colorado hydrography context","current_label":"Statewide Colorado hydrography context","recovery_label":"Statewide Colorado hydrography context","tier":"tier2","minZoom":12,"confidence_public":"Statewide hydrography context outside current cutthroat lineage model","geometry_status_public":"Named natural stream occurrence from statewide hydrography","geometry_source_public":"Grouped public hydrography segments","trout_source_public":"Included for Colorado statewide hydrography completeness","public_notes":"Chico Creek is shown as statewide Colorado hydrography context outside the current cutthroat lineage assignment set."}},{"type":"Feature","geometry":{"type":"LineString","coordinates":[[-104.5215,38.5861],[-104.5216,38.5839],[-104.5186,38.5816],[-104.5179,38.5796],[-104.5184,38.5784],[-104.5209,38.5781]]},"properties":{"source_id":"co_named_stream_030029","name":"Chico Creek","display_name":"Chico Creek","mapped_name":"Chico Creek","source_name":"Chico Creek","state":"CO","atlas_class":"named_natural_stream","huc8":"11020004","huc8Name":"Chico","huc8States":"CO","lineageKey":"statewideContext","lineage":"statewideContext","historic":"statewideContext","current":"statewideContext","recovery":"statewideContext","lineageLabel":"Statewide Colorado hydrography context","lineageBasin":"","lineageNote":"","atlas_context":"statewide_hydrography_context","confidence":"Statewide hydrography context outside current cutthroat lineage model","geometryStatus":"Named natural stream segment from statewide hydrography","note":"This named natural stream is included for statewide Colorado hydrography completeness and is outside the current cutthroat lineage assignment set.","source_segment_id":"co_named_stream_030029","water_id":"co_chico_creek_11020004_statewideContext_001","occurrence_id":"co_chico_creek_11020004_statewideContext_001","occurrence_number":"001","segment_count":24,"disambiguator":"Chico · Statewide Colorado hydrography context · occurrence 001","basin":"Chico","atlas_layer":"named_water_occurrence","object_role":"named_water_occurrence","historic_label":"Statewide Colorado hydrography context","current_label":"Statewide Colorado hydrography context","recovery_label":"Statewide Colorado hydrography context","tier":"tier2","minZoom":12,"confidence_public":"Statewide hydrography context outside current cutthroat lineage model","geometry_status_public":"Named natural stream occurrence from statewide hydrography","geometry_source_public":"Grouped public hydrography segments","trout_source_public":"Included for Colorado statewide hydrography completeness","public_notes":"Chico Creek is shown as statewide Colorado hydrography context outside the current cutthroat lineage assignment set."}},{"type":"Feature","geometry":{"type":"LineString","coordinates":[[-104.5142,38.6009],[-104.5117,38.5964],[-104.5126,38.5941],[-104.5146,38.5934],[-104.5132,38.5875],[-104.5152,38.5863],[-104.5165,38.5872],[-104.5186,38.5856],[-104.5215,38.5861]]},"properties":{"source_id":"co_named_stream_031006","name":"Chico Creek","display_name":"Chico Creek","mapped_name":"Chico Creek","source_name":"Chico Creek","state":"CO","atlas_class":"named_natural_stream","huc8":"11020004","huc8Name":"Chico","huc8States":"CO","lineageKey":"statewideContext","lineage":"statewideContext","historic":"statewideContext","current":"statewideContext","recovery":"statewideContext","lineageLabel":"Statewide Colorado hydrography context","lineageBasin":"","lineageNote":"","atlas_context":"statewide_hydrography_context","confidence":"Statewide hydrography context outside current cutthroat lineage model","geometryStatus":"Named natural stream segment from statewide hydrography","note":"This named natural stream is included for statewide Colorado hydrography completeness and is outside the current cutthroat lineage assignment set.","source_segment_id":"co_named_stream_031006","water_id":"co_chico_creek_11020004_statewideContext_001","occurrence_id":"co_chico_creek_11020004_statewideContext_001","occurrence_number":"001","segment_count":24,"disambiguator":"Chico · Statewide Colorado hydrography context · occurrence 001","basin":"Chico","atlas_layer":"named_water_occurrence","object_role":"named_water_occurrence","historic_label":"Statewide Colorado hydrography context","current_label":"Statewide Colorado hydrography context","recovery_label":"Statewide Colorado hydrography context","tier":"tier2","minZoom":12,"confidence_public":"Statewide hydrography context outside current cutthroat lineage model","geometry_status_public":"Named natural stream occurrence from statewide hydrography","geometry_source_public":"Grouped public hydrography segments","trout_source_public":"Included for Colorado statewide hydrography completeness","public_notes":"Chico Creek is shown as statewide Colorado hydrography context outside the current cutthroat lineage assignment set."}},{"type":"Feature","geometry":{"type":"LineString","coordinates":[[-104.5187,38.5606],[-104.5156,38.556],[-104.5099,38.5568],[-104.5055,38.5533],[-104.5036,38.5531]]},"properties":{"source_id":"co_named_stream_033386","name":"Chico Creek","display_name":"Chico Creek","mapped_name":"Chico Creek","source_name":"Chico Creek","state":"CO","atlas_class":"named_natural_stream","huc8":"11020004","huc8Name":"Chico","huc8States":"CO","lineageKey":"statewideContext","lineage":"statewideContext","historic":"statewideContext","current":"statewideContext","recovery":"statewideContext","lineageLabel":"Statewide Colorado hydrography context","lineageBasin":"","lineageNote":"","atlas_context":"statewide_hydrography_context","confidence":"Statewide hydrography context outside current cutthroat lineage model","geometryStatus":"Named natural stream segment from statewide hydrography","note":"This named natural stream is included for statewide Colorado hydrography completeness and is outside the current cutthroat lineage assignment set.","source_segment_id":"co_named_stream_033386","water_id":"co_chico_creek_11020004_statewideContext_001","occurrence_id":"co_chico_creek_11020004_statewideContext_001","occurrence_number":"001","segment_count":24,"disambiguator":"Chico · Statewide Colorado hydrography context · occurrence 001","basin":"Chico","atlas_layer":"named_water_occurrence","object_role":"named_water_occurrence","historic_label":"Statewide Colorado hydrography context","current_label":"Statewide Colorado hydrography context","recovery_label":"Statewide Colorado hydrography context","tier":"tier2","minZoom":12,"confidence_public":"Statewide hydrography context outside current cutthroat lineage model","geometry_status_public":"Named natural stream occurrence from statewide hydrography","geometry_source_public":"Grouped public hydrography segments","trout_source_public":"Included for Colorado statewide hydrography completeness","public_notes":"Chico Creek is shown as statewide Colorado hydrography context outside the current cutthroat lineage assignment set."}},{"type":"Feature","geometry":{"type":"LineString","coordinates":[[-104.5005,38.6625],[-104.503,38.6594]]},"properties":{"source_id":"co_named_stream_033700","name":"Chico Creek","display_name":"Chico Creek","mapped_name":"Chico Creek","source_name":"Chico Creek","state":"CO","atlas_class":"named_natural_stream","huc8":"11020004","huc8Name":"Chico","huc8States":"CO","lineageKey":"statewideContext","lineage":"statewideContext","historic":"statewideContext","current":"statewideContext","recovery":"statewideContext","lineageLabel":"Statewide Colorado hydrography context","lineageBasin":"","lineageNote":"","atlas_context":"statewide_hydrography_context","confidence":"Statewide hydrography context outside current cutthroat lineage model","geometryStatus":"Named natural stream segment from statewide hydrography","note":"This named natural stream is included for statewide Colorado hydrography completeness and is outside the current cutthroat lineage assignment set.","source_segment_id":"co_named_stream_033700","water_id":"co_chico_creek_11020004_statewideContext_001","occurrence_id":"co_chico_creek_11020004_statewideContext_001","occurrence_number":"001","segment_count":24,"disambiguator":"Chico · Statewide Colorado hydrography context · occurrence 001","basin":"Chico","atlas_layer":"named_water_occurrence","object_role":"named_water_occurrence","historic_label":"Statewide Colorado hydrography context","current_label":"Statewide Colorado hydrography context","recovery_label":"Statewide Colorado hydrography context","tier":"tier2","minZoom":12,"confidence_public":"Statewide hydrography context outside current cutthroat lineage model","geometry_status_public":"Named natural stream occurrence from statewide hydrography","geometry_source_public":"Grouped public hydrography segments","trout_source_public":"Included for Colorado statewide hydrography completeness","public_notes":"Chico Creek is shown as statewide Colorado hydrography context outside the current cutthroat lineage assignment set."}},{"type":"Feature","geometry":{"type":"LineString","coordinates":[[-104.512,38.6337],[-104.5068,38.629],[-104.5072,38.625]]},"properties":{"source_id":"co_named_stream_038755","name":"Chico Creek","display_name":"Chico Creek","mapped_name":"Chico Creek","source_name":"Chico Creek","state":"CO","atlas_class":"named_natural_stream","huc8":"11020004","huc8Name":"Chico","huc8States":"CO","lineageKey":"statewideContext","lineage":"statewideContext","historic":"statewideContext","current":"statewideContext","recovery":"statewideContext","lineageLabel":"Statewide Colorado hydrography context","lineageBasin":"","lineageNote":"","atlas_context":"statewide_hydrography_context","confidence":"Statewide hydrography context outside current cutthroat lineage model","geometryStatus":"Named natural stream segment from statewide hydrography","note":"This named natural stream is included for statewide Colorado hydrography completeness and is outside the current cutthroat lineage assignment set.","source_segment_id":"co_named_stream_038755","water_id":"co_chico_creek_11020004_statewideContext_001","occurrence_id":"co_chico_creek_11020004_statewideContext_001","occurrence_number":"001","segment_count":24,"disambiguator":"Chico · Statewide Colorado hydrography context · occurrence 001","basin":"Chico","atlas_layer":"named_water_occurrence","object_role":"named_water_occurrence","historic_label":"Statewide Colorado hydrography context","current_label":"Statewide Colorado hydrography context","recovery_label":"Statewide Colorado hydrography context","tier":"tier2","minZoom":12,"confidence_public":"Statewide hydrography context outside current cutthroat lineage model","geometry_status_public":"Named natural stream occurrence from statewide hydrography","geometry_source_public":"Grouped public hydrography segments","trout_source_public":"Included for Colorado statewide hydrography completeness","public_notes":"Chico Creek is shown as statewide Colorado hydrography context outside the current cutthroat lineage assignment set."}},{"type":"Feature","geometry":{"type":"LineString","coordinates":[[-104.508,38.6494],[-104.5059,38.647],[-104.5071,38.6434],[-104.5059,38.6415],[-104.5075,38.6387],[-104.5095,38.6377]]},"properties":{"source_id":"co_named_stream_038756","name":"Chico Creek","display_name":"Chico Creek","mapped_name":"Chico Creek","source_name":"Chico Creek","state":"CO","atlas_class":"named_natural_stream","huc8":"11020004","huc8Name":"Chico","huc8States":"CO","lineageKey":"statewideContext","lineage":"statewideContext","historic":"statewideContext","current":"statewideContext","recovery":"statewideContext","lineageLabel":"Statewide Colorado hydrography context","lineageBasin":"","lineageNote":"","atlas_context":"statewide_hydrography_context","confidence":"Statewide hydrography context outside current cutthroat lineage model","geometryStatus":"Named natural stream segment from statewide hydrography","note":"This named natural stream is included for statewide Colorado hydrography completeness and is outside the current cutthroat lineage assignment set.","source_segment_id":"co_named_stream_038756","water_id":"co_chico_creek_11020004_statewideContext_001","occurrence_id":"co_chico_creek_11020004_statewideContext_001","occurrence_number":"001","segment_count":24,"disambiguator":"Chico · Statewide Colorado hydrography context · occurrence 001","basin":"Chico","atlas_layer":"named_water_occurrence","object_role":"named_water_occurrence","historic_label":"Statewide Colorado hydrography context","current_label":"Statewide Colorado hydrography context","recovery_label":"Statewide Colorado hydrography context","tier":"tier2","minZoom":12,"confidence_public":"Statewide hydrography context outside current cutthroat lineage model","geometry_status_public":"Named natural stream occurrence from statewide hydrography","geometry_source_public":"Grouped public hydrography segments","trout_source_public":"Included for Colorado statewide hydrography completeness","public_notes":"Chico Creek is shown as statewide Colorado hydrography context outside the current cutthroat lineage assignment set."}},{"type":"Feature","geometry":{"type":"LineString","coordinates":[[-104.503,38.6594],[-104.5045,38.6583],[-104.5043,38.655],[-104.5062,38.6537],[-104.5061,38.652],[-104.508,38.6494]]},"properties":{"source_id":"co_named_stream_039489","name":"Chico Creek","display_name":"Chico Creek","mapped_name":"Chico Creek","source_name":"Chico Creek","state":"CO","atlas_class":"named_natural_stream","huc8":"11020004","huc8Name":"Chico","huc8States":"CO","lineageKey":"statewideContext","lineage":"statewideContext","historic":"statewideContext","current":"statewideContext","recovery":"statewideContext","lineageLabel":"Statewide Colorado hydrography context","lineageBasin":"","lineageNote":"","atlas_context":"statewide_hydrography_context","confidence":"Statewide hydrography context outside current cutthroat lineage model","geometryStatus":"Named natural stream segment from statewide hydrography","note":"This named natural stream is included for statewide Colorado hydrography completeness and is outside the current cutthroat lineage assignment set.","source_segment_id":"co_named_stream_039489","water_id":"co_chico_creek_11020004_statewideContext_001","occurrence_id":"co_chico_creek_11020004_statewideContext_001","occurrence_number":"001","segment_count":24,"disambiguator":"Chico · Statewide Colorado hydrography context · occurrence 001","basin":"Chico","atlas_layer":"named_water_occurrence","object_role":"named_water_occurrence","historic_label":"Statewide Colorado hydrography context","current_label":"Statewide Colorado hydrography context","recovery_label":"Statewide Colorado hydrography context","tier":"tier2","minZoom":12,"confidence_public":"Statewide hydrography context outside current cutthroat lineage model","geometry_status_public":"Named natural stream occurrence from statewide hydrography","geometry_source_public":"Grouped public hydrography segments","trout_source_public":"Included for Colorado statewide hydrography completeness","public_notes":"Chico Creek is shown as statewide Colorado hydrography context outside the current cutthroat lineage assignment set."}},{"type":"Feature","geometry":{"type":"LineString","coordinates":[[-104.5537,38.764],[-104.5539,38.761],[-104.555,38.76],[-104.5549,38.7578],[-104.5559,38.7565],[-104.5551,38.7532],[-104.5528,38.7509],[-104.5518,38.7509],[-104.5522,38.7496],[-104.5513,38.7499],[-104.5497,38.7478],[-104.5485,38.7476],[-104.5472,38.7448],[-104.5461,38.7448],[-104.5445,38.7423],[-104.5409,38.7402],[-104.5423,38.7397],[-104.5382,38.7373],[-104.5376,38.7355],[-104.5346,38.7353],[-104.5363,38.7346],[-104.5356,38.7345],[-104.5358,38.7333],[-104.5343,38.733],[-104.535,38.731],[-104.5335,38.7311],[-104.5327,38.7296],[-104.5299,38.729],[-104.5303,38.7268],[-104.5285,38.7261],[-104.5299,38.7225],[-104.5295,38.7214],[-104.5258,38.7189],[-104.5227,38.7184]]},"properties":{"source_id":"co_named_stream_039618","name":"Chico Creek","display_name":"Chico Creek","mapped_name":"Chico Creek","source_name":"Chico Creek","state":"CO","atlas_class":"named_natural_stream","huc8":"11020004","huc8Name":"Chico","huc8States":"CO","lineageKey":"statewideContext","lineage":"statewideContext","historic":"statewideContext","current":"statewideContext","recovery":"statewideContext","lineageLabel":"Statewide Colorado hydrography context","lineageBasin":"","lineageNote":"","atlas_context":"statewide_hydrography_context","confidence":"Statewide hydrography context outside current cutthroat lineage model","geometryStatus":"Named natural stream segment from statewide hydrography","note":"This named natural stream is included for statewide Colorado hydrography completeness and is outside the current cutthroat lineage assignment set.","source_segment_id":"co_named_stream_039618","water_id":"co_chico_creek_11020004_statewideContext_001","occurrence_id":"co_chico_creek_11020004_statewideContext_001","occurrence_number":"001","segment_count":24,"disambiguator":"Chico · Statewide Colorado hydrography context · occurrence 001","basin":"Chico","atlas_layer":"named_water_occurrence","object_role":"named_water_occurrence","historic_label":"Statewide Colorado hydrography context","current_label":"Statewide Colorado hydrography context","recovery_label":"Statewide Colorado hydrography context","tier":"tier2","minZoom":12,"confidence_public":"Statewide hydrography context outside current cutthroat lineage model","geometry_status_public":"Named natural stream occurrence from statewide hydrography","geometry_source_public":"Grouped public hydrography segments","trout_source_public":"Included for Colorado statewide hydrography completeness","public_notes":"Chico Creek is shown as statewide Colorado hydrography context outside the current cutthroat lineage assignment set."}},{"type":"Feature","geometry":{"type":"LineString","coordinates":[[-104.5095,38.6377],[-104.512,38.6337]]},"properties":{"source_id":"co_named_stream_040306","name":"Chico Creek","display_name":"Chico Creek","mapped_name":"Chico Creek","source_name":"Chico Creek","state":"CO","atlas_class":"named_natural_stream","huc8":"11020004","huc8Name":"Chico","huc8States":"CO","lineageKey":"statewideContext","lineage":"statewideContext","historic":"statewideContext","current":"statewideContext","recovery":"statewideContext","lineageLabel":"Statewide Colorado hydrography context","lineageBasin":"","lineageNote":"","atlas_context":"statewide_hydrography_context","confidence":"Statewide hydrography context outside current cutthroat lineage model","geometryStatus":"Named natural stream segment from statewide hydrography","note":"This named natural stream is included for statewide Colorado hydrography completeness and is outside the current cutthroat lineage assignment set.","source_segment_id":"co_named_stream_040306","water_id":"co_chico_creek_11020004_statewideContext_001","occurrence_id":"co_chico_creek_11020004_statewideContext_001","occurrence_number":"001","segment_count":24,"disambiguator":"Chico · Statewide Colorado hydrography context · occurrence 001","basin":"Chico","atlas_layer":"named_water_occurrence","object_role":"named_water_occurrence","historic_label":"Statewide Colorado hydrography context","current_label":"Statewide Colorado hydrography context","recovery_label":"Statewide Colorado hydrography context","tier":"tier2","minZoom":12,"confidence_public":"Statewide hydrography context outside current cutthroat lineage model","geometry_status_public":"Named natural stream occurrence from statewide hydrography","geometry_source_public":"Grouped public hydrography segments","trout_source_public":"Included for Colorado statewide hydrography completeness","public_notes":"Chico Creek is shown as statewide Colorado hydrography context outside the current cutthroat lineage assignment set."}},{"type":"Feature","geometry":{"type":"LineString","coordinates":[[-104.5072,38.625],[-104.5079,38.6241],[-104.5066,38.6236],[-104.5069,38.6219],[-104.513,38.6182],[-104.5145,38.6165],[-104.5145,38.6149]]},"properties":{"source_id":"co_named_stream_041443","name":"Chico Creek","display_name":"Chico Creek","mapped_name":"Chico Creek","source_name":"Chico Creek","state":"CO","atlas_class":"named_natural_stream","huc8":"11020004","huc8Name":"Chico","huc8States":"CO","lineageKey":"statewideContext","lineage":"statewideContext","historic":"statewideContext","current":"statewideContext","recovery":"statewideContext","lineageLabel":"Statewide Colorado hydrography context","lineageBasin":"","lineageNote":"","atlas_context":"statewide_hydrography_context","confidence":"Statewide hydrography context outside current cutthroat lineage model","geometryStatus":"Named natural stream segment from statewide hydrography","note":"This named natural stream is included for statewide Colorado hydrography completeness and is outside the current cutthroat lineage assignment set.","source_segment_id":"co_named_stream_041443","water_id":"co_chico_creek_11020004_statewideContext_001","occurrence_id":"co_chico_creek_11020004_statewideContext_001","occurrence_number":"001","segment_count":24,"disambiguator":"Chico · Statewide Colorado hydrography context · occurrence 001","basin":"Chico","atlas_layer":"named_water_occurrence","object_role":"named_water_occurrence","historic_label":"Statewide Colorado hydrography context","current_label":"Statewide Colorado hydrography context","recovery_label":"Statewide Colorado hydrography context","tier":"tier2","minZoom":12,"confidence_public":"Statewide hydrography context outside current cutthroat lineage model","geometry_status_public":"Named natural stream occurrence from statewide hydrography","geometry_source_public":"Grouped public hydrography segments","trout_source_public":"Included for Colorado statewide hydrography completeness","public_notes":"Chico Creek is shown as statewide Colorado hydrography context outside the current cutthroat lineage assignment set."}},{"type":"Feature","geometry":{"type":"LineString","coordinates":[[-104.5001,38.695],[-104.5,38.6943]]},"properties":{"source_id":"co_named_stream_043188","name":"Chico Creek","display_name":"Chico Creek","mapped_name":"Chico Creek","source_name":"Chico Creek","state":"CO","atlas_class":"named_natural_stream","huc8":"11020004","huc8Name":"Chico","huc8States":"CO","lineageKey":"statewideContext","lineage":"statewideContext","historic":"statewideContext","current":"statewideContext","recovery":"statewideContext","lineageLabel":"Statewide Colorado hydrography context","lineageBasin":"","lineageNote":"","atlas_context":"statewide_hydrography_context","confidence":"Statewide hydrography context outside current cutthroat lineage model","geometryStatus":"Named natural stream segment from statewide hydrography","note":"This named natural stream is included for statewide Colorado hydrography completeness and is outside the current cutthroat lineage assignment set.","source_segment_id":"co_named_stream_043188","water_id":"co_chico_creek_11020004_statewideContext_001","occurrence_id":"co_chico_creek_11020004_statewideContext_001","occurrence_number":"001","segment_count":24,"disambiguator":"Chico · Statewide Colorado hydrography context · occurrence 001","basin":"Chico","atlas_layer":"named_water_occurrence","object_role":"named_water_occurrence","historic_label":"Statewide Colorado hydrography context","current_label":"Statewide Colorado hydrography context","recovery_label":"Statewide Colorado hydrography context","tier":"tier2","minZoom":12,"confidence_public":"Statewide hydrography context outside current cutthroat lineage model","geometry_status_public":"Named natural stream occurrence from statewide hydrography","geometry_source_public":"Grouped public hydrography segments","trout_source_public":"Included for Colorado statewide hydrography completeness","public_notes":"Chico Creek is shown as statewide Colorado hydrography context outside the current cutthroat lineage assignment set."}},{"type":"Feature","geometry":{"type":"LineString","coordinates":[[-104.5209,38.5781],[-104.5215,38.577],[-104.5202,38.5742],[-104.5199,38.5685],[-104.5162,38.5657],[-104.518,38.5638],[-104.5187,38.5606]]},"properties":{"source_id":"co_named_stream_045276","name":"Chico Creek","display_name":"Chico Creek","mapped_name":"Chico Creek","source_name":"Chico Creek","state":"CO","atlas_class":"named_natural_stream","huc8":"11020004","huc8Name":"Chico","huc8States":"CO","lineageKey":"statewideContext","lineage":"statewideContext","historic":"statewideContext","current":"statewideContext","recovery":"statewideContext","lineageLabel":"Statewide Colorado hydrography context","lineageBasin":"","lineageNote":"","atlas_context":"statewide_hydrography_context","confidence":"Statewide hydrography context outside current cutthroat lineage model","geometryStatus":"Named natural stream segment from statewide hydrography","note":"This named natural stream is included for statewide Colorado hydrography completeness and is outside the current cutthroat lineage assignment set.","source_segment_id":"co_named_stream_045276","water_id":"co_chico_creek_11020004_statewideContext_001","occurrence_id":"co_chico_creek_11020004_statewideContext_001","occurrence_number":"001","segment_count":24,"disambiguator":"Chico · Statewide Colorado hydrography context · occurrence 001","basin":"Chico","atlas_layer":"named_water_occurrence","object_role":"named_water_occurrence","historic_label":"Statewide Colorado hydrography context","current_label":"Statewide Colorado hydrography context","recovery_label":"Statewide Colorado hydrography context","tier":"tier2","minZoom":12,"confidence_public":"Statewide hydrography context outside current cutthroat lineage model","geometry_status_public":"Named natural stream occurrence from statewide hydrography","geometry_source_public":"Grouped public hydrography segments","trout_source_public":"Included for Colorado statewide hydrography completeness","public_notes":"Chico Creek is shown as statewide Colorado hydrography context outside the current cutthroat lineage assignment set."}},{"type":"Feature","geometry":{"type":"LineString","coordinates":[[-104.5145,38.6149],[-104.5124,38.6124],[-104.5119,38.6077],[-104.5142,38.6009]]},"properties":{"source_id":"co_named_stream_045277","name":"Chico Creek","display_name":"Chico Creek","mapped_name":"Chico Creek","source_name":"Chico Creek","state":"CO","atlas_class":"named_natural_stream","huc8":"11020004","huc8Name":"Chico","huc8States":"CO","lineageKey":"statewideContext","lineage":"statewideContext","historic":"statewideContext","current":"statewideContext","recovery":"statewideContext","lineageLabel":"Statewide Colorado hydrography context","lineageBasin":"","lineageNote":"","atlas_context":"statewide_hydrography_context","confidence":"Statewide hydrography context outside current cutthroat lineage model","geometryStatus":"Named natural stream segment from statewide hydrography","note":"This named natural stream is included for statewide Colorado hydrography completeness and is outside the current cutthroat lineage assignment set.","source_segment_id":"co_named_stream_045277","water_id":"co_chico_creek_11020004_statewideContext_001","occurrence_id":"co_chico_creek_11020004_statewideContext_001","occurrence_number":"001","segment_count":24,"disambiguator":"Chico · Statewide Colorado hydrography context · occurrence 001","basin":"Chico","atlas_layer":"named_water_occurrence","object_role":"named_water_occurrence","historic_label":"Statewide Colorado hydrography context","current_label":"Statewide Colorado hydrography context","recovery_label":"Statewide Colorado hydrography context","tier":"tier2","minZoom":12,"confidence_public":"Statewide hydrography context outside current cutthroat lineage model","geometry_status_public":"Named natural stream occurrence from statewide hydrography","geometry_source_public":"Grouped public hydrography segments","trout_source_public":"Included for Colorado statewide hydrography completeness","public_notes":"Chico Creek is shown as statewide Colorado hydrography context outside the current cutthroat lineage assignment set."}},{"type":"Feature","geometry":{"type":"LineString","coordinates":[[-104.4989,38.665],[-104.5005,38.6625]]},"properties":{"source_id":"co_named_stream_046100","name":"Chico Creek","display_name":"Chico Creek","mapped_name":"Chico Creek","source_name":"Chico Creek","state":"CO","atlas_class":"named_natural_stream","huc8":"11020004","huc8Name":"Chico","huc8States":"CO","lineageKey":"statewideContext","lineage":"statewideContext","historic":"statewideContext","current":"statewideContext","recovery":"statewideContext","lineageLabel":"Statewide Colorado hydrography context","lineageBasin":"","lineageNote":"","atlas_context":"statewide_hydrography_context","confidence":"Statewide hydrography context outside current cutthroat lineage model","geometryStatus":"Named natural stream segment from statewide hydrography","note":"This named natural stream is included for statewide Colorado hydrography completeness and is outside the current cutthroat lineage assignment set.","source_segment_id":"co_named_stream_046100","water_id":"co_chico_creek_11020004_statewideContext_001","occurrence_id":"co_chico_creek_11020004_statewideContext_001","occurrence_number":"001","segment_count":24,"disambiguator":"Chico · Statewide Colorado hydrography context · occurrence 001","basin":"Chico","atlas_layer":"named_water_occurrence","object_role":"named_water_occurrence","historic_label":"Statewide Colorado hydrography context","current_label":"Statewide Colorado hydrography context","recovery_label":"Statewide Colorado hydrography context","tier":"tier2","minZoom":12,"confidence_public":"Statewide hydrography context outside current cutthroat lineage model","geometry_status_public":"Named natural stream occurrence from statewide hydrography","geometry_source_public":"Grouped public hydrography segments","trout_source_public":"Included for Colorado statewide hydrography completeness","public_notes":"Chico Creek is shown as statewide Colorado hydrography context outside the current cutthroat lineage assignment set."}},{"type":"Feature","geometry":{"type":"LineString","coordinates":[[-104.5227,38.7184],[-104.5235,38.7173],[-104.5211,38.7169],[-104.5212,38.7153],[-104.5185,38.7141],[-104.5194,38.7122],[-104.5187,38.7114]]},"properties":{"source_id":"co_named_stream_046294","name":"Chico Creek","display_name":"Chico Creek","mapped_name":"Chico Creek","source_name":"Chico Creek","state":"CO","atlas_class":"named_natural_stream","huc8":"11020004","huc8Name":"Chico","huc8States":"CO","lineageKey":"statewideContext","lineage":"statewideContext","historic":"statewideContext","current":"statewideContext","recovery":"statewideContext","lineageLabel":"Statewide Colorado hydrography context","lineageBasin":"","lineageNote":"","atlas_context":"statewide_hydrography_context","confidence":"Statewide hydrography context outside current cutthroat lineage model","geometryStatus":"Named natural stream segment from statewide hydrography","note":"This named natural stream is included for statewide Colorado hydrography completeness and is outside the current cutthroat lineage assignment set.","source_segment_id":"co_named_stream_046294","water_id":"co_chico_creek_11020004_statewideContext_001","occurrence_id":"co_chico_creek_11020004_statewideContext_001","occurrence_number":"001","segment_count":24,"disambiguator":"Chico · Statewide Colorado hydrography context · occurrence 001","basin":"Chico","atlas_layer":"named_water_occurrence","object_role":"named_water_occurrence","historic_label":"Statewide Colorado hydrography context","current_label":"Statewide Colorado hydrography context","recovery_label":"Statewide Colorado hydrography context","tier":"tier2","minZoom":12,"confidence_public":"Statewide hydrography context outside current cutthroat lineage model","geometry_status_public":"Named natural stream occurrence from statewide hydrography","geometry_source_public":"Grouped public hydrography segments","trout_source_public":"Included for Colorado statewide hydrography completeness","public_notes":"Chico Creek is shown as statewide Colorado hydrography context outside the current cutthroat lineage assignment set."}},{"type":"Feature","geometry":{"type":"LineString","coordinates":[[-104.6033,38.6363],[-104.6044,38.6354],[-104.6033,38.6343],[-104.6044,38.633],[-104.6066,38.632],[-104.6087,38.6323],[-104.6097,38.6313],[-104.6105,38.6255]]},"properties":{"source_id":"co_named_stream_029831","name":"Williams Creek","display_name":"Williams Creek","mapped_name":"Williams Creek","source_name":"Williams Creek","state":"CO","atlas_class":"named_natural_stream","huc8":"11020003","huc8Name":"Fountain","huc8States":"CO","lineageKey":"yellowfin","lineage":"yellowfin","historic":"yellowfin","current":"yellowfin","recovery":"recoveryWatch","lineageLabel":"Yellowfin / Arkansas headwaters historical form","lineageBasin":"Fountain / Bear Creek","lineageNote":"Includes Bear Creek as Arkansas watershed context; modern greenback refuge is a translocation story","atlas_context":"cutthroat_lineage_context","confidence":"Watershed-level lineage context; expert review recommended","geometryStatus":"Named natural stream segment from statewide hydrography","note":"This named natural stream falls within a HUC8 assigned to a cutthroat lineage context.","source_segment_id":"co_named_stream_029831","water_id":"co_williams_creek_11020003_yellowfin_001","occurrence_id":"co_williams_creek_11020003_yellowfin_001","occurrence_number":"001","segment_count":21,"disambiguator":"Fountain · Yellowfin / Arkansas headwaters historical form · occurrence 001","basin":"Fountain","atlas_layer":"named_water_occurrence","object_role":"named_water_occurrence","historic_label":"Yellowfin / Arkansas headwaters historical form","current_label":"Yellowfin / Arkansas headwaters historical form","recovery_label":"Recovery watch / review area","tier":"tier2","minZoom":12,"confidence_public":"Watershed-level lineage context; expert review recommended","geometry_status_public":"Named natural stream occurrence from statewide hydrography","geometry_source_public":"Grouped public hydrography segments","trout_source_public":"Compiled public recovery and lineage context; expert review recommended","public_notes":"Williams Creek is shown as a named-water occurrence within watershed-level cutthroat lineage context. This is not a precise biological boundary."}},{"type":"Feature","geometry":{"type":"LineString","coordinates":[[-104.6262,38.5664],[-104.6253,38.5658]]},"properties":{"source_id":"co_named_stream_030478","name":"Williams Creek","display_name":"Williams Creek","mapped_name":"Williams Creek","source_name":"Williams Creek","state":"CO","atlas_class":"named_natural_stream","huc8":"11020003","huc8Name":"Fountain","huc8States":"CO","lineageKey":"yellowfin","lineage":"yellowfin","historic":"yellowfin","current":"yellowfin","recovery":"recoveryWatch","lineageLabel":"Yellowfin / Arkansas headwaters historical form","lineageBasin":"Fountain / Bear Creek","lineageNote":"Includes Bear Creek as Arkansas watershed context; modern greenback refuge is a translocation story","atlas_context":"cutthroat_lineage_context","confidence":"Watershed-level lineage context; expert review recommended","geometryStatus":"Named natural stream segment from statewide hydrography","note":"This named natural stream falls within a HUC8 assigned to a cutthroat lineage context.","source_segment_id":"co_named_stream_030478","water_id":"co_williams_creek_11020003_yellowfin_001","occurrence_id":"co_williams_creek_11020003_yellowfin_001","occurrence_number":"001","segment_count":21,"disambiguator":"Fountain · Yellowfin / Arkansas headwaters historical form · occurrence 001","basin":"Fountain","atlas_layer":"named_water_occurrence","object_role":"named_water_occurrence","historic_label":"Yellowfin / Arkansas headwaters historical form","current_label":"Yellowfin / Arkansas headwaters historical form","recovery_label":"Recovery watch / review area","tier":"tier2","minZoom":12,"confidence_public":"Watershed-level lineage context; expert review recommended","geometry_status_public":"Named natural stream occurrence from statewide hydrography","geometry_source_public":"Grouped public hydrography segments","trout_source_public":"Compiled public recovery and lineage context; expert review recommended","public_notes":"Williams Creek is shown as a named-water occurrence within watershed-level cutthroat lineage context. This is not a precise biological boundary."}},{"type":"Feature","geometry":{"type":"LineString","coordinates":[[-104.6192,38.6168],[-104.6234,38.6114],[-104.6196,38.606],[-104.6241,38.6059],[-104.6242,38.604],[-104.625,38.6037]]},"properties":{"source_id":"co_named_stream_031340","name":"Williams Creek","display_name":"Williams Creek","mapped_name":"Williams Creek","source_name":"Williams Creek","state":"CO","atlas_class":"named_natural_stream","huc8":"11020003","huc8Name":"Fountain","huc8States":"CO","lineageKey":"yellowfin","lineage":"yellowfin","historic":"yellowfin","current":"yellowfin","recovery":"recoveryWatch","lineageLabel":"Yellowfin / Arkansas headwaters historical form","lineageBasin":"Fountain / Bear Creek","lineageNote":"Includes Bear Creek as Arkansas watershed context; modern greenback refuge is a translocation story","atlas_context":"cutthroat_lineage_context","confidence":"Watershed-level lineage context; expert review recommended","geometryStatus":"Named natural stream segment from statewide hydrography","note":"This named natural stream falls within a HUC8 assigned to a cutthroat lineage context.","source_segment_id":"co_named_stream_031340","water_id":"co_williams_creek_11020003_yellowfin_001","occurrence_id":"co_williams_creek_11020003_yellowfin_001","occurrence_number":"001","segment_count":21,"disambiguator":"Fountain · Yellowfin / Arkansas headwaters historical form · occurrence 001","basin":"Fountain","atlas_layer":"named_water_occurrence","object_role":"named_water_occurrence","historic_label":"Yellowfin / Arkansas headwaters historical form","current_label":"Yellowfin / Arkansas headwaters historical form","recovery_label":"Recovery watch / review area","tier":"tier2","minZoom":12,"confidence_public":"Watershed-level lineage context; expert review recommended","geometry_status_public":"Named natural stream occurrence from statewide hydrography","geometry_source_public":"Grouped public hydrography segments","trout_source_public":"Compiled public recovery and lineage context; expert review recommended","public_notes":"Williams Creek is shown as a named-water occurrence within watershed-level cutthroat lineage context. This is not a precise biological boundary."}},{"type":"Feature","geometry":{"type":"LineString","coordinates":[[-104.6331,38.5961],[-104.6356,38.5953],[-104.6329,38.5946],[-104.6369,38.5935]]},"properties":{"source_id":"co_named_stream_031501","name":"Williams Creek","display_name":"Williams Creek","mapped_name":"Williams Creek","source_name":"Williams Creek","state":"CO","atlas_class":"named_natural_stream","huc8":"11020003","huc8Name":"Fountain","huc8States":"CO","lineageKey":"yellowfin","lineage":"yellowfin","historic":"yellowfin","current":"yellowfin","recovery":"recoveryWatch","lineageLabel":"Yellowfin / Arkansas headwaters historical form","lineageBasin":"Fountain / Bear Creek","lineageNote":"Includes Bear Creek as Arkansas watershed context; modern greenback refuge is a translocation story","atlas_context":"cutthroat_lineage_context","confidence":"Watershed-level lineage context; expert review recommended","geometryStatus":"Named natural stream segment from statewide hydrography","note":"This named natural stream falls within a HUC8 assigned to a cutthroat lineage context.","source_segment_id":"co_named_stream_031501","water_id":"co_williams_creek_11020003_yellowfin_001","occurrence_id":"co_williams_creek_11020003_yellowfin_001","occurrence_number":"001","segment_count":21,"disambiguator":"Fountain · Yellowfin / Arkansas headwaters historical form · occurrence 001","basin":"Fountain","atlas_layer":"named_water_occurrence","object_role":"named_water_occurrence","historic_label":"Yellowfin / Arkansas headwaters historical form","current_label":"Yellowfin / Arkansas headwaters historical form","recovery_label":"Recovery watch / review area","tier":"tier2","minZoom":12,"confidence_public":"Watershed-level lineage context; expert review recommended","geometry_status_public":"Named natural stream occurrence from statewide hydrography","geometry_source_public":"Grouped public hydrography segments","trout_source_public":"Compiled public recovery and lineage context; expert review recommended","public_notes":"Williams Creek is shown as a named-water occurrence within watershed-level cutthroat lineage context. This is not a precise biological boundary."}},{"type":"Feature","geometry":{"type":"LineString","coordinates":[[-104.6173,38.6827],[-104.6196,38.6818],[-104.6207,38.6826],[-104.621,38.6798],[-104.6225,38.6779]]},"properties":{"source_id":"co_named_stream_032729","name":"Williams Creek","display_name":"Williams Creek","mapped_name":"Williams Creek","source_name":"Williams Creek","state":"CO","atlas_class":"named_natural_stream","huc8":"11020003","huc8Name":"Fountain","huc8States":"CO","lineageKey":"yellowfin","lineage":"yellowfin","historic":"yellowfin","current":"yellowfin","recovery":"recoveryWatch","lineageLabel":"Yellowfin / Arkansas headwaters historical form","lineageBasin":"Fountain / Bear Creek","lineageNote":"Includes Bear Creek as Arkansas watershed context; modern greenback refuge is a translocation story","atlas_context":"cutthroat_lineage_context","confidence":"Watershed-level lineage context; expert review recommended","geometryStatus":"Named natural stream segment from statewide hydrography","note":"This named natural stream falls within a HUC8 assigned to a cutthroat lineage context.","source_segment_id":"co_named_stream_032729","water_id":"co_williams_creek_11020003_yellowfin_001","occurrence_id":"co_williams_creek_11020003_yellowfin_001","occurrence_number":"001","segment_count":21,"disambiguator":"Fountain · Yellowfin / Arkansas headwaters historical form · occurrence 001","basin":"Fountain","atlas_layer":"named_water_occurrence","object_role":"named_water_occurrence","historic_label":"Yellowfin / Arkansas headwaters historical form","current_label":"Yellowfin / Arkansas headwaters historical form","recovery_label":"Recovery watch / review area","tier":"tier2","minZoom":12,"confidence_public":"Watershed-level lineage context; expert review recommended","geometry_status_public":"Named natural stream occurrence from statewide hydrography","geometry_source_public":"Grouped public hydrography segments","trout_source_public":"Compiled public recovery and lineage context; expert review recommended","public_notes":"Williams Creek is shown as a named-water occurrence within watershed-level cutthroat lineage context. This is not a precise biological boundary."}},{"type":"Feature","geometry":{"type":"LineString","coordinates":[[-104.6015,38.6908],[-104.6114,38.6883],[-104.6137,38.6863],[-104.613,38.6838],[-104.615,38.6821],[-104.6173,38.6827]]},"properties":{"source_id":"co_named_stream_032730","name":"Williams Creek","display_name":"Williams Creek","mapped_name":"Williams Creek","source_name":"Williams Creek","state":"CO","atlas_class":"named_natural_stream","huc8":"11020003","huc8Name":"Fountain","huc8States":"CO","lineageKey":"yellowfin","lineage":"yellowfin","historic":"yellowfin","current":"yellowfin","recovery":"recoveryWatch","lineageLabel":"Yellowfin / Arkansas headwaters historical form","lineageBasin":"Fountain / Bear Creek","lineageNote":"Includes Bear Creek as Arkansas watershed context; modern greenback refuge is a translocation story","atlas_context":"cutthroat_lineage_context","confidence":"Watershed-level lineage context; expert review recommended","geometryStatus":"Named natural stream segment from statewide hydrography","note":"This named natural stream falls within a HUC8 assigned to a cutthroat lineage context.","source_segment_id":"co_named_stream_032730","water_id":"co_williams_creek_11020003_yellowfin_001","occurrence_id":"co_williams_creek_11020003_yellowfin_001","occurrence_number":"001","segment_count":21,"disambiguator":"Fountain · Yellowfin / Arkansas headwaters historical form · occurrence 001","basin":"Fountain","atlas_layer":"named_water_occurrence","object_role":"named_water_occurrence","historic_label":"Yellowfin / Arkansas headwaters historical form","current_label":"Yellowfin / Arkansas headwaters historical form","recovery_label":"Recovery watch / review area","tier":"tier2","minZoom":12,"confidence_public":"Watershed-level lineage context; expert review recommended","geometry_status_public":"Named natural stream occurrence from statewide hydrography","geometry_source_public":"Grouped public hydrography segments","trout_source_public":"Compiled public recovery and lineage context; expert review recommended","public_notes":"Williams Creek is shown as a named-water occurrence within watershed-level cutthroat lineage context. This is not a precise biological boundary."}},{"type":"Feature","geometry":{"type":"LineString","coordinates":[[-104.6105,38.6255],[-104.61,38.6241],[-104.6114,38.6221],[-104.611,38.6192],[-104.6158,38.6167],[-104.6177,38.6171]]},"properties":{"source_id":"co_named_stream_033216","name":"Williams Creek","display_name":"Williams Creek","mapped_name":"Williams Creek","source_name":"Williams Creek","state":"CO","atlas_class":"named_natural_stream","huc8":"11020003","huc8Name":"Fountain","huc8States":"CO","lineageKey":"yellowfin","lineage":"yellowfin","historic":"yellowfin","current":"yellowfin","recovery":"recoveryWatch","lineageLabel":"Yellowfin / Arkansas headwaters historical form","lineageBasin":"Fountain / Bear Creek","lineageNote":"Includes Bear Creek as Arkansas watershed context; modern greenback refuge is a translocation story","atlas_context":"cutthroat_lineage_context","confidence":"Watershed-level lineage context; expert review recommended","geometryStatus":"Named natural stream segment from statewide hydrography","note":"This named natural stream falls within a HUC8 assigned to a cutthroat lineage context.","source_segment_id":"co_named_stream_033216","water_id":"co_williams_creek_11020003_yellowfin_001","occurrence_id":"co_williams_creek_11020003_yellowfin_001","occurrence_number":"001","segment_count":21,"disambiguator":"Fountain · Yellowfin / Arkansas headwaters historical form · occurrence 001","basin":"Fountain","atlas_layer":"named_water_occurrence","object_role":"named_water_occurrence","historic_label":"Yellowfin / Arkansas headwaters historical form","current_label":"Yellowfin / Arkansas headwaters historical form","recovery_label":"Recovery watch / review area","tier":"tier2","minZoom":12,"confidence_public":"Watershed-level lineage context; expert review recommended","geometry_status_public":"Named natural stream occurrence from statewide hydrography","geometry_source_public":"Grouped public hydrography segments","trout_source_public":"Compiled public recovery and lineage context; expert review recommended","public_notes":"Williams Creek is shown as a named-water occurrence within watershed-level cutthroat lineage context. This is not a precise biological boundary."}},{"type":"Feature","geometry":{"type":"LineString","coordinates":[[-104.5908,38.6976],[-104.5905,38.6931],[-104.5932,38.6922],[-104.5943,38.6891],[-104.5978,38.6877],[-104.599,38.69],[-104.6015,38.6908]]},"properties":{"source_id":"co_named_stream_037691","name":"Williams Creek","display_name":"Williams Creek","mapped_name":"Williams Creek","source_name":"Williams Creek","state":"CO","atlas_class":"named_natural_stream","huc8":"11020003","huc8Name":"Fountain","huc8States":"CO","lineageKey":"yellowfin","lineage":"yellowfin","historic":"yellowfin","current":"yellowfin","recovery":"recoveryWatch","lineageLabel":"Yellowfin / Arkansas headwaters historical form","lineageBasin":"Fountain / Bear Creek","lineageNote":"Includes Bear Creek as Arkansas watershed context; modern greenback refuge is a translocation story","atlas_context":"cutthroat_lineage_context","confidence":"Watershed-level lineage context; expert review recommended","geometryStatus":"Named natural stream segment from statewide hydrography","note":"This named natural stream falls within a HUC8 assigned to a cutthroat lineage context.","source_segment_id":"co_named_stream_037691","water_id":"co_williams_creek_11020003_yellowfin_001","occurrence_id":"co_williams_creek_11020003_yellowfin_001","occurrence_number":"001","segment_count":21,"disambiguator":"Fountain · Yellowfin / Arkansas headwaters historical form · occurrence 001","basin":"Fountain","atlas_layer":"named_water_occurrence","object_role":"named_water_occurrence","historic_label":"Yellowfin / Arkansas headwaters historical form","current_label":"Yellowfin / Arkansas headwaters historical form","recovery_label":"Recovery watch / review area","tier":"tier2","minZoom":12,"confidence_public":"Watershed-level lineage context; expert review recommended","geometry_status_public":"Named natural stream occurrence from statewide hydrography","geometry_source_public":"Grouped public hydrography segments","trout_source_public":"Compiled public recovery and lineage context; expert review recommended","public_notes":"Williams Creek is shown as a named-water occurrence within watershed-level cutthroat lineage context. This is not a precise biological boundary."}},{"type":"Feature","geometry":{"type":"LineString","coordinates":[[-104.6021,38.7122],[-104.602,38.7116]]},"properties":{"source_id":"co_named_stream_037692","name":"Williams Creek","display_name":"Williams Creek","mapped_name":"Williams Creek","source_name":"Williams Creek","state":"CO","atlas_class":"named_natural_stream","huc8":"11020003","huc8Name":"Fountain","huc8States":"CO","lineageKey":"yellowfin","lineage":"yellowfin","historic":"yellowfin","current":"yellowfin","recovery":"recoveryWatch","lineageLabel":"Yellowfin / Arkansas headwaters historical form","lineageBasin":"Fountain / Bear Creek","lineageNote":"Includes Bear Creek as Arkansas watershed context; modern greenback refuge is a translocation story","atlas_context":"cutthroat_lineage_context","confidence":"Watershed-level lineage context; expert review recommended","geometryStatus":"Named natural stream segment from statewide hydrography","note":"This named natural stream falls within a HUC8 assigned to a cutthroat lineage context.","source_segment_id":"co_named_stream_037692","water_id":"co_williams_creek_11020003_yellowfin_001","occurrence_id":"co_williams_creek_11020003_yellowfin_001","occurrence_number":"001","segment_count":21,"disambiguator":"Fountain · Yellowfin / Arkansas headwaters historical form · occurrence 001","basin":"Fountain","atlas_layer":"named_water_occurrence","object_role":"named_water_occurrence","historic_label":"Yellowfin / Arkansas headwaters historical form","current_label":"Yellowfin / Arkansas headwaters historical form","recovery_label":"Recovery watch / review area","tier":"tier2","minZoom":12,"confidence_public":"Watershed-level lineage context; expert review recommended","geometry_status_public":"Named natural stream occurrence from statewide hydrography","geometry_source_public":"Grouped public hydrography segments","trout_source_public":"Compiled public recovery and lineage context; expert review recommended","public_notes":"Williams Creek is shown as a named-water occurrence within watershed-level cutthroat lineage context. This is not a precise biological boundary."}},{"type":"Feature","geometry":{"type":"LineString","coordinates":[[-104.5994,38.7041],[-104.5993,38.704]]},"properties":{"source_id":"co_named_stream_038172","name":"Williams Creek","display_name":"Williams Creek","mapped_name":"Williams Creek","source_name":"Williams Creek","state":"CO","atlas_class":"named_natural_stream","huc8":"11020003","huc8Name":"Fountain","huc8States":"CO","lineageKey":"yellowfin","lineage":"yellowfin","historic":"yellowfin","current":"yellowfin","recovery":"recoveryWatch","lineageLabel":"Yellowfin / Arkansas headwaters historical form","lineageBasin":"Fountain / Bear Creek","lineageNote":"Includes Bear Creek as Arkansas watershed context; modern greenback refuge is a translocation story","atlas_context":"cutthroat_lineage_context","confidence":"Watershed-level lineage context; expert review recommended","geometryStatus":"Named natural stream segment from statewide hydrography","note":"This named natural stream falls within a HUC8 assigned to a cutthroat lineage context.","source_segment_id":"co_named_stream_038172","water_id":"co_williams_creek_11020003_yellowfin_001","occurrence_id":"co_williams_creek_11020003_yellowfin_001","occurrence_number":"001","segment_count":21,"disambiguator":"Fountain · Yellowfin / Arkansas headwaters historical form · occurrence 001","basin":"Fountain","atlas_layer":"named_water_occurrence","object_role":"named_water_occurrence","historic_label":"Yellowfin / Arkansas headwaters historical form","current_label":"Yellowfin / Arkansas headwaters historical form","recovery_label":"Recovery watch / review area","tier":"tier2","minZoom":12,"confidence_public":"Watershed-level lineage context; expert review recommended","geometry_status_public":"Named natural stream occurrence from statewide hydrography","geometry_source_public":"Grouped public hydrography segments","trout_source_public":"Compiled public recovery and lineage context; expert review recommended","public_notes":"Williams Creek is shown as a named-water occurrence within watershed-level cutthroat lineage context. This is not a precise biological boundary."}},{"type":"Feature","geometry":{"type":"LineString","coordinates":[[-104.6251,38.6593],[-104.625,38.6592]]},"properties":{"source_id":"co_named_stream_038210","name":"Williams Creek","display_name":"Williams Creek","mapped_name":"Williams Creek","source_name":"Williams Creek","state":"CO","atlas_class":"named_natural_stream","huc8":"11020003","huc8Name":"Fountain","huc8States":"CO","lineageKey":"yellowfin","lineage":"yellowfin","historic":"yellowfin","current":"yellowfin","recovery":"recoveryWatch","lineageLabel":"Yellowfin / Arkansas headwaters historical form","lineageBasin":"Fountain / Bear Creek","lineageNote":"Includes Bear Creek as Arkansas watershed context; modern greenback refuge is a translocation story","atlas_context":"cutthroat_lineage_context","confidence":"Watershed-level lineage context; expert review recommended","geometryStatus":"Named natural stream segment from statewide hydrography","note":"This named natural stream falls within a HUC8 assigned to a cutthroat lineage context.","source_segment_id":"co_named_stream_038210","water_id":"co_williams_creek_11020003_yellowfin_001","occurrence_id":"co_williams_creek_11020003_yellowfin_001","occurrence_number":"001","segment_count":21,"disambiguator":"Fountain · Yellowfin / Arkansas headwaters historical form · occurrence 001","basin":"Fountain","atlas_layer":"named_water_occurrence","object_role":"named_water_occurrence","historic_label":"Yellowfin / Arkansas headwaters historical form","current_label":"Yellowfin / Arkansas headwaters historical form","recovery_label":"Recovery watch / review area","tier":"tier2","minZoom":12,"confidence_public":"Watershed-level lineage context; expert review recommended","geometry_status_public":"Named natural stream occurrence from statewide hydrography","geometry_source_public":"Grouped public hydrography segments","trout_source_public":"Compiled public recovery and lineage context; expert review recommended","public_notes":"Williams Creek is shown as a named-water occurrence within watershed-level cutthroat lineage context. This is not a precise biological boundary."}},{"type":"Feature","geometry":{"type":"LineString","coordinates":[[-104.6314,38.572],[-104.6314,38.5706],[-104.6302,38.5714],[-104.6284,38.5704],[-104.6304,38.5677],[-104.6293,38.5669],[-104.6284,38.5672],[-104.6282,38.5658],[-104.6262,38.5664]]},"properties":{"source_id":"co_named_stream_038259","name":"Williams Creek","display_name":"Williams Creek","mapped_name":"Williams Creek","source_name":"Williams Creek","state":"CO","atlas_class":"named_natural_stream","huc8":"11020003","huc8Name":"Fountain","huc8States":"CO","lineageKey":"yellowfin","lineage":"yellowfin","historic":"yellowfin","current":"yellowfin","recovery":"recoveryWatch","lineageLabel":"Yellowfin / Arkansas headwaters historical form","lineageBasin":"Fountain / Bear Creek","lineageNote":"Includes Bear Creek as Arkansas watershed context; modern greenback refuge is a translocation story","atlas_context":"cutthroat_lineage_context","confidence":"Watershed-level lineage context; expert review recommended","geometryStatus":"Named natural stream segment from statewide hydrography","note":"This named natural stream falls within a HUC8 assigned to a cutthroat lineage context.","source_segment_id":"co_named_stream_038259","water_id":"co_williams_creek_11020003_yellowfin_001","occurrence_id":"co_williams_creek_11020003_yellowfin_001","occurrence_number":"001","segment_count":21,"disambiguator":"Fountain · Yellowfin / Arkansas headwaters historical form · occurrence 001","basin":"Fountain","atlas_layer":"named_water_occurrence","object_role":"named_water_occurrence","historic_label":"Yellowfin / Arkansas headwaters historical form","current_label":"Yellowfin / Arkansas headwaters historical form","recovery_label":"Recovery watch / review area","tier":"tier2","minZoom":12,"confidence_public":"Watershed-level lineage context; expert review recommended","geometry_status_public":"Named natural stream occurrence from statewide hydrography","geometry_source_public":"Grouped public hydrography segments","trout_source_public":"Compiled public recovery and lineage context; expert review recommended","public_notes":"Williams Creek is shown as a named-water occurrence within watershed-level cutthroat lineage context. This is not a precise biological boundary."}},{"type":"Feature","geometry":{"type":"LineString","coordinates":[[-104.6369,38.5935],[-104.6367,38.5934]]},"properties":{"source_id":"co_named_stream_038460","name":"Williams Creek","display_name":"Williams Creek","mapped_name":"Williams Creek","source_name":"Williams Creek","state":"CO","atlas_class":"named_natural_stream","huc8":"11020003","huc8Name":"Fountain","huc8States":"CO","lineageKey":"yellowfin","lineage":"yellowfin","historic":"yellowfin","current":"yellowfin","recovery":"recoveryWatch","lineageLabel":"Yellowfin / Arkansas headwaters historical form","lineageBasin":"Fountain / Bear Creek","lineageNote":"Includes Bear Creek as Arkansas watershed context; modern greenback refuge is a translocation story","atlas_context":"cutthroat_lineage_context","confidence":"Watershed-level lineage context; expert review recommended","geometryStatus":"Named natural stream segment from statewide hydrography","note":"This named natural stream falls within a HUC8 assigned to a cutthroat lineage context.","source_segment_id":"co_named_stream_038460","water_id":"co_williams_creek_11020003_yellowfin_001","occurrence_id":"co_williams_creek_11020003_yellowfin_001","occurrence_number":"001","segment_count":21,"disambiguator":"Fountain · Yellowfin / Arkansas headwaters historical form · occurrence 001","basin":"Fountain","atlas_layer":"named_water_occurrence","object_role":"named_water_occurrence","historic_label":"Yellowfin / Arkansas headwaters historical form","current_label":"Yellowfin / Arkansas headwaters historical form","recovery_label":"Recovery watch / review area","tier":"tier2","minZoom":12,"confidence_public":"Watershed-level lineage context; expert review recommended","geometry_status_public":"Named natural stream occurrence from statewide hydrography","geometry_source_public":"Grouped public hydrography segments","trout_source_public":"Compiled public recovery and lineage context; expert review recommended","public_notes":"Williams Creek is shown as a named-water occurrence within watershed-level cutthroat lineage context. This is not a precise biological boundary."}},{"type":"Feature","geometry":{"type":"LineString","coordinates":[[-104.6253,38.5658],[-104.6253,38.5648],[-104.6268,38.5648],[-104.6271,38.564],[-104.6264,38.563],[-104.6246,38.563]]},"properties":{"source_id":"co_named_stream_040067","name":"Williams Creek","display_name":"Williams Creek","mapped_name":"Williams Creek","source_name":"Williams Creek","state":"CO","atlas_class":"named_natural_stream","huc8":"11020003","huc8Name":"Fountain","huc8States":"CO","lineageKey":"yellowfin","lineage":"yellowfin","historic":"yellowfin","current":"yellowfin","recovery":"recoveryWatch","lineageLabel":"Yellowfin / Arkansas headwaters historical form","lineageBasin":"Fountain / Bear Creek","lineageNote":"Includes Bear Creek as Arkansas watershed context; modern greenback refuge is a translocation story","atlas_context":"cutthroat_lineage_context","confidence":"Watershed-level lineage context; expert review recommended","geometryStatus":"Named natural stream segment from statewide hydrography","note":"This named natural stream falls within a HUC8 assigned to a cutthroat lineage context.","source_segment_id":"co_named_stream_040067","water_id":"co_williams_creek_11020003_yellowfin_001","occurrence_id":"co_williams_creek_11020003_yellowfin_001","occurrence_number":"001","segment_count":21,"disambiguator":"Fountain · Yellowfin / Arkansas headwaters historical form · occurrence 001","basin":"Fountain","atlas_layer":"named_water_occurrence","object_role":"named_water_occurrence","historic_label":"Yellowfin / Arkansas headwaters historical form","current_label":"Yellowfin / Arkansas headwaters historical form","recovery_label":"Recovery watch / review area","tier":"tier2","minZoom":12,"confidence_public":"Watershed-level lineage context; expert review recommended","geometry_status_public":"Named natural stream occurrence from statewide hydrography","geometry_source_public":"Grouped public hydrography segments","trout_source_public":"Compiled public recovery and lineage context; expert review recommended","public_notes":"Williams Creek is shown as a named-water occurrence within watershed-level cutthroat lineage context. This is not a precise biological boundary."}},{"type":"Feature","geometry":{"type":"LineString","coordinates":[[-104.6177,38.6171],[-104.6192,38.6168]]},"properties":{"source_id":"co_named_stream_040134","name":"Williams Creek","display_name":"Williams Creek","mapped_name":"Williams Creek","source_name":"Williams Creek","state":"CO","atlas_class":"named_natural_stream","huc8":"11020003","huc8Name":"Fountain","huc8States":"CO","lineageKey":"yellowfin","lineage":"yellowfin","historic":"yellowfin","current":"yellowfin","recovery":"recoveryWatch","lineageLabel":"Yellowfin / Arkansas headwaters historical form","lineageBasin":"Fountain / Bear Creek","lineageNote":"Includes Bear Creek as Arkansas watershed context; modern greenback refuge is a translocation story","atlas_context":"cutthroat_lineage_context","confidence":"Watershed-level lineage context; expert review recommended","geometryStatus":"Named natural stream segment from statewide hydrography","note":"This named natural stream falls within a HUC8 assigned to a cutthroat lineage context.","source_segment_id":"co_named_stream_040134","water_id":"co_williams_creek_11020003_yellowfin_001","occurrence_id":"co_williams_creek_11020003_yellowfin_001","occurrence_number":"001","segment_count":21,"disambiguator":"Fountain · Yellowfin / Arkansas headwaters historical form · occurrence 001","basin":"Fountain","atlas_layer":"named_water_occurrence","object_role":"named_water_occurrence","historic_label":"Yellowfin / Arkansas headwaters historical form","current_label":"Yellowfin / Arkansas headwaters historical form","recovery_label":"Recovery watch / review area","tier":"tier2","minZoom":12,"confidence_public":"Watershed-level lineage context; expert review recommended","geometry_status_public":"Named natural stream occurrence from statewide hydrography","geometry_source_public":"Grouped public hydrography segments","trout_source_public":"Compiled public recovery and lineage context; expert review recommended","public_notes":"Williams Creek is shown as a named-water occurrence within watershed-level cutthroat lineage context. This is not a precise biological boundary."}},{"type":"Feature","geometry":{"type":"LineString","coordinates":[[-104.6366,38.5926],[-104.6362,38.5917],[-104.6351,38.5915],[-104.6356,38.5888],[-104.6338,38.5894],[-104.6345,38.5873],[-104.6314,38.5872],[-104.6313,38.5839]]},"properties":{"source_id":"co_named_stream_042683","name":"Williams Creek","display_name":"Williams Creek","mapped_name":"Williams Creek","source_name":"Williams Creek","state":"CO","atlas_class":"named_natural_stream","huc8":"11020003","huc8Name":"Fountain","huc8States":"CO","lineageKey":"yellowfin","lineage":"yellowfin","historic":"yellowfin","current":"yellowfin","recovery":"recoveryWatch","lineageLabel":"Yellowfin / Arkansas headwaters historical form","lineageBasin":"Fountain / Bear Creek","lineageNote":"Includes Bear Creek as Arkansas watershed context; modern greenback refuge is a translocation story","atlas_context":"cutthroat_lineage_context","confidence":"Watershed-level lineage context; expert review recommended","geometryStatus":"Named natural stream segment from statewide hydrography","note":"This named natural stream falls within a HUC8 assigned to a cutthroat lineage context.","source_segment_id":"co_named_stream_042683","water_id":"co_williams_creek_11020003_yellowfin_001","occurrence_id":"co_williams_creek_11020003_yellowfin_001","occurrence_number":"001","segment_count":21,"disambiguator":"Fountain · Yellowfin / Arkansas headwaters historical form · occurrence 001","basin":"Fountain","atlas_layer":"named_water_occurrence","object_role":"named_water_occurrence","historic_label":"Yellowfin / Arkansas headwaters historical form","current_label":"Yellowfin / Arkansas headwaters historical form","recovery_label":"Recovery watch / review area","tier":"tier2","minZoom":12,"confidence_public":"Watershed-level lineage context; expert review recommended","geometry_status_public":"Named natural stream occurrence from statewide hydrography","geometry_source_public":"Grouped public hydrography segments","trout_source_public":"Compiled public recovery and lineage context; expert review recommended","public_notes":"Williams Creek is shown as a named-water occurrence within watershed-level cutthroat lineage context. This is not a precise biological boundary."}},{"type":"Feature","geometry":{"type":"LineString","coordinates":[[-104.602,38.7116],[-104.5995,38.7097],[-104.6,38.7083],[-104.5985,38.7066],[-104.5994,38.7041]]},"properties":{"source_id":"co_named_stream_043005","name":"Williams Creek","display_name":"Williams Creek","mapped_name":"Williams Creek","source_name":"Williams Creek","state":"CO","atlas_class":"named_natural_stream","huc8":"11020003","huc8Name":"Fountain","huc8States":"CO","lineageKey":"yellowfin","lineage":"yellowfin","historic":"yellowfin","current":"yellowfin","recovery":"recoveryWatch","lineageLabel":"Yellowfin / Arkansas headwaters historical form","lineageBasin":"Fountain / Bear Creek","lineageNote":"Includes Bear Creek as Arkansas watershed context; modern greenback refuge is a translocation story","atlas_context":"cutthroat_lineage_context","confidence":"Watershed-level lineage context; expert review recommended","geometryStatus":"Named natural stream segment from statewide hydrography","note":"This named natural stream falls within a HUC8 assigned to a cutthroat lineage context.","source_segment_id":"co_named_stream_043005","water_id":"co_williams_creek_11020003_yellowfin_001","occurrence_id":"co_williams_creek_11020003_yellowfin_001","occurrence_number":"001","segment_count":21,"disambiguator":"Fountain · Yellowfin / Arkansas headwaters historical form · occurrence 001","basin":"Fountain","atlas_layer":"named_water_occurrence","object_role":"named_water_occurrence","historic_label":"Yellowfin / Arkansas headwaters historical form","current_label":"Yellowfin / Arkansas headwaters historical form","recovery_label":"Recovery watch / review area","tier":"tier2","minZoom":12,"confidence_public":"Watershed-level lineage context; expert review recommended","geometry_status_public":"Named natural stream occurrence from statewide hydrography","geometry_source_public":"Grouped public hydrography segments","trout_source_public":"Compiled public recovery and lineage context; expert review recommended","public_notes":"Williams Creek is shown as a named-water occurrence within watershed-level cutthroat lineage context. This is not a precise biological boundary."}},{"type":"Feature","geometry":{"type":"LineString","coordinates":[[-104.6225,38.6779],[-104.6209,38.6772],[-104.6208,38.6753],[-104.6229,38.675],[-104.6213,38.6725],[-104.6234,38.6691],[-104.6227,38.6659],[-104.6239,38.6652],[-104.6245,38.6661],[-104.6258,38.665],[-104.6249,38.6635],[-104.626,38.6624],[-104.6249,38.6623],[-104.6245,38.6611],[-104.6251,38.6593]]},"properties":{"source_id":"co_named_stream_049089","name":"Williams Creek","display_name":"Williams Creek","mapped_name":"Williams Creek","source_name":"Williams Creek","state":"CO","atlas_class":"named_natural_stream","huc8":"11020003","huc8Name":"Fountain","huc8States":"CO","lineageKey":"yellowfin","lineage":"yellowfin","historic":"yellowfin","current":"yellowfin","recovery":"recoveryWatch","lineageLabel":"Yellowfin / Arkansas headwaters historical form","lineageBasin":"Fountain / Bear Creek","lineageNote":"Includes Bear Creek as Arkansas watershed context; modern greenback refuge is a translocation story","atlas_context":"cutthroat_lineage_context","confidence":"Watershed-level lineage context; expert review recommended","geometryStatus":"Named natural stream segment from statewide hydrography","note":"This named natural stream falls within a HUC8 assigned to a cutthroat lineage context.","source_segment_id":"co_named_stream_049089","water_id":"co_williams_creek_11020003_yellowfin_001","occurrence_id":"co_williams_creek_11020003_yellowfin_001","occurrence_number":"001","segment_count":21,"disambiguator":"Fountain · Yellowfin / Arkansas headwaters historical form · occurrence 001","basin":"Fountain","atlas_layer":"named_water_occurrence","object_role":"named_water_occurrence","historic_label":"Yellowfin / Arkansas headwaters historical form","current_label":"Yellowfin / Arkansas headwaters historical form","recovery_label":"Recovery watch / review area","tier":"tier2","minZoom":12,"confidence_public":"Watershed-level lineage context; expert review recommended","geometry_status_public":"Named natural stream occurrence from statewide hydrography","geometry_source_public":"Grouped public hydrography segments","trout_source_public":"Compiled public recovery and lineage context; expert review recommended","public_notes":"Williams Creek is shown as a named-water occurrence within watershed-level cutthroat lineage context. This is not a precise biological boundary."}},{"type":"Feature","geometry":{"type":"LineString","coordinates":[[-104.6301,38.5781],[-104.6298,38.5764],[-104.6336,38.5764],[-104.6324,38.5737],[-104.6306,38.5727],[-104.6314,38.572]]},"properties":{"source_id":"co_named_stream_050064","name":"Williams Creek","display_name":"Williams Creek","mapped_name":"Williams Creek","source_name":"Williams Creek","state":"CO","atlas_class":"named_natural_stream","huc8":"11020003","huc8Name":"Fountain","huc8States":"CO","lineageKey":"yellowfin","lineage":"yellowfin","historic":"yellowfin","current":"yellowfin","recovery":"recoveryWatch","lineageLabel":"Yellowfin / Arkansas headwaters historical form","lineageBasin":"Fountain / Bear Creek","lineageNote":"Includes Bear Creek as Arkansas watershed context; modern greenback refuge is a translocation story","atlas_context":"cutthroat_lineage_context","confidence":"Watershed-level lineage context; expert review recommended","geometryStatus":"Named natural stream segment from statewide hydrography","note":"This named natural stream falls within a HUC8 assigned to a cutthroat lineage context.","source_segment_id":"co_named_stream_050064","water_id":"co_williams_creek_11020003_yellowfin_001","occurrence_id":"co_williams_creek_11020003_yellowfin_001","occurrence_number":"001","segment_count":21,"disambiguator":"Fountain · Yellowfin / Arkansas headwaters historical form · occurrence 001","basin":"Fountain","atlas_layer":"named_water_occurrence","object_role":"named_water_occurrence","historic_label":"Yellowfin / Arkansas headwaters historical form","current_label":"Yellowfin / Arkansas headwaters historical form","recovery_label":"Recovery watch / review area","tier":"tier2","minZoom":12,"confidence_public":"Watershed-level lineage context; expert review recommended","geometry_status_public":"Named natural stream occurrence from statewide hydrography","geometry_source_public":"Grouped public hydrography segments","trout_source_public":"Compiled public recovery and lineage context; expert review recommended","public_notes":"Williams Creek is shown as a named-water occurrence within watershed-level cutthroat lineage context. This is not a precise biological boundary."}},{"type":"Feature","geometry":{"type":"LineString","coordinates":[[-104.6313,38.5839],[-104.6295,38.5818],[-104.6301,38.5781]]},"properties":{"source_id":"co_named_stream_050106","name":"Williams Creek","display_name":"Williams Creek","mapped_name":"Williams Creek","source_name":"Williams Creek","state":"CO","atlas_class":"named_natural_stream","huc8":"11020003","huc8Name":"Fountain","huc8States":"CO","lineageKey":"yellowfin","lineage":"yellowfin","historic":"yellowfin","current":"yellowfin","recovery":"recoveryWatch","lineageLabel":"Yellowfin / Arkansas headwaters historical form","lineageBasin":"Fountain / Bear Creek","lineageNote":"Includes Bear Creek as Arkansas watershed context; modern greenback refuge is a translocation story","atlas_context":"cutthroat_lineage_context","confidence":"Watershed-level lineage context; expert review recommended","geometryStatus":"Named natural stream segment from statewide hydrography","note":"This named natural stream falls within a HUC8 assigned to a cutthroat lineage context.","source_segment_id":"co_named_stream_050106","water_id":"co_williams_creek_11020003_yellowfin_001","occurrence_id":"co_williams_creek_11020003_yellowfin_001","occurrence_number":"001","segment_count":21,"disambiguator":"Fountain · Yellowfin / Arkansas headwaters historical form · occurrence 001","basin":"Fountain","atlas_layer":"named_water_occurrence","object_role":"named_water_occurrence","historic_label":"Yellowfin / Arkansas headwaters historical form","current_label":"Yellowfin / Arkansas headwaters historical form","recovery_label":"Recovery watch / review area","tier":"tier2","minZoom":12,"confidence_public":"Watershed-level lineage context; expert review recommended","geometry_status_public":"Named natural stream occurrence from statewide hydrography","geometry_source_public":"Grouped public hydrography segments","trout_source_public":"Compiled public recovery and lineage context; expert review recommended","public_notes":"Williams Creek is shown as a named-water occurrence within watershed-level cutthroat lineage context. This is not a precise biological boundary."}},{"type":"Feature","geometry":{"type":"LineString","coordinates":[[-104.6256,38.6033],[-104.6274,38.6038],[-104.6284,38.6016],[-104.6268,38.6015],[-104.6279,38.6007],[-104.6294,38.6008],[-104.6301,38.5991],[-104.6292,38.5987],[-104.6316,38.5985],[-104.6322,38.5978],[-104.6314,38.5964],[-104.6331,38.5961]]},"properties":{"source_id":"co_named_stream_050444","name":"Williams Creek","display_name":"Williams Creek","mapped_name":"Williams Creek","source_name":"Williams Creek","state":"CO","atlas_class":"named_natural_stream","huc8":"11020003","huc8Name":"Fountain","huc8States":"CO","lineageKey":"yellowfin","lineage":"yellowfin","historic":"yellowfin","current":"yellowfin","recovery":"recoveryWatch","lineageLabel":"Yellowfin / Arkansas headwaters historical form","lineageBasin":"Fountain / Bear Creek","lineageNote":"Includes Bear Creek as Arkansas watershed context; modern greenback refuge is a translocation story","atlas_context":"cutthroat_lineage_context","confidence":"Watershed-level lineage context; expert review recommended","geometryStatus":"Named natural stream segment from statewide hydrography","note":"This named natural stream falls within a HUC8 assigned to a cutthroat lineage context.","source_segment_id":"co_named_stream_050444","water_id":"co_williams_creek_11020003_yellowfin_001","occurrence_id":"co_williams_creek_11020003_yellowfin_001","occurrence_number":"001","segment_count":21,"disambiguator":"Fountain · Yellowfin / Arkansas headwaters historical form · occurrence 001","basin":"Fountain","atlas_layer":"named_water_occurrence","object_role":"named_water_occurrence","historic_label":"Yellowfin / Arkansas headwaters historical form","current_label":"Yellowfin / Arkansas headwaters historical form","recovery_label":"Recovery watch / review area","tier":"tier2","minZoom":12,"confidence_public":"Watershed-level lineage context; expert review recommended","geometry_status_public":"Named natural stream occurrence from statewide hydrography","geometry_source_public":"Grouped public hydrography segments","trout_source_public":"Compiled public recovery and lineage context; expert review recommended","public_notes":"Williams Creek is shown as a named-water occurrence within watershed-level cutthroat lineage context. This is not a precise biological boundary."}}]}