{"type":"FeatureCollection","metadata":{"source":"C:\\ct-atlas-data\\processed\\geojson\\interpreted\\colorado_named_natural_streams_complete_v1.geojson","tier":"tier2","tile_size_degrees":0.25,"x":-409,"y":158,"bounds":{"west":-102.25,"south":39.5,"east":-102,"north":39.75}},"features":[{"type":"Feature","geometry":{"type":"LineString","coordinates":[[-102.2539,39.5737],[-102.2518,39.5744],[-102.2486,39.5772],[-102.249,39.5789],[-102.2482,39.5801],[-102.2432,39.581],[-102.241,39.5837],[-102.2386,39.5837],[-102.2371,39.5823]]},"properties":{"source_id":"co_named_stream_024985","name":"Landsman Creek","display_name":"Landsman Creek","mapped_name":"Landsman Creek","source_name":"Landsman Creek","state":"CO","atlas_class":"named_natural_stream","huc8":"10250003","huc8Name":"South Fork Republican","huc8States":"CO,KS,NE","lineageKey":"statewideContext","lineage":"statewideContext","historic":"statewideContext","current":"statewideContext","recovery":"statewideContext","lineageLabel":"Statewide Colorado hydrography context","lineageBasin":"","lineageNote":"","atlas_context":"statewide_hydrography_context","confidence":"Statewide hydrography context outside current cutthroat lineage model","geometryStatus":"Named natural stream segment from statewide hydrography","note":"This named natural stream is included for statewide Colorado hydrography completeness and is outside the current cutthroat lineage assignment set.","source_segment_id":"co_named_stream_024985","water_id":"co_landsman_creek_10250003_statewideContext_004","occurrence_id":"co_landsman_creek_10250003_statewideContext_004","occurrence_number":"004","segment_count":24,"disambiguator":"South Fork Republican · Statewide Colorado hydrography context · occurrence 004","basin":"South Fork Republican","atlas_layer":"named_water_occurrence","object_role":"named_water_occurrence","historic_label":"Statewide Colorado hydrography context","current_label":"Statewide Colorado hydrography context","recovery_label":"Statewide Colorado hydrography context","tier":"tier2","minZoom":12,"confidence_public":"Statewide hydrography context outside current cutthroat lineage model","geometry_status_public":"Named natural stream occurrence from statewide hydrography","geometry_source_public":"Grouped public hydrography segments","trout_source_public":"Included for Colorado statewide hydrography completeness","public_notes":"Landsman Creek is shown as statewide Colorado hydrography context outside the current cutthroat lineage assignment set."}},{"type":"Feature","geometry":{"type":"LineString","coordinates":[[-102.2371,39.585],[-102.2362,39.5877],[-102.2335,39.5881],[-102.2321,39.5892],[-102.2324,39.5906],[-102.2352,39.5932]]},"properties":{"source_id":"co_named_stream_025248","name":"Landsman Creek","display_name":"Landsman Creek","mapped_name":"Landsman Creek","source_name":"Landsman Creek","state":"CO","atlas_class":"named_natural_stream","huc8":"10250003","huc8Name":"South Fork Republican","huc8States":"CO,KS,NE","lineageKey":"statewideContext","lineage":"statewideContext","historic":"statewideContext","current":"statewideContext","recovery":"statewideContext","lineageLabel":"Statewide Colorado hydrography context","lineageBasin":"","lineageNote":"","atlas_context":"statewide_hydrography_context","confidence":"Statewide hydrography context outside current cutthroat lineage model","geometryStatus":"Named natural stream segment from statewide hydrography","note":"This named natural stream is included for statewide Colorado hydrography completeness and is outside the current cutthroat lineage assignment set.","source_segment_id":"co_named_stream_025248","water_id":"co_landsman_creek_10250003_statewideContext_004","occurrence_id":"co_landsman_creek_10250003_statewideContext_004","occurrence_number":"004","segment_count":24,"disambiguator":"South Fork Republican · Statewide Colorado hydrography context · occurrence 004","basin":"South Fork Republican","atlas_layer":"named_water_occurrence","object_role":"named_water_occurrence","historic_label":"Statewide Colorado hydrography context","current_label":"Statewide Colorado hydrography context","recovery_label":"Statewide Colorado hydrography context","tier":"tier2","minZoom":12,"confidence_public":"Statewide hydrography context outside current cutthroat lineage model","geometry_status_public":"Named natural stream occurrence from statewide hydrography","geometry_source_public":"Grouped public hydrography segments","trout_source_public":"Included for Colorado statewide hydrography completeness","public_notes":"Landsman Creek is shown as statewide Colorado hydrography context outside the current cutthroat lineage assignment set."}},{"type":"Feature","geometry":{"type":"LineString","coordinates":[[-102.2293,39.5985],[-102.2216,39.5993]]},"properties":{"source_id":"co_named_stream_025937","name":"Landsman Creek","display_name":"Landsman Creek","mapped_name":"Landsman Creek","source_name":"Landsman Creek","state":"CO","atlas_class":"named_natural_stream","huc8":"10250003","huc8Name":"South Fork Republican","huc8States":"CO,KS,NE","lineageKey":"statewideContext","lineage":"statewideContext","historic":"statewideContext","current":"statewideContext","recovery":"statewideContext","lineageLabel":"Statewide Colorado hydrography context","lineageBasin":"","lineageNote":"","atlas_context":"statewide_hydrography_context","confidence":"Statewide hydrography context outside current cutthroat lineage model","geometryStatus":"Named natural stream segment from statewide hydrography","note":"This named natural stream is included for statewide Colorado hydrography completeness and is outside the current cutthroat lineage assignment set.","source_segment_id":"co_named_stream_025937","water_id":"co_landsman_creek_10250003_statewideContext_004","occurrence_id":"co_landsman_creek_10250003_statewideContext_004","occurrence_number":"004","segment_count":24,"disambiguator":"South Fork Republican · Statewide Colorado hydrography context · occurrence 004","basin":"South Fork Republican","atlas_layer":"named_water_occurrence","object_role":"named_water_occurrence","historic_label":"Statewide Colorado hydrography context","current_label":"Statewide Colorado hydrography context","recovery_label":"Statewide Colorado hydrography context","tier":"tier2","minZoom":12,"confidence_public":"Statewide hydrography context outside current cutthroat lineage model","geometry_status_public":"Named natural stream occurrence from statewide hydrography","geometry_source_public":"Grouped public hydrography segments","trout_source_public":"Included for Colorado statewide hydrography completeness","public_notes":"Landsman Creek is shown as statewide Colorado hydrography context outside the current cutthroat lineage assignment set."}},{"type":"Feature","geometry":{"type":"LineString","coordinates":[[-102.2352,39.5932],[-102.2342,39.5938],[-102.2338,39.5968],[-102.2293,39.5985]]},"properties":{"source_id":"co_named_stream_026864","name":"Landsman Creek","display_name":"Landsman Creek","mapped_name":"Landsman Creek","source_name":"Landsman Creek","state":"CO","atlas_class":"named_natural_stream","huc8":"10250003","huc8Name":"South Fork Republican","huc8States":"CO,KS,NE","lineageKey":"statewideContext","lineage":"statewideContext","historic":"statewideContext","current":"statewideContext","recovery":"statewideContext","lineageLabel":"Statewide Colorado hydrography context","lineageBasin":"","lineageNote":"","atlas_context":"statewide_hydrography_context","confidence":"Statewide hydrography context outside current cutthroat lineage model","geometryStatus":"Named natural stream segment from statewide hydrography","note":"This named natural stream is included for statewide Colorado hydrography completeness and is outside the current cutthroat lineage assignment set.","source_segment_id":"co_named_stream_026864","water_id":"co_landsman_creek_10250003_statewideContext_004","occurrence_id":"co_landsman_creek_10250003_statewideContext_004","occurrence_number":"004","segment_count":24,"disambiguator":"South Fork Republican · Statewide Colorado hydrography context · occurrence 004","basin":"South Fork Republican","atlas_layer":"named_water_occurrence","object_role":"named_water_occurrence","historic_label":"Statewide Colorado hydrography context","current_label":"Statewide Colorado hydrography context","recovery_label":"Statewide Colorado hydrography context","tier":"tier2","minZoom":12,"confidence_public":"Statewide hydrography context outside current cutthroat lineage model","geometry_status_public":"Named natural stream occurrence from statewide hydrography","geometry_source_public":"Grouped public hydrography segments","trout_source_public":"Included for Colorado statewide hydrography completeness","public_notes":"Landsman Creek is shown as statewide Colorado hydrography context outside the current cutthroat lineage assignment set."}},{"type":"Feature","geometry":{"type":"LineString","coordinates":[[-102.2371,39.5823],[-102.2364,39.5834],[-102.2371,39.585]]},"properties":{"source_id":"co_named_stream_026873","name":"Landsman Creek","display_name":"Landsman Creek","mapped_name":"Landsman Creek","source_name":"Landsman Creek","state":"CO","atlas_class":"named_natural_stream","huc8":"10250003","huc8Name":"South Fork Republican","huc8States":"CO,KS,NE","lineageKey":"statewideContext","lineage":"statewideContext","historic":"statewideContext","current":"statewideContext","recovery":"statewideContext","lineageLabel":"Statewide Colorado hydrography context","lineageBasin":"","lineageNote":"","atlas_context":"statewide_hydrography_context","confidence":"Statewide hydrography context outside current cutthroat lineage model","geometryStatus":"Named natural stream segment from statewide hydrography","note":"This named natural stream is included for statewide Colorado hydrography completeness and is outside the current cutthroat lineage assignment set.","source_segment_id":"co_named_stream_026873","water_id":"co_landsman_creek_10250003_statewideContext_004","occurrence_id":"co_landsman_creek_10250003_statewideContext_004","occurrence_number":"004","segment_count":24,"disambiguator":"South Fork Republican · Statewide Colorado hydrography context · occurrence 004","basin":"South Fork Republican","atlas_layer":"named_water_occurrence","object_role":"named_water_occurrence","historic_label":"Statewide Colorado hydrography context","current_label":"Statewide Colorado hydrography context","recovery_label":"Statewide Colorado hydrography context","tier":"tier2","minZoom":12,"confidence_public":"Statewide hydrography context outside current cutthroat lineage model","geometry_status_public":"Named natural stream occurrence from statewide hydrography","geometry_source_public":"Grouped public hydrography segments","trout_source_public":"Included for Colorado statewide hydrography completeness","public_notes":"Landsman Creek is shown as statewide Colorado hydrography context outside the current cutthroat lineage assignment set."}},{"type":"Feature","geometry":{"type":"LineString","coordinates":[[-102.1124,39.4761],[-102.1088,39.4798],[-102.1071,39.4786],[-102.1059,39.4815],[-102.1038,39.4809],[-102.1026,39.4843],[-102.1003,39.4856],[-102.0988,39.485],[-102.0982,39.4877],[-102.0958,39.4895],[-102.0947,39.4893],[-102.0943,39.4913],[-102.088,39.4952],[-102.0875,39.4969],[-102.0864,39.4975],[-102.0865,39.4994],[-102.0832,39.5016],[-102.0839,39.5041],[-102.0827,39.5052],[-102.0761,39.5057],[-102.0743,39.5046],[-102.0727,39.5019],[-102.0666,39.5018]]},"properties":{"source_id":"co_named_stream_025227","name":"Little Beaver Creek","display_name":"Little Beaver Creek","mapped_name":"Little Beaver Creek","source_name":"Little Beaver Creek","state":"CO","atlas_class":"named_natural_stream","huc8":"10250013","huc8Name":"Little Beaver","huc8States":"CO,KS","lineageKey":"statewideContext","lineage":"statewideContext","historic":"statewideContext","current":"statewideContext","recovery":"statewideContext","lineageLabel":"Statewide Colorado hydrography context","lineageBasin":"","lineageNote":"","atlas_context":"statewide_hydrography_context","confidence":"Statewide hydrography context outside current cutthroat lineage model","geometryStatus":"Named natural stream segment from statewide hydrography","note":"This named natural stream is included for statewide Colorado hydrography completeness and is outside the current cutthroat lineage assignment set.","source_segment_id":"co_named_stream_025227","water_id":"co_little_beaver_creek_10250013_statewideContext_001","occurrence_id":"co_little_beaver_creek_10250013_statewideContext_001","occurrence_number":"001","segment_count":21,"disambiguator":"Little Beaver · Statewide Colorado hydrography context · occurrence 001","basin":"Little Beaver","atlas_layer":"named_water_occurrence","object_role":"named_water_occurrence","historic_label":"Statewide Colorado hydrography context","current_label":"Statewide Colorado hydrography context","recovery_label":"Statewide Colorado hydrography context","tier":"tier2","minZoom":12,"confidence_public":"Statewide hydrography context outside current cutthroat lineage model","geometry_status_public":"Named natural stream occurrence from statewide hydrography","geometry_source_public":"Grouped public hydrography segments","trout_source_public":"Included for Colorado statewide hydrography completeness","public_notes":"Little Beaver Creek is shown as statewide Colorado hydrography context outside the current cutthroat lineage assignment set."}},{"type":"Feature","geometry":{"type":"LineString","coordinates":[[-102.0666,39.5018],[-102.0652,39.5027],[-102.0596,39.503],[-102.0592,39.5047],[-102.0559,39.5048],[-102.0577,39.508],[-102.0566,39.5109],[-102.0543,39.511],[-102.0541,39.5121],[-102.0564,39.5145],[-102.0557,39.5152],[-102.056,39.5162],[-102.0539,39.5161],[-102.0536,39.518],[-102.0497,39.5218]]},"properties":{"source_id":"co_named_stream_026231","name":"Little Beaver Creek","display_name":"Little Beaver Creek","mapped_name":"Little Beaver Creek","source_name":"Little Beaver Creek","state":"CO","atlas_class":"named_natural_stream","huc8":"10250013","huc8Name":"Little Beaver","huc8States":"CO,KS","lineageKey":"statewideContext","lineage":"statewideContext","historic":"statewideContext","current":"statewideContext","recovery":"statewideContext","lineageLabel":"Statewide Colorado hydrography context","lineageBasin":"","lineageNote":"","atlas_context":"statewide_hydrography_context","confidence":"Statewide hydrography context outside current cutthroat lineage model","geometryStatus":"Named natural stream segment from statewide hydrography","note":"This named natural stream is included for statewide Colorado hydrography completeness and is outside the current cutthroat lineage assignment set.","source_segment_id":"co_named_stream_026231","water_id":"co_little_beaver_creek_10250013_statewideContext_001","occurrence_id":"co_little_beaver_creek_10250013_statewideContext_001","occurrence_number":"001","segment_count":21,"disambiguator":"Little Beaver · Statewide Colorado hydrography context · occurrence 001","basin":"Little Beaver","atlas_layer":"named_water_occurrence","object_role":"named_water_occurrence","historic_label":"Statewide Colorado hydrography context","current_label":"Statewide Colorado hydrography context","recovery_label":"Statewide Colorado hydrography context","tier":"tier2","minZoom":12,"confidence_public":"Statewide hydrography context outside current cutthroat lineage model","geometry_status_public":"Named natural stream occurrence from statewide hydrography","geometry_source_public":"Grouped public hydrography segments","trout_source_public":"Included for Colorado statewide hydrography completeness","public_notes":"Little Beaver Creek is shown as statewide Colorado hydrography context outside the current cutthroat lineage assignment set."}},{"type":"Feature","geometry":{"type":"LineString","coordinates":[[-102.1379,39.5084],[-102.1379,39.5099],[-102.1362,39.51],[-102.1313,39.5133]]},"properties":{"source_id":"co_named_stream_025051","name":"Beaver Creek","display_name":"Beaver Creek","mapped_name":"Beaver Creek","source_name":"Beaver Creek","state":"CO","atlas_class":"named_natural_stream","huc8":"10250003","huc8Name":"South Fork Republican","huc8States":"CO,KS,NE","lineageKey":"statewideContext","lineage":"statewideContext","historic":"statewideContext","current":"statewideContext","recovery":"statewideContext","lineageLabel":"Statewide Colorado hydrography context","lineageBasin":"","lineageNote":"","atlas_context":"statewide_hydrography_context","confidence":"Statewide hydrography context outside current cutthroat lineage model","geometryStatus":"Named natural stream segment from statewide hydrography","note":"This named natural stream is included for statewide Colorado hydrography completeness and is outside the current cutthroat lineage assignment set.","source_segment_id":"co_named_stream_025051","water_id":"co_beaver_creek_10250003_statewideContext_001","occurrence_id":"co_beaver_creek_10250003_statewideContext_001","occurrence_number":"001","segment_count":47,"disambiguator":"South Fork Republican · Statewide Colorado hydrography context · occurrence 001","basin":"South Fork Republican","atlas_layer":"named_water_occurrence","object_role":"named_water_occurrence","historic_label":"Statewide Colorado hydrography context","current_label":"Statewide Colorado hydrography context","recovery_label":"Statewide Colorado hydrography context","tier":"tier2","minZoom":12,"confidence_public":"Statewide hydrography context outside current cutthroat lineage model","geometry_status_public":"Named natural stream occurrence from statewide hydrography","geometry_source_public":"Grouped public hydrography segments","trout_source_public":"Included for Colorado statewide hydrography completeness","public_notes":"Beaver Creek is shown as statewide Colorado hydrography context outside the current cutthroat lineage assignment set."}},{"type":"Feature","geometry":{"type":"LineString","coordinates":[[-102.1204,39.5279],[-102.1221,39.5291],[-102.1202,39.5308],[-102.1194,39.5337],[-102.1171,39.5373]]},"properties":{"source_id":"co_named_stream_025468","name":"Beaver Creek","display_name":"Beaver Creek","mapped_name":"Beaver Creek","source_name":"Beaver Creek","state":"CO","atlas_class":"named_natural_stream","huc8":"10250003","huc8Name":"South Fork Republican","huc8States":"CO,KS,NE","lineageKey":"statewideContext","lineage":"statewideContext","historic":"statewideContext","current":"statewideContext","recovery":"statewideContext","lineageLabel":"Statewide Colorado hydrography context","lineageBasin":"","lineageNote":"","atlas_context":"statewide_hydrography_context","confidence":"Statewide hydrography context outside current cutthroat lineage model","geometryStatus":"Named natural stream segment from statewide hydrography","note":"This named natural stream is included for statewide Colorado hydrography completeness and is outside the current cutthroat lineage assignment set.","source_segment_id":"co_named_stream_025468","water_id":"co_beaver_creek_10250003_statewideContext_001","occurrence_id":"co_beaver_creek_10250003_statewideContext_001","occurrence_number":"001","segment_count":47,"disambiguator":"South Fork Republican · Statewide Colorado hydrography context · occurrence 001","basin":"South Fork Republican","atlas_layer":"named_water_occurrence","object_role":"named_water_occurrence","historic_label":"Statewide Colorado hydrography context","current_label":"Statewide Colorado hydrography context","recovery_label":"Statewide Colorado hydrography context","tier":"tier2","minZoom":12,"confidence_public":"Statewide hydrography context outside current cutthroat lineage model","geometry_status_public":"Named natural stream occurrence from statewide hydrography","geometry_source_public":"Grouped public hydrography segments","trout_source_public":"Included for Colorado statewide hydrography completeness","public_notes":"Beaver Creek is shown as statewide Colorado hydrography context outside the current cutthroat lineage assignment set."}},{"type":"Feature","geometry":{"type":"LineString","coordinates":[[-102.1157,39.5413],[-102.1158,39.5429]]},"properties":{"source_id":"co_named_stream_025645","name":"Beaver Creek","display_name":"Beaver Creek","mapped_name":"Beaver Creek","source_name":"Beaver Creek","state":"CO","atlas_class":"named_natural_stream","huc8":"10250003","huc8Name":"South Fork Republican","huc8States":"CO,KS,NE","lineageKey":"statewideContext","lineage":"statewideContext","historic":"statewideContext","current":"statewideContext","recovery":"statewideContext","lineageLabel":"Statewide Colorado hydrography context","lineageBasin":"","lineageNote":"","atlas_context":"statewide_hydrography_context","confidence":"Statewide hydrography context outside current cutthroat lineage model","geometryStatus":"Named natural stream segment from statewide hydrography","note":"This named natural stream is included for statewide Colorado hydrography completeness and is outside the current cutthroat lineage assignment set.","source_segment_id":"co_named_stream_025645","water_id":"co_beaver_creek_10250003_statewideContext_001","occurrence_id":"co_beaver_creek_10250003_statewideContext_001","occurrence_number":"001","segment_count":47,"disambiguator":"South Fork Republican · Statewide Colorado hydrography context · occurrence 001","basin":"South Fork Republican","atlas_layer":"named_water_occurrence","object_role":"named_water_occurrence","historic_label":"Statewide Colorado hydrography context","current_label":"Statewide Colorado hydrography context","recovery_label":"Statewide Colorado hydrography context","tier":"tier2","minZoom":12,"confidence_public":"Statewide hydrography context outside current cutthroat lineage model","geometry_status_public":"Named natural stream occurrence from statewide hydrography","geometry_source_public":"Grouped public hydrography segments","trout_source_public":"Included for Colorado statewide hydrography completeness","public_notes":"Beaver Creek is shown as statewide Colorado hydrography context outside the current cutthroat lineage assignment set."}},{"type":"Feature","geometry":{"type":"LineString","coordinates":[[-102.1372,39.5065],[-102.1379,39.5084]]},"properties":{"source_id":"co_named_stream_026398","name":"Beaver Creek","display_name":"Beaver Creek","mapped_name":"Beaver Creek","source_name":"Beaver Creek","state":"CO","atlas_class":"named_natural_stream","huc8":"10250003","huc8Name":"South Fork Republican","huc8States":"CO,KS,NE","lineageKey":"statewideContext","lineage":"statewideContext","historic":"statewideContext","current":"statewideContext","recovery":"statewideContext","lineageLabel":"Statewide Colorado hydrography context","lineageBasin":"","lineageNote":"","atlas_context":"statewide_hydrography_context","confidence":"Statewide hydrography context outside current cutthroat lineage model","geometryStatus":"Named natural stream segment from statewide hydrography","note":"This named natural stream is included for statewide Colorado hydrography completeness and is outside the current cutthroat lineage assignment set.","source_segment_id":"co_named_stream_026398","water_id":"co_beaver_creek_10250003_statewideContext_001","occurrence_id":"co_beaver_creek_10250003_statewideContext_001","occurrence_number":"001","segment_count":47,"disambiguator":"South Fork Republican · Statewide Colorado hydrography context · occurrence 001","basin":"South Fork Republican","atlas_layer":"named_water_occurrence","object_role":"named_water_occurrence","historic_label":"Statewide Colorado hydrography context","current_label":"Statewide Colorado hydrography context","recovery_label":"Statewide Colorado hydrography context","tier":"tier2","minZoom":12,"confidence_public":"Statewide hydrography context outside current cutthroat lineage model","geometry_status_public":"Named natural stream occurrence from statewide hydrography","geometry_source_public":"Grouped public hydrography segments","trout_source_public":"Included for Colorado statewide hydrography completeness","public_notes":"Beaver Creek is shown as statewide Colorado hydrography context outside the current cutthroat lineage assignment set."}},{"type":"Feature","geometry":{"type":"LineString","coordinates":[[-102.1312,39.5186],[-102.1326,39.521],[-102.1305,39.5215],[-102.13,39.5227],[-102.1237,39.5259]]},"properties":{"source_id":"co_named_stream_026444","name":"Beaver Creek","display_name":"Beaver Creek","mapped_name":"Beaver Creek","source_name":"Beaver Creek","state":"CO","atlas_class":"named_natural_stream","huc8":"10250003","huc8Name":"South Fork Republican","huc8States":"CO,KS,NE","lineageKey":"statewideContext","lineage":"statewideContext","historic":"statewideContext","current":"statewideContext","recovery":"statewideContext","lineageLabel":"Statewide Colorado hydrography context","lineageBasin":"","lineageNote":"","atlas_context":"statewide_hydrography_context","confidence":"Statewide hydrography context outside current cutthroat lineage model","geometryStatus":"Named natural stream segment from statewide hydrography","note":"This named natural stream is included for statewide Colorado hydrography completeness and is outside the current cutthroat lineage assignment set.","source_segment_id":"co_named_stream_026444","water_id":"co_beaver_creek_10250003_statewideContext_001","occurrence_id":"co_beaver_creek_10250003_statewideContext_001","occurrence_number":"001","segment_count":47,"disambiguator":"South Fork Republican · Statewide Colorado hydrography context · occurrence 001","basin":"South Fork Republican","atlas_layer":"named_water_occurrence","object_role":"named_water_occurrence","historic_label":"Statewide Colorado hydrography context","current_label":"Statewide Colorado hydrography context","recovery_label":"Statewide Colorado hydrography context","tier":"tier2","minZoom":12,"confidence_public":"Statewide hydrography context outside current cutthroat lineage model","geometry_status_public":"Named natural stream occurrence from statewide hydrography","geometry_source_public":"Grouped public hydrography segments","trout_source_public":"Included for Colorado statewide hydrography completeness","public_notes":"Beaver Creek is shown as statewide Colorado hydrography context outside the current cutthroat lineage assignment set."}},{"type":"Feature","geometry":{"type":"LineString","coordinates":[[-102.1313,39.5133],[-102.1289,39.5171],[-102.1312,39.5186]]},"properties":{"source_id":"co_named_stream_026694","name":"Beaver Creek","display_name":"Beaver Creek","mapped_name":"Beaver Creek","source_name":"Beaver Creek","state":"CO","atlas_class":"named_natural_stream","huc8":"10250003","huc8Name":"South Fork Republican","huc8States":"CO,KS,NE","lineageKey":"statewideContext","lineage":"statewideContext","historic":"statewideContext","current":"statewideContext","recovery":"statewideContext","lineageLabel":"Statewide Colorado hydrography context","lineageBasin":"","lineageNote":"","atlas_context":"statewide_hydrography_context","confidence":"Statewide hydrography context outside current cutthroat lineage model","geometryStatus":"Named natural stream segment from statewide hydrography","note":"This named natural stream is included for statewide Colorado hydrography completeness and is outside the current cutthroat lineage assignment set.","source_segment_id":"co_named_stream_026694","water_id":"co_beaver_creek_10250003_statewideContext_001","occurrence_id":"co_beaver_creek_10250003_statewideContext_001","occurrence_number":"001","segment_count":47,"disambiguator":"South Fork Republican · Statewide Colorado hydrography context · occurrence 001","basin":"South Fork Republican","atlas_layer":"named_water_occurrence","object_role":"named_water_occurrence","historic_label":"Statewide Colorado hydrography context","current_label":"Statewide Colorado hydrography context","recovery_label":"Statewide Colorado hydrography context","tier":"tier2","minZoom":12,"confidence_public":"Statewide hydrography context outside current cutthroat lineage model","geometry_status_public":"Named natural stream occurrence from statewide hydrography","geometry_source_public":"Grouped public hydrography segments","trout_source_public":"Included for Colorado statewide hydrography completeness","public_notes":"Beaver Creek is shown as statewide Colorado hydrography context outside the current cutthroat lineage assignment set."}},{"type":"Feature","geometry":{"type":"LineString","coordinates":[[-102.1171,39.5373],[-102.1157,39.5413]]},"properties":{"source_id":"co_named_stream_026695","name":"Beaver Creek","display_name":"Beaver Creek","mapped_name":"Beaver Creek","source_name":"Beaver Creek","state":"CO","atlas_class":"named_natural_stream","huc8":"10250003","huc8Name":"South Fork Republican","huc8States":"CO,KS,NE","lineageKey":"statewideContext","lineage":"statewideContext","historic":"statewideContext","current":"statewideContext","recovery":"statewideContext","lineageLabel":"Statewide Colorado hydrography context","lineageBasin":"","lineageNote":"","atlas_context":"statewide_hydrography_context","confidence":"Statewide hydrography context outside current cutthroat lineage model","geometryStatus":"Named natural stream segment from statewide hydrography","note":"This named natural stream is included for statewide Colorado hydrography completeness and is outside the current cutthroat lineage assignment set.","source_segment_id":"co_named_stream_026695","water_id":"co_beaver_creek_10250003_statewideContext_001","occurrence_id":"co_beaver_creek_10250003_statewideContext_001","occurrence_number":"001","segment_count":47,"disambiguator":"South Fork Republican · Statewide Colorado hydrography context · occurrence 001","basin":"South Fork Republican","atlas_layer":"named_water_occurrence","object_role":"named_water_occurrence","historic_label":"Statewide Colorado hydrography context","current_label":"Statewide Colorado hydrography context","recovery_label":"Statewide Colorado hydrography context","tier":"tier2","minZoom":12,"confidence_public":"Statewide hydrography context outside current cutthroat lineage model","geometry_status_public":"Named natural stream occurrence from statewide hydrography","geometry_source_public":"Grouped public hydrography segments","trout_source_public":"Included for Colorado statewide hydrography completeness","public_notes":"Beaver Creek is shown as statewide Colorado hydrography context outside the current cutthroat lineage assignment set."}},{"type":"Feature","geometry":{"type":"LineString","coordinates":[[-102.1425,39.4983],[-102.1454,39.4996],[-102.1462,39.5009],[-102.1435,39.5015],[-102.1407,39.5005],[-102.1415,39.5021],[-102.141,39.5029],[-102.1378,39.5035],[-102.1368,39.503],[-102.1372,39.5065]]},"properties":{"source_id":"co_named_stream_026879","name":"Beaver Creek","display_name":"Beaver Creek","mapped_name":"Beaver Creek","source_name":"Beaver Creek","state":"CO","atlas_class":"named_natural_stream","huc8":"10250003","huc8Name":"South Fork Republican","huc8States":"CO,KS,NE","lineageKey":"statewideContext","lineage":"statewideContext","historic":"statewideContext","current":"statewideContext","recovery":"statewideContext","lineageLabel":"Statewide Colorado hydrography context","lineageBasin":"","lineageNote":"","atlas_context":"statewide_hydrography_context","confidence":"Statewide hydrography context outside current cutthroat lineage model","geometryStatus":"Named natural stream segment from statewide hydrography","note":"This named natural stream is included for statewide Colorado hydrography completeness and is outside the current cutthroat lineage assignment set.","source_segment_id":"co_named_stream_026879","water_id":"co_beaver_creek_10250003_statewideContext_001","occurrence_id":"co_beaver_creek_10250003_statewideContext_001","occurrence_number":"001","segment_count":47,"disambiguator":"South Fork Republican · Statewide Colorado hydrography context · occurrence 001","basin":"South Fork Republican","atlas_layer":"named_water_occurrence","object_role":"named_water_occurrence","historic_label":"Statewide Colorado hydrography context","current_label":"Statewide Colorado hydrography context","recovery_label":"Statewide Colorado hydrography context","tier":"tier2","minZoom":12,"confidence_public":"Statewide hydrography context outside current cutthroat lineage model","geometry_status_public":"Named natural stream occurrence from statewide hydrography","geometry_source_public":"Grouped public hydrography segments","trout_source_public":"Included for Colorado statewide hydrography completeness","public_notes":"Beaver Creek is shown as statewide Colorado hydrography context outside the current cutthroat lineage assignment set."}},{"type":"Feature","geometry":{"type":"LineString","coordinates":[[-102.1963,39.5112],[-102.2002,39.5138],[-102.199,39.5179]]},"properties":{"source_id":"co_named_stream_025273","name":"Bonny Creek","display_name":"Bonny Creek","mapped_name":"Bonny Creek","source_name":"Bonny Creek","state":"CO","atlas_class":"named_natural_stream","huc8":"10250003","huc8Name":"South Fork Republican","huc8States":"CO,KS,NE","lineageKey":"statewideContext","lineage":"statewideContext","historic":"statewideContext","current":"statewideContext","recovery":"statewideContext","lineageLabel":"Statewide Colorado hydrography context","lineageBasin":"","lineageNote":"","atlas_context":"statewide_hydrography_context","confidence":"Statewide hydrography context outside current cutthroat lineage model","geometryStatus":"Named natural stream segment from statewide hydrography","note":"This named natural stream is included for statewide Colorado hydrography completeness and is outside the current cutthroat lineage assignment set.","source_segment_id":"co_named_stream_025273","water_id":"co_bonny_creek_10250003_statewideContext_001","occurrence_id":"co_bonny_creek_10250003_statewideContext_001","occurrence_number":"001","segment_count":62,"disambiguator":"South Fork Republican · Statewide Colorado hydrography context · occurrence 001","basin":"South Fork Republican","atlas_layer":"named_water_occurrence","object_role":"named_water_occurrence","historic_label":"Statewide Colorado hydrography context","current_label":"Statewide Colorado hydrography context","recovery_label":"Statewide Colorado hydrography context","tier":"tier2","minZoom":12,"confidence_public":"Statewide hydrography context outside current cutthroat lineage model","geometry_status_public":"Named natural stream occurrence from statewide hydrography","geometry_source_public":"Grouped public hydrography segments","trout_source_public":"Included for Colorado statewide hydrography completeness","public_notes":"Bonny Creek is shown as statewide Colorado hydrography context outside the current cutthroat lineage assignment set."}},{"type":"Feature","geometry":{"type":"LineString","coordinates":[[-102.1962,39.5235],[-102.1964,39.529],[-102.1952,39.5293],[-102.195,39.5277],[-102.1938,39.5275],[-102.1925,39.5305],[-102.1947,39.5317],[-102.1933,39.5332]]},"properties":{"source_id":"co_named_stream_025356","name":"Bonny Creek","display_name":"Bonny Creek","mapped_name":"Bonny Creek","source_name":"Bonny Creek","state":"CO","atlas_class":"named_natural_stream","huc8":"10250003","huc8Name":"South Fork Republican","huc8States":"CO,KS,NE","lineageKey":"statewideContext","lineage":"statewideContext","historic":"statewideContext","current":"statewideContext","recovery":"statewideContext","lineageLabel":"Statewide Colorado hydrography context","lineageBasin":"","lineageNote":"","atlas_context":"statewide_hydrography_context","confidence":"Statewide hydrography context outside current cutthroat lineage model","geometryStatus":"Named natural stream segment from statewide hydrography","note":"This named natural stream is included for statewide Colorado hydrography completeness and is outside the current cutthroat lineage assignment set.","source_segment_id":"co_named_stream_025356","water_id":"co_bonny_creek_10250003_statewideContext_001","occurrence_id":"co_bonny_creek_10250003_statewideContext_001","occurrence_number":"001","segment_count":62,"disambiguator":"South Fork Republican · Statewide Colorado hydrography context · occurrence 001","basin":"South Fork Republican","atlas_layer":"named_water_occurrence","object_role":"named_water_occurrence","historic_label":"Statewide Colorado hydrography context","current_label":"Statewide Colorado hydrography context","recovery_label":"Statewide Colorado hydrography context","tier":"tier2","minZoom":12,"confidence_public":"Statewide hydrography context outside current cutthroat lineage model","geometry_status_public":"Named natural stream occurrence from statewide hydrography","geometry_source_public":"Grouped public hydrography segments","trout_source_public":"Included for Colorado statewide hydrography completeness","public_notes":"Bonny Creek is shown as statewide Colorado hydrography context outside the current cutthroat lineage assignment set."}},{"type":"Feature","geometry":{"type":"LineString","coordinates":[[-102.1933,39.5332],[-102.1915,39.5334],[-102.1908,39.5355],[-102.1865,39.5337],[-102.1856,39.5345],[-102.1862,39.5373],[-102.183,39.5392]]},"properties":{"source_id":"co_named_stream_025922","name":"Bonny Creek","display_name":"Bonny Creek","mapped_name":"Bonny Creek","source_name":"Bonny Creek","state":"CO","atlas_class":"named_natural_stream","huc8":"10250003","huc8Name":"South Fork Republican","huc8States":"CO,KS,NE","lineageKey":"statewideContext","lineage":"statewideContext","historic":"statewideContext","current":"statewideContext","recovery":"statewideContext","lineageLabel":"Statewide Colorado hydrography context","lineageBasin":"","lineageNote":"","atlas_context":"statewide_hydrography_context","confidence":"Statewide hydrography context outside current cutthroat lineage model","geometryStatus":"Named natural stream segment from statewide hydrography","note":"This named natural stream is included for statewide Colorado hydrography completeness and is outside the current cutthroat lineage assignment set.","source_segment_id":"co_named_stream_025922","water_id":"co_bonny_creek_10250003_statewideContext_001","occurrence_id":"co_bonny_creek_10250003_statewideContext_001","occurrence_number":"001","segment_count":62,"disambiguator":"South Fork Republican · Statewide Colorado hydrography context · occurrence 001","basin":"South Fork Republican","atlas_layer":"named_water_occurrence","object_role":"named_water_occurrence","historic_label":"Statewide Colorado hydrography context","current_label":"Statewide Colorado hydrography context","recovery_label":"Statewide Colorado hydrography context","tier":"tier2","minZoom":12,"confidence_public":"Statewide hydrography context outside current cutthroat lineage model","geometry_status_public":"Named natural stream occurrence from statewide hydrography","geometry_source_public":"Grouped public hydrography segments","trout_source_public":"Included for Colorado statewide hydrography completeness","public_notes":"Bonny Creek is shown as statewide Colorado hydrography context outside the current cutthroat lineage assignment set."}},{"type":"Feature","geometry":{"type":"LineString","coordinates":[[-102.2043,39.5002],[-102.2039,39.5009]]},"properties":{"source_id":"co_named_stream_026014","name":"Bonny Creek","display_name":"Bonny Creek","mapped_name":"Bonny Creek","source_name":"Bonny Creek","state":"CO","atlas_class":"named_natural_stream","huc8":"10250003","huc8Name":"South Fork Republican","huc8States":"CO,KS,NE","lineageKey":"statewideContext","lineage":"statewideContext","historic":"statewideContext","current":"statewideContext","recovery":"statewideContext","lineageLabel":"Statewide Colorado hydrography context","lineageBasin":"","lineageNote":"","atlas_context":"statewide_hydrography_context","confidence":"Statewide hydrography context outside current cutthroat lineage model","geometryStatus":"Named natural stream segment from statewide hydrography","note":"This named natural stream is included for statewide Colorado hydrography completeness and is outside the current cutthroat lineage assignment set.","source_segment_id":"co_named_stream_026014","water_id":"co_bonny_creek_10250003_statewideContext_001","occurrence_id":"co_bonny_creek_10250003_statewideContext_001","occurrence_number":"001","segment_count":62,"disambiguator":"South Fork Republican · Statewide Colorado hydrography context · occurrence 001","basin":"South Fork Republican","atlas_layer":"named_water_occurrence","object_role":"named_water_occurrence","historic_label":"Statewide Colorado hydrography context","current_label":"Statewide Colorado hydrography context","recovery_label":"Statewide Colorado hydrography context","tier":"tier2","minZoom":12,"confidence_public":"Statewide hydrography context outside current cutthroat lineage model","geometry_status_public":"Named natural stream occurrence from statewide hydrography","geometry_source_public":"Grouped public hydrography segments","trout_source_public":"Included for Colorado statewide hydrography completeness","public_notes":"Bonny Creek is shown as statewide Colorado hydrography context outside the current cutthroat lineage assignment set."}},{"type":"Feature","geometry":{"type":"LineString","coordinates":[[-102.1997,39.5201],[-102.2008,39.5218],[-102.1995,39.5226]]},"properties":{"source_id":"co_named_stream_026124","name":"Bonny Creek","display_name":"Bonny Creek","mapped_name":"Bonny Creek","source_name":"Bonny Creek","state":"CO","atlas_class":"named_natural_stream","huc8":"10250003","huc8Name":"South Fork Republican","huc8States":"CO,KS,NE","lineageKey":"statewideContext","lineage":"statewideContext","historic":"statewideContext","current":"statewideContext","recovery":"statewideContext","lineageLabel":"Statewide Colorado hydrography context","lineageBasin":"","lineageNote":"","atlas_context":"statewide_hydrography_context","confidence":"Statewide hydrography context outside current cutthroat lineage model","geometryStatus":"Named natural stream segment from statewide hydrography","note":"This named natural stream is included for statewide Colorado hydrography completeness and is outside the current cutthroat lineage assignment set.","source_segment_id":"co_named_stream_026124","water_id":"co_bonny_creek_10250003_statewideContext_001","occurrence_id":"co_bonny_creek_10250003_statewideContext_001","occurrence_number":"001","segment_count":62,"disambiguator":"South Fork Republican · Statewide Colorado hydrography context · occurrence 001","basin":"South Fork Republican","atlas_layer":"named_water_occurrence","object_role":"named_water_occurrence","historic_label":"Statewide Colorado hydrography context","current_label":"Statewide Colorado hydrography context","recovery_label":"Statewide Colorado hydrography context","tier":"tier2","minZoom":12,"confidence_public":"Statewide hydrography context outside current cutthroat lineage model","geometry_status_public":"Named natural stream occurrence from statewide hydrography","geometry_source_public":"Grouped public hydrography segments","trout_source_public":"Included for Colorado statewide hydrography completeness","public_notes":"Bonny Creek is shown as statewide Colorado hydrography context outside the current cutthroat lineage assignment set."}},{"type":"Feature","geometry":{"type":"LineString","coordinates":[[-102.199,39.5179],[-102.1997,39.5201]]},"properties":{"source_id":"co_named_stream_026125","name":"Bonny Creek","display_name":"Bonny Creek","mapped_name":"Bonny Creek","source_name":"Bonny Creek","state":"CO","atlas_class":"named_natural_stream","huc8":"10250003","huc8Name":"South Fork Republican","huc8States":"CO,KS,NE","lineageKey":"statewideContext","lineage":"statewideContext","historic":"statewideContext","current":"statewideContext","recovery":"statewideContext","lineageLabel":"Statewide Colorado hydrography context","lineageBasin":"","lineageNote":"","atlas_context":"statewide_hydrography_context","confidence":"Statewide hydrography context outside current cutthroat lineage model","geometryStatus":"Named natural stream segment from statewide hydrography","note":"This named natural stream is included for statewide Colorado hydrography completeness and is outside the current cutthroat lineage assignment set.","source_segment_id":"co_named_stream_026125","water_id":"co_bonny_creek_10250003_statewideContext_001","occurrence_id":"co_bonny_creek_10250003_statewideContext_001","occurrence_number":"001","segment_count":62,"disambiguator":"South Fork Republican · Statewide Colorado hydrography context · occurrence 001","basin":"South Fork Republican","atlas_layer":"named_water_occurrence","object_role":"named_water_occurrence","historic_label":"Statewide Colorado hydrography context","current_label":"Statewide Colorado hydrography context","recovery_label":"Statewide Colorado hydrography context","tier":"tier2","minZoom":12,"confidence_public":"Statewide hydrography context outside current cutthroat lineage model","geometry_status_public":"Named natural stream occurrence from statewide hydrography","geometry_source_public":"Grouped public hydrography segments","trout_source_public":"Included for Colorado statewide hydrography completeness","public_notes":"Bonny Creek is shown as statewide Colorado hydrography context outside the current cutthroat lineage assignment set."}},{"type":"Feature","geometry":{"type":"LineString","coordinates":[[-102.1995,39.5226],[-102.1962,39.5235]]},"properties":{"source_id":"co_named_stream_026126","name":"Bonny Creek","display_name":"Bonny Creek","mapped_name":"Bonny Creek","source_name":"Bonny Creek","state":"CO","atlas_class":"named_natural_stream","huc8":"10250003","huc8Name":"South Fork Republican","huc8States":"CO,KS,NE","lineageKey":"statewideContext","lineage":"statewideContext","historic":"statewideContext","current":"statewideContext","recovery":"statewideContext","lineageLabel":"Statewide Colorado hydrography context","lineageBasin":"","lineageNote":"","atlas_context":"statewide_hydrography_context","confidence":"Statewide hydrography context outside current cutthroat lineage model","geometryStatus":"Named natural stream segment from statewide hydrography","note":"This named natural stream is included for statewide Colorado hydrography completeness and is outside the current cutthroat lineage assignment set.","source_segment_id":"co_named_stream_026126","water_id":"co_bonny_creek_10250003_statewideContext_001","occurrence_id":"co_bonny_creek_10250003_statewideContext_001","occurrence_number":"001","segment_count":62,"disambiguator":"South Fork Republican · Statewide Colorado hydrography context · occurrence 001","basin":"South Fork Republican","atlas_layer":"named_water_occurrence","object_role":"named_water_occurrence","historic_label":"Statewide Colorado hydrography context","current_label":"Statewide Colorado hydrography context","recovery_label":"Statewide Colorado hydrography context","tier":"tier2","minZoom":12,"confidence_public":"Statewide hydrography context outside current cutthroat lineage model","geometry_status_public":"Named natural stream occurrence from statewide hydrography","geometry_source_public":"Grouped public hydrography segments","trout_source_public":"Included for Colorado statewide hydrography completeness","public_notes":"Bonny Creek is shown as statewide Colorado hydrography context outside the current cutthroat lineage assignment set."}},{"type":"Feature","geometry":{"type":"LineString","coordinates":[[-102.174,39.5452],[-102.1722,39.5464],[-102.1694,39.5463],[-102.1667,39.5481]]},"properties":{"source_id":"co_named_stream_026293","name":"Bonny Creek","display_name":"Bonny Creek","mapped_name":"Bonny Creek","source_name":"Bonny Creek","state":"CO","atlas_class":"named_natural_stream","huc8":"10250003","huc8Name":"South Fork Republican","huc8States":"CO,KS,NE","lineageKey":"statewideContext","lineage":"statewideContext","historic":"statewideContext","current":"statewideContext","recovery":"statewideContext","lineageLabel":"Statewide Colorado hydrography context","lineageBasin":"","lineageNote":"","atlas_context":"statewide_hydrography_context","confidence":"Statewide hydrography context outside current cutthroat lineage model","geometryStatus":"Named natural stream segment from statewide hydrography","note":"This named natural stream is included for statewide Colorado hydrography completeness and is outside the current cutthroat lineage assignment set.","source_segment_id":"co_named_stream_026293","water_id":"co_bonny_creek_10250003_statewideContext_001","occurrence_id":"co_bonny_creek_10250003_statewideContext_001","occurrence_number":"001","segment_count":62,"disambiguator":"South Fork Republican · Statewide Colorado hydrography context · occurrence 001","basin":"South Fork Republican","atlas_layer":"named_water_occurrence","object_role":"named_water_occurrence","historic_label":"Statewide Colorado hydrography context","current_label":"Statewide Colorado hydrography context","recovery_label":"Statewide Colorado hydrography context","tier":"tier2","minZoom":12,"confidence_public":"Statewide hydrography context outside current cutthroat lineage model","geometry_status_public":"Named natural stream occurrence from statewide hydrography","geometry_source_public":"Grouped public hydrography segments","trout_source_public":"Included for Colorado statewide hydrography completeness","public_notes":"Bonny Creek is shown as statewide Colorado hydrography context outside the current cutthroat lineage assignment set."}},{"type":"Feature","geometry":{"type":"LineString","coordinates":[[-102.1656,39.5495],[-102.1589,39.548]]},"properties":{"source_id":"co_named_stream_026294","name":"Bonny Creek","display_name":"Bonny Creek","mapped_name":"Bonny Creek","source_name":"Bonny Creek","state":"CO","atlas_class":"named_natural_stream","huc8":"10250003","huc8Name":"South Fork Republican","huc8States":"CO,KS,NE","lineageKey":"statewideContext","lineage":"statewideContext","historic":"statewideContext","current":"statewideContext","recovery":"statewideContext","lineageLabel":"Statewide Colorado hydrography context","lineageBasin":"","lineageNote":"","atlas_context":"statewide_hydrography_context","confidence":"Statewide hydrography context outside current cutthroat lineage model","geometryStatus":"Named natural stream segment from statewide hydrography","note":"This named natural stream is included for statewide Colorado hydrography completeness and is outside the current cutthroat lineage assignment set.","source_segment_id":"co_named_stream_026294","water_id":"co_bonny_creek_10250003_statewideContext_001","occurrence_id":"co_bonny_creek_10250003_statewideContext_001","occurrence_number":"001","segment_count":62,"disambiguator":"South Fork Republican · Statewide Colorado hydrography context · occurrence 001","basin":"South Fork Republican","atlas_layer":"named_water_occurrence","object_role":"named_water_occurrence","historic_label":"Statewide Colorado hydrography context","current_label":"Statewide Colorado hydrography context","recovery_label":"Statewide Colorado hydrography context","tier":"tier2","minZoom":12,"confidence_public":"Statewide hydrography context outside current cutthroat lineage model","geometry_status_public":"Named natural stream occurrence from statewide hydrography","geometry_source_public":"Grouped public hydrography segments","trout_source_public":"Included for Colorado statewide hydrography completeness","public_notes":"Bonny Creek is shown as statewide Colorado hydrography context outside the current cutthroat lineage assignment set."}},{"type":"Feature","geometry":{"type":"LineString","coordinates":[[-102.1667,39.5481],[-102.1663,39.5494]]},"properties":{"source_id":"co_named_stream_026409","name":"Bonny Creek","display_name":"Bonny Creek","mapped_name":"Bonny Creek","source_name":"Bonny Creek","state":"CO","atlas_class":"named_natural_stream","huc8":"10250003","huc8Name":"South Fork Republican","huc8States":"CO,KS,NE","lineageKey":"statewideContext","lineage":"statewideContext","historic":"statewideContext","current":"statewideContext","recovery":"statewideContext","lineageLabel":"Statewide Colorado hydrography context","lineageBasin":"","lineageNote":"","atlas_context":"statewide_hydrography_context","confidence":"Statewide hydrography context outside current cutthroat lineage model","geometryStatus":"Named natural stream segment from statewide hydrography","note":"This named natural stream is included for statewide Colorado hydrography completeness and is outside the current cutthroat lineage assignment set.","source_segment_id":"co_named_stream_026409","water_id":"co_bonny_creek_10250003_statewideContext_001","occurrence_id":"co_bonny_creek_10250003_statewideContext_001","occurrence_number":"001","segment_count":62,"disambiguator":"South Fork Republican · Statewide Colorado hydrography context · occurrence 001","basin":"South Fork Republican","atlas_layer":"named_water_occurrence","object_role":"named_water_occurrence","historic_label":"Statewide Colorado hydrography context","current_label":"Statewide Colorado hydrography context","recovery_label":"Statewide Colorado hydrography context","tier":"tier2","minZoom":12,"confidence_public":"Statewide hydrography context outside current cutthroat lineage model","geometry_status_public":"Named natural stream occurrence from statewide hydrography","geometry_source_public":"Grouped public hydrography segments","trout_source_public":"Included for Colorado statewide hydrography completeness","public_notes":"Bonny Creek is shown as statewide Colorado hydrography context outside the current cutthroat lineage assignment set."}},{"type":"Feature","geometry":{"type":"LineString","coordinates":[[-102.2082,39.4991],[-102.2062,39.5014],[-102.2043,39.5002]]},"properties":{"source_id":"co_named_stream_026572","name":"Bonny Creek","display_name":"Bonny Creek","mapped_name":"Bonny Creek","source_name":"Bonny Creek","state":"CO","atlas_class":"named_natural_stream","huc8":"10250003","huc8Name":"South Fork Republican","huc8States":"CO,KS,NE","lineageKey":"statewideContext","lineage":"statewideContext","historic":"statewideContext","current":"statewideContext","recovery":"statewideContext","lineageLabel":"Statewide Colorado hydrography context","lineageBasin":"","lineageNote":"","atlas_context":"statewide_hydrography_context","confidence":"Statewide hydrography context outside current cutthroat lineage model","geometryStatus":"Named natural stream segment from statewide hydrography","note":"This named natural stream is included for statewide Colorado hydrography completeness and is outside the current cutthroat lineage assignment set.","source_segment_id":"co_named_stream_026572","water_id":"co_bonny_creek_10250003_statewideContext_001","occurrence_id":"co_bonny_creek_10250003_statewideContext_001","occurrence_number":"001","segment_count":62,"disambiguator":"South Fork Republican · Statewide Colorado hydrography context · occurrence 001","basin":"South Fork Republican","atlas_layer":"named_water_occurrence","object_role":"named_water_occurrence","historic_label":"Statewide Colorado hydrography context","current_label":"Statewide Colorado hydrography context","recovery_label":"Statewide Colorado hydrography context","tier":"tier2","minZoom":12,"confidence_public":"Statewide hydrography context outside current cutthroat lineage model","geometry_status_public":"Named natural stream occurrence from statewide hydrography","geometry_source_public":"Grouped public hydrography segments","trout_source_public":"Included for Colorado statewide hydrography completeness","public_notes":"Bonny Creek is shown as statewide Colorado hydrography context outside the current cutthroat lineage assignment set."}},{"type":"Feature","geometry":{"type":"LineString","coordinates":[[-102.2039,39.5009],[-102.2052,39.5019],[-102.2046,39.503],[-102.2021,39.5024],[-102.2006,39.5032]]},"properties":{"source_id":"co_named_stream_026693","name":"Bonny Creek","display_name":"Bonny Creek","mapped_name":"Bonny Creek","source_name":"Bonny Creek","state":"CO","atlas_class":"named_natural_stream","huc8":"10250003","huc8Name":"South Fork Republican","huc8States":"CO,KS,NE","lineageKey":"statewideContext","lineage":"statewideContext","historic":"statewideContext","current":"statewideContext","recovery":"statewideContext","lineageLabel":"Statewide Colorado hydrography context","lineageBasin":"","lineageNote":"","atlas_context":"statewide_hydrography_context","confidence":"Statewide hydrography context outside current cutthroat lineage model","geometryStatus":"Named natural stream segment from statewide hydrography","note":"This named natural stream is included for statewide Colorado hydrography completeness and is outside the current cutthroat lineage assignment set.","source_segment_id":"co_named_stream_026693","water_id":"co_bonny_creek_10250003_statewideContext_001","occurrence_id":"co_bonny_creek_10250003_statewideContext_001","occurrence_number":"001","segment_count":62,"disambiguator":"South Fork Republican · Statewide Colorado hydrography context · occurrence 001","basin":"South Fork Republican","atlas_layer":"named_water_occurrence","object_role":"named_water_occurrence","historic_label":"Statewide Colorado hydrography context","current_label":"Statewide Colorado hydrography context","recovery_label":"Statewide Colorado hydrography context","tier":"tier2","minZoom":12,"confidence_public":"Statewide hydrography context outside current cutthroat lineage model","geometry_status_public":"Named natural stream occurrence from statewide hydrography","geometry_source_public":"Grouped public hydrography segments","trout_source_public":"Included for Colorado statewide hydrography completeness","public_notes":"Bonny Creek is shown as statewide Colorado hydrography context outside the current cutthroat lineage assignment set."}},{"type":"Feature","geometry":{"type":"LineString","coordinates":[[-102.2006,39.5032],[-102.2038,39.5079],[-102.2014,39.5083],[-102.2015,39.5104],[-102.1998,39.5096],[-102.1988,39.511],[-102.1963,39.5112]]},"properties":{"source_id":"co_named_stream_026705","name":"Bonny Creek","display_name":"Bonny Creek","mapped_name":"Bonny Creek","source_name":"Bonny Creek","state":"CO","atlas_class":"named_natural_stream","huc8":"10250003","huc8Name":"South Fork Republican","huc8States":"CO,KS,NE","lineageKey":"statewideContext","lineage":"statewideContext","historic":"statewideContext","current":"statewideContext","recovery":"statewideContext","lineageLabel":"Statewide Colorado hydrography context","lineageBasin":"","lineageNote":"","atlas_context":"statewide_hydrography_context","confidence":"Statewide hydrography context outside current cutthroat lineage model","geometryStatus":"Named natural stream segment from statewide hydrography","note":"This named natural stream is included for statewide Colorado hydrography completeness and is outside the current cutthroat lineage assignment set.","source_segment_id":"co_named_stream_026705","water_id":"co_bonny_creek_10250003_statewideContext_001","occurrence_id":"co_bonny_creek_10250003_statewideContext_001","occurrence_number":"001","segment_count":62,"disambiguator":"South Fork Republican · Statewide Colorado hydrography context · occurrence 001","basin":"South Fork Republican","atlas_layer":"named_water_occurrence","object_role":"named_water_occurrence","historic_label":"Statewide Colorado hydrography context","current_label":"Statewide Colorado hydrography context","recovery_label":"Statewide Colorado hydrography context","tier":"tier2","minZoom":12,"confidence_public":"Statewide hydrography context outside current cutthroat lineage model","geometry_status_public":"Named natural stream occurrence from statewide hydrography","geometry_source_public":"Grouped public hydrography segments","trout_source_public":"Included for Colorado statewide hydrography completeness","public_notes":"Bonny Creek is shown as statewide Colorado hydrography context outside the current cutthroat lineage assignment set."}},{"type":"Feature","geometry":{"type":"LineString","coordinates":[[-102.1808,39.5389],[-102.1793,39.5389],[-102.1774,39.5438],[-102.174,39.5452]]},"properties":{"source_id":"co_named_stream_026765","name":"Bonny Creek","display_name":"Bonny Creek","mapped_name":"Bonny Creek","source_name":"Bonny Creek","state":"CO","atlas_class":"named_natural_stream","huc8":"10250003","huc8Name":"South Fork Republican","huc8States":"CO,KS,NE","lineageKey":"statewideContext","lineage":"statewideContext","historic":"statewideContext","current":"statewideContext","recovery":"statewideContext","lineageLabel":"Statewide Colorado hydrography context","lineageBasin":"","lineageNote":"","atlas_context":"statewide_hydrography_context","confidence":"Statewide hydrography context outside current cutthroat lineage model","geometryStatus":"Named natural stream segment from statewide hydrography","note":"This named natural stream is included for statewide Colorado hydrography completeness and is outside the current cutthroat lineage assignment set.","source_segment_id":"co_named_stream_026765","water_id":"co_bonny_creek_10250003_statewideContext_001","occurrence_id":"co_bonny_creek_10250003_statewideContext_001","occurrence_number":"001","segment_count":62,"disambiguator":"South Fork Republican · Statewide Colorado hydrography context · occurrence 001","basin":"South Fork Republican","atlas_layer":"named_water_occurrence","object_role":"named_water_occurrence","historic_label":"Statewide Colorado hydrography context","current_label":"Statewide Colorado hydrography context","recovery_label":"Statewide Colorado hydrography context","tier":"tier2","minZoom":12,"confidence_public":"Statewide hydrography context outside current cutthroat lineage model","geometry_status_public":"Named natural stream occurrence from statewide hydrography","geometry_source_public":"Grouped public hydrography segments","trout_source_public":"Included for Colorado statewide hydrography completeness","public_notes":"Bonny Creek is shown as statewide Colorado hydrography context outside the current cutthroat lineage assignment set."}},{"type":"Feature","geometry":{"type":"LineString","coordinates":[[-102.1663,39.5494],[-102.1656,39.5495]]},"properties":{"source_id":"co_named_stream_026839","name":"Bonny Creek","display_name":"Bonny Creek","mapped_name":"Bonny Creek","source_name":"Bonny Creek","state":"CO","atlas_class":"named_natural_stream","huc8":"10250003","huc8Name":"South Fork Republican","huc8States":"CO,KS,NE","lineageKey":"statewideContext","lineage":"statewideContext","historic":"statewideContext","current":"statewideContext","recovery":"statewideContext","lineageLabel":"Statewide Colorado hydrography context","lineageBasin":"","lineageNote":"","atlas_context":"statewide_hydrography_context","confidence":"Statewide hydrography context outside current cutthroat lineage model","geometryStatus":"Named natural stream segment from statewide hydrography","note":"This named natural stream is included for statewide Colorado hydrography completeness and is outside the current cutthroat lineage assignment set.","source_segment_id":"co_named_stream_026839","water_id":"co_bonny_creek_10250003_statewideContext_001","occurrence_id":"co_bonny_creek_10250003_statewideContext_001","occurrence_number":"001","segment_count":62,"disambiguator":"South Fork Republican · Statewide Colorado hydrography context · occurrence 001","basin":"South Fork Republican","atlas_layer":"named_water_occurrence","object_role":"named_water_occurrence","historic_label":"Statewide Colorado hydrography context","current_label":"Statewide Colorado hydrography context","recovery_label":"Statewide Colorado hydrography context","tier":"tier2","minZoom":12,"confidence_public":"Statewide hydrography context outside current cutthroat lineage model","geometry_status_public":"Named natural stream occurrence from statewide hydrography","geometry_source_public":"Grouped public hydrography segments","trout_source_public":"Included for Colorado statewide hydrography completeness","public_notes":"Bonny Creek is shown as statewide Colorado hydrography context outside the current cutthroat lineage assignment set."}}]}