{"type":"FeatureCollection","metadata":{"description":"Colorado curated named waters occurrence v2 preview tile","source":"C:\\ct-atlas-data\\processed\\geojson\\interpreted\\colorado_curated_named_waters_occurrence_v2_preview.geojson","tileSizeDeg":0.25,"bounds":{"west":-106,"east":-105.75,"south":39,"north":39.25},"featureCount":32},"features":[{"type":"Feature","geometry":{"type":"LineString","coordinates":[[-106.0067,39.07743],[-106.0063,39.07704],[-106.00656,39.07613],[-106.00379,39.07625],[-106.00363,39.07667],[-106.00318,39.07624],[-106.00289,39.07674],[-106.00198,39.07627],[-106.00031,39.07695],[-105.99786,39.07672],[-105.99677,39.07735],[-105.99619,39.07675],[-105.9959,39.07734],[-105.99524,39.07691]]},"properties":{"huc8":"10190001","huc8Name":"South Platte Headwaters","historic":"greenback","current":"introduced","recovery":"recoveryWatch","lineageKey":"greenback","lineageLabel":"Greenback / South Platte lineage","basin":"South Platte Headwaters","note":"Generalized historical greenback context; not exact population mapping","state":"CO","confidence":"HUC8 drainage context / generalized","geometryStatus":"Named NHD stream intersecting assigned HUC8","troutSource":"HUC8 lineage assignment v1 / review needed","sourceName":"South Fork South Platte River","name":"South Fork South Platte River","source_id":"127815038","length_km":1.59803735,"FType":460,"FCode":46006,"atlas_class":"streamriver","water_id":"co_10190001_greenback_south_fork_south_platte_river_001","occurrence_id":"co_10190001_greenback_south_fork_south_platte_river_001","occurrence_number":"001","display_name":"South Fork South Platte River","mapped_name":"South Fork South Platte River","source_name":"South Fork South Platte River","disambiguator":"Greenback cutthroat historic context · HUC8 10190001 · occurrence 001","atlas_layer":"curated_named_water_occurrence","object_role":"interactive_named_water","lineage":"greenback","historic_label":"Greenback cutthroat historic context","current_label":"Greenback cutthroat historic context","recovery_label":"Recovery watch / review area","confidence_public":"Generalized public map / needs expert review","confidence_internal":"Occurrence-cluster preview; 111 source segments","geometry_status_public":"Generalized named-water occurrence","geometry_status_internal":"Grouped by display name, HUC8, lineage, and spatial cluster","geometry_source_public":"Grouped public hydrography segments","geometry_source_internal":"Colorado full interpreted natural stream context — occurrence v2 preview","trout_source_public":"Compiled public recovery and lineage context; expert review recommended","trout_source_internal":"HUC8 lineage assignment v1 / review needed","public_notes":"South Fork South Platte River is shown as a generalized public-map named-water occurrence for Greenback cutthroat historic context. This object is separated from other same-named waters using HUC8, lineage, and local spatial clustering. Linework is grouped from public hydrography and should be treated as interpretive watershed context, not a precise biological boundary.","internal_notes":"Preview occurrence co_10190001_greenback_south_fork_south_platte_river_001; 111 segments; 42.0 km"}},{"type":"Feature","geometry":{"type":"LineString","coordinates":[[-105.96921,39.02286],[-105.9689,39.02228],[-105.96991,39.02125],[-105.96882,39.01987],[-105.96828,39.01993],[-105.96943,39.01958],[-105.96862,39.0188],[-105.96889,39.01766],[-105.96837,39.01745],[-105.96928,39.01618],[-105.96837,39.01562],[-105.96796,39.01415],[-105.96727,39.01449],[-105.96746,39.01389],[-105.96603,39.01324],[-105.96684,39.0128]]},"properties":{"huc8":"10190001","huc8Name":"South Platte Headwaters","historic":"greenback","current":"introduced","recovery":"recoveryWatch","lineageKey":"greenback","lineageLabel":"Greenback / South Platte lineage","basin":"South Platte Headwaters","note":"Generalized historical greenback context; not exact population mapping","state":"CO","confidence":"HUC8 drainage context / generalized","geometryStatus":"Named NHD stream intersecting assigned HUC8","troutSource":"HUC8 lineage assignment v1 / review needed","sourceName":"South Fork South Platte River","name":"South Fork South Platte River","source_id":"127815093","length_km":2.044,"FType":460,"FCode":46006,"atlas_class":"streamriver","water_id":"co_10190001_greenback_south_fork_south_platte_river_001","occurrence_id":"co_10190001_greenback_south_fork_south_platte_river_001","occurrence_number":"001","display_name":"South Fork South Platte River","mapped_name":"South Fork South Platte River","source_name":"South Fork South Platte River","disambiguator":"Greenback cutthroat historic context · HUC8 10190001 · occurrence 001","atlas_layer":"curated_named_water_occurrence","object_role":"interactive_named_water","lineage":"greenback","historic_label":"Greenback cutthroat historic context","current_label":"Greenback cutthroat historic context","recovery_label":"Recovery watch / review area","confidence_public":"Generalized public map / needs expert review","confidence_internal":"Occurrence-cluster preview; 111 source segments","geometry_status_public":"Generalized named-water occurrence","geometry_status_internal":"Grouped by display name, HUC8, lineage, and spatial cluster","geometry_source_public":"Grouped public hydrography segments","geometry_source_internal":"Colorado full interpreted natural stream context — occurrence v2 preview","trout_source_public":"Compiled public recovery and lineage context; expert review recommended","trout_source_internal":"HUC8 lineage assignment v1 / review needed","public_notes":"South Fork South Platte River is shown as a generalized public-map named-water occurrence for Greenback cutthroat historic context. This object is separated from other same-named waters using HUC8, lineage, and local spatial clustering. Linework is grouped from public hydrography and should be treated as interpretive watershed context, not a precise biological boundary.","internal_notes":"Preview occurrence co_10190001_greenback_south_fork_south_platte_river_001; 111 segments; 42.0 km"}},{"type":"Feature","geometry":{"type":"LineString","coordinates":[[-105.97008,39.03483],[-105.96953,39.03315],[-105.96832,39.03304]]},"properties":{"huc8":"10190001","huc8Name":"South Platte Headwaters","historic":"greenback","current":"introduced","recovery":"recoveryWatch","lineageKey":"greenback","lineageLabel":"Greenback / South Platte lineage","basin":"South Platte Headwaters","note":"Generalized historical greenback context; not exact population mapping","state":"CO","confidence":"HUC8 drainage context / generalized","geometryStatus":"Named NHD stream intersecting assigned HUC8","troutSource":"HUC8 lineage assignment v1 / review needed","sourceName":"South Fork South Platte River","name":"South Fork South Platte River","source_id":"127815054","length_km":0.346,"FType":460,"FCode":46006,"atlas_class":"streamriver","water_id":"co_10190001_greenback_south_fork_south_platte_river_001","occurrence_id":"co_10190001_greenback_south_fork_south_platte_river_001","occurrence_number":"001","display_name":"South Fork South Platte River","mapped_name":"South Fork South Platte River","source_name":"South Fork South Platte River","disambiguator":"Greenback cutthroat historic context · HUC8 10190001 · occurrence 001","atlas_layer":"curated_named_water_occurrence","object_role":"interactive_named_water","lineage":"greenback","historic_label":"Greenback cutthroat historic context","current_label":"Greenback cutthroat historic context","recovery_label":"Recovery watch / review area","confidence_public":"Generalized public map / needs expert review","confidence_internal":"Occurrence-cluster preview; 111 source segments","geometry_status_public":"Generalized named-water occurrence","geometry_status_internal":"Grouped by display name, HUC8, lineage, and spatial cluster","geometry_source_public":"Grouped public hydrography segments","geometry_source_internal":"Colorado full interpreted natural stream context — occurrence v2 preview","trout_source_public":"Compiled public recovery and lineage context; expert review recommended","trout_source_internal":"HUC8 lineage assignment v1 / review needed","public_notes":"South Fork South Platte River is shown as a generalized public-map named-water occurrence for Greenback cutthroat historic context. This object is separated from other same-named waters using HUC8, lineage, and local spatial clustering. Linework is grouped from public hydrography and should be treated as interpretive watershed context, not a precise biological boundary.","internal_notes":"Preview occurrence co_10190001_greenback_south_fork_south_platte_river_001; 111 segments; 42.0 km"}},{"type":"Feature","geometry":{"type":"LineString","coordinates":[[-105.96861,39.02892],[-105.9683,39.02858]]},"properties":{"huc8":"10190001","huc8Name":"South Platte Headwaters","historic":"greenback","current":"introduced","recovery":"recoveryWatch","lineageKey":"greenback","lineageLabel":"Greenback / South Platte lineage","basin":"South Platte Headwaters","note":"Generalized historical greenback context; not exact population mapping","state":"CO","confidence":"HUC8 drainage context / generalized","geometryStatus":"Named NHD stream intersecting assigned HUC8","troutSource":"HUC8 lineage assignment v1 / review needed","sourceName":"South Fork South Platte River","name":"South Fork South Platte River","source_id":"127815050","length_km":0.053,"FType":460,"FCode":46006,"atlas_class":"streamriver","water_id":"co_10190001_greenback_south_fork_south_platte_river_001","occurrence_id":"co_10190001_greenback_south_fork_south_platte_river_001","occurrence_number":"001","display_name":"South Fork South Platte River","mapped_name":"South Fork South Platte River","source_name":"South Fork South Platte River","disambiguator":"Greenback cutthroat historic context · HUC8 10190001 · occurrence 001","atlas_layer":"curated_named_water_occurrence","object_role":"interactive_named_water","lineage":"greenback","historic_label":"Greenback cutthroat historic context","current_label":"Greenback cutthroat historic context","recovery_label":"Recovery watch / review area","confidence_public":"Generalized public map / needs expert review","confidence_internal":"Occurrence-cluster preview; 111 source segments","geometry_status_public":"Generalized named-water occurrence","geometry_status_internal":"Grouped by display name, HUC8, lineage, and spatial cluster","geometry_source_public":"Grouped public hydrography segments","geometry_source_internal":"Colorado full interpreted natural stream context — occurrence v2 preview","trout_source_public":"Compiled public recovery and lineage context; expert review recommended","trout_source_internal":"HUC8 lineage assignment v1 / review needed","public_notes":"South Fork South Platte River is shown as a generalized public-map named-water occurrence for Greenback cutthroat historic context. This object is separated from other same-named waters using HUC8, lineage, and local spatial clustering. Linework is grouped from public hydrography and should be treated as interpretive watershed context, not a precise biological boundary.","internal_notes":"Preview occurrence co_10190001_greenback_south_fork_south_platte_river_001; 111 segments; 42.0 km"}},{"type":"Feature","geometry":{"type":"LineString","coordinates":[[-105.97336,39.06826],[-105.97309,39.06645],[-105.97175,39.06376],[-105.97089,39.06398],[-105.97051,39.0634],[-105.97117,39.06325],[-105.97112,39.0628],[-105.96942,39.06221],[-105.97036,39.06125],[-105.9696,39.06103],[-105.97,39.06051],[-105.96908,39.05978],[-105.96892,39.05864],[-105.96566,39.05716],[-105.96537,39.0565]]},"properties":{"huc8":"10190001","huc8Name":"South Platte Headwaters","historic":"greenback","current":"introduced","recovery":"recoveryWatch","lineageKey":"greenback","lineageLabel":"Greenback / South Platte lineage","basin":"South Platte Headwaters","note":"Generalized historical greenback context; not exact population mapping","state":"CO","confidence":"HUC8 drainage context / generalized","geometryStatus":"Named NHD stream intersecting assigned HUC8","troutSource":"HUC8 lineage assignment v1 / review needed","sourceName":"South Fork South Platte River","name":"South Fork South Platte River","source_id":"127814523","length_km":2.13127486,"FType":460,"FCode":46006,"atlas_class":"streamriver","water_id":"co_10190001_greenback_south_fork_south_platte_river_001","occurrence_id":"co_10190001_greenback_south_fork_south_platte_river_001","occurrence_number":"001","display_name":"South Fork South Platte River","mapped_name":"South Fork South Platte River","source_name":"South Fork South Platte River","disambiguator":"Greenback cutthroat historic context · HUC8 10190001 · occurrence 001","atlas_layer":"curated_named_water_occurrence","object_role":"interactive_named_water","lineage":"greenback","historic_label":"Greenback cutthroat historic context","current_label":"Greenback cutthroat historic context","recovery_label":"Recovery watch / review area","confidence_public":"Generalized public map / needs expert review","confidence_internal":"Occurrence-cluster preview; 111 source segments","geometry_status_public":"Generalized named-water occurrence","geometry_status_internal":"Grouped by display name, HUC8, lineage, and spatial cluster","geometry_source_public":"Grouped public hydrography segments","geometry_source_internal":"Colorado full interpreted natural stream context — occurrence v2 preview","trout_source_public":"Compiled public recovery and lineage context; expert review recommended","trout_source_internal":"HUC8 lineage assignment v1 / review needed","public_notes":"South Fork South Platte River is shown as a generalized public-map named-water occurrence for Greenback cutthroat historic context. This object is separated from other same-named waters using HUC8, lineage, and local spatial clustering. Linework is grouped from public hydrography and should be treated as interpretive watershed context, not a precise biological boundary.","internal_notes":"Preview occurrence co_10190001_greenback_south_fork_south_platte_river_001; 111 segments; 42.0 km"}},{"type":"Feature","geometry":{"type":"LineString","coordinates":[[-105.96802,39.02759],[-105.96882,39.02596],[-105.97047,39.02535],[-105.96952,39.0244],[-105.96986,39.02349],[-105.96921,39.02286]]},"properties":{"huc8":"10190001","huc8Name":"South Platte Headwaters","historic":"greenback","current":"introduced","recovery":"recoveryWatch","lineageKey":"greenback","lineageLabel":"Greenback / South Platte lineage","basin":"South Platte Headwaters","note":"Generalized historical greenback context; not exact population mapping","state":"CO","confidence":"HUC8 drainage context / generalized","geometryStatus":"Named NHD stream intersecting assigned HUC8","troutSource":"HUC8 lineage assignment v1 / review needed","sourceName":"South Fork South Platte River","name":"South Fork South Platte River","source_id":"127815092","length_km":0.734,"FType":460,"FCode":46006,"atlas_class":"streamriver","water_id":"co_10190001_greenback_south_fork_south_platte_river_001","occurrence_id":"co_10190001_greenback_south_fork_south_platte_river_001","occurrence_number":"001","display_name":"South Fork South Platte River","mapped_name":"South Fork South Platte River","source_name":"South Fork South Platte River","disambiguator":"Greenback cutthroat historic context · HUC8 10190001 · occurrence 001","atlas_layer":"curated_named_water_occurrence","object_role":"interactive_named_water","lineage":"greenback","historic_label":"Greenback cutthroat historic context","current_label":"Greenback cutthroat historic context","recovery_label":"Recovery watch / review area","confidence_public":"Generalized public map / needs expert review","confidence_internal":"Occurrence-cluster preview; 111 source segments","geometry_status_public":"Generalized named-water occurrence","geometry_status_internal":"Grouped by display name, HUC8, lineage, and spatial cluster","geometry_source_public":"Grouped public hydrography segments","geometry_source_internal":"Colorado full interpreted natural stream context — occurrence v2 preview","trout_source_public":"Compiled public recovery and lineage context; expert review recommended","trout_source_internal":"HUC8 lineage assignment v1 / review needed","public_notes":"South Fork South Platte River is shown as a generalized public-map named-water occurrence for Greenback cutthroat historic context. This object is separated from other same-named waters using HUC8, lineage, and local spatial clustering. Linework is grouped from public hydrography and should be treated as interpretive watershed context, not a precise biological boundary.","internal_notes":"Preview occurrence co_10190001_greenback_south_fork_south_platte_river_001; 111 segments; 42.0 km"}},{"type":"Feature","geometry":{"type":"LineString","coordinates":[[-105.9651,39.05103],[-105.96505,39.05026],[-105.96555,39.05014]]},"properties":{"huc8":"10190001","huc8Name":"South Platte Headwaters","historic":"greenback","current":"introduced","recovery":"recoveryWatch","lineageKey":"greenback","lineageLabel":"Greenback / South Platte lineage","basin":"South Platte Headwaters","note":"Generalized historical greenback context; not exact population mapping","state":"CO","confidence":"HUC8 drainage context / generalized","geometryStatus":"Named NHD stream intersecting assigned HUC8","troutSource":"HUC8 lineage assignment v1 / review needed","sourceName":"South Fork South Platte River","name":"South Fork South Platte River","source_id":"127814525","length_km":0.17,"FType":460,"FCode":46006,"atlas_class":"streamriver","water_id":"co_10190001_greenback_south_fork_south_platte_river_001","occurrence_id":"co_10190001_greenback_south_fork_south_platte_river_001","occurrence_number":"001","display_name":"South Fork South Platte River","mapped_name":"South Fork South Platte River","source_name":"South Fork South Platte River","disambiguator":"Greenback cutthroat historic context · HUC8 10190001 · occurrence 001","atlas_layer":"curated_named_water_occurrence","object_role":"interactive_named_water","lineage":"greenback","historic_label":"Greenback cutthroat historic context","current_label":"Greenback cutthroat historic context","recovery_label":"Recovery watch / review area","confidence_public":"Generalized public map / needs expert review","confidence_internal":"Occurrence-cluster preview; 111 source segments","geometry_status_public":"Generalized named-water occurrence","geometry_status_internal":"Grouped by display name, HUC8, lineage, and spatial cluster","geometry_source_public":"Grouped public hydrography segments","geometry_source_internal":"Colorado full interpreted natural stream context — occurrence v2 preview","trout_source_public":"Compiled public recovery and lineage context; expert review recommended","trout_source_internal":"HUC8 lineage assignment v1 / review needed","public_notes":"South Fork South Platte River is shown as a generalized public-map named-water occurrence for Greenback cutthroat historic context. This object is separated from other same-named waters using HUC8, lineage, and local spatial clustering. Linework is grouped from public hydrography and should be treated as interpretive watershed context, not a precise biological boundary.","internal_notes":"Preview occurrence co_10190001_greenback_south_fork_south_platte_river_001; 111 segments; 42.0 km"}},{"type":"Feature","geometry":{"type":"LineString","coordinates":[[-105.96684,39.0128],[-105.96591,39.01242],[-105.96613,39.01172],[-105.96685,39.01152],[-105.96652,39.01101],[-105.968,39.0109],[-105.96832,39.00937],[-105.96701,39.00829],[-105.9674,39.00765],[-105.96649,39.00737],[-105.96642,39.00642]]},"properties":{"huc8":"10190001","huc8Name":"South Platte Headwaters","historic":"greenback","current":"introduced","recovery":"recoveryWatch","lineageKey":"greenback","lineageLabel":"Greenback / South Platte lineage","basin":"South Platte Headwaters","note":"Generalized historical greenback context; not exact population mapping","state":"CO","confidence":"HUC8 drainage context / generalized","geometryStatus":"Named NHD stream intersecting assigned HUC8","troutSource":"HUC8 lineage assignment v1 / review needed","sourceName":"South Fork South Platte River","name":"South Fork South Platte River","source_id":"127815094","length_km":1.199,"FType":460,"FCode":46006,"atlas_class":"streamriver","water_id":"co_10190001_greenback_south_fork_south_platte_river_001","occurrence_id":"co_10190001_greenback_south_fork_south_platte_river_001","occurrence_number":"001","display_name":"South Fork South Platte River","mapped_name":"South Fork South Platte River","source_name":"South Fork South Platte River","disambiguator":"Greenback cutthroat historic context · HUC8 10190001 · occurrence 001","atlas_layer":"curated_named_water_occurrence","object_role":"interactive_named_water","lineage":"greenback","historic_label":"Greenback cutthroat historic context","current_label":"Greenback cutthroat historic context","recovery_label":"Recovery watch / review area","confidence_public":"Generalized public map / needs expert review","confidence_internal":"Occurrence-cluster preview; 111 source segments","geometry_status_public":"Generalized named-water occurrence","geometry_status_internal":"Grouped by display name, HUC8, lineage, and spatial cluster","geometry_source_public":"Grouped public hydrography segments","geometry_source_internal":"Colorado full interpreted natural stream context — occurrence v2 preview","trout_source_public":"Compiled public recovery and lineage context; expert review recommended","trout_source_internal":"HUC8 lineage assignment v1 / review needed","public_notes":"South Fork South Platte River is shown as a generalized public-map named-water occurrence for Greenback cutthroat historic context. This object is separated from other same-named waters using HUC8, lineage, and local spatial clustering. Linework is grouped from public hydrography and should be treated as interpretive watershed context, not a precise biological boundary.","internal_notes":"Preview occurrence co_10190001_greenback_south_fork_south_platte_river_001; 111 segments; 42.0 km"}},{"type":"Feature","geometry":{"type":"LineString","coordinates":[[-105.96832,39.03304],[-105.96818,39.03254]]},"properties":{"huc8":"10190001","huc8Name":"South Platte Headwaters","historic":"greenback","current":"introduced","recovery":"recoveryWatch","lineageKey":"greenback","lineageLabel":"Greenback / South Platte lineage","basin":"South Platte Headwaters","note":"Generalized historical greenback context; not exact population mapping","state":"CO","confidence":"HUC8 drainage context / generalized","geometryStatus":"Named NHD stream intersecting assigned HUC8","troutSource":"HUC8 lineage assignment v1 / review needed","sourceName":"South Fork South Platte River","name":"South Fork South Platte River","source_id":"127815055","length_km":0.058,"FType":460,"FCode":46006,"atlas_class":"streamriver","water_id":"co_10190001_greenback_south_fork_south_platte_river_001","occurrence_id":"co_10190001_greenback_south_fork_south_platte_river_001","occurrence_number":"001","display_name":"South Fork South Platte River","mapped_name":"South Fork South Platte River","source_name":"South Fork South Platte River","disambiguator":"Greenback cutthroat historic context · HUC8 10190001 · occurrence 001","atlas_layer":"curated_named_water_occurrence","object_role":"interactive_named_water","lineage":"greenback","historic_label":"Greenback cutthroat historic context","current_label":"Greenback cutthroat historic context","recovery_label":"Recovery watch / review area","confidence_public":"Generalized public map / needs expert review","confidence_internal":"Occurrence-cluster preview; 111 source segments","geometry_status_public":"Generalized named-water occurrence","geometry_status_internal":"Grouped by display name, HUC8, lineage, and spatial cluster","geometry_source_public":"Grouped public hydrography segments","geometry_source_internal":"Colorado full interpreted natural stream context — occurrence v2 preview","trout_source_public":"Compiled public recovery and lineage context; expert review recommended","trout_source_internal":"HUC8 lineage assignment v1 / review needed","public_notes":"South Fork South Platte River is shown as a generalized public-map named-water occurrence for Greenback cutthroat historic context. This object is separated from other same-named waters using HUC8, lineage, and local spatial clustering. Linework is grouped from public hydrography and should be treated as interpretive watershed context, not a precise biological boundary.","internal_notes":"Preview occurrence co_10190001_greenback_south_fork_south_platte_river_001; 111 segments; 42.0 km"}},{"type":"Feature","geometry":{"type":"LineString","coordinates":[[-105.96954,39.03513],[-105.97008,39.03483]]},"properties":{"huc8":"10190001","huc8Name":"South Platte Headwaters","historic":"greenback","current":"introduced","recovery":"recoveryWatch","lineageKey":"greenback","lineageLabel":"Greenback / South Platte lineage","basin":"South Platte Headwaters","note":"Generalized historical greenback context; not exact population mapping","state":"CO","confidence":"HUC8 drainage context / generalized","geometryStatus":"Named NHD stream intersecting assigned HUC8","troutSource":"HUC8 lineage assignment v1 / review needed","sourceName":"South Fork South Platte River","name":"South Fork South Platte River","source_id":"127815053","length_km":0.059,"FType":460,"FCode":46006,"atlas_class":"streamriver","water_id":"co_10190001_greenback_south_fork_south_platte_river_001","occurrence_id":"co_10190001_greenback_south_fork_south_platte_river_001","occurrence_number":"001","display_name":"South Fork South Platte River","mapped_name":"South Fork South Platte River","source_name":"South Fork South Platte River","disambiguator":"Greenback cutthroat historic context · HUC8 10190001 · occurrence 001","atlas_layer":"curated_named_water_occurrence","object_role":"interactive_named_water","lineage":"greenback","historic_label":"Greenback cutthroat historic context","current_label":"Greenback cutthroat historic context","recovery_label":"Recovery watch / review area","confidence_public":"Generalized public map / needs expert review","confidence_internal":"Occurrence-cluster preview; 111 source segments","geometry_status_public":"Generalized named-water occurrence","geometry_status_internal":"Grouped by display name, HUC8, lineage, and spatial cluster","geometry_source_public":"Grouped public hydrography segments","geometry_source_internal":"Colorado full interpreted natural stream context — occurrence v2 preview","trout_source_public":"Compiled public recovery and lineage context; expert review recommended","trout_source_internal":"HUC8 lineage assignment v1 / review needed","public_notes":"South Fork South Platte River is shown as a generalized public-map named-water occurrence for Greenback cutthroat historic context. This object is separated from other same-named waters using HUC8, lineage, and local spatial clustering. Linework is grouped from public hydrography and should be treated as interpretive watershed context, not a precise biological boundary.","internal_notes":"Preview occurrence co_10190001_greenback_south_fork_south_platte_river_001; 111 segments; 42.0 km"}},{"type":"Feature","geometry":{"type":"LineString","coordinates":[[-105.9682,39.03238],[-105.96954,39.03187],[-105.96874,39.03093],[-105.96907,39.03043],[-105.96822,39.03045]]},"properties":{"huc8":"10190001","huc8Name":"South Platte Headwaters","historic":"greenback","current":"introduced","recovery":"recoveryWatch","lineageKey":"greenback","lineageLabel":"Greenback / South Platte lineage","basin":"South Platte Headwaters","note":"Generalized historical greenback context; not exact population mapping","state":"CO","confidence":"HUC8 drainage context / generalized","geometryStatus":"Named NHD stream intersecting assigned HUC8","troutSource":"HUC8 lineage assignment v1 / review needed","sourceName":"South Fork South Platte River","name":"South Fork South Platte River","source_id":"127815057","length_km":0.48,"FType":460,"FCode":46006,"atlas_class":"streamriver","water_id":"co_10190001_greenback_south_fork_south_platte_river_001","occurrence_id":"co_10190001_greenback_south_fork_south_platte_river_001","occurrence_number":"001","display_name":"South Fork South Platte River","mapped_name":"South Fork South Platte River","source_name":"South Fork South Platte River","disambiguator":"Greenback cutthroat historic context · HUC8 10190001 · occurrence 001","atlas_layer":"curated_named_water_occurrence","object_role":"interactive_named_water","lineage":"greenback","historic_label":"Greenback cutthroat historic context","current_label":"Greenback cutthroat historic context","recovery_label":"Recovery watch / review area","confidence_public":"Generalized public map / needs expert review","confidence_internal":"Occurrence-cluster preview; 111 source segments","geometry_status_public":"Generalized named-water occurrence","geometry_status_internal":"Grouped by display name, HUC8, lineage, and spatial cluster","geometry_source_public":"Grouped public hydrography segments","geometry_source_internal":"Colorado full interpreted natural stream context — occurrence v2 preview","trout_source_public":"Compiled public recovery and lineage context; expert review recommended","trout_source_internal":"HUC8 lineage assignment v1 / review needed","public_notes":"South Fork South Platte River is shown as a generalized public-map named-water occurrence for Greenback cutthroat historic context. This object is separated from other same-named waters using HUC8, lineage, and local spatial clustering. Linework is grouped from public hydrography and should be treated as interpretive watershed context, not a precise biological boundary.","internal_notes":"Preview occurrence co_10190001_greenback_south_fork_south_platte_river_001; 111 segments; 42.0 km"}},{"type":"Feature","geometry":{"type":"LineString","coordinates":[[-105.96818,39.03254],[-105.9682,39.03238]]},"properties":{"huc8":"10190001","huc8Name":"South Platte Headwaters","historic":"greenback","current":"introduced","recovery":"recoveryWatch","lineageKey":"greenback","lineageLabel":"Greenback / South Platte lineage","basin":"South Platte Headwaters","note":"Generalized historical greenback context; not exact population mapping","state":"CO","confidence":"HUC8 drainage context / generalized","geometryStatus":"Named NHD stream intersecting assigned HUC8","troutSource":"HUC8 lineage assignment v1 / review needed","sourceName":"South Fork South Platte River","name":"South Fork South Platte River","source_id":"127815056","length_km":0.018,"FType":460,"FCode":46006,"atlas_class":"streamriver","water_id":"co_10190001_greenback_south_fork_south_platte_river_001","occurrence_id":"co_10190001_greenback_south_fork_south_platte_river_001","occurrence_number":"001","display_name":"South Fork South Platte River","mapped_name":"South Fork South Platte River","source_name":"South Fork South Platte River","disambiguator":"Greenback cutthroat historic context · HUC8 10190001 · occurrence 001","atlas_layer":"curated_named_water_occurrence","object_role":"interactive_named_water","lineage":"greenback","historic_label":"Greenback cutthroat historic context","current_label":"Greenback cutthroat historic context","recovery_label":"Recovery watch / review area","confidence_public":"Generalized public map / needs expert review","confidence_internal":"Occurrence-cluster preview; 111 source segments","geometry_status_public":"Generalized named-water occurrence","geometry_status_internal":"Grouped by display name, HUC8, lineage, and spatial cluster","geometry_source_public":"Grouped public hydrography segments","geometry_source_internal":"Colorado full interpreted natural stream context — occurrence v2 preview","trout_source_public":"Compiled public recovery and lineage context; expert review recommended","trout_source_internal":"HUC8 lineage assignment v1 / review needed","public_notes":"South Fork South Platte River is shown as a generalized public-map named-water occurrence for Greenback cutthroat historic context. This object is separated from other same-named waters using HUC8, lineage, and local spatial clustering. Linework is grouped from public hydrography and should be treated as interpretive watershed context, not a precise biological boundary.","internal_notes":"Preview occurrence co_10190001_greenback_south_fork_south_platte_river_001; 111 segments; 42.0 km"}},{"type":"Feature","geometry":{"type":"LineString","coordinates":[[-105.96642,39.00642],[-105.96481,39.00502],[-105.9641,39.00513],[-105.96412,39.00421],[-105.96324,39.00407],[-105.96373,39.00367],[-105.96269,39.00403],[-105.96241,39.00312],[-105.9611,39.0025],[-105.96147,39.00209],[-105.96059,39.00171],[-105.96178,39.00122]]},"properties":{"huc8":"10190001","huc8Name":"South Platte Headwaters","historic":"greenback","current":"introduced","recovery":"recoveryWatch","lineageKey":"greenback","lineageLabel":"Greenback / South Platte lineage","basin":"South Platte Headwaters","note":"Generalized historical greenback context; not exact population mapping","state":"CO","confidence":"HUC8 drainage context / generalized","geometryStatus":"Named NHD stream intersecting assigned HUC8","troutSource":"HUC8 lineage assignment v1 / review needed","sourceName":"South Fork South Platte River","name":"South Fork South Platte River","source_id":"127815095","length_km":1.397,"FType":460,"FCode":46006,"atlas_class":"streamriver","water_id":"co_10190001_greenback_south_fork_south_platte_river_001","occurrence_id":"co_10190001_greenback_south_fork_south_platte_river_001","occurrence_number":"001","display_name":"South Fork South Platte River","mapped_name":"South Fork South Platte River","source_name":"South Fork South Platte River","disambiguator":"Greenback cutthroat historic context · HUC8 10190001 · occurrence 001","atlas_layer":"curated_named_water_occurrence","object_role":"interactive_named_water","lineage":"greenback","historic_label":"Greenback cutthroat historic context","current_label":"Greenback cutthroat historic context","recovery_label":"Recovery watch / review area","confidence_public":"Generalized public map / needs expert review","confidence_internal":"Occurrence-cluster preview; 111 source segments","geometry_status_public":"Generalized named-water occurrence","geometry_status_internal":"Grouped by display name, HUC8, lineage, and spatial cluster","geometry_source_public":"Grouped public hydrography segments","geometry_source_internal":"Colorado full interpreted natural stream context — occurrence v2 preview","trout_source_public":"Compiled public recovery and lineage context; expert review recommended","trout_source_internal":"HUC8 lineage assignment v1 / review needed","public_notes":"South Fork South Platte River is shown as a generalized public-map named-water occurrence for Greenback cutthroat historic context. This object is separated from other same-named waters using HUC8, lineage, and local spatial clustering. Linework is grouped from public hydrography and should be treated as interpretive watershed context, not a precise biological boundary.","internal_notes":"Preview occurrence co_10190001_greenback_south_fork_south_platte_river_001; 111 segments; 42.0 km"}},{"type":"Feature","geometry":{"type":"LineString","coordinates":[[-105.9683,39.02858],[-105.96802,39.02759]]},"properties":{"huc8":"10190001","huc8Name":"South Platte Headwaters","historic":"greenback","current":"introduced","recovery":"recoveryWatch","lineageKey":"greenback","lineageLabel":"Greenback / South Platte lineage","basin":"South Platte Headwaters","note":"Generalized historical greenback context; not exact population mapping","state":"CO","confidence":"HUC8 drainage context / generalized","geometryStatus":"Named NHD stream intersecting assigned HUC8","troutSource":"HUC8 lineage assignment v1 / review needed","sourceName":"South Fork South Platte River","name":"South Fork South Platte River","source_id":"127815051","length_km":0.115,"FType":460,"FCode":46006,"atlas_class":"streamriver","water_id":"co_10190001_greenback_south_fork_south_platte_river_001","occurrence_id":"co_10190001_greenback_south_fork_south_platte_river_001","occurrence_number":"001","display_name":"South Fork South Platte River","mapped_name":"South Fork South Platte River","source_name":"South Fork South Platte River","disambiguator":"Greenback cutthroat historic context · HUC8 10190001 · occurrence 001","atlas_layer":"curated_named_water_occurrence","object_role":"interactive_named_water","lineage":"greenback","historic_label":"Greenback cutthroat historic context","current_label":"Greenback cutthroat historic context","recovery_label":"Recovery watch / review area","confidence_public":"Generalized public map / needs expert review","confidence_internal":"Occurrence-cluster preview; 111 source segments","geometry_status_public":"Generalized named-water occurrence","geometry_status_internal":"Grouped by display name, HUC8, lineage, and spatial cluster","geometry_source_public":"Grouped public hydrography segments","geometry_source_internal":"Colorado full interpreted natural stream context — occurrence v2 preview","trout_source_public":"Compiled public recovery and lineage context; expert review recommended","trout_source_internal":"HUC8 lineage assignment v1 / review needed","public_notes":"South Fork South Platte River is shown as a generalized public-map named-water occurrence for Greenback cutthroat historic context. This object is separated from other same-named waters using HUC8, lineage, and local spatial clustering. Linework is grouped from public hydrography and should be treated as interpretive watershed context, not a precise biological boundary.","internal_notes":"Preview occurrence co_10190001_greenback_south_fork_south_platte_river_001; 111 segments; 42.0 km"}},{"type":"Feature","geometry":{"type":"LineString","coordinates":[[-105.96597,39.04368],[-105.96519,39.04267],[-105.96636,39.04208],[-105.96659,39.0407]]},"properties":{"huc8":"10190001","huc8Name":"South Platte Headwaters","historic":"greenback","current":"introduced","recovery":"recoveryWatch","lineageKey":"greenback","lineageLabel":"Greenback / South Platte lineage","basin":"South Platte Headwaters","note":"Generalized historical greenback context; not exact population mapping","state":"CO","confidence":"HUC8 drainage context / generalized","geometryStatus":"Named NHD stream intersecting assigned HUC8","troutSource":"HUC8 lineage assignment v1 / review needed","sourceName":"South Fork South Platte River","name":"South Fork South Platte River","source_id":"127815047","length_km":0.454,"FType":460,"FCode":46006,"atlas_class":"streamriver","water_id":"co_10190001_greenback_south_fork_south_platte_river_001","occurrence_id":"co_10190001_greenback_south_fork_south_platte_river_001","occurrence_number":"001","display_name":"South Fork South Platte River","mapped_name":"South Fork South Platte River","source_name":"South Fork South Platte River","disambiguator":"Greenback cutthroat historic context · HUC8 10190001 · occurrence 001","atlas_layer":"curated_named_water_occurrence","object_role":"interactive_named_water","lineage":"greenback","historic_label":"Greenback cutthroat historic context","current_label":"Greenback cutthroat historic context","recovery_label":"Recovery watch / review area","confidence_public":"Generalized public map / needs expert review","confidence_internal":"Occurrence-cluster preview; 111 source segments","geometry_status_public":"Generalized named-water occurrence","geometry_status_internal":"Grouped by display name, HUC8, lineage, and spatial cluster","geometry_source_public":"Grouped public hydrography segments","geometry_source_internal":"Colorado full interpreted natural stream context — occurrence v2 preview","trout_source_public":"Compiled public recovery and lineage context; expert review recommended","trout_source_internal":"HUC8 lineage assignment v1 / review needed","public_notes":"South Fork South Platte River is shown as a generalized public-map named-water occurrence for Greenback cutthroat historic context. This object is separated from other same-named waters using HUC8, lineage, and local spatial clustering. Linework is grouped from public hydrography and should be treated as interpretive watershed context, not a precise biological boundary.","internal_notes":"Preview occurrence co_10190001_greenback_south_fork_south_platte_river_001; 111 segments; 42.0 km"}},{"type":"Feature","geometry":{"type":"LineString","coordinates":[[-105.96572,39.04682],[-105.965,39.04438]]},"properties":{"huc8":"10190001","huc8Name":"South Platte Headwaters","historic":"greenback","current":"introduced","recovery":"recoveryWatch","lineageKey":"greenback","lineageLabel":"Greenback / South Platte lineage","basin":"South Platte Headwaters","note":"Generalized historical greenback context; not exact population mapping","state":"CO","confidence":"HUC8 drainage context / generalized","geometryStatus":"Named NHD stream intersecting assigned HUC8","troutSource":"HUC8 lineage assignment v1 / review needed","sourceName":"South Fork South Platte River","name":"South Fork South Platte River","source_id":"127815044","length_km":0.302,"FType":460,"FCode":46006,"atlas_class":"streamriver","water_id":"co_10190001_greenback_south_fork_south_platte_river_001","occurrence_id":"co_10190001_greenback_south_fork_south_platte_river_001","occurrence_number":"001","display_name":"South Fork South Platte River","mapped_name":"South Fork South Platte River","source_name":"South Fork South Platte River","disambiguator":"Greenback cutthroat historic context · HUC8 10190001 · occurrence 001","atlas_layer":"curated_named_water_occurrence","object_role":"interactive_named_water","lineage":"greenback","historic_label":"Greenback cutthroat historic context","current_label":"Greenback cutthroat historic context","recovery_label":"Recovery watch / review area","confidence_public":"Generalized public map / needs expert review","confidence_internal":"Occurrence-cluster preview; 111 source segments","geometry_status_public":"Generalized named-water occurrence","geometry_status_internal":"Grouped by display name, HUC8, lineage, and spatial cluster","geometry_source_public":"Grouped public hydrography segments","geometry_source_internal":"Colorado full interpreted natural stream context — occurrence v2 preview","trout_source_public":"Compiled public recovery and lineage context; expert review recommended","trout_source_internal":"HUC8 lineage assignment v1 / review needed","public_notes":"South Fork South Platte River is shown as a generalized public-map named-water occurrence for Greenback cutthroat historic context. This object is separated from other same-named waters using HUC8, lineage, and local spatial clustering. Linework is grouped from public hydrography and should be treated as interpretive watershed context, not a precise biological boundary.","internal_notes":"Preview occurrence co_10190001_greenback_south_fork_south_platte_river_001; 111 segments; 42.0 km"}},{"type":"Feature","geometry":{"type":"LineString","coordinates":[[-105.95911,39.0006],[-105.95933,39.00005],[-105.95833,39.00032],[-105.95824,38.99965],[-105.95689,38.9997],[-105.95551,39.00094],[-105.95535,39.00016],[-105.95447,39.00047],[-105.9538,38.99955],[-105.95297,38.99935],[-105.95283,38.99981],[-105.95204,38.99928],[-105.95196,38.99974]]},"properties":{"huc8":"10190001","huc8Name":"South Platte Headwaters","historic":"greenback","current":"introduced","recovery":"recoveryWatch","lineageKey":"greenback","lineageLabel":"Greenback / South Platte lineage","basin":"South Platte Headwaters","note":"Generalized historical greenback context; not exact population mapping","state":"CO","confidence":"HUC8 drainage context / generalized","geometryStatus":"Named NHD stream intersecting assigned HUC8","troutSource":"HUC8 lineage assignment v1 / review needed","sourceName":"South Fork South Platte River","name":"South Fork South Platte River","source_id":"127814201","length_km":1.423,"FType":460,"FCode":46006,"atlas_class":"streamriver","water_id":"co_10190001_greenback_south_fork_south_platte_river_001","occurrence_id":"co_10190001_greenback_south_fork_south_platte_river_001","occurrence_number":"001","display_name":"South Fork South Platte River","mapped_name":"South Fork South Platte River","source_name":"South Fork South Platte River","disambiguator":"Greenback cutthroat historic context · HUC8 10190001 · occurrence 001","atlas_layer":"curated_named_water_occurrence","object_role":"interactive_named_water","lineage":"greenback","historic_label":"Greenback cutthroat historic context","current_label":"Greenback cutthroat historic context","recovery_label":"Recovery watch / review area","confidence_public":"Generalized public map / needs expert review","confidence_internal":"Occurrence-cluster preview; 111 source segments","geometry_status_public":"Generalized named-water occurrence","geometry_status_internal":"Grouped by display name, HUC8, lineage, and spatial cluster","geometry_source_public":"Grouped public hydrography segments","geometry_source_internal":"Colorado full interpreted natural stream context — occurrence v2 preview","trout_source_public":"Compiled public recovery and lineage context; expert review recommended","trout_source_internal":"HUC8 lineage assignment v1 / review needed","public_notes":"South Fork South Platte River is shown as a generalized public-map named-water occurrence for Greenback cutthroat historic context. This object is separated from other same-named waters using HUC8, lineage, and local spatial clustering. Linework is grouped from public hydrography and should be treated as interpretive watershed context, not a precise biological boundary.","internal_notes":"Preview occurrence co_10190001_greenback_south_fork_south_platte_river_001; 111 segments; 42.0 km"}},{"type":"Feature","geometry":{"type":"LineString","coordinates":[[-105.96638,39.04689],[-105.96572,39.04682]]},"properties":{"huc8":"10190001","huc8Name":"South Platte Headwaters","historic":"greenback","current":"introduced","recovery":"recoveryWatch","lineageKey":"greenback","lineageLabel":"Greenback / South Platte lineage","basin":"South Platte Headwaters","note":"Generalized historical greenback context; not exact population mapping","state":"CO","confidence":"HUC8 drainage context / generalized","geometryStatus":"Named NHD stream intersecting assigned HUC8","troutSource":"HUC8 lineage assignment v1 / review needed","sourceName":"South Fork South Platte River","name":"South Fork South Platte River","source_id":"127815043","length_km":0.073,"FType":460,"FCode":46006,"atlas_class":"streamriver","water_id":"co_10190001_greenback_south_fork_south_platte_river_001","occurrence_id":"co_10190001_greenback_south_fork_south_platte_river_001","occurrence_number":"001","display_name":"South Fork South Platte River","mapped_name":"South Fork South Platte River","source_name":"South Fork South Platte River","disambiguator":"Greenback cutthroat historic context · HUC8 10190001 · occurrence 001","atlas_layer":"curated_named_water_occurrence","object_role":"interactive_named_water","lineage":"greenback","historic_label":"Greenback cutthroat historic context","current_label":"Greenback cutthroat historic context","recovery_label":"Recovery watch / review area","confidence_public":"Generalized public map / needs expert review","confidence_internal":"Occurrence-cluster preview; 111 source segments","geometry_status_public":"Generalized named-water occurrence","geometry_status_internal":"Grouped by display name, HUC8, lineage, and spatial cluster","geometry_source_public":"Grouped public hydrography segments","geometry_source_internal":"Colorado full interpreted natural stream context — occurrence v2 preview","trout_source_public":"Compiled public recovery and lineage context; expert review recommended","trout_source_internal":"HUC8 lineage assignment v1 / review needed","public_notes":"South Fork South Platte River is shown as a generalized public-map named-water occurrence for Greenback cutthroat historic context. This object is separated from other same-named waters using HUC8, lineage, and local spatial clustering. Linework is grouped from public hydrography and should be treated as interpretive watershed context, not a precise biological boundary.","internal_notes":"Preview occurrence co_10190001_greenback_south_fork_south_platte_river_001; 111 segments; 42.0 km"}},{"type":"Feature","geometry":{"type":"LineString","coordinates":[[-105.965,39.04438],[-105.96524,39.04372]]},"properties":{"huc8":"10190001","huc8Name":"South Platte Headwaters","historic":"greenback","current":"introduced","recovery":"recoveryWatch","lineageKey":"greenback","lineageLabel":"Greenback / South Platte lineage","basin":"South Platte Headwaters","note":"Generalized historical greenback context; not exact population mapping","state":"CO","confidence":"HUC8 drainage context / generalized","geometryStatus":"Named NHD stream intersecting assigned HUC8","troutSource":"HUC8 lineage assignment v1 / review needed","sourceName":"South Fork South Platte River","name":"South Fork South Platte River","source_id":"127815045","length_km":0.085,"FType":460,"FCode":46006,"atlas_class":"streamriver","water_id":"co_10190001_greenback_south_fork_south_platte_river_001","occurrence_id":"co_10190001_greenback_south_fork_south_platte_river_001","occurrence_number":"001","display_name":"South Fork South Platte River","mapped_name":"South Fork South Platte River","source_name":"South Fork South Platte River","disambiguator":"Greenback cutthroat historic context · HUC8 10190001 · occurrence 001","atlas_layer":"curated_named_water_occurrence","object_role":"interactive_named_water","lineage":"greenback","historic_label":"Greenback cutthroat historic context","current_label":"Greenback cutthroat historic context","recovery_label":"Recovery watch / review area","confidence_public":"Generalized public map / needs expert review","confidence_internal":"Occurrence-cluster preview; 111 source segments","geometry_status_public":"Generalized named-water occurrence","geometry_status_internal":"Grouped by display name, HUC8, lineage, and spatial cluster","geometry_source_public":"Grouped public hydrography segments","geometry_source_internal":"Colorado full interpreted natural stream context — occurrence v2 preview","trout_source_public":"Compiled public recovery and lineage context; expert review recommended","trout_source_internal":"HUC8 lineage assignment v1 / review needed","public_notes":"South Fork South Platte River is shown as a generalized public-map named-water occurrence for Greenback cutthroat historic context. This object is separated from other same-named waters using HUC8, lineage, and local spatial clustering. Linework is grouped from public hydrography and should be treated as interpretive watershed context, not a precise biological boundary.","internal_notes":"Preview occurrence co_10190001_greenback_south_fork_south_platte_river_001; 111 segments; 42.0 km"}},{"type":"Feature","geometry":{"type":"LineString","coordinates":[[-105.96822,39.03045],[-105.96822,39.03003],[-105.96936,39.03004],[-105.96857,39.02962],[-105.96861,39.02892]]},"properties":{"huc8":"10190001","huc8Name":"South Platte Headwaters","historic":"greenback","current":"introduced","recovery":"recoveryWatch","lineageKey":"greenback","lineageLabel":"Greenback / South Platte lineage","basin":"South Platte Headwaters","note":"Generalized historical greenback context; not exact population mapping","state":"CO","confidence":"HUC8 drainage context / generalized","geometryStatus":"Named NHD stream intersecting assigned HUC8","troutSource":"HUC8 lineage assignment v1 / review needed","sourceName":"South Fork South Platte River","name":"South Fork South Platte River","source_id":"127815049","length_km":0.337,"FType":460,"FCode":46006,"atlas_class":"streamriver","water_id":"co_10190001_greenback_south_fork_south_platte_river_001","occurrence_id":"co_10190001_greenback_south_fork_south_platte_river_001","occurrence_number":"001","display_name":"South Fork South Platte River","mapped_name":"South Fork South Platte River","source_name":"South Fork South Platte River","disambiguator":"Greenback cutthroat historic context · HUC8 10190001 · occurrence 001","atlas_layer":"curated_named_water_occurrence","object_role":"interactive_named_water","lineage":"greenback","historic_label":"Greenback cutthroat historic context","current_label":"Greenback cutthroat historic context","recovery_label":"Recovery watch / review area","confidence_public":"Generalized public map / needs expert review","confidence_internal":"Occurrence-cluster preview; 111 source segments","geometry_status_public":"Generalized named-water occurrence","geometry_status_internal":"Grouped by display name, HUC8, lineage, and spatial cluster","geometry_source_public":"Grouped public hydrography segments","geometry_source_internal":"Colorado full interpreted natural stream context — occurrence v2 preview","trout_source_public":"Compiled public recovery and lineage context; expert review recommended","trout_source_internal":"HUC8 lineage assignment v1 / review needed","public_notes":"South Fork South Platte River is shown as a generalized public-map named-water occurrence for Greenback cutthroat historic context. This object is separated from other same-named waters using HUC8, lineage, and local spatial clustering. Linework is grouped from public hydrography and should be treated as interpretive watershed context, not a precise biological boundary.","internal_notes":"Preview occurrence co_10190001_greenback_south_fork_south_platte_river_001; 111 segments; 42.0 km"}},{"type":"Feature","geometry":{"type":"LineString","coordinates":[[-105.96524,39.04372],[-105.96597,39.04368]]},"properties":{"huc8":"10190001","huc8Name":"South Platte Headwaters","historic":"greenback","current":"introduced","recovery":"recoveryWatch","lineageKey":"greenback","lineageLabel":"Greenback / South Platte lineage","basin":"South Platte Headwaters","note":"Generalized historical greenback context; not exact population mapping","state":"CO","confidence":"HUC8 drainage context / generalized","geometryStatus":"Named NHD stream intersecting assigned HUC8","troutSource":"HUC8 lineage assignment v1 / review needed","sourceName":"South Fork South Platte River","name":"South Fork South Platte River","source_id":"127815046","length_km":0.062,"FType":460,"FCode":46006,"atlas_class":"streamriver","water_id":"co_10190001_greenback_south_fork_south_platte_river_001","occurrence_id":"co_10190001_greenback_south_fork_south_platte_river_001","occurrence_number":"001","display_name":"South Fork South Platte River","mapped_name":"South Fork South Platte River","source_name":"South Fork South Platte River","disambiguator":"Greenback cutthroat historic context · HUC8 10190001 · occurrence 001","atlas_layer":"curated_named_water_occurrence","object_role":"interactive_named_water","lineage":"greenback","historic_label":"Greenback cutthroat historic context","current_label":"Greenback cutthroat historic context","recovery_label":"Recovery watch / review area","confidence_public":"Generalized public map / needs expert review","confidence_internal":"Occurrence-cluster preview; 111 source segments","geometry_status_public":"Generalized named-water occurrence","geometry_status_internal":"Grouped by display name, HUC8, lineage, and spatial cluster","geometry_source_public":"Grouped public hydrography segments","geometry_source_internal":"Colorado full interpreted natural stream context — occurrence v2 preview","trout_source_public":"Compiled public recovery and lineage context; expert review recommended","trout_source_internal":"HUC8 lineage assignment v1 / review needed","public_notes":"South Fork South Platte River is shown as a generalized public-map named-water occurrence for Greenback cutthroat historic context. This object is separated from other same-named waters using HUC8, lineage, and local spatial clustering. Linework is grouped from public hydrography and should be treated as interpretive watershed context, not a precise biological boundary.","internal_notes":"Preview occurrence co_10190001_greenback_south_fork_south_platte_river_001; 111 segments; 42.0 km"}},{"type":"Feature","geometry":{"type":"LineString","coordinates":[[-105.96555,39.05014],[-105.96496,39.04983],[-105.96506,39.04871],[-105.96555,39.04766],[-105.96629,39.04764],[-105.96638,39.04689]]},"properties":{"huc8":"10190001","huc8Name":"South Platte Headwaters","historic":"greenback","current":"introduced","recovery":"recoveryWatch","lineageKey":"greenback","lineageLabel":"Greenback / South Platte lineage","basin":"South Platte Headwaters","note":"Generalized historical greenback context; not exact population mapping","state":"CO","confidence":"HUC8 drainage context / generalized","geometryStatus":"Named NHD stream intersecting assigned HUC8","troutSource":"HUC8 lineage assignment v1 / review needed","sourceName":"South Fork South Platte River","name":"South Fork South Platte River","source_id":"127814526","length_km":0.542,"FType":460,"FCode":46006,"atlas_class":"streamriver","water_id":"co_10190001_greenback_south_fork_south_platte_river_001","occurrence_id":"co_10190001_greenback_south_fork_south_platte_river_001","occurrence_number":"001","display_name":"South Fork South Platte River","mapped_name":"South Fork South Platte River","source_name":"South Fork South Platte River","disambiguator":"Greenback cutthroat historic context · HUC8 10190001 · occurrence 001","atlas_layer":"curated_named_water_occurrence","object_role":"interactive_named_water","lineage":"greenback","historic_label":"Greenback cutthroat historic context","current_label":"Greenback cutthroat historic context","recovery_label":"Recovery watch / review area","confidence_public":"Generalized public map / needs expert review","confidence_internal":"Occurrence-cluster preview; 111 source segments","geometry_status_public":"Generalized named-water occurrence","geometry_status_internal":"Grouped by display name, HUC8, lineage, and spatial cluster","geometry_source_public":"Grouped public hydrography segments","geometry_source_internal":"Colorado full interpreted natural stream context — occurrence v2 preview","trout_source_public":"Compiled public recovery and lineage context; expert review recommended","trout_source_internal":"HUC8 lineage assignment v1 / review needed","public_notes":"South Fork South Platte River is shown as a generalized public-map named-water occurrence for Greenback cutthroat historic context. This object is separated from other same-named waters using HUC8, lineage, and local spatial clustering. Linework is grouped from public hydrography and should be treated as interpretive watershed context, not a precise biological boundary.","internal_notes":"Preview occurrence co_10190001_greenback_south_fork_south_platte_river_001; 111 segments; 42.0 km"}},{"type":"Feature","geometry":{"type":"LineString","coordinates":[[-105.96537,39.0565],[-105.96626,39.05583],[-105.96523,39.05455],[-105.96576,39.05404],[-105.96508,39.0535],[-105.96575,39.0529]]},"properties":{"huc8":"10190001","huc8Name":"South Platte Headwaters","historic":"greenback","current":"introduced","recovery":"recoveryWatch","lineageKey":"greenback","lineageLabel":"Greenback / South Platte lineage","basin":"South Platte Headwaters","note":"Generalized historical greenback context; not exact population mapping","state":"CO","confidence":"HUC8 drainage context / generalized","geometryStatus":"Named NHD stream intersecting assigned HUC8","troutSource":"HUC8 lineage assignment v1 / review needed","sourceName":"South Fork South Platte River","name":"South Fork South Platte River","source_id":"157734105","length_km":0.626,"FType":460,"FCode":46006,"atlas_class":"streamriver","water_id":"co_10190001_greenback_south_fork_south_platte_river_001","occurrence_id":"co_10190001_greenback_south_fork_south_platte_river_001","occurrence_number":"001","display_name":"South Fork South Platte River","mapped_name":"South Fork South Platte River","source_name":"South Fork South Platte River","disambiguator":"Greenback cutthroat historic context · HUC8 10190001 · occurrence 001","atlas_layer":"curated_named_water_occurrence","object_role":"interactive_named_water","lineage":"greenback","historic_label":"Greenback cutthroat historic context","current_label":"Greenback cutthroat historic context","recovery_label":"Recovery watch / review area","confidence_public":"Generalized public map / needs expert review","confidence_internal":"Occurrence-cluster preview; 111 source segments","geometry_status_public":"Generalized named-water occurrence","geometry_status_internal":"Grouped by display name, HUC8, lineage, and spatial cluster","geometry_source_public":"Grouped public hydrography segments","geometry_source_internal":"Colorado full interpreted natural stream context — occurrence v2 preview","trout_source_public":"Compiled public recovery and lineage context; expert review recommended","trout_source_internal":"HUC8 lineage assignment v1 / review needed","public_notes":"South Fork South Platte River is shown as a generalized public-map named-water occurrence for Greenback cutthroat historic context. This object is separated from other same-named waters using HUC8, lineage, and local spatial clustering. Linework is grouped from public hydrography and should be treated as interpretive watershed context, not a precise biological boundary.","internal_notes":"Preview occurrence co_10190001_greenback_south_fork_south_platte_river_001; 111 segments; 42.0 km"}},{"type":"Feature","geometry":{"type":"LineString","coordinates":[[-105.97518,39.07227],[-105.97385,39.07194],[-105.97325,39.07033],[-105.97226,39.07018],[-105.97262,39.06938],[-105.97356,39.06905],[-105.97336,39.06826]]},"properties":{"huc8":"10190001","huc8Name":"South Platte Headwaters","historic":"greenback","current":"introduced","recovery":"recoveryWatch","lineageKey":"greenback","lineageLabel":"Greenback / South Platte lineage","basin":"South Platte Headwaters","note":"Generalized historical greenback context; not exact population mapping","state":"CO","confidence":"HUC8 drainage context / generalized","geometryStatus":"Named NHD stream intersecting assigned HUC8","troutSource":"HUC8 lineage assignment v1 / review needed","sourceName":"South Fork South Platte River","name":"South Fork South Platte River","source_id":"127815042","length_km":0.71384067,"FType":460,"FCode":46006,"atlas_class":"streamriver","water_id":"co_10190001_greenback_south_fork_south_platte_river_001","occurrence_id":"co_10190001_greenback_south_fork_south_platte_river_001","occurrence_number":"001","display_name":"South Fork South Platte River","mapped_name":"South Fork South Platte River","source_name":"South Fork South Platte River","disambiguator":"Greenback cutthroat historic context · HUC8 10190001 · occurrence 001","atlas_layer":"curated_named_water_occurrence","object_role":"interactive_named_water","lineage":"greenback","historic_label":"Greenback cutthroat historic context","current_label":"Greenback cutthroat historic context","recovery_label":"Recovery watch / review area","confidence_public":"Generalized public map / needs expert review","confidence_internal":"Occurrence-cluster preview; 111 source segments","geometry_status_public":"Generalized named-water occurrence","geometry_status_internal":"Grouped by display name, HUC8, lineage, and spatial cluster","geometry_source_public":"Grouped public hydrography segments","geometry_source_internal":"Colorado full interpreted natural stream context — occurrence v2 preview","trout_source_public":"Compiled public recovery and lineage context; expert review recommended","trout_source_internal":"HUC8 lineage assignment v1 / review needed","public_notes":"South Fork South Platte River is shown as a generalized public-map named-water occurrence for Greenback cutthroat historic context. This object is separated from other same-named waters using HUC8, lineage, and local spatial clustering. Linework is grouped from public hydrography and should be treated as interpretive watershed context, not a precise biological boundary.","internal_notes":"Preview occurrence co_10190001_greenback_south_fork_south_platte_river_001; 111 segments; 42.0 km"}},{"type":"Feature","geometry":{"type":"LineString","coordinates":[[-105.99364,39.07763],[-105.99323,39.07799]]},"properties":{"huc8":"10190001","huc8Name":"South Platte Headwaters","historic":"greenback","current":"introduced","recovery":"recoveryWatch","lineageKey":"greenback","lineageLabel":"Greenback / South Platte lineage","basin":"South Platte Headwaters","note":"Generalized historical greenback context; not exact population mapping","state":"CO","confidence":"HUC8 drainage context / generalized","geometryStatus":"Named NHD stream intersecting assigned HUC8","troutSource":"HUC8 lineage assignment v1 / review needed","sourceName":"South Fork South Platte River","name":"South Fork South Platte River","source_id":"127815039","length_km":0.06048723,"FType":460,"FCode":46006,"atlas_class":"streamriver","water_id":"co_10190001_greenback_south_fork_south_platte_river_001","occurrence_id":"co_10190001_greenback_south_fork_south_platte_river_001","occurrence_number":"001","display_name":"South Fork South Platte River","mapped_name":"South Fork South Platte River","source_name":"South Fork South Platte River","disambiguator":"Greenback cutthroat historic context · HUC8 10190001 · occurrence 001","atlas_layer":"curated_named_water_occurrence","object_role":"interactive_named_water","lineage":"greenback","historic_label":"Greenback cutthroat historic context","current_label":"Greenback cutthroat historic context","recovery_label":"Recovery watch / review area","confidence_public":"Generalized public map / needs expert review","confidence_internal":"Occurrence-cluster preview; 111 source segments","geometry_status_public":"Generalized named-water occurrence","geometry_status_internal":"Grouped by display name, HUC8, lineage, and spatial cluster","geometry_source_public":"Grouped public hydrography segments","geometry_source_internal":"Colorado full interpreted natural stream context — occurrence v2 preview","trout_source_public":"Compiled public recovery and lineage context; expert review recommended","trout_source_internal":"HUC8 lineage assignment v1 / review needed","public_notes":"South Fork South Platte River is shown as a generalized public-map named-water occurrence for Greenback cutthroat historic context. This object is separated from other same-named waters using HUC8, lineage, and local spatial clustering. Linework is grouped from public hydrography and should be treated as interpretive watershed context, not a precise biological boundary.","internal_notes":"Preview occurrence co_10190001_greenback_south_fork_south_platte_river_001; 111 segments; 42.0 km"}},{"type":"Feature","geometry":{"type":"LineString","coordinates":[[-105.96178,39.00122],[-105.96118,39.00055],[-105.96039,39.00138],[-105.96016,39.00082],[-105.95911,39.0006]]},"properties":{"huc8":"10190001","huc8Name":"South Platte Headwaters","historic":"greenback","current":"introduced","recovery":"recoveryWatch","lineageKey":"greenback","lineageLabel":"Greenback / South Platte lineage","basin":"South Platte Headwaters","note":"Generalized historical greenback context; not exact population mapping","state":"CO","confidence":"HUC8 drainage context / generalized","geometryStatus":"Named NHD stream intersecting assigned HUC8","troutSource":"HUC8 lineage assignment v1 / review needed","sourceName":"South Fork South Platte River","name":"South Fork South Platte River","source_id":"127815096","length_km":0.493,"FType":460,"FCode":46006,"atlas_class":"streamriver","water_id":"co_10190001_greenback_south_fork_south_platte_river_001","occurrence_id":"co_10190001_greenback_south_fork_south_platte_river_001","occurrence_number":"001","display_name":"South Fork South Platte River","mapped_name":"South Fork South Platte River","source_name":"South Fork South Platte River","disambiguator":"Greenback cutthroat historic context · HUC8 10190001 · occurrence 001","atlas_layer":"curated_named_water_occurrence","object_role":"interactive_named_water","lineage":"greenback","historic_label":"Greenback cutthroat historic context","current_label":"Greenback cutthroat historic context","recovery_label":"Recovery watch / review area","confidence_public":"Generalized public map / needs expert review","confidence_internal":"Occurrence-cluster preview; 111 source segments","geometry_status_public":"Generalized named-water occurrence","geometry_status_internal":"Grouped by display name, HUC8, lineage, and spatial cluster","geometry_source_public":"Grouped public hydrography segments","geometry_source_internal":"Colorado full interpreted natural stream context — occurrence v2 preview","trout_source_public":"Compiled public recovery and lineage context; expert review recommended","trout_source_internal":"HUC8 lineage assignment v1 / review needed","public_notes":"South Fork South Platte River is shown as a generalized public-map named-water occurrence for Greenback cutthroat historic context. This object is separated from other same-named waters using HUC8, lineage, and local spatial clustering. Linework is grouped from public hydrography and should be treated as interpretive watershed context, not a precise biological boundary.","internal_notes":"Preview occurrence co_10190001_greenback_south_fork_south_platte_river_001; 111 segments; 42.0 km"}},{"type":"Feature","geometry":{"type":"LineString","coordinates":[[-105.96909,39.03683],[-105.97023,39.03604],[-105.96954,39.03513]]},"properties":{"huc8":"10190001","huc8Name":"South Platte Headwaters","historic":"greenback","current":"introduced","recovery":"recoveryWatch","lineageKey":"greenback","lineageLabel":"Greenback / South Platte lineage","basin":"South Platte Headwaters","note":"Generalized historical greenback context; not exact population mapping","state":"CO","confidence":"HUC8 drainage context / generalized","geometryStatus":"Named NHD stream intersecting assigned HUC8","troutSource":"HUC8 lineage assignment v1 / review needed","sourceName":"South Fork South Platte River","name":"South Fork South Platte River","source_id":"127815052","length_km":0.278,"FType":460,"FCode":46006,"atlas_class":"streamriver","water_id":"co_10190001_greenback_south_fork_south_platte_river_001","occurrence_id":"co_10190001_greenback_south_fork_south_platte_river_001","occurrence_number":"001","display_name":"South Fork South Platte River","mapped_name":"South Fork South Platte River","source_name":"South Fork South Platte River","disambiguator":"Greenback cutthroat historic context · HUC8 10190001 · occurrence 001","atlas_layer":"curated_named_water_occurrence","object_role":"interactive_named_water","lineage":"greenback","historic_label":"Greenback cutthroat historic context","current_label":"Greenback cutthroat historic context","recovery_label":"Recovery watch / review area","confidence_public":"Generalized public map / needs expert review","confidence_internal":"Occurrence-cluster preview; 111 source segments","geometry_status_public":"Generalized named-water occurrence","geometry_status_internal":"Grouped by display name, HUC8, lineage, and spatial cluster","geometry_source_public":"Grouped public hydrography segments","geometry_source_internal":"Colorado full interpreted natural stream context — occurrence v2 preview","trout_source_public":"Compiled public recovery and lineage context; expert review recommended","trout_source_internal":"HUC8 lineage assignment v1 / review needed","public_notes":"South Fork South Platte River is shown as a generalized public-map named-water occurrence for Greenback cutthroat historic context. This object is separated from other same-named waters using HUC8, lineage, and local spatial clustering. Linework is grouped from public hydrography and should be treated as interpretive watershed context, not a precise biological boundary.","internal_notes":"Preview occurrence co_10190001_greenback_south_fork_south_platte_river_001; 111 segments; 42.0 km"}},{"type":"Feature","geometry":{"type":"LineString","coordinates":[[-105.96659,39.0407],[-105.96702,39.03985],[-105.96819,39.03966],[-105.96886,39.03884],[-105.96909,39.03683]]},"properties":{"huc8":"10190001","huc8Name":"South Platte Headwaters","historic":"greenback","current":"introduced","recovery":"recoveryWatch","lineageKey":"greenback","lineageLabel":"Greenback / South Platte lineage","basin":"South Platte Headwaters","note":"Generalized historical greenback context; not exact population mapping","state":"CO","confidence":"HUC8 drainage context / generalized","geometryStatus":"Named NHD stream intersecting assigned HUC8","troutSource":"HUC8 lineage assignment v1 / review needed","sourceName":"South Fork South Platte River","name":"South Fork South Platte River","source_id":"127815048","length_km":0.61,"FType":460,"FCode":46006,"atlas_class":"streamriver","water_id":"co_10190001_greenback_south_fork_south_platte_river_001","occurrence_id":"co_10190001_greenback_south_fork_south_platte_river_001","occurrence_number":"001","display_name":"South Fork South Platte River","mapped_name":"South Fork South Platte River","source_name":"South Fork South Platte River","disambiguator":"Greenback cutthroat historic context · HUC8 10190001 · occurrence 001","atlas_layer":"curated_named_water_occurrence","object_role":"interactive_named_water","lineage":"greenback","historic_label":"Greenback cutthroat historic context","current_label":"Greenback cutthroat historic context","recovery_label":"Recovery watch / review area","confidence_public":"Generalized public map / needs expert review","confidence_internal":"Occurrence-cluster preview; 111 source segments","geometry_status_public":"Generalized named-water occurrence","geometry_status_internal":"Grouped by display name, HUC8, lineage, and spatial cluster","geometry_source_public":"Grouped public hydrography segments","geometry_source_internal":"Colorado full interpreted natural stream context — occurrence v2 preview","trout_source_public":"Compiled public recovery and lineage context; expert review recommended","trout_source_internal":"HUC8 lineage assignment v1 / review needed","public_notes":"South Fork South Platte River is shown as a generalized public-map named-water occurrence for Greenback cutthroat historic context. This object is separated from other same-named waters using HUC8, lineage, and local spatial clustering. Linework is grouped from public hydrography and should be treated as interpretive watershed context, not a precise biological boundary.","internal_notes":"Preview occurrence co_10190001_greenback_south_fork_south_platte_river_001; 111 segments; 42.0 km"}},{"type":"Feature","geometry":{"type":"LineString","coordinates":[[-105.99524,39.07691],[-105.99425,39.07688],[-105.99364,39.07763]]},"properties":{"huc8":"10190001","huc8Name":"South Platte Headwaters","historic":"greenback","current":"introduced","recovery":"recoveryWatch","lineageKey":"greenback","lineageLabel":"Greenback / South Platte lineage","basin":"South Platte Headwaters","note":"Generalized historical greenback context; not exact population mapping","state":"CO","confidence":"HUC8 drainage context / generalized","geometryStatus":"Named NHD stream intersecting assigned HUC8","troutSource":"HUC8 lineage assignment v1 / review needed","sourceName":"South Fork South Platte River","name":"South Fork South Platte River","source_id":"127815041","length_km":0.25133106,"FType":460,"FCode":46006,"atlas_class":"streamriver","water_id":"co_10190001_greenback_south_fork_south_platte_river_001","occurrence_id":"co_10190001_greenback_south_fork_south_platte_river_001","occurrence_number":"001","display_name":"South Fork South Platte River","mapped_name":"South Fork South Platte River","source_name":"South Fork South Platte River","disambiguator":"Greenback cutthroat historic context · HUC8 10190001 · occurrence 001","atlas_layer":"curated_named_water_occurrence","object_role":"interactive_named_water","lineage":"greenback","historic_label":"Greenback cutthroat historic context","current_label":"Greenback cutthroat historic context","recovery_label":"Recovery watch / review area","confidence_public":"Generalized public map / needs expert review","confidence_internal":"Occurrence-cluster preview; 111 source segments","geometry_status_public":"Generalized named-water occurrence","geometry_status_internal":"Grouped by display name, HUC8, lineage, and spatial cluster","geometry_source_public":"Grouped public hydrography segments","geometry_source_internal":"Colorado full interpreted natural stream context — occurrence v2 preview","trout_source_public":"Compiled public recovery and lineage context; expert review recommended","trout_source_internal":"HUC8 lineage assignment v1 / review needed","public_notes":"South Fork South Platte River is shown as a generalized public-map named-water occurrence for Greenback cutthroat historic context. This object is separated from other same-named waters using HUC8, lineage, and local spatial clustering. Linework is grouped from public hydrography and should be treated as interpretive watershed context, not a precise biological boundary.","internal_notes":"Preview occurrence co_10190001_greenback_south_fork_south_platte_river_001; 111 segments; 42.0 km"}},{"type":"Feature","geometry":{"type":"LineString","coordinates":[[-105.96539,39.05149],[-105.9651,39.05103]]},"properties":{"huc8":"10190001","huc8Name":"South Platte Headwaters","historic":"greenback","current":"introduced","recovery":"recoveryWatch","lineageKey":"greenback","lineageLabel":"Greenback / South Platte lineage","basin":"South Platte Headwaters","note":"Generalized historical greenback context; not exact population mapping","state":"CO","confidence":"HUC8 drainage context / generalized","geometryStatus":"Named NHD stream intersecting assigned HUC8","troutSource":"HUC8 lineage assignment v1 / review needed","sourceName":"South Fork South Platte River","name":"South Fork South Platte River","source_id":"157734109","length_km":0.064,"FType":460,"FCode":46006,"atlas_class":"streamriver","water_id":"co_10190001_greenback_south_fork_south_platte_river_001","occurrence_id":"co_10190001_greenback_south_fork_south_platte_river_001","occurrence_number":"001","display_name":"South Fork South Platte River","mapped_name":"South Fork South Platte River","source_name":"South Fork South Platte River","disambiguator":"Greenback cutthroat historic context · HUC8 10190001 · occurrence 001","atlas_layer":"curated_named_water_occurrence","object_role":"interactive_named_water","lineage":"greenback","historic_label":"Greenback cutthroat historic context","current_label":"Greenback cutthroat historic context","recovery_label":"Recovery watch / review area","confidence_public":"Generalized public map / needs expert review","confidence_internal":"Occurrence-cluster preview; 111 source segments","geometry_status_public":"Generalized named-water occurrence","geometry_status_internal":"Grouped by display name, HUC8, lineage, and spatial cluster","geometry_source_public":"Grouped public hydrography segments","geometry_source_internal":"Colorado full interpreted natural stream context — occurrence v2 preview","trout_source_public":"Compiled public recovery and lineage context; expert review recommended","trout_source_internal":"HUC8 lineage assignment v1 / review needed","public_notes":"South Fork South Platte River is shown as a generalized public-map named-water occurrence for Greenback cutthroat historic context. This object is separated from other same-named waters using HUC8, lineage, and local spatial clustering. Linework is grouped from public hydrography and should be treated as interpretive watershed context, not a precise biological boundary.","internal_notes":"Preview occurrence co_10190001_greenback_south_fork_south_platte_river_001; 111 segments; 42.0 km"}},{"type":"Feature","geometry":{"type":"LineString","coordinates":[[-105.96575,39.0529],[-105.96501,39.05193],[-105.96539,39.05149]]},"properties":{"huc8":"10190001","huc8Name":"South Platte Headwaters","historic":"greenback","current":"introduced","recovery":"recoveryWatch","lineageKey":"greenback","lineageLabel":"Greenback / South Platte lineage","basin":"South Platte Headwaters","note":"Generalized historical greenback context; not exact population mapping","state":"CO","confidence":"HUC8 drainage context / generalized","geometryStatus":"Named NHD stream intersecting assigned HUC8","troutSource":"HUC8 lineage assignment v1 / review needed","sourceName":"South Fork South Platte River","name":"South Fork South Platte River","source_id":"157734107","length_km":0.207,"FType":460,"FCode":46006,"atlas_class":"streamriver","water_id":"co_10190001_greenback_south_fork_south_platte_river_001","occurrence_id":"co_10190001_greenback_south_fork_south_platte_river_001","occurrence_number":"001","display_name":"South Fork South Platte River","mapped_name":"South Fork South Platte River","source_name":"South Fork South Platte River","disambiguator":"Greenback cutthroat historic context · HUC8 10190001 · occurrence 001","atlas_layer":"curated_named_water_occurrence","object_role":"interactive_named_water","lineage":"greenback","historic_label":"Greenback cutthroat historic context","current_label":"Greenback cutthroat historic context","recovery_label":"Recovery watch / review area","confidence_public":"Generalized public map / needs expert review","confidence_internal":"Occurrence-cluster preview; 111 source segments","geometry_status_public":"Generalized named-water occurrence","geometry_status_internal":"Grouped by display name, HUC8, lineage, and spatial cluster","geometry_source_public":"Grouped public hydrography segments","geometry_source_internal":"Colorado full interpreted natural stream context — occurrence v2 preview","trout_source_public":"Compiled public recovery and lineage context; expert review recommended","trout_source_internal":"HUC8 lineage assignment v1 / review needed","public_notes":"South Fork South Platte River is shown as a generalized public-map named-water occurrence for Greenback cutthroat historic context. This object is separated from other same-named waters using HUC8, lineage, and local spatial clustering. Linework is grouped from public hydrography and should be treated as interpretive watershed context, not a precise biological boundary.","internal_notes":"Preview occurrence co_10190001_greenback_south_fork_south_platte_river_001; 111 segments; 42.0 km"}},{"type":"Feature","geometry":{"type":"LineString","coordinates":[[-105.99323,39.07799],[-105.99275,39.07699],[-105.99071,39.07618],[-105.98913,39.07641],[-105.98923,39.07595],[-105.98833,39.07616],[-105.98707,39.07539],[-105.98682,39.07389],[-105.98609,39.07342],[-105.98377,39.07317],[-105.98114,39.07202],[-105.97788,39.07267],[-105.97753,39.07205],[-105.97518,39.07227]]},"properties":{"huc8":"10190001","huc8Name":"South Platte Headwaters","historic":"greenback","current":"introduced","recovery":"recoveryWatch","lineageKey":"greenback","lineageLabel":"Greenback / South Platte lineage","basin":"South Platte Headwaters","note":"Generalized historical greenback context; not exact population mapping","state":"CO","confidence":"HUC8 drainage context / generalized","geometryStatus":"Named NHD stream intersecting assigned HUC8","troutSource":"HUC8 lineage assignment v1 / review needed","sourceName":"South Fork South Platte River","name":"South Fork South Platte River","source_id":"127815040","length_km":2.23471648,"FType":460,"FCode":46006,"atlas_class":"streamriver","water_id":"co_10190001_greenback_south_fork_south_platte_river_001","occurrence_id":"co_10190001_greenback_south_fork_south_platte_river_001","occurrence_number":"001","display_name":"South Fork South Platte River","mapped_name":"South Fork South Platte River","source_name":"South Fork South Platte River","disambiguator":"Greenback cutthroat historic context · HUC8 10190001 · occurrence 001","atlas_layer":"curated_named_water_occurrence","object_role":"interactive_named_water","lineage":"greenback","historic_label":"Greenback cutthroat historic context","current_label":"Greenback cutthroat historic context","recovery_label":"Recovery watch / review area","confidence_public":"Generalized public map / needs expert review","confidence_internal":"Occurrence-cluster preview; 111 source segments","geometry_status_public":"Generalized named-water occurrence","geometry_status_internal":"Grouped by display name, HUC8, lineage, and spatial cluster","geometry_source_public":"Grouped public hydrography segments","geometry_source_internal":"Colorado full interpreted natural stream context — occurrence v2 preview","trout_source_public":"Compiled public recovery and lineage context; expert review recommended","trout_source_internal":"HUC8 lineage assignment v1 / review needed","public_notes":"South Fork South Platte River is shown as a generalized public-map named-water occurrence for Greenback cutthroat historic context. This object is separated from other same-named waters using HUC8, lineage, and local spatial clustering. Linework is grouped from public hydrography and should be treated as interpretive watershed context, not a precise biological boundary.","internal_notes":"Preview occurrence co_10190001_greenback_south_fork_south_platte_river_001; 111 segments; 42.0 km"}}]}