{"type":"FeatureCollection","metadata":{"description":"Colorado curated named waters occurrence v2 preview tile","source":"C:\\ct-atlas-data\\processed\\geojson\\interpreted\\colorado_curated_named_waters_occurrence_v2_preview.geojson","tileSizeDeg":0.25,"bounds":{"west":-109,"east":-108.75,"south":38.5,"north":38.75},"featureCount":24},"features":[{"type":"Feature","geometry":{"type":"LineString","coordinates":[[-108.9033,38.7526],[-108.90626,38.74669],[-108.90617,38.74514]]},"properties":{"huc8":"14030004","huc8Name":"Lower Dolores","historic":"coloradoRiver","current":"introduced","recovery":"recoveryWatch","lineageKey":"coloradoRiver","lineageLabel":"Colorado River green lineage","basin":"Lower Dolores","note":"Dolores green-lineage context","state":"CO","confidence":"HUC8 drainage context / generalized","geometryStatus":"Named NHD stream intersecting assigned HUC8","troutSource":"HUC8 lineage assignment v1 / review needed","sourceName":"West Creek","name":"West Creek","source_id":"62514517","length_km":0.90268249,"FType":460,"FCode":46006,"atlas_class":"streamriver","water_id":"co_14030004_coloradoriver_west_creek_001","occurrence_id":"co_14030004_coloradoriver_west_creek_001","occurrence_number":"001","display_name":"West Creek","mapped_name":"West Creek","source_name":"West Creek","disambiguator":"Colorado River cutthroat historic context · HUC8 14030004 · occurrence 001","atlas_layer":"curated_named_water_occurrence","object_role":"interactive_named_water","lineage":"coloradoRiver","historic_label":"Colorado River cutthroat historic context","current_label":"Colorado River cutthroat historic context","recovery_label":"Recovery watch / review area","confidence_public":"Generalized public map / needs expert review","confidence_internal":"Occurrence-cluster preview; 85 source segments","geometry_status_public":"Generalized named-water occurrence","geometry_status_internal":"Grouped by display name, HUC8, lineage, and spatial cluster","geometry_source_public":"Grouped public hydrography segments","geometry_source_internal":"Colorado full interpreted natural stream context — occurrence v2 preview","trout_source_public":"Compiled public recovery and lineage context; expert review recommended","trout_source_internal":"HUC8 lineage assignment v1 / review needed","public_notes":"West Creek is shown as a generalized public-map named-water occurrence for Colorado River cutthroat historic context. This object is separated from other same-named waters using HUC8, lineage, and local spatial clustering. Linework is grouped from public hydrography and should be treated as interpretive watershed context, not a precise biological boundary.","internal_notes":"Preview occurrence co_14030004_coloradoriver_west_creek_001; 85 segments; 41.5 km"}},{"type":"Feature","geometry":{"type":"LineString","coordinates":[[-108.92473,38.71639],[-108.92559,38.71526]]},"properties":{"huc8":"14030004","huc8Name":"Lower Dolores","historic":"coloradoRiver","current":"introduced","recovery":"recoveryWatch","lineageKey":"coloradoRiver","lineageLabel":"Colorado River green lineage","basin":"Lower Dolores","note":"Dolores green-lineage context","state":"CO","confidence":"HUC8 drainage context / generalized","geometryStatus":"Named NHD stream intersecting assigned HUC8","troutSource":"HUC8 lineage assignment v1 / review needed","sourceName":"West Creek","name":"West Creek","source_id":"62509515","length_km":0.15075625,"FType":460,"FCode":46006,"atlas_class":"streamriver","water_id":"co_14030004_coloradoriver_west_creek_001","occurrence_id":"co_14030004_coloradoriver_west_creek_001","occurrence_number":"001","display_name":"West Creek","mapped_name":"West Creek","source_name":"West Creek","disambiguator":"Colorado River cutthroat historic context · HUC8 14030004 · occurrence 001","atlas_layer":"curated_named_water_occurrence","object_role":"interactive_named_water","lineage":"coloradoRiver","historic_label":"Colorado River cutthroat historic context","current_label":"Colorado River cutthroat historic context","recovery_label":"Recovery watch / review area","confidence_public":"Generalized public map / needs expert review","confidence_internal":"Occurrence-cluster preview; 85 source segments","geometry_status_public":"Generalized named-water occurrence","geometry_status_internal":"Grouped by display name, HUC8, lineage, and spatial cluster","geometry_source_public":"Grouped public hydrography segments","geometry_source_internal":"Colorado full interpreted natural stream context — occurrence v2 preview","trout_source_public":"Compiled public recovery and lineage context; expert review recommended","trout_source_internal":"HUC8 lineage assignment v1 / review needed","public_notes":"West Creek is shown as a generalized public-map named-water occurrence for Colorado River cutthroat historic context. This object is separated from other same-named waters using HUC8, lineage, and local spatial clustering. Linework is grouped from public hydrography and should be treated as interpretive watershed context, not a precise biological boundary.","internal_notes":"Preview occurrence co_14030004_coloradoriver_west_creek_001; 85 segments; 41.5 km"}},{"type":"Feature","geometry":{"type":"LineString","coordinates":[[-108.92849,38.71344],[-108.93266,38.70962]]},"properties":{"huc8":"14030004","huc8Name":"Lower Dolores","historic":"coloradoRiver","current":"introduced","recovery":"recoveryWatch","lineageKey":"coloradoRiver","lineageLabel":"Colorado River green lineage","basin":"Lower Dolores","note":"Dolores green-lineage context","state":"CO","confidence":"HUC8 drainage context / generalized","geometryStatus":"Named NHD stream intersecting assigned HUC8","troutSource":"HUC8 lineage assignment v1 / review needed","sourceName":"West Creek","name":"West Creek","source_id":"62509537","length_km":0.56584965,"FType":460,"FCode":46006,"atlas_class":"streamriver","water_id":"co_14030004_coloradoriver_west_creek_001","occurrence_id":"co_14030004_coloradoriver_west_creek_001","occurrence_number":"001","display_name":"West Creek","mapped_name":"West Creek","source_name":"West Creek","disambiguator":"Colorado River cutthroat historic context · HUC8 14030004 · occurrence 001","atlas_layer":"curated_named_water_occurrence","object_role":"interactive_named_water","lineage":"coloradoRiver","historic_label":"Colorado River cutthroat historic context","current_label":"Colorado River cutthroat historic context","recovery_label":"Recovery watch / review area","confidence_public":"Generalized public map / needs expert review","confidence_internal":"Occurrence-cluster preview; 85 source segments","geometry_status_public":"Generalized named-water occurrence","geometry_status_internal":"Grouped by display name, HUC8, lineage, and spatial cluster","geometry_source_public":"Grouped public hydrography segments","geometry_source_internal":"Colorado full interpreted natural stream context — occurrence v2 preview","trout_source_public":"Compiled public recovery and lineage context; expert review recommended","trout_source_internal":"HUC8 lineage assignment v1 / review needed","public_notes":"West Creek is shown as a generalized public-map named-water occurrence for Colorado River cutthroat historic context. This object is separated from other same-named waters using HUC8, lineage, and local spatial clustering. Linework is grouped from public hydrography and should be treated as interpretive watershed context, not a precise biological boundary.","internal_notes":"Preview occurrence co_14030004_coloradoriver_west_creek_001; 85 segments; 41.5 km"}},{"type":"Feature","geometry":{"type":"LineString","coordinates":[[-108.94983,38.6962],[-108.95213,38.69527],[-108.95541,38.69267]]},"properties":{"huc8":"14030004","huc8Name":"Lower Dolores","historic":"coloradoRiver","current":"introduced","recovery":"recoveryWatch","lineageKey":"coloradoRiver","lineageLabel":"Colorado River green lineage","basin":"Lower Dolores","note":"Dolores green-lineage context","state":"CO","confidence":"HUC8 drainage context / generalized","geometryStatus":"Named NHD stream intersecting assigned HUC8","troutSource":"HUC8 lineage assignment v1 / review needed","sourceName":"West Creek","name":"West Creek","source_id":"62509581","length_km":0.64962302,"FType":460,"FCode":46006,"atlas_class":"streamriver","water_id":"co_14030004_coloradoriver_west_creek_001","occurrence_id":"co_14030004_coloradoriver_west_creek_001","occurrence_number":"001","display_name":"West Creek","mapped_name":"West Creek","source_name":"West Creek","disambiguator":"Colorado River cutthroat historic context · HUC8 14030004 · occurrence 001","atlas_layer":"curated_named_water_occurrence","object_role":"interactive_named_water","lineage":"coloradoRiver","historic_label":"Colorado River cutthroat historic context","current_label":"Colorado River cutthroat historic context","recovery_label":"Recovery watch / review area","confidence_public":"Generalized public map / needs expert review","confidence_internal":"Occurrence-cluster preview; 85 source segments","geometry_status_public":"Generalized named-water occurrence","geometry_status_internal":"Grouped by display name, HUC8, lineage, and spatial cluster","geometry_source_public":"Grouped public hydrography segments","geometry_source_internal":"Colorado full interpreted natural stream context — occurrence v2 preview","trout_source_public":"Compiled public recovery and lineage context; expert review recommended","trout_source_internal":"HUC8 lineage assignment v1 / review needed","public_notes":"West Creek is shown as a generalized public-map named-water occurrence for Colorado River cutthroat historic context. This object is separated from other same-named waters using HUC8, lineage, and local spatial clustering. Linework is grouped from public hydrography and should be treated as interpretive watershed context, not a precise biological boundary.","internal_notes":"Preview occurrence co_14030004_coloradoriver_west_creek_001; 85 segments; 41.5 km"}},{"type":"Feature","geometry":{"type":"LineString","coordinates":[[-108.90321,38.73681],[-108.90288,38.73403],[-108.9017,38.73175],[-108.90178,38.72896]]},"properties":{"huc8":"14030004","huc8Name":"Lower Dolores","historic":"coloradoRiver","current":"introduced","recovery":"recoveryWatch","lineageKey":"coloradoRiver","lineageLabel":"Colorado River green lineage","basin":"Lower Dolores","note":"Dolores green-lineage context","state":"CO","confidence":"HUC8 drainage context / generalized","geometryStatus":"Named NHD stream intersecting assigned HUC8","troutSource":"HUC8 lineage assignment v1 / review needed","sourceName":"West Creek","name":"West Creek","source_id":"62509477","length_km":0.907,"FType":460,"FCode":46006,"atlas_class":"streamriver","water_id":"co_14030004_coloradoriver_west_creek_001","occurrence_id":"co_14030004_coloradoriver_west_creek_001","occurrence_number":"001","display_name":"West Creek","mapped_name":"West Creek","source_name":"West Creek","disambiguator":"Colorado River cutthroat historic context · HUC8 14030004 · occurrence 001","atlas_layer":"curated_named_water_occurrence","object_role":"interactive_named_water","lineage":"coloradoRiver","historic_label":"Colorado River cutthroat historic context","current_label":"Colorado River cutthroat historic context","recovery_label":"Recovery watch / review area","confidence_public":"Generalized public map / needs expert review","confidence_internal":"Occurrence-cluster preview; 85 source segments","geometry_status_public":"Generalized named-water occurrence","geometry_status_internal":"Grouped by display name, HUC8, lineage, and spatial cluster","geometry_source_public":"Grouped public hydrography segments","geometry_source_internal":"Colorado full interpreted natural stream context — occurrence v2 preview","trout_source_public":"Compiled public recovery and lineage context; expert review recommended","trout_source_internal":"HUC8 lineage assignment v1 / review needed","public_notes":"West Creek is shown as a generalized public-map named-water occurrence for Colorado River cutthroat historic context. This object is separated from other same-named waters using HUC8, lineage, and local spatial clustering. Linework is grouped from public hydrography and should be treated as interpretive watershed context, not a precise biological boundary.","internal_notes":"Preview occurrence co_14030004_coloradoriver_west_creek_001; 85 segments; 41.5 km"}},{"type":"Feature","geometry":{"type":"LineString","coordinates":[[-108.92055,38.71873],[-108.9221,38.71718],[-108.92473,38.71639]]},"properties":{"huc8":"14030004","huc8Name":"Lower Dolores","historic":"coloradoRiver","current":"introduced","recovery":"recoveryWatch","lineageKey":"coloradoRiver","lineageLabel":"Colorado River green lineage","basin":"Lower Dolores","note":"Dolores green-lineage context","state":"CO","confidence":"HUC8 drainage context / generalized","geometryStatus":"Named NHD stream intersecting assigned HUC8","troutSource":"HUC8 lineage assignment v1 / review needed","sourceName":"West Creek","name":"West Creek","source_id":"62509511","length_km":0.46657671,"FType":460,"FCode":46006,"atlas_class":"streamriver","water_id":"co_14030004_coloradoriver_west_creek_001","occurrence_id":"co_14030004_coloradoriver_west_creek_001","occurrence_number":"001","display_name":"West Creek","mapped_name":"West Creek","source_name":"West Creek","disambiguator":"Colorado River cutthroat historic context · HUC8 14030004 · occurrence 001","atlas_layer":"curated_named_water_occurrence","object_role":"interactive_named_water","lineage":"coloradoRiver","historic_label":"Colorado River cutthroat historic context","current_label":"Colorado River cutthroat historic context","recovery_label":"Recovery watch / review area","confidence_public":"Generalized public map / needs expert review","confidence_internal":"Occurrence-cluster preview; 85 source segments","geometry_status_public":"Generalized named-water occurrence","geometry_status_internal":"Grouped by display name, HUC8, lineage, and spatial cluster","geometry_source_public":"Grouped public hydrography segments","geometry_source_internal":"Colorado full interpreted natural stream context — occurrence v2 preview","trout_source_public":"Compiled public recovery and lineage context; expert review recommended","trout_source_internal":"HUC8 lineage assignment v1 / review needed","public_notes":"West Creek is shown as a generalized public-map named-water occurrence for Colorado River cutthroat historic context. This object is separated from other same-named waters using HUC8, lineage, and local spatial clustering. Linework is grouped from public hydrography and should be treated as interpretive watershed context, not a precise biological boundary.","internal_notes":"Preview occurrence co_14030004_coloradoriver_west_creek_001; 85 segments; 41.5 km"}},{"type":"Feature","geometry":{"type":"LineString","coordinates":[[-108.90206,38.72724],[-108.90739,38.72433],[-108.91011,38.72458]]},"properties":{"huc8":"14030004","huc8Name":"Lower Dolores","historic":"coloradoRiver","current":"introduced","recovery":"recoveryWatch","lineageKey":"coloradoRiver","lineageLabel":"Colorado River green lineage","basin":"Lower Dolores","note":"Dolores green-lineage context","state":"CO","confidence":"HUC8 drainage context / generalized","geometryStatus":"Named NHD stream intersecting assigned HUC8","troutSource":"HUC8 lineage assignment v1 / review needed","sourceName":"West Creek","name":"West Creek","source_id":"62509481","length_km":0.81312441,"FType":460,"FCode":46006,"atlas_class":"streamriver","water_id":"co_14030004_coloradoriver_west_creek_001","occurrence_id":"co_14030004_coloradoriver_west_creek_001","occurrence_number":"001","display_name":"West Creek","mapped_name":"West Creek","source_name":"West Creek","disambiguator":"Colorado River cutthroat historic context · HUC8 14030004 · occurrence 001","atlas_layer":"curated_named_water_occurrence","object_role":"interactive_named_water","lineage":"coloradoRiver","historic_label":"Colorado River cutthroat historic context","current_label":"Colorado River cutthroat historic context","recovery_label":"Recovery watch / review area","confidence_public":"Generalized public map / needs expert review","confidence_internal":"Occurrence-cluster preview; 85 source segments","geometry_status_public":"Generalized named-water occurrence","geometry_status_internal":"Grouped by display name, HUC8, lineage, and spatial cluster","geometry_source_public":"Grouped public hydrography segments","geometry_source_internal":"Colorado full interpreted natural stream context — occurrence v2 preview","trout_source_public":"Compiled public recovery and lineage context; expert review recommended","trout_source_internal":"HUC8 lineage assignment v1 / review needed","public_notes":"West Creek is shown as a generalized public-map named-water occurrence for Colorado River cutthroat historic context. This object is separated from other same-named waters using HUC8, lineage, and local spatial clustering. Linework is grouped from public hydrography and should be treated as interpretive watershed context, not a precise biological boundary.","internal_notes":"Preview occurrence co_14030004_coloradoriver_west_creek_001; 85 segments; 41.5 km"}},{"type":"Feature","geometry":{"type":"LineString","coordinates":[[-108.95587,38.69197],[-108.95704,38.69078]]},"properties":{"huc8":"14030004","huc8Name":"Lower Dolores","historic":"coloradoRiver","current":"introduced","recovery":"recoveryWatch","lineageKey":"coloradoRiver","lineageLabel":"Colorado River green lineage","basin":"Lower Dolores","note":"Dolores green-lineage context","state":"CO","confidence":"HUC8 drainage context / generalized","geometryStatus":"Named NHD stream intersecting assigned HUC8","troutSource":"HUC8 lineage assignment v1 / review needed","sourceName":"West Creek","name":"West Creek","source_id":"62509589","length_km":0.17177213,"FType":460,"FCode":46006,"atlas_class":"streamriver","water_id":"co_14030004_coloradoriver_west_creek_001","occurrence_id":"co_14030004_coloradoriver_west_creek_001","occurrence_number":"001","display_name":"West Creek","mapped_name":"West Creek","source_name":"West Creek","disambiguator":"Colorado River cutthroat historic context · HUC8 14030004 · occurrence 001","atlas_layer":"curated_named_water_occurrence","object_role":"interactive_named_water","lineage":"coloradoRiver","historic_label":"Colorado River cutthroat historic context","current_label":"Colorado River cutthroat historic context","recovery_label":"Recovery watch / review area","confidence_public":"Generalized public map / needs expert review","confidence_internal":"Occurrence-cluster preview; 85 source segments","geometry_status_public":"Generalized named-water occurrence","geometry_status_internal":"Grouped by display name, HUC8, lineage, and spatial cluster","geometry_source_public":"Grouped public hydrography segments","geometry_source_internal":"Colorado full interpreted natural stream context — occurrence v2 preview","trout_source_public":"Compiled public recovery and lineage context; expert review recommended","trout_source_internal":"HUC8 lineage assignment v1 / review needed","public_notes":"West Creek is shown as a generalized public-map named-water occurrence for Colorado River cutthroat historic context. This object is separated from other same-named waters using HUC8, lineage, and local spatial clustering. Linework is grouped from public hydrography and should be treated as interpretive watershed context, not a precise biological boundary.","internal_notes":"Preview occurrence co_14030004_coloradoriver_west_creek_001; 85 segments; 41.5 km"}},{"type":"Feature","geometry":{"type":"LineString","coordinates":[[-108.96793,38.68434],[-108.96931,38.68281],[-108.97173,38.68198],[-108.97587,38.67766]]},"properties":{"huc8":"14030004","huc8Name":"Lower Dolores","historic":"coloradoRiver","current":"introduced","recovery":"recoveryWatch","lineageKey":"coloradoRiver","lineageLabel":"Colorado River green lineage","basin":"Lower Dolores","note":"Dolores green-lineage context","state":"CO","confidence":"HUC8 drainage context / generalized","geometryStatus":"Named NHD stream intersecting assigned HUC8","troutSource":"HUC8 lineage assignment v1 / review needed","sourceName":"West Creek","name":"West Creek","source_id":"62509621","length_km":1.06273957,"FType":460,"FCode":46006,"atlas_class":"streamriver","water_id":"co_14030004_coloradoriver_west_creek_001","occurrence_id":"co_14030004_coloradoriver_west_creek_001","occurrence_number":"001","display_name":"West Creek","mapped_name":"West Creek","source_name":"West Creek","disambiguator":"Colorado River cutthroat historic context · HUC8 14030004 · occurrence 001","atlas_layer":"curated_named_water_occurrence","object_role":"interactive_named_water","lineage":"coloradoRiver","historic_label":"Colorado River cutthroat historic context","current_label":"Colorado River cutthroat historic context","recovery_label":"Recovery watch / review area","confidence_public":"Generalized public map / needs expert review","confidence_internal":"Occurrence-cluster preview; 85 source segments","geometry_status_public":"Generalized named-water occurrence","geometry_status_internal":"Grouped by display name, HUC8, lineage, and spatial cluster","geometry_source_public":"Grouped public hydrography segments","geometry_source_internal":"Colorado full interpreted natural stream context — occurrence v2 preview","trout_source_public":"Compiled public recovery and lineage context; expert review recommended","trout_source_internal":"HUC8 lineage assignment v1 / review needed","public_notes":"West Creek is shown as a generalized public-map named-water occurrence for Colorado River cutthroat historic context. This object is separated from other same-named waters using HUC8, lineage, and local spatial clustering. Linework is grouped from public hydrography and should be treated as interpretive watershed context, not a precise biological boundary.","internal_notes":"Preview occurrence co_14030004_coloradoriver_west_creek_001; 85 segments; 41.5 km"}},{"type":"Feature","geometry":{"type":"LineString","coordinates":[[-108.96488,38.68601],[-108.96537,38.68481],[-108.967,38.68494],[-108.96793,38.68434]]},"properties":{"huc8":"14030004","huc8Name":"Lower Dolores","historic":"coloradoRiver","current":"introduced","recovery":"recoveryWatch","lineageKey":"coloradoRiver","lineageLabel":"Colorado River green lineage","basin":"Lower Dolores","note":"Dolores green-lineage context","state":"CO","confidence":"HUC8 drainage context / generalized","geometryStatus":"Named NHD stream intersecting assigned HUC8","troutSource":"HUC8 lineage assignment v1 / review needed","sourceName":"West Creek","name":"West Creek","source_id":"62509603","length_km":0.39766444,"FType":460,"FCode":46006,"atlas_class":"streamriver","water_id":"co_14030004_coloradoriver_west_creek_001","occurrence_id":"co_14030004_coloradoriver_west_creek_001","occurrence_number":"001","display_name":"West Creek","mapped_name":"West Creek","source_name":"West Creek","disambiguator":"Colorado River cutthroat historic context · HUC8 14030004 · occurrence 001","atlas_layer":"curated_named_water_occurrence","object_role":"interactive_named_water","lineage":"coloradoRiver","historic_label":"Colorado River cutthroat historic context","current_label":"Colorado River cutthroat historic context","recovery_label":"Recovery watch / review area","confidence_public":"Generalized public map / needs expert review","confidence_internal":"Occurrence-cluster preview; 85 source segments","geometry_status_public":"Generalized named-water occurrence","geometry_status_internal":"Grouped by display name, HUC8, lineage, and spatial cluster","geometry_source_public":"Grouped public hydrography segments","geometry_source_internal":"Colorado full interpreted natural stream context — occurrence v2 preview","trout_source_public":"Compiled public recovery and lineage context; expert review recommended","trout_source_internal":"HUC8 lineage assignment v1 / review needed","public_notes":"West Creek is shown as a generalized public-map named-water occurrence for Colorado River cutthroat historic context. This object is separated from other same-named waters using HUC8, lineage, and local spatial clustering. Linework is grouped from public hydrography and should be treated as interpretive watershed context, not a precise biological boundary.","internal_notes":"Preview occurrence co_14030004_coloradoriver_west_creek_001; 85 segments; 41.5 km"}},{"type":"Feature","geometry":{"type":"LineString","coordinates":[[-108.95704,38.69078],[-108.95887,38.68892],[-108.96138,38.68876],[-108.9633,38.6878],[-108.96488,38.68601]]},"properties":{"huc8":"14030004","huc8Name":"Lower Dolores","historic":"coloradoRiver","current":"introduced","recovery":"recoveryWatch","lineageKey":"coloradoRiver","lineageLabel":"Colorado River green lineage","basin":"Lower Dolores","note":"Dolores green-lineage context","state":"CO","confidence":"HUC8 drainage context / generalized","geometryStatus":"Named NHD stream intersecting assigned HUC8","troutSource":"HUC8 lineage assignment v1 / review needed","sourceName":"West Creek","name":"West Creek","source_id":"62509597","length_km":0.94352559,"FType":460,"FCode":46006,"atlas_class":"streamriver","water_id":"co_14030004_coloradoriver_west_creek_001","occurrence_id":"co_14030004_coloradoriver_west_creek_001","occurrence_number":"001","display_name":"West Creek","mapped_name":"West Creek","source_name":"West Creek","disambiguator":"Colorado River cutthroat historic context · HUC8 14030004 · occurrence 001","atlas_layer":"curated_named_water_occurrence","object_role":"interactive_named_water","lineage":"coloradoRiver","historic_label":"Colorado River cutthroat historic context","current_label":"Colorado River cutthroat historic context","recovery_label":"Recovery watch / review area","confidence_public":"Generalized public map / needs expert review","confidence_internal":"Occurrence-cluster preview; 85 source segments","geometry_status_public":"Generalized named-water occurrence","geometry_status_internal":"Grouped by display name, HUC8, lineage, and spatial cluster","geometry_source_public":"Grouped public hydrography segments","geometry_source_internal":"Colorado full interpreted natural stream context — occurrence v2 preview","trout_source_public":"Compiled public recovery and lineage context; expert review recommended","trout_source_internal":"HUC8 lineage assignment v1 / review needed","public_notes":"West Creek is shown as a generalized public-map named-water occurrence for Colorado River cutthroat historic context. This object is separated from other same-named waters using HUC8, lineage, and local spatial clustering. Linework is grouped from public hydrography and should be treated as interpretive watershed context, not a precise biological boundary.","internal_notes":"Preview occurrence co_14030004_coloradoriver_west_creek_001; 85 segments; 41.5 km"}},{"type":"Feature","geometry":{"type":"LineString","coordinates":[[-108.90617,38.74514],[-108.90572,38.74408],[-108.90618,38.74167],[-108.90539,38.7397]]},"properties":{"huc8":"14030004","huc8Name":"Lower Dolores","historic":"coloradoRiver","current":"introduced","recovery":"recoveryWatch","lineageKey":"coloradoRiver","lineageLabel":"Colorado River green lineage","basin":"Lower Dolores","note":"Dolores green-lineage context","state":"CO","confidence":"HUC8 drainage context / generalized","geometryStatus":"Named NHD stream intersecting assigned HUC8","troutSource":"HUC8 lineage assignment v1 / review needed","sourceName":"West Creek","name":"West Creek","source_id":"62509451","length_km":0.636,"FType":460,"FCode":46006,"atlas_class":"streamriver","water_id":"co_14030004_coloradoriver_west_creek_001","occurrence_id":"co_14030004_coloradoriver_west_creek_001","occurrence_number":"001","display_name":"West Creek","mapped_name":"West Creek","source_name":"West Creek","disambiguator":"Colorado River cutthroat historic context · HUC8 14030004 · occurrence 001","atlas_layer":"curated_named_water_occurrence","object_role":"interactive_named_water","lineage":"coloradoRiver","historic_label":"Colorado River cutthroat historic context","current_label":"Colorado River cutthroat historic context","recovery_label":"Recovery watch / review area","confidence_public":"Generalized public map / needs expert review","confidence_internal":"Occurrence-cluster preview; 85 source segments","geometry_status_public":"Generalized named-water occurrence","geometry_status_internal":"Grouped by display name, HUC8, lineage, and spatial cluster","geometry_source_public":"Grouped public hydrography segments","geometry_source_internal":"Colorado full interpreted natural stream context — occurrence v2 preview","trout_source_public":"Compiled public recovery and lineage context; expert review recommended","trout_source_internal":"HUC8 lineage assignment v1 / review needed","public_notes":"West Creek is shown as a generalized public-map named-water occurrence for Colorado River cutthroat historic context. This object is separated from other same-named waters using HUC8, lineage, and local spatial clustering. Linework is grouped from public hydrography and should be treated as interpretive watershed context, not a precise biological boundary.","internal_notes":"Preview occurrence co_14030004_coloradoriver_west_creek_001; 85 segments; 41.5 km"}},{"type":"Feature","geometry":{"type":"LineString","coordinates":[[-108.91873,38.72123],[-108.91934,38.71949],[-108.92022,38.71893]]},"properties":{"huc8":"14030004","huc8Name":"Lower Dolores","historic":"coloradoRiver","current":"introduced","recovery":"recoveryWatch","lineageKey":"coloradoRiver","lineageLabel":"Colorado River green lineage","basin":"Lower Dolores","note":"Dolores green-lineage context","state":"CO","confidence":"HUC8 drainage context / generalized","geometryStatus":"Named NHD stream intersecting assigned HUC8","troutSource":"HUC8 lineage assignment v1 / review needed","sourceName":"West Creek","name":"West Creek","source_id":"62509503","length_km":0.30522593,"FType":460,"FCode":46006,"atlas_class":"streamriver","water_id":"co_14030004_coloradoriver_west_creek_001","occurrence_id":"co_14030004_coloradoriver_west_creek_001","occurrence_number":"001","display_name":"West Creek","mapped_name":"West Creek","source_name":"West Creek","disambiguator":"Colorado River cutthroat historic context · HUC8 14030004 · occurrence 001","atlas_layer":"curated_named_water_occurrence","object_role":"interactive_named_water","lineage":"coloradoRiver","historic_label":"Colorado River cutthroat historic context","current_label":"Colorado River cutthroat historic context","recovery_label":"Recovery watch / review area","confidence_public":"Generalized public map / needs expert review","confidence_internal":"Occurrence-cluster preview; 85 source segments","geometry_status_public":"Generalized named-water occurrence","geometry_status_internal":"Grouped by display name, HUC8, lineage, and spatial cluster","geometry_source_public":"Grouped public hydrography segments","geometry_source_internal":"Colorado full interpreted natural stream context — occurrence v2 preview","trout_source_public":"Compiled public recovery and lineage context; expert review recommended","trout_source_internal":"HUC8 lineage assignment v1 / review needed","public_notes":"West Creek is shown as a generalized public-map named-water occurrence for Colorado River cutthroat historic context. This object is separated from other same-named waters using HUC8, lineage, and local spatial clustering. Linework is grouped from public hydrography and should be treated as interpretive watershed context, not a precise biological boundary.","internal_notes":"Preview occurrence co_14030004_coloradoriver_west_creek_001; 85 segments; 41.5 km"}},{"type":"Feature","geometry":{"type":"LineString","coordinates":[[-108.92022,38.71893],[-108.92055,38.71873]]},"properties":{"huc8":"14030004","huc8Name":"Lower Dolores","historic":"coloradoRiver","current":"introduced","recovery":"recoveryWatch","lineageKey":"coloradoRiver","lineageLabel":"Colorado River green lineage","basin":"Lower Dolores","note":"Dolores green-lineage context","state":"CO","confidence":"HUC8 drainage context / generalized","geometryStatus":"Named NHD stream intersecting assigned HUC8","troutSource":"HUC8 lineage assignment v1 / review needed","sourceName":"West Creek","name":"West Creek","source_id":"62509505","length_km":0.036257,"FType":460,"FCode":46006,"atlas_class":"streamriver","water_id":"co_14030004_coloradoriver_west_creek_001","occurrence_id":"co_14030004_coloradoriver_west_creek_001","occurrence_number":"001","display_name":"West Creek","mapped_name":"West Creek","source_name":"West Creek","disambiguator":"Colorado River cutthroat historic context · HUC8 14030004 · occurrence 001","atlas_layer":"curated_named_water_occurrence","object_role":"interactive_named_water","lineage":"coloradoRiver","historic_label":"Colorado River cutthroat historic context","current_label":"Colorado River cutthroat historic context","recovery_label":"Recovery watch / review area","confidence_public":"Generalized public map / needs expert review","confidence_internal":"Occurrence-cluster preview; 85 source segments","geometry_status_public":"Generalized named-water occurrence","geometry_status_internal":"Grouped by display name, HUC8, lineage, and spatial cluster","geometry_source_public":"Grouped public hydrography segments","geometry_source_internal":"Colorado full interpreted natural stream context — occurrence v2 preview","trout_source_public":"Compiled public recovery and lineage context; expert review recommended","trout_source_internal":"HUC8 lineage assignment v1 / review needed","public_notes":"West Creek is shown as a generalized public-map named-water occurrence for Colorado River cutthroat historic context. This object is separated from other same-named waters using HUC8, lineage, and local spatial clustering. Linework is grouped from public hydrography and should be treated as interpretive watershed context, not a precise biological boundary.","internal_notes":"Preview occurrence co_14030004_coloradoriver_west_creek_001; 85 segments; 41.5 km"}},{"type":"Feature","geometry":{"type":"LineString","coordinates":[[-108.92559,38.71526],[-108.92642,38.7143],[-108.92849,38.71344]]},"properties":{"huc8":"14030004","huc8Name":"Lower Dolores","historic":"coloradoRiver","current":"introduced","recovery":"recoveryWatch","lineageKey":"coloradoRiver","lineageLabel":"Colorado River green lineage","basin":"Lower Dolores","note":"Dolores green-lineage context","state":"CO","confidence":"HUC8 drainage context / generalized","geometryStatus":"Named NHD stream intersecting assigned HUC8","troutSource":"HUC8 lineage assignment v1 / review needed","sourceName":"West Creek","name":"West Creek","source_id":"62509527","length_km":0.3336069,"FType":460,"FCode":46006,"atlas_class":"streamriver","water_id":"co_14030004_coloradoriver_west_creek_001","occurrence_id":"co_14030004_coloradoriver_west_creek_001","occurrence_number":"001","display_name":"West Creek","mapped_name":"West Creek","source_name":"West Creek","disambiguator":"Colorado River cutthroat historic context · HUC8 14030004 · occurrence 001","atlas_layer":"curated_named_water_occurrence","object_role":"interactive_named_water","lineage":"coloradoRiver","historic_label":"Colorado River cutthroat historic context","current_label":"Colorado River cutthroat historic context","recovery_label":"Recovery watch / review area","confidence_public":"Generalized public map / needs expert review","confidence_internal":"Occurrence-cluster preview; 85 source segments","geometry_status_public":"Generalized named-water occurrence","geometry_status_internal":"Grouped by display name, HUC8, lineage, and spatial cluster","geometry_source_public":"Grouped public hydrography segments","geometry_source_internal":"Colorado full interpreted natural stream context — occurrence v2 preview","trout_source_public":"Compiled public recovery and lineage context; expert review recommended","trout_source_internal":"HUC8 lineage assignment v1 / review needed","public_notes":"West Creek is shown as a generalized public-map named-water occurrence for Colorado River cutthroat historic context. This object is separated from other same-named waters using HUC8, lineage, and local spatial clustering. Linework is grouped from public hydrography and should be treated as interpretive watershed context, not a precise biological boundary.","internal_notes":"Preview occurrence co_14030004_coloradoriver_west_creek_001; 85 segments; 41.5 km"}},{"type":"Feature","geometry":{"type":"LineString","coordinates":[[-108.90178,38.72896],[-108.90139,38.72791],[-108.90206,38.72724]]},"properties":{"huc8":"14030004","huc8Name":"Lower Dolores","historic":"coloradoRiver","current":"introduced","recovery":"recoveryWatch","lineageKey":"coloradoRiver","lineageLabel":"Colorado River green lineage","basin":"Lower Dolores","note":"Dolores green-lineage context","state":"CO","confidence":"HUC8 drainage context / generalized","geometryStatus":"Named NHD stream intersecting assigned HUC8","troutSource":"HUC8 lineage assignment v1 / review needed","sourceName":"West Creek","name":"West Creek","source_id":"62509479","length_km":0.22,"FType":460,"FCode":46006,"atlas_class":"streamriver","water_id":"co_14030004_coloradoriver_west_creek_001","occurrence_id":"co_14030004_coloradoriver_west_creek_001","occurrence_number":"001","display_name":"West Creek","mapped_name":"West Creek","source_name":"West Creek","disambiguator":"Colorado River cutthroat historic context · HUC8 14030004 · occurrence 001","atlas_layer":"curated_named_water_occurrence","object_role":"interactive_named_water","lineage":"coloradoRiver","historic_label":"Colorado River cutthroat historic context","current_label":"Colorado River cutthroat historic context","recovery_label":"Recovery watch / review area","confidence_public":"Generalized public map / needs expert review","confidence_internal":"Occurrence-cluster preview; 85 source segments","geometry_status_public":"Generalized named-water occurrence","geometry_status_internal":"Grouped by display name, HUC8, lineage, and spatial cluster","geometry_source_public":"Grouped public hydrography segments","geometry_source_internal":"Colorado full interpreted natural stream context — occurrence v2 preview","trout_source_public":"Compiled public recovery and lineage context; expert review recommended","trout_source_internal":"HUC8 lineage assignment v1 / review needed","public_notes":"West Creek is shown as a generalized public-map named-water occurrence for Colorado River cutthroat historic context. This object is separated from other same-named waters using HUC8, lineage, and local spatial clustering. Linework is grouped from public hydrography and should be treated as interpretive watershed context, not a precise biological boundary.","internal_notes":"Preview occurrence co_14030004_coloradoriver_west_creek_001; 85 segments; 41.5 km"}},{"type":"Feature","geometry":{"type":"LineString","coordinates":[[-108.93721,38.70698],[-108.94345,38.70336]]},"properties":{"huc8":"14030004","huc8Name":"Lower Dolores","historic":"coloradoRiver","current":"introduced","recovery":"recoveryWatch","lineageKey":"coloradoRiver","lineageLabel":"Colorado River green lineage","basin":"Lower Dolores","note":"Dolores green-lineage context","state":"CO","confidence":"HUC8 drainage context / generalized","geometryStatus":"Named NHD stream intersecting assigned HUC8","troutSource":"HUC8 lineage assignment v1 / review needed","sourceName":"West Creek","name":"West Creek","source_id":"62509557","length_km":0.68788345,"FType":460,"FCode":46006,"atlas_class":"streamriver","water_id":"co_14030004_coloradoriver_west_creek_001","occurrence_id":"co_14030004_coloradoriver_west_creek_001","occurrence_number":"001","display_name":"West Creek","mapped_name":"West Creek","source_name":"West Creek","disambiguator":"Colorado River cutthroat historic context · HUC8 14030004 · occurrence 001","atlas_layer":"curated_named_water_occurrence","object_role":"interactive_named_water","lineage":"coloradoRiver","historic_label":"Colorado River cutthroat historic context","current_label":"Colorado River cutthroat historic context","recovery_label":"Recovery watch / review area","confidence_public":"Generalized public map / needs expert review","confidence_internal":"Occurrence-cluster preview; 85 source segments","geometry_status_public":"Generalized named-water occurrence","geometry_status_internal":"Grouped by display name, HUC8, lineage, and spatial cluster","geometry_source_public":"Grouped public hydrography segments","geometry_source_internal":"Colorado full interpreted natural stream context — occurrence v2 preview","trout_source_public":"Compiled public recovery and lineage context; expert review recommended","trout_source_internal":"HUC8 lineage assignment v1 / review needed","public_notes":"West Creek is shown as a generalized public-map named-water occurrence for Colorado River cutthroat historic context. This object is separated from other same-named waters using HUC8, lineage, and local spatial clustering. Linework is grouped from public hydrography and should be treated as interpretive watershed context, not a precise biological boundary.","internal_notes":"Preview occurrence co_14030004_coloradoriver_west_creek_001; 85 segments; 41.5 km"}},{"type":"Feature","geometry":{"type":"LineString","coordinates":[[-108.91011,38.72458],[-108.91266,38.72464],[-108.91357,38.72372],[-108.91873,38.72123]]},"properties":{"huc8":"14030004","huc8Name":"Lower Dolores","historic":"coloradoRiver","current":"introduced","recovery":"recoveryWatch","lineageKey":"coloradoRiver","lineageLabel":"Colorado River green lineage","basin":"Lower Dolores","note":"Dolores green-lineage context","state":"CO","confidence":"HUC8 drainage context / generalized","geometryStatus":"Named NHD stream intersecting assigned HUC8","troutSource":"HUC8 lineage assignment v1 / review needed","sourceName":"West Creek","name":"West Creek","source_id":"62509493","length_km":0.8945254,"FType":460,"FCode":46006,"atlas_class":"streamriver","water_id":"co_14030004_coloradoriver_west_creek_001","occurrence_id":"co_14030004_coloradoriver_west_creek_001","occurrence_number":"001","display_name":"West Creek","mapped_name":"West Creek","source_name":"West Creek","disambiguator":"Colorado River cutthroat historic context · HUC8 14030004 · occurrence 001","atlas_layer":"curated_named_water_occurrence","object_role":"interactive_named_water","lineage":"coloradoRiver","historic_label":"Colorado River cutthroat historic context","current_label":"Colorado River cutthroat historic context","recovery_label":"Recovery watch / review area","confidence_public":"Generalized public map / needs expert review","confidence_internal":"Occurrence-cluster preview; 85 source segments","geometry_status_public":"Generalized named-water occurrence","geometry_status_internal":"Grouped by display name, HUC8, lineage, and spatial cluster","geometry_source_public":"Grouped public hydrography segments","geometry_source_internal":"Colorado full interpreted natural stream context — occurrence v2 preview","trout_source_public":"Compiled public recovery and lineage context; expert review recommended","trout_source_internal":"HUC8 lineage assignment v1 / review needed","public_notes":"West Creek is shown as a generalized public-map named-water occurrence for Colorado River cutthroat historic context. This object is separated from other same-named waters using HUC8, lineage, and local spatial clustering. Linework is grouped from public hydrography and should be treated as interpretive watershed context, not a precise biological boundary.","internal_notes":"Preview occurrence co_14030004_coloradoriver_west_creek_001; 85 segments; 41.5 km"}},{"type":"Feature","geometry":{"type":"LineString","coordinates":[[-108.90539,38.7397],[-108.90359,38.73847],[-108.90321,38.73681]]},"properties":{"huc8":"14030004","huc8Name":"Lower Dolores","historic":"coloradoRiver","current":"introduced","recovery":"recoveryWatch","lineageKey":"coloradoRiver","lineageLabel":"Colorado River green lineage","basin":"Lower Dolores","note":"Dolores green-lineage context","state":"CO","confidence":"HUC8 drainage context / generalized","geometryStatus":"Named NHD stream intersecting assigned HUC8","troutSource":"HUC8 lineage assignment v1 / review needed","sourceName":"West Creek","name":"West Creek","source_id":"62509461","length_km":0.405,"FType":460,"FCode":46006,"atlas_class":"streamriver","water_id":"co_14030004_coloradoriver_west_creek_001","occurrence_id":"co_14030004_coloradoriver_west_creek_001","occurrence_number":"001","display_name":"West Creek","mapped_name":"West Creek","source_name":"West Creek","disambiguator":"Colorado River cutthroat historic context · HUC8 14030004 · occurrence 001","atlas_layer":"curated_named_water_occurrence","object_role":"interactive_named_water","lineage":"coloradoRiver","historic_label":"Colorado River cutthroat historic context","current_label":"Colorado River cutthroat historic context","recovery_label":"Recovery watch / review area","confidence_public":"Generalized public map / needs expert review","confidence_internal":"Occurrence-cluster preview; 85 source segments","geometry_status_public":"Generalized named-water occurrence","geometry_status_internal":"Grouped by display name, HUC8, lineage, and spatial cluster","geometry_source_public":"Grouped public hydrography segments","geometry_source_internal":"Colorado full interpreted natural stream context — occurrence v2 preview","trout_source_public":"Compiled public recovery and lineage context; expert review recommended","trout_source_internal":"HUC8 lineage assignment v1 / review needed","public_notes":"West Creek is shown as a generalized public-map named-water occurrence for Colorado River cutthroat historic context. This object is separated from other same-named waters using HUC8, lineage, and local spatial clustering. Linework is grouped from public hydrography and should be treated as interpretive watershed context, not a precise biological boundary.","internal_notes":"Preview occurrence co_14030004_coloradoriver_west_creek_001; 85 segments; 41.5 km"}},{"type":"Feature","geometry":{"type":"LineString","coordinates":[[-108.93459,38.70805],[-108.93721,38.70698]]},"properties":{"huc8":"14030004","huc8Name":"Lower Dolores","historic":"coloradoRiver","current":"introduced","recovery":"recoveryWatch","lineageKey":"coloradoRiver","lineageLabel":"Colorado River green lineage","basin":"Lower Dolores","note":"Dolores green-lineage context","state":"CO","confidence":"HUC8 drainage context / generalized","geometryStatus":"Named NHD stream intersecting assigned HUC8","troutSource":"HUC8 lineage assignment v1 / review needed","sourceName":"West Creek","name":"West Creek","source_id":"62509551","length_km":0.26625475,"FType":460,"FCode":46006,"atlas_class":"streamriver","water_id":"co_14030004_coloradoriver_west_creek_001","occurrence_id":"co_14030004_coloradoriver_west_creek_001","occurrence_number":"001","display_name":"West Creek","mapped_name":"West Creek","source_name":"West Creek","disambiguator":"Colorado River cutthroat historic context · HUC8 14030004 · occurrence 001","atlas_layer":"curated_named_water_occurrence","object_role":"interactive_named_water","lineage":"coloradoRiver","historic_label":"Colorado River cutthroat historic context","current_label":"Colorado River cutthroat historic context","recovery_label":"Recovery watch / review area","confidence_public":"Generalized public map / needs expert review","confidence_internal":"Occurrence-cluster preview; 85 source segments","geometry_status_public":"Generalized named-water occurrence","geometry_status_internal":"Grouped by display name, HUC8, lineage, and spatial cluster","geometry_source_public":"Grouped public hydrography segments","geometry_source_internal":"Colorado full interpreted natural stream context — occurrence v2 preview","trout_source_public":"Compiled public recovery and lineage context; expert review recommended","trout_source_internal":"HUC8 lineage assignment v1 / review needed","public_notes":"West Creek is shown as a generalized public-map named-water occurrence for Colorado River cutthroat historic context. This object is separated from other same-named waters using HUC8, lineage, and local spatial clustering. Linework is grouped from public hydrography and should be treated as interpretive watershed context, not a precise biological boundary.","internal_notes":"Preview occurrence co_14030004_coloradoriver_west_creek_001; 85 segments; 41.5 km"}},{"type":"Feature","geometry":{"type":"LineString","coordinates":[[-108.94926,38.69647],[-108.94983,38.6962]]},"properties":{"huc8":"14030004","huc8Name":"Lower Dolores","historic":"coloradoRiver","current":"introduced","recovery":"recoveryWatch","lineageKey":"coloradoRiver","lineageLabel":"Colorado River green lineage","basin":"Lower Dolores","note":"Dolores green-lineage context","state":"CO","confidence":"HUC8 drainage context / generalized","geometryStatus":"Named NHD stream intersecting assigned HUC8","troutSource":"HUC8 lineage assignment v1 / review needed","sourceName":"West Creek","name":"West Creek","source_id":"62509571","length_km":0.0592814,"FType":460,"FCode":46006,"atlas_class":"streamriver","water_id":"co_14030004_coloradoriver_west_creek_001","occurrence_id":"co_14030004_coloradoriver_west_creek_001","occurrence_number":"001","display_name":"West Creek","mapped_name":"West Creek","source_name":"West Creek","disambiguator":"Colorado River cutthroat historic context · HUC8 14030004 · occurrence 001","atlas_layer":"curated_named_water_occurrence","object_role":"interactive_named_water","lineage":"coloradoRiver","historic_label":"Colorado River cutthroat historic context","current_label":"Colorado River cutthroat historic context","recovery_label":"Recovery watch / review area","confidence_public":"Generalized public map / needs expert review","confidence_internal":"Occurrence-cluster preview; 85 source segments","geometry_status_public":"Generalized named-water occurrence","geometry_status_internal":"Grouped by display name, HUC8, lineage, and spatial cluster","geometry_source_public":"Grouped public hydrography segments","geometry_source_internal":"Colorado full interpreted natural stream context — occurrence v2 preview","trout_source_public":"Compiled public recovery and lineage context; expert review recommended","trout_source_internal":"HUC8 lineage assignment v1 / review needed","public_notes":"West Creek is shown as a generalized public-map named-water occurrence for Colorado River cutthroat historic context. This object is separated from other same-named waters using HUC8, lineage, and local spatial clustering. Linework is grouped from public hydrography and should be treated as interpretive watershed context, not a precise biological boundary.","internal_notes":"Preview occurrence co_14030004_coloradoriver_west_creek_001; 85 segments; 41.5 km"}},{"type":"Feature","geometry":{"type":"LineString","coordinates":[[-108.93266,38.70962],[-108.93459,38.70805]]},"properties":{"huc8":"14030004","huc8Name":"Lower Dolores","historic":"coloradoRiver","current":"introduced","recovery":"recoveryWatch","lineageKey":"coloradoRiver","lineageLabel":"Colorado River green lineage","basin":"Lower Dolores","note":"Dolores green-lineage context","state":"CO","confidence":"HUC8 drainage context / generalized","geometryStatus":"Named NHD stream intersecting assigned HUC8","troutSource":"HUC8 lineage assignment v1 / review needed","sourceName":"West Creek","name":"West Creek","source_id":"62509547","length_km":0.25017909,"FType":460,"FCode":46006,"atlas_class":"streamriver","water_id":"co_14030004_coloradoriver_west_creek_001","occurrence_id":"co_14030004_coloradoriver_west_creek_001","occurrence_number":"001","display_name":"West Creek","mapped_name":"West Creek","source_name":"West Creek","disambiguator":"Colorado River cutthroat historic context · HUC8 14030004 · occurrence 001","atlas_layer":"curated_named_water_occurrence","object_role":"interactive_named_water","lineage":"coloradoRiver","historic_label":"Colorado River cutthroat historic context","current_label":"Colorado River cutthroat historic context","recovery_label":"Recovery watch / review area","confidence_public":"Generalized public map / needs expert review","confidence_internal":"Occurrence-cluster preview; 85 source segments","geometry_status_public":"Generalized named-water occurrence","geometry_status_internal":"Grouped by display name, HUC8, lineage, and spatial cluster","geometry_source_public":"Grouped public hydrography segments","geometry_source_internal":"Colorado full interpreted natural stream context — occurrence v2 preview","trout_source_public":"Compiled public recovery and lineage context; expert review recommended","trout_source_internal":"HUC8 lineage assignment v1 / review needed","public_notes":"West Creek is shown as a generalized public-map named-water occurrence for Colorado River cutthroat historic context. This object is separated from other same-named waters using HUC8, lineage, and local spatial clustering. Linework is grouped from public hydrography and should be treated as interpretive watershed context, not a precise biological boundary.","internal_notes":"Preview occurrence co_14030004_coloradoriver_west_creek_001; 85 segments; 41.5 km"}},{"type":"Feature","geometry":{"type":"LineString","coordinates":[[-108.94345,38.70336],[-108.94565,38.70169],[-108.94544,38.6994],[-108.94649,38.69809],[-108.94621,38.69688],[-108.94798,38.69736],[-108.94926,38.69647]]},"properties":{"huc8":"14030004","huc8Name":"Lower Dolores","historic":"coloradoRiver","current":"introduced","recovery":"recoveryWatch","lineageKey":"coloradoRiver","lineageLabel":"Colorado River green lineage","basin":"Lower Dolores","note":"Dolores green-lineage context","state":"CO","confidence":"HUC8 drainage context / generalized","geometryStatus":"Named NHD stream intersecting assigned HUC8","troutSource":"HUC8 lineage assignment v1 / review needed","sourceName":"West Creek","name":"West Creek","source_id":"62509565","length_km":1.18997906,"FType":460,"FCode":46006,"atlas_class":"streamriver","water_id":"co_14030004_coloradoriver_west_creek_001","occurrence_id":"co_14030004_coloradoriver_west_creek_001","occurrence_number":"001","display_name":"West Creek","mapped_name":"West Creek","source_name":"West Creek","disambiguator":"Colorado River cutthroat historic context · HUC8 14030004 · occurrence 001","atlas_layer":"curated_named_water_occurrence","object_role":"interactive_named_water","lineage":"coloradoRiver","historic_label":"Colorado River cutthroat historic context","current_label":"Colorado River cutthroat historic context","recovery_label":"Recovery watch / review area","confidence_public":"Generalized public map / needs expert review","confidence_internal":"Occurrence-cluster preview; 85 source segments","geometry_status_public":"Generalized named-water occurrence","geometry_status_internal":"Grouped by display name, HUC8, lineage, and spatial cluster","geometry_source_public":"Grouped public hydrography segments","geometry_source_internal":"Colorado full interpreted natural stream context — occurrence v2 preview","trout_source_public":"Compiled public recovery and lineage context; expert review recommended","trout_source_internal":"HUC8 lineage assignment v1 / review needed","public_notes":"West Creek is shown as a generalized public-map named-water occurrence for Colorado River cutthroat historic context. This object is separated from other same-named waters using HUC8, lineage, and local spatial clustering. Linework is grouped from public hydrography and should be treated as interpretive watershed context, not a precise biological boundary.","internal_notes":"Preview occurrence co_14030004_coloradoriver_west_creek_001; 85 segments; 41.5 km"}},{"type":"Feature","geometry":{"type":"LineString","coordinates":[[-108.95541,38.69267],[-108.95587,38.69197]]},"properties":{"huc8":"14030004","huc8Name":"Lower Dolores","historic":"coloradoRiver","current":"introduced","recovery":"recoveryWatch","lineageKey":"coloradoRiver","lineageLabel":"Colorado River green lineage","basin":"Lower Dolores","note":"Dolores green-lineage context","state":"CO","confidence":"HUC8 drainage context / generalized","geometryStatus":"Named NHD stream intersecting assigned HUC8","troutSource":"HUC8 lineage assignment v1 / review needed","sourceName":"West Creek","name":"West Creek","source_id":"62509585","length_km":0.08793256,"FType":460,"FCode":46006,"atlas_class":"streamriver","water_id":"co_14030004_coloradoriver_west_creek_001","occurrence_id":"co_14030004_coloradoriver_west_creek_001","occurrence_number":"001","display_name":"West Creek","mapped_name":"West Creek","source_name":"West Creek","disambiguator":"Colorado River cutthroat historic context · HUC8 14030004 · occurrence 001","atlas_layer":"curated_named_water_occurrence","object_role":"interactive_named_water","lineage":"coloradoRiver","historic_label":"Colorado River cutthroat historic context","current_label":"Colorado River cutthroat historic context","recovery_label":"Recovery watch / review area","confidence_public":"Generalized public map / needs expert review","confidence_internal":"Occurrence-cluster preview; 85 source segments","geometry_status_public":"Generalized named-water occurrence","geometry_status_internal":"Grouped by display name, HUC8, lineage, and spatial cluster","geometry_source_public":"Grouped public hydrography segments","geometry_source_internal":"Colorado full interpreted natural stream context — occurrence v2 preview","trout_source_public":"Compiled public recovery and lineage context; expert review recommended","trout_source_internal":"HUC8 lineage assignment v1 / review needed","public_notes":"West Creek is shown as a generalized public-map named-water occurrence for Colorado River cutthroat historic context. This object is separated from other same-named waters using HUC8, lineage, and local spatial clustering. Linework is grouped from public hydrography and should be treated as interpretive watershed context, not a precise biological boundary.","internal_notes":"Preview occurrence co_14030004_coloradoriver_west_creek_001; 85 segments; 41.5 km"}}]}