{"type":"FeatureCollection","metadata":{"description":"Colorado curated named waters occurrence v2 preview tile","source":"C:\\ct-atlas-data\\processed\\geojson\\interpreted\\colorado_curated_named_waters_occurrence_v2_preview.geojson","tileSizeDeg":0.25,"bounds":{"west":-105,"east":-104.75,"south":40.5,"north":40.75},"featureCount":1},"features":[{"type":"Feature","geometry":{"type":"LineString","coordinates":[[-104.96729,40.5018],[-104.96747,40.49848],[-104.96562,40.49842],[-104.96421,40.4971],[-104.96467,40.49638],[-104.96688,40.49572],[-104.96757,40.49427],[-104.96729,40.4925],[-104.96521,40.49101]]},"properties":{"huc8":"10190007","huc8Name":"Cache La Poudre","historic":"greenback","current":"introduced","recovery":"recoveryWatch","lineageKey":"greenback","lineageLabel":"Greenback / South Platte lineage","basin":"Cache La Poudre","note":"Front Range South Platte tributary context","state":"CO","confidence":"HUC8 drainage context / generalized","geometryStatus":"Named NHD stream intersecting assigned HUC8","troutSource":"HUC8 lineage assignment v1 / review needed","sourceName":"Cache la Poudre River","name":"Cache la Poudre River","source_id":"128074352","length_km":1.672,"FType":460,"FCode":46006,"atlas_class":"streamriver","water_id":"co_10190007_greenback_cache_la_poudre_river_006","occurrence_id":"co_10190007_greenback_cache_la_poudre_river_006","occurrence_number":"006","display_name":"Cache la Poudre River","mapped_name":"Cache la Poudre River","source_name":"Cache la Poudre River","disambiguator":"Greenback cutthroat historic context · HUC8 10190007 · occurrence 006","atlas_layer":"curated_named_water_occurrence","object_role":"interactive_named_water","lineage":"greenback","historic_label":"Greenback cutthroat historic context","current_label":"Greenback cutthroat historic context","recovery_label":"Recovery watch / review area","confidence_public":"Generalized public map / needs expert review","confidence_internal":"Occurrence-cluster preview; 22 source segments","geometry_status_public":"Generalized named-water occurrence","geometry_status_internal":"Grouped by display name, HUC8, lineage, and spatial cluster","geometry_source_public":"Grouped public hydrography segments","geometry_source_internal":"Colorado full interpreted natural stream context — occurrence v2 preview","trout_source_public":"Compiled public recovery and lineage context; expert review recommended","trout_source_internal":"HUC8 lineage assignment v1 / review needed","public_notes":"Cache la Poudre River is shown as a generalized public-map named-water occurrence for Greenback cutthroat historic context. This object is separated from other same-named waters using HUC8, lineage, and local spatial clustering. Linework is grouped from public hydrography and should be treated as interpretive watershed context, not a precise biological boundary.","internal_notes":"Preview occurrence co_10190007_greenback_cache_la_poudre_river_006; 22 segments; 21.1 km"}}]}