{"type":"FeatureCollection","metadata":{"description":"Colorado curated named waters occurrence v2 preview tile","source":"C:\\ct-atlas-data\\processed\\geojson\\interpreted\\colorado_curated_named_waters_occurrence_v2_preview.geojson","tileSizeDeg":0.25,"bounds":{"west":-104,"east":-103.75,"south":37.25,"north":37.5},"featureCount":9},"features":[{"type":"Feature","geometry":{"type":"LineString","coordinates":[[-103.79873,37.2513],[-103.79787,37.25127],[-103.79785,37.25399],[-103.79447,37.26009],[-103.79362,37.26017],[-103.79173,37.25852],[-103.7898,37.25914]]},"properties":{"huc8":"11020010","huc8Name":"Purgatoire","historic":"yellowfin","current":"introduced","recovery":"recoveryWatch","lineageKey":"yellowfin","lineageLabel":"Yellowfin / Arkansas headwaters historical form","basin":"Purgatoire","note":"Arkansas basin historical Yellowfin context; review needed","state":"CO","confidence":"HUC8 drainage context / generalized","geometryStatus":"Named NHD stream intersecting assigned HUC8","troutSource":"HUC8 lineage assignment v1 / review needed","sourceName":"Bachicha Creek","name":"Bachicha Creek","source_id":"131252003","length_km":1.7158797,"FType":460,"FCode":46003,"atlas_class":"streamriver","water_id":"co_11020010_yellowfin_bachicha_creek_001","occurrence_id":"co_11020010_yellowfin_bachicha_creek_001","occurrence_number":"001","display_name":"Bachicha Creek","mapped_name":"Bachicha Creek","source_name":"Bachicha Creek","disambiguator":"Yellowfin cutthroat historic context · HUC8 11020010 · occurrence 001","atlas_layer":"curated_named_water_occurrence","object_role":"interactive_named_water","lineage":"yellowfin","historic_label":"Yellowfin cutthroat historic context","current_label":"Yellowfin cutthroat historic context","recovery_label":"Recovery watch / review area","confidence_public":"Generalized public map / needs expert review","confidence_internal":"Occurrence-cluster preview; 93 source segments","geometry_status_public":"Generalized named-water occurrence","geometry_status_internal":"Grouped by display name, HUC8, lineage, and spatial cluster","geometry_source_public":"Grouped public hydrography segments","geometry_source_internal":"Colorado full interpreted natural stream context — occurrence v2 preview","trout_source_public":"Compiled public recovery and lineage context; expert review recommended","trout_source_internal":"HUC8 lineage assignment v1 / review needed","public_notes":"Bachicha Creek is shown as a generalized public-map named-water occurrence for Yellowfin cutthroat historic context. This object is separated from other same-named waters using HUC8, lineage, and local spatial clustering. Linework is grouped from public hydrography and should be treated as interpretive watershed context, not a precise biological boundary.","internal_notes":"Preview occurrence co_11020010_yellowfin_bachicha_creek_001; 93 segments; 54.8 km"}},{"type":"Feature","geometry":{"type":"LineString","coordinates":[[-103.76099,37.26828],[-103.76031,37.26944],[-103.75846,37.26919]]},"properties":{"huc8":"11020010","huc8Name":"Purgatoire","historic":"yellowfin","current":"introduced","recovery":"recoveryWatch","lineageKey":"yellowfin","lineageLabel":"Yellowfin / Arkansas headwaters historical form","basin":"Purgatoire","note":"Arkansas basin historical Yellowfin context; review needed","state":"CO","confidence":"HUC8 drainage context / generalized","geometryStatus":"Named NHD stream intersecting assigned HUC8","troutSource":"HUC8 lineage assignment v1 / review needed","sourceName":"Bachicha Creek","name":"Bachicha Creek","source_id":"131252015","length_km":0.33102665,"FType":460,"FCode":46003,"atlas_class":"streamriver","water_id":"co_11020010_yellowfin_bachicha_creek_001","occurrence_id":"co_11020010_yellowfin_bachicha_creek_001","occurrence_number":"001","display_name":"Bachicha Creek","mapped_name":"Bachicha Creek","source_name":"Bachicha Creek","disambiguator":"Yellowfin cutthroat historic context · HUC8 11020010 · occurrence 001","atlas_layer":"curated_named_water_occurrence","object_role":"interactive_named_water","lineage":"yellowfin","historic_label":"Yellowfin cutthroat historic context","current_label":"Yellowfin cutthroat historic context","recovery_label":"Recovery watch / review area","confidence_public":"Generalized public map / needs expert review","confidence_internal":"Occurrence-cluster preview; 93 source segments","geometry_status_public":"Generalized named-water occurrence","geometry_status_internal":"Grouped by display name, HUC8, lineage, and spatial cluster","geometry_source_public":"Grouped public hydrography segments","geometry_source_internal":"Colorado full interpreted natural stream context — occurrence v2 preview","trout_source_public":"Compiled public recovery and lineage context; expert review recommended","trout_source_internal":"HUC8 lineage assignment v1 / review needed","public_notes":"Bachicha Creek is shown as a generalized public-map named-water occurrence for Yellowfin cutthroat historic context. This object is separated from other same-named waters using HUC8, lineage, and local spatial clustering. Linework is grouped from public hydrography and should be treated as interpretive watershed context, not a precise biological boundary.","internal_notes":"Preview occurrence co_11020010_yellowfin_bachicha_creek_001; 93 segments; 54.8 km"}},{"type":"Feature","geometry":{"type":"LineString","coordinates":[[-103.78938,37.25962],[-103.78834,37.2616],[-103.78484,37.26438]]},"properties":{"huc8":"11020010","huc8Name":"Purgatoire","historic":"yellowfin","current":"introduced","recovery":"recoveryWatch","lineageKey":"yellowfin","lineageLabel":"Yellowfin / Arkansas headwaters historical form","basin":"Purgatoire","note":"Arkansas basin historical Yellowfin context; review needed","state":"CO","confidence":"HUC8 drainage context / generalized","geometryStatus":"Named NHD stream intersecting assigned HUC8","troutSource":"HUC8 lineage assignment v1 / review needed","sourceName":"Bachicha Creek","name":"Bachicha Creek","source_id":"131252006","length_km":0.69948877,"FType":460,"FCode":46003,"atlas_class":"streamriver","water_id":"co_11020010_yellowfin_bachicha_creek_001","occurrence_id":"co_11020010_yellowfin_bachicha_creek_001","occurrence_number":"001","display_name":"Bachicha Creek","mapped_name":"Bachicha Creek","source_name":"Bachicha Creek","disambiguator":"Yellowfin cutthroat historic context · HUC8 11020010 · occurrence 001","atlas_layer":"curated_named_water_occurrence","object_role":"interactive_named_water","lineage":"yellowfin","historic_label":"Yellowfin cutthroat historic context","current_label":"Yellowfin cutthroat historic context","recovery_label":"Recovery watch / review area","confidence_public":"Generalized public map / needs expert review","confidence_internal":"Occurrence-cluster preview; 93 source segments","geometry_status_public":"Generalized named-water occurrence","geometry_status_internal":"Grouped by display name, HUC8, lineage, and spatial cluster","geometry_source_public":"Grouped public hydrography segments","geometry_source_internal":"Colorado full interpreted natural stream context — occurrence v2 preview","trout_source_public":"Compiled public recovery and lineage context; expert review recommended","trout_source_internal":"HUC8 lineage assignment v1 / review needed","public_notes":"Bachicha Creek is shown as a generalized public-map named-water occurrence for Yellowfin cutthroat historic context. This object is separated from other same-named waters using HUC8, lineage, and local spatial clustering. Linework is grouped from public hydrography and should be treated as interpretive watershed context, not a precise biological boundary.","internal_notes":"Preview occurrence co_11020010_yellowfin_bachicha_creek_001; 93 segments; 54.8 km"}},{"type":"Feature","geometry":{"type":"LineString","coordinates":[[-103.75065,37.27505],[-103.74824,37.2744],[-103.74576,37.27471]]},"properties":{"huc8":"11020010","huc8Name":"Purgatoire","historic":"yellowfin","current":"introduced","recovery":"recoveryWatch","lineageKey":"yellowfin","lineageLabel":"Yellowfin / Arkansas headwaters historical form","basin":"Purgatoire","note":"Arkansas basin historical Yellowfin context; review needed","state":"CO","confidence":"HUC8 drainage context / generalized","geometryStatus":"Named NHD stream intersecting assigned HUC8","troutSource":"HUC8 lineage assignment v1 / review needed","sourceName":"Bachicha Creek","name":"Bachicha Creek","source_id":"158862723","length_km":0.45303381,"FType":460,"FCode":46003,"atlas_class":"streamriver","water_id":"co_11020010_yellowfin_bachicha_creek_001","occurrence_id":"co_11020010_yellowfin_bachicha_creek_001","occurrence_number":"001","display_name":"Bachicha Creek","mapped_name":"Bachicha Creek","source_name":"Bachicha Creek","disambiguator":"Yellowfin cutthroat historic context · HUC8 11020010 · occurrence 001","atlas_layer":"curated_named_water_occurrence","object_role":"interactive_named_water","lineage":"yellowfin","historic_label":"Yellowfin cutthroat historic context","current_label":"Yellowfin cutthroat historic context","recovery_label":"Recovery watch / review area","confidence_public":"Generalized public map / needs expert review","confidence_internal":"Occurrence-cluster preview; 93 source segments","geometry_status_public":"Generalized named-water occurrence","geometry_status_internal":"Grouped by display name, HUC8, lineage, and spatial cluster","geometry_source_public":"Grouped public hydrography segments","geometry_source_internal":"Colorado full interpreted natural stream context — occurrence v2 preview","trout_source_public":"Compiled public recovery and lineage context; expert review recommended","trout_source_internal":"HUC8 lineage assignment v1 / review needed","public_notes":"Bachicha Creek is shown as a generalized public-map named-water occurrence for Yellowfin cutthroat historic context. This object is separated from other same-named waters using HUC8, lineage, and local spatial clustering. Linework is grouped from public hydrography and should be treated as interpretive watershed context, not a precise biological boundary.","internal_notes":"Preview occurrence co_11020010_yellowfin_bachicha_creek_001; 93 segments; 54.8 km"}},{"type":"Feature","geometry":{"type":"LineString","coordinates":[[-103.75846,37.26919],[-103.75766,37.26911],[-103.75751,37.27027],[-103.75627,37.27081],[-103.75306,37.27096],[-103.75193,37.27045]]},"properties":{"huc8":"11020010","huc8Name":"Purgatoire","historic":"yellowfin","current":"introduced","recovery":"recoveryWatch","lineageKey":"yellowfin","lineageLabel":"Yellowfin / Arkansas headwaters historical form","basin":"Purgatoire","note":"Arkansas basin historical Yellowfin context; review needed","state":"CO","confidence":"HUC8 drainage context / generalized","geometryStatus":"Named NHD stream intersecting assigned HUC8","troutSource":"HUC8 lineage assignment v1 / review needed","sourceName":"Bachicha Creek","name":"Bachicha Creek","source_id":"131252018","length_km":0.74826339,"FType":460,"FCode":46003,"atlas_class":"streamriver","water_id":"co_11020010_yellowfin_bachicha_creek_001","occurrence_id":"co_11020010_yellowfin_bachicha_creek_001","occurrence_number":"001","display_name":"Bachicha Creek","mapped_name":"Bachicha Creek","source_name":"Bachicha Creek","disambiguator":"Yellowfin cutthroat historic context · HUC8 11020010 · occurrence 001","atlas_layer":"curated_named_water_occurrence","object_role":"interactive_named_water","lineage":"yellowfin","historic_label":"Yellowfin cutthroat historic context","current_label":"Yellowfin cutthroat historic context","recovery_label":"Recovery watch / review area","confidence_public":"Generalized public map / needs expert review","confidence_internal":"Occurrence-cluster preview; 93 source segments","geometry_status_public":"Generalized named-water occurrence","geometry_status_internal":"Grouped by display name, HUC8, lineage, and spatial cluster","geometry_source_public":"Grouped public hydrography segments","geometry_source_internal":"Colorado full interpreted natural stream context — occurrence v2 preview","trout_source_public":"Compiled public recovery and lineage context; expert review recommended","trout_source_internal":"HUC8 lineage assignment v1 / review needed","public_notes":"Bachicha Creek is shown as a generalized public-map named-water occurrence for Yellowfin cutthroat historic context. This object is separated from other same-named waters using HUC8, lineage, and local spatial clustering. Linework is grouped from public hydrography and should be treated as interpretive watershed context, not a precise biological boundary.","internal_notes":"Preview occurrence co_11020010_yellowfin_bachicha_creek_001; 93 segments; 54.8 km"}},{"type":"Feature","geometry":{"type":"LineString","coordinates":[[-103.75193,37.27045],[-103.7509,37.27134],[-103.7511,37.27385],[-103.75065,37.27505]]},"properties":{"huc8":"11020010","huc8Name":"Purgatoire","historic":"yellowfin","current":"introduced","recovery":"recoveryWatch","lineageKey":"yellowfin","lineageLabel":"Yellowfin / Arkansas headwaters historical form","basin":"Purgatoire","note":"Arkansas basin historical Yellowfin context; review needed","state":"CO","confidence":"HUC8 drainage context / generalized","geometryStatus":"Named NHD stream intersecting assigned HUC8","troutSource":"HUC8 lineage assignment v1 / review needed","sourceName":"Bachicha Creek","name":"Bachicha Creek","source_id":"131248388","length_km":0.5767832,"FType":460,"FCode":46003,"atlas_class":"streamriver","water_id":"co_11020010_yellowfin_bachicha_creek_001","occurrence_id":"co_11020010_yellowfin_bachicha_creek_001","occurrence_number":"001","display_name":"Bachicha Creek","mapped_name":"Bachicha Creek","source_name":"Bachicha Creek","disambiguator":"Yellowfin cutthroat historic context · HUC8 11020010 · occurrence 001","atlas_layer":"curated_named_water_occurrence","object_role":"interactive_named_water","lineage":"yellowfin","historic_label":"Yellowfin cutthroat historic context","current_label":"Yellowfin cutthroat historic context","recovery_label":"Recovery watch / review area","confidence_public":"Generalized public map / needs expert review","confidence_internal":"Occurrence-cluster preview; 93 source segments","geometry_status_public":"Generalized named-water occurrence","geometry_status_internal":"Grouped by display name, HUC8, lineage, and spatial cluster","geometry_source_public":"Grouped public hydrography segments","geometry_source_internal":"Colorado full interpreted natural stream context — occurrence v2 preview","trout_source_public":"Compiled public recovery and lineage context; expert review recommended","trout_source_internal":"HUC8 lineage assignment v1 / review needed","public_notes":"Bachicha Creek is shown as a generalized public-map named-water occurrence for Yellowfin cutthroat historic context. This object is separated from other same-named waters using HUC8, lineage, and local spatial clustering. Linework is grouped from public hydrography and should be treated as interpretive watershed context, not a precise biological boundary.","internal_notes":"Preview occurrence co_11020010_yellowfin_bachicha_creek_001; 93 segments; 54.8 km"}},{"type":"Feature","geometry":{"type":"LineString","coordinates":[[-103.80177,37.24992],[-103.80238,37.25094],[-103.80136,37.25134],[-103.80077,37.25255],[-103.8002,37.25269],[-103.79892,37.25172]]},"properties":{"huc8":"11020010","huc8Name":"Purgatoire","historic":"yellowfin","current":"introduced","recovery":"recoveryWatch","lineageKey":"yellowfin","lineageLabel":"Yellowfin / Arkansas headwaters historical form","basin":"Purgatoire","note":"Arkansas basin historical Yellowfin context; review needed","state":"CO","confidence":"HUC8 drainage context / generalized","geometryStatus":"Named NHD stream intersecting assigned HUC8","troutSource":"HUC8 lineage assignment v1 / review needed","sourceName":"Bachicha Creek","name":"Bachicha Creek","source_id":"131251997","length_km":0.60869092,"FType":460,"FCode":46003,"atlas_class":"streamriver","water_id":"co_11020010_yellowfin_bachicha_creek_001","occurrence_id":"co_11020010_yellowfin_bachicha_creek_001","occurrence_number":"001","display_name":"Bachicha Creek","mapped_name":"Bachicha Creek","source_name":"Bachicha Creek","disambiguator":"Yellowfin cutthroat historic context · HUC8 11020010 · occurrence 001","atlas_layer":"curated_named_water_occurrence","object_role":"interactive_named_water","lineage":"yellowfin","historic_label":"Yellowfin cutthroat historic context","current_label":"Yellowfin cutthroat historic context","recovery_label":"Recovery watch / review area","confidence_public":"Generalized public map / needs expert review","confidence_internal":"Occurrence-cluster preview; 93 source segments","geometry_status_public":"Generalized named-water occurrence","geometry_status_internal":"Grouped by display name, HUC8, lineage, and spatial cluster","geometry_source_public":"Grouped public hydrography segments","geometry_source_internal":"Colorado full interpreted natural stream context — occurrence v2 preview","trout_source_public":"Compiled public recovery and lineage context; expert review recommended","trout_source_internal":"HUC8 lineage assignment v1 / review needed","public_notes":"Bachicha Creek is shown as a generalized public-map named-water occurrence for Yellowfin cutthroat historic context. This object is separated from other same-named waters using HUC8, lineage, and local spatial clustering. Linework is grouped from public hydrography and should be treated as interpretive watershed context, not a precise biological boundary.","internal_notes":"Preview occurrence co_11020010_yellowfin_bachicha_creek_001; 93 segments; 54.8 km"}},{"type":"Feature","geometry":{"type":"LineString","coordinates":[[-103.78484,37.26438],[-103.78316,37.26628],[-103.78312,37.26703],[-103.78162,37.26791],[-103.78081,37.26916],[-103.77788,37.27051],[-103.7757,37.26984],[-103.77347,37.26424],[-103.77244,37.26387],[-103.77184,37.26424],[-103.77156,37.26499],[-103.7721,37.26606],[-103.77096,37.26814],[-103.7702,37.26845],[-103.76881,37.26724],[-103.7676,37.26475]]},"properties":{"huc8":"11020010","huc8Name":"Purgatoire","historic":"yellowfin","current":"introduced","recovery":"recoveryWatch","lineageKey":"yellowfin","lineageLabel":"Yellowfin / Arkansas headwaters historical form","basin":"Purgatoire","note":"Arkansas basin historical Yellowfin context; review needed","state":"CO","confidence":"HUC8 drainage context / generalized","geometryStatus":"Named NHD stream intersecting assigned HUC8","troutSource":"HUC8 lineage assignment v1 / review needed","sourceName":"Bachicha Creek","name":"Bachicha Creek","source_id":"131252009","length_km":3.07587077,"FType":460,"FCode":46003,"atlas_class":"streamriver","water_id":"co_11020010_yellowfin_bachicha_creek_001","occurrence_id":"co_11020010_yellowfin_bachicha_creek_001","occurrence_number":"001","display_name":"Bachicha Creek","mapped_name":"Bachicha Creek","source_name":"Bachicha Creek","disambiguator":"Yellowfin cutthroat historic context · HUC8 11020010 · occurrence 001","atlas_layer":"curated_named_water_occurrence","object_role":"interactive_named_water","lineage":"yellowfin","historic_label":"Yellowfin cutthroat historic context","current_label":"Yellowfin cutthroat historic context","recovery_label":"Recovery watch / review area","confidence_public":"Generalized public map / needs expert review","confidence_internal":"Occurrence-cluster preview; 93 source segments","geometry_status_public":"Generalized named-water occurrence","geometry_status_internal":"Grouped by display name, HUC8, lineage, and spatial cluster","geometry_source_public":"Grouped public hydrography segments","geometry_source_internal":"Colorado full interpreted natural stream context — occurrence v2 preview","trout_source_public":"Compiled public recovery and lineage context; expert review recommended","trout_source_internal":"HUC8 lineage assignment v1 / review needed","public_notes":"Bachicha Creek is shown as a generalized public-map named-water occurrence for Yellowfin cutthroat historic context. This object is separated from other same-named waters using HUC8, lineage, and local spatial clustering. Linework is grouped from public hydrography and should be treated as interpretive watershed context, not a precise biological boundary.","internal_notes":"Preview occurrence co_11020010_yellowfin_bachicha_creek_001; 93 segments; 54.8 km"}},{"type":"Feature","geometry":{"type":"LineString","coordinates":[[-103.7676,37.26475],[-103.76577,37.26623],[-103.76661,37.26792],[-103.76587,37.26849],[-103.76099,37.26828]]},"properties":{"huc8":"11020010","huc8Name":"Purgatoire","historic":"yellowfin","current":"introduced","recovery":"recoveryWatch","lineageKey":"yellowfin","lineageLabel":"Yellowfin / Arkansas headwaters historical form","basin":"Purgatoire","note":"Arkansas basin historical Yellowfin context; review needed","state":"CO","confidence":"HUC8 drainage context / generalized","geometryStatus":"Named NHD stream intersecting assigned HUC8","troutSource":"HUC8 lineage assignment v1 / review needed","sourceName":"Bachicha Creek","name":"Bachicha Creek","source_id":"131252012","length_km":1.01709527,"FType":460,"FCode":46003,"atlas_class":"streamriver","water_id":"co_11020010_yellowfin_bachicha_creek_001","occurrence_id":"co_11020010_yellowfin_bachicha_creek_001","occurrence_number":"001","display_name":"Bachicha Creek","mapped_name":"Bachicha Creek","source_name":"Bachicha Creek","disambiguator":"Yellowfin cutthroat historic context · HUC8 11020010 · occurrence 001","atlas_layer":"curated_named_water_occurrence","object_role":"interactive_named_water","lineage":"yellowfin","historic_label":"Yellowfin cutthroat historic context","current_label":"Yellowfin cutthroat historic context","recovery_label":"Recovery watch / review area","confidence_public":"Generalized public map / needs expert review","confidence_internal":"Occurrence-cluster preview; 93 source segments","geometry_status_public":"Generalized named-water occurrence","geometry_status_internal":"Grouped by display name, HUC8, lineage, and spatial cluster","geometry_source_public":"Grouped public hydrography segments","geometry_source_internal":"Colorado full interpreted natural stream context — occurrence v2 preview","trout_source_public":"Compiled public recovery and lineage context; expert review recommended","trout_source_internal":"HUC8 lineage assignment v1 / review needed","public_notes":"Bachicha Creek is shown as a generalized public-map named-water occurrence for Yellowfin cutthroat historic context. This object is separated from other same-named waters using HUC8, lineage, and local spatial clustering. Linework is grouped from public hydrography and should be treated as interpretive watershed context, not a precise biological boundary.","internal_notes":"Preview occurrence co_11020010_yellowfin_bachicha_creek_001; 93 segments; 54.8 km"}}]}