{"type":"FeatureCollection","metadata":{"description":"Colorado curated named waters occurrence v2 preview tile","source":"C:\\ct-atlas-data\\processed\\geojson\\interpreted\\colorado_curated_named_waters_occurrence_v2_preview.geojson","tileSizeDeg":0.25,"bounds":{"west":-103.75,"east":-103.5,"south":37.5,"north":37.75},"featureCount":11},"features":[{"type":"Feature","geometry":{"type":"LineString","coordinates":[[-103.62951,37.50635],[-103.62816,37.5073],[-103.62957,37.5093],[-103.62913,37.51018]]},"properties":{"huc8":"11020010","huc8Name":"Purgatoire","historic":"yellowfin","current":"introduced","recovery":"recoveryWatch","lineageKey":"yellowfin","lineageLabel":"Yellowfin / Arkansas headwaters historical form","basin":"Purgatoire","note":"Arkansas basin historical Yellowfin context; review needed","state":"CO","confidence":"HUC8 drainage context / generalized","geometryStatus":"Named NHD stream intersecting assigned HUC8","troutSource":"HUC8 lineage assignment v1 / review needed","sourceName":"Chacuaco Creek","name":"Chacuaco Creek","source_id":"131278034","length_km":0.5530493,"FType":460,"FCode":46006,"atlas_class":"streamriver","water_id":"co_11020010_yellowfin_chacuaco_creek_001","occurrence_id":"co_11020010_yellowfin_chacuaco_creek_001","occurrence_number":"001","display_name":"Chacuaco Creek","mapped_name":"Chacuaco Creek","source_name":"Chacuaco Creek","disambiguator":"Yellowfin cutthroat historic context · HUC8 11020010 · occurrence 001","atlas_layer":"curated_named_water_occurrence","object_role":"interactive_named_water","lineage":"yellowfin","historic_label":"Yellowfin cutthroat historic context","current_label":"Yellowfin cutthroat historic context","recovery_label":"Recovery watch / review area","confidence_public":"Generalized public map / needs expert review","confidence_internal":"Occurrence-cluster preview; 220 source segments","geometry_status_public":"Generalized named-water occurrence","geometry_status_internal":"Grouped by display name, HUC8, lineage, and spatial cluster","geometry_source_public":"Grouped public hydrography segments","geometry_source_internal":"Colorado full interpreted natural stream context — occurrence v2 preview","trout_source_public":"Compiled public recovery and lineage context; expert review recommended","trout_source_internal":"HUC8 lineage assignment v1 / review needed","public_notes":"Chacuaco Creek is shown as a generalized public-map named-water occurrence for Yellowfin cutthroat historic context. This object is separated from other same-named waters using HUC8, lineage, and local spatial clustering. Linework is grouped from public hydrography and should be treated as interpretive watershed context, not a precise biological boundary.","internal_notes":"Preview occurrence co_11020010_yellowfin_chacuaco_creek_001; 220 segments; 92.7 km"}},{"type":"Feature","geometry":{"type":"LineString","coordinates":[[-103.63653,37.53729],[-103.63586,37.53897],[-103.63268,37.54298]]},"properties":{"huc8":"11020010","huc8Name":"Purgatoire","historic":"yellowfin","current":"introduced","recovery":"recoveryWatch","lineageKey":"yellowfin","lineageLabel":"Yellowfin / Arkansas headwaters historical form","basin":"Purgatoire","note":"Arkansas basin historical Yellowfin context; review needed","state":"CO","confidence":"HUC8 drainage context / generalized","geometryStatus":"Named NHD stream intersecting assigned HUC8","troutSource":"HUC8 lineage assignment v1 / review needed","sourceName":"Chacuaco Creek","name":"Chacuaco Creek","source_id":"131243584","length_km":0.72741425,"FType":460,"FCode":46006,"atlas_class":"streamriver","water_id":"co_11020010_yellowfin_chacuaco_creek_001","occurrence_id":"co_11020010_yellowfin_chacuaco_creek_001","occurrence_number":"001","display_name":"Chacuaco Creek","mapped_name":"Chacuaco Creek","source_name":"Chacuaco Creek","disambiguator":"Yellowfin cutthroat historic context · HUC8 11020010 · occurrence 001","atlas_layer":"curated_named_water_occurrence","object_role":"interactive_named_water","lineage":"yellowfin","historic_label":"Yellowfin cutthroat historic context","current_label":"Yellowfin cutthroat historic context","recovery_label":"Recovery watch / review area","confidence_public":"Generalized public map / needs expert review","confidence_internal":"Occurrence-cluster preview; 220 source segments","geometry_status_public":"Generalized named-water occurrence","geometry_status_internal":"Grouped by display name, HUC8, lineage, and spatial cluster","geometry_source_public":"Grouped public hydrography segments","geometry_source_internal":"Colorado full interpreted natural stream context — occurrence v2 preview","trout_source_public":"Compiled public recovery and lineage context; expert review recommended","trout_source_internal":"HUC8 lineage assignment v1 / review needed","public_notes":"Chacuaco Creek is shown as a generalized public-map named-water occurrence for Yellowfin cutthroat historic context. This object is separated from other same-named waters using HUC8, lineage, and local spatial clustering. Linework is grouped from public hydrography and should be treated as interpretive watershed context, not a precise biological boundary.","internal_notes":"Preview occurrence co_11020010_yellowfin_chacuaco_creek_001; 220 segments; 92.7 km"}},{"type":"Feature","geometry":{"type":"LineString","coordinates":[[-103.63382,37.5447],[-103.63726,37.54741],[-103.63533,37.54741],[-103.63474,37.54822],[-103.633,37.54856],[-103.63365,37.55016],[-103.63656,37.55103],[-103.6373,37.55075],[-103.63723,37.54987],[-103.63933,37.54966],[-103.63912,37.55433],[-103.64063,37.55391]]},"properties":{"huc8":"11020010","huc8Name":"Purgatoire","historic":"yellowfin","current":"introduced","recovery":"recoveryWatch","lineageKey":"yellowfin","lineageLabel":"Yellowfin / Arkansas headwaters historical form","basin":"Purgatoire","note":"Arkansas basin historical Yellowfin context; review needed","state":"CO","confidence":"HUC8 drainage context / generalized","geometryStatus":"Named NHD stream intersecting assigned HUC8","troutSource":"HUC8 lineage assignment v1 / review needed","sourceName":"Chacuaco Creek","name":"Chacuaco Creek","source_id":"131243582","length_km":2.42008409,"FType":460,"FCode":46006,"atlas_class":"streamriver","water_id":"co_11020010_yellowfin_chacuaco_creek_001","occurrence_id":"co_11020010_yellowfin_chacuaco_creek_001","occurrence_number":"001","display_name":"Chacuaco Creek","mapped_name":"Chacuaco Creek","source_name":"Chacuaco Creek","disambiguator":"Yellowfin cutthroat historic context · HUC8 11020010 · occurrence 001","atlas_layer":"curated_named_water_occurrence","object_role":"interactive_named_water","lineage":"yellowfin","historic_label":"Yellowfin cutthroat historic context","current_label":"Yellowfin cutthroat historic context","recovery_label":"Recovery watch / review area","confidence_public":"Generalized public map / needs expert review","confidence_internal":"Occurrence-cluster preview; 220 source segments","geometry_status_public":"Generalized named-water occurrence","geometry_status_internal":"Grouped by display name, HUC8, lineage, and spatial cluster","geometry_source_public":"Grouped public hydrography segments","geometry_source_internal":"Colorado full interpreted natural stream context — occurrence v2 preview","trout_source_public":"Compiled public recovery and lineage context; expert review recommended","trout_source_internal":"HUC8 lineage assignment v1 / review needed","public_notes":"Chacuaco Creek is shown as a generalized public-map named-water occurrence for Yellowfin cutthroat historic context. This object is separated from other same-named waters using HUC8, lineage, and local spatial clustering. Linework is grouped from public hydrography and should be treated as interpretive watershed context, not a precise biological boundary.","internal_notes":"Preview occurrence co_11020010_yellowfin_chacuaco_creek_001; 220 segments; 92.7 km"}},{"type":"Feature","geometry":{"type":"LineString","coordinates":[[-103.64311,37.52629],[-103.64323,37.52716],[-103.64078,37.52809],[-103.63901,37.53039]]},"properties":{"huc8":"11020010","huc8Name":"Purgatoire","historic":"yellowfin","current":"introduced","recovery":"recoveryWatch","lineageKey":"yellowfin","lineageLabel":"Yellowfin / Arkansas headwaters historical form","basin":"Purgatoire","note":"Arkansas basin historical Yellowfin context; review needed","state":"CO","confidence":"HUC8 drainage context / generalized","geometryStatus":"Named NHD stream intersecting assigned HUC8","troutSource":"HUC8 lineage assignment v1 / review needed","sourceName":"Chacuaco Creek","name":"Chacuaco Creek","source_id":"131243585","length_km":0.65695997,"FType":460,"FCode":46006,"atlas_class":"streamriver","water_id":"co_11020010_yellowfin_chacuaco_creek_001","occurrence_id":"co_11020010_yellowfin_chacuaco_creek_001","occurrence_number":"001","display_name":"Chacuaco Creek","mapped_name":"Chacuaco Creek","source_name":"Chacuaco Creek","disambiguator":"Yellowfin cutthroat historic context · HUC8 11020010 · occurrence 001","atlas_layer":"curated_named_water_occurrence","object_role":"interactive_named_water","lineage":"yellowfin","historic_label":"Yellowfin cutthroat historic context","current_label":"Yellowfin cutthroat historic context","recovery_label":"Recovery watch / review area","confidence_public":"Generalized public map / needs expert review","confidence_internal":"Occurrence-cluster preview; 220 source segments","geometry_status_public":"Generalized named-water occurrence","geometry_status_internal":"Grouped by display name, HUC8, lineage, and spatial cluster","geometry_source_public":"Grouped public hydrography segments","geometry_source_internal":"Colorado full interpreted natural stream context — occurrence v2 preview","trout_source_public":"Compiled public recovery and lineage context; expert review recommended","trout_source_internal":"HUC8 lineage assignment v1 / review needed","public_notes":"Chacuaco Creek is shown as a generalized public-map named-water occurrence for Yellowfin cutthroat historic context. This object is separated from other same-named waters using HUC8, lineage, and local spatial clustering. Linework is grouped from public hydrography and should be treated as interpretive watershed context, not a precise biological boundary.","internal_notes":"Preview occurrence co_11020010_yellowfin_chacuaco_creek_001; 220 segments; 92.7 km"}},{"type":"Feature","geometry":{"type":"LineString","coordinates":[[-103.64063,37.55391],[-103.64173,37.55429],[-103.64091,37.55665]]},"properties":{"huc8":"11020010","huc8Name":"Purgatoire","historic":"yellowfin","current":"introduced","recovery":"recoveryWatch","lineageKey":"yellowfin","lineageLabel":"Yellowfin / Arkansas headwaters historical form","basin":"Purgatoire","note":"Arkansas basin historical Yellowfin context; review needed","state":"CO","confidence":"HUC8 drainage context / generalized","geometryStatus":"Named NHD stream intersecting assigned HUC8","troutSource":"HUC8 lineage assignment v1 / review needed","sourceName":"Chacuaco Creek","name":"Chacuaco Creek","source_id":"131243581","length_km":0.41073801,"FType":460,"FCode":46006,"atlas_class":"streamriver","water_id":"co_11020010_yellowfin_chacuaco_creek_001","occurrence_id":"co_11020010_yellowfin_chacuaco_creek_001","occurrence_number":"001","display_name":"Chacuaco Creek","mapped_name":"Chacuaco Creek","source_name":"Chacuaco Creek","disambiguator":"Yellowfin cutthroat historic context · HUC8 11020010 · occurrence 001","atlas_layer":"curated_named_water_occurrence","object_role":"interactive_named_water","lineage":"yellowfin","historic_label":"Yellowfin cutthroat historic context","current_label":"Yellowfin cutthroat historic context","recovery_label":"Recovery watch / review area","confidence_public":"Generalized public map / needs expert review","confidence_internal":"Occurrence-cluster preview; 220 source segments","geometry_status_public":"Generalized named-water occurrence","geometry_status_internal":"Grouped by display name, HUC8, lineage, and spatial cluster","geometry_source_public":"Grouped public hydrography segments","geometry_source_internal":"Colorado full interpreted natural stream context — occurrence v2 preview","trout_source_public":"Compiled public recovery and lineage context; expert review recommended","trout_source_internal":"HUC8 lineage assignment v1 / review needed","public_notes":"Chacuaco Creek is shown as a generalized public-map named-water occurrence for Yellowfin cutthroat historic context. This object is separated from other same-named waters using HUC8, lineage, and local spatial clustering. Linework is grouped from public hydrography and should be treated as interpretive watershed context, not a precise biological boundary.","internal_notes":"Preview occurrence co_11020010_yellowfin_chacuaco_creek_001; 220 segments; 92.7 km"}},{"type":"Feature","geometry":{"type":"LineString","coordinates":[[-103.63901,37.53039],[-103.63806,37.53063],[-103.63652,37.52997],[-103.63529,37.53191],[-103.63731,37.53416],[-103.63653,37.53729]]},"properties":{"huc8":"11020010","huc8Name":"Purgatoire","historic":"yellowfin","current":"introduced","recovery":"recoveryWatch","lineageKey":"yellowfin","lineageLabel":"Yellowfin / Arkansas headwaters historical form","basin":"Purgatoire","note":"Arkansas basin historical Yellowfin context; review needed","state":"CO","confidence":"HUC8 drainage context / generalized","geometryStatus":"Named NHD stream intersecting assigned HUC8","troutSource":"HUC8 lineage assignment v1 / review needed","sourceName":"Chacuaco Creek","name":"Chacuaco Creek","source_id":"131243587","length_km":1.1810032,"FType":460,"FCode":46006,"atlas_class":"streamriver","water_id":"co_11020010_yellowfin_chacuaco_creek_001","occurrence_id":"co_11020010_yellowfin_chacuaco_creek_001","occurrence_number":"001","display_name":"Chacuaco Creek","mapped_name":"Chacuaco Creek","source_name":"Chacuaco Creek","disambiguator":"Yellowfin cutthroat historic context · HUC8 11020010 · occurrence 001","atlas_layer":"curated_named_water_occurrence","object_role":"interactive_named_water","lineage":"yellowfin","historic_label":"Yellowfin cutthroat historic context","current_label":"Yellowfin cutthroat historic context","recovery_label":"Recovery watch / review area","confidence_public":"Generalized public map / needs expert review","confidence_internal":"Occurrence-cluster preview; 220 source segments","geometry_status_public":"Generalized named-water occurrence","geometry_status_internal":"Grouped by display name, HUC8, lineage, and spatial cluster","geometry_source_public":"Grouped public hydrography segments","geometry_source_internal":"Colorado full interpreted natural stream context — occurrence v2 preview","trout_source_public":"Compiled public recovery and lineage context; expert review recommended","trout_source_internal":"HUC8 lineage assignment v1 / review needed","public_notes":"Chacuaco Creek is shown as a generalized public-map named-water occurrence for Yellowfin cutthroat historic context. This object is separated from other same-named waters using HUC8, lineage, and local spatial clustering. Linework is grouped from public hydrography and should be treated as interpretive watershed context, not a precise biological boundary.","internal_notes":"Preview occurrence co_11020010_yellowfin_chacuaco_creek_001; 220 segments; 92.7 km"}},{"type":"Feature","geometry":{"type":"LineString","coordinates":[[-103.6301,37.51133],[-103.62969,37.51319],[-103.6314,37.51469],[-103.63041,37.51555],[-103.6303,37.51691]]},"properties":{"huc8":"11020010","huc8Name":"Purgatoire","historic":"yellowfin","current":"introduced","recovery":"recoveryWatch","lineageKey":"yellowfin","lineageLabel":"Yellowfin / Arkansas headwaters historical form","basin":"Purgatoire","note":"Arkansas basin historical Yellowfin context; review needed","state":"CO","confidence":"HUC8 drainage context / generalized","geometryStatus":"Named NHD stream intersecting assigned HUC8","troutSource":"HUC8 lineage assignment v1 / review needed","sourceName":"Chacuaco Creek","name":"Chacuaco Creek","source_id":"131243588","length_km":0.75966986,"FType":460,"FCode":46006,"atlas_class":"streamriver","water_id":"co_11020010_yellowfin_chacuaco_creek_001","occurrence_id":"co_11020010_yellowfin_chacuaco_creek_001","occurrence_number":"001","display_name":"Chacuaco Creek","mapped_name":"Chacuaco Creek","source_name":"Chacuaco Creek","disambiguator":"Yellowfin cutthroat historic context · HUC8 11020010 · occurrence 001","atlas_layer":"curated_named_water_occurrence","object_role":"interactive_named_water","lineage":"yellowfin","historic_label":"Yellowfin cutthroat historic context","current_label":"Yellowfin cutthroat historic context","recovery_label":"Recovery watch / review area","confidence_public":"Generalized public map / needs expert review","confidence_internal":"Occurrence-cluster preview; 220 source segments","geometry_status_public":"Generalized named-water occurrence","geometry_status_internal":"Grouped by display name, HUC8, lineage, and spatial cluster","geometry_source_public":"Grouped public hydrography segments","geometry_source_internal":"Colorado full interpreted natural stream context — occurrence v2 preview","trout_source_public":"Compiled public recovery and lineage context; expert review recommended","trout_source_internal":"HUC8 lineage assignment v1 / review needed","public_notes":"Chacuaco Creek is shown as a generalized public-map named-water occurrence for Yellowfin cutthroat historic context. This object is separated from other same-named waters using HUC8, lineage, and local spatial clustering. Linework is grouped from public hydrography and should be treated as interpretive watershed context, not a precise biological boundary.","internal_notes":"Preview occurrence co_11020010_yellowfin_chacuaco_creek_001; 220 segments; 92.7 km"}},{"type":"Feature","geometry":{"type":"LineString","coordinates":[[-103.62913,37.51018],[-103.6301,37.51133]]},"properties":{"huc8":"11020010","huc8Name":"Purgatoire","historic":"yellowfin","current":"introduced","recovery":"recoveryWatch","lineageKey":"yellowfin","lineageLabel":"Yellowfin / Arkansas headwaters historical form","basin":"Purgatoire","note":"Arkansas basin historical Yellowfin context; review needed","state":"CO","confidence":"HUC8 drainage context / generalized","geometryStatus":"Named NHD stream intersecting assigned HUC8","troutSource":"HUC8 lineage assignment v1 / review needed","sourceName":"Chacuaco Creek","name":"Chacuaco Creek","source_id":"131278032","length_km":0.17060112,"FType":460,"FCode":46006,"atlas_class":"streamriver","water_id":"co_11020010_yellowfin_chacuaco_creek_001","occurrence_id":"co_11020010_yellowfin_chacuaco_creek_001","occurrence_number":"001","display_name":"Chacuaco Creek","mapped_name":"Chacuaco Creek","source_name":"Chacuaco Creek","disambiguator":"Yellowfin cutthroat historic context · HUC8 11020010 · occurrence 001","atlas_layer":"curated_named_water_occurrence","object_role":"interactive_named_water","lineage":"yellowfin","historic_label":"Yellowfin cutthroat historic context","current_label":"Yellowfin cutthroat historic context","recovery_label":"Recovery watch / review area","confidence_public":"Generalized public map / needs expert review","confidence_internal":"Occurrence-cluster preview; 220 source segments","geometry_status_public":"Generalized named-water occurrence","geometry_status_internal":"Grouped by display name, HUC8, lineage, and spatial cluster","geometry_source_public":"Grouped public hydrography segments","geometry_source_internal":"Colorado full interpreted natural stream context — occurrence v2 preview","trout_source_public":"Compiled public recovery and lineage context; expert review recommended","trout_source_internal":"HUC8 lineage assignment v1 / review needed","public_notes":"Chacuaco Creek is shown as a generalized public-map named-water occurrence for Yellowfin cutthroat historic context. This object is separated from other same-named waters using HUC8, lineage, and local spatial clustering. Linework is grouped from public hydrography and should be treated as interpretive watershed context, not a precise biological boundary.","internal_notes":"Preview occurrence co_11020010_yellowfin_chacuaco_creek_001; 220 segments; 92.7 km"}},{"type":"Feature","geometry":{"type":"LineString","coordinates":[[-103.62681,37.49958],[-103.62888,37.5014],[-103.62863,37.50302],[-103.62926,37.50371],[-103.62836,37.50509],[-103.62951,37.50635]]},"properties":{"huc8":"11020010","huc8Name":"Purgatoire","historic":"yellowfin","current":"introduced","recovery":"recoveryWatch","lineageKey":"yellowfin","lineageLabel":"Yellowfin / Arkansas headwaters historical form","basin":"Purgatoire","note":"Arkansas basin historical Yellowfin context; review needed","state":"CO","confidence":"HUC8 drainage context / generalized","geometryStatus":"Named NHD stream intersecting assigned HUC8","troutSource":"HUC8 lineage assignment v1 / review needed","sourceName":"Chacuaco Creek","name":"Chacuaco Creek","source_id":"131278036","length_km":0.91765148,"FType":460,"FCode":46006,"atlas_class":"streamriver","water_id":"co_11020010_yellowfin_chacuaco_creek_001","occurrence_id":"co_11020010_yellowfin_chacuaco_creek_001","occurrence_number":"001","display_name":"Chacuaco Creek","mapped_name":"Chacuaco Creek","source_name":"Chacuaco Creek","disambiguator":"Yellowfin cutthroat historic context · HUC8 11020010 · occurrence 001","atlas_layer":"curated_named_water_occurrence","object_role":"interactive_named_water","lineage":"yellowfin","historic_label":"Yellowfin cutthroat historic context","current_label":"Yellowfin cutthroat historic context","recovery_label":"Recovery watch / review area","confidence_public":"Generalized public map / needs expert review","confidence_internal":"Occurrence-cluster preview; 220 source segments","geometry_status_public":"Generalized named-water occurrence","geometry_status_internal":"Grouped by display name, HUC8, lineage, and spatial cluster","geometry_source_public":"Grouped public hydrography segments","geometry_source_internal":"Colorado full interpreted natural stream context — occurrence v2 preview","trout_source_public":"Compiled public recovery and lineage context; expert review recommended","trout_source_internal":"HUC8 lineage assignment v1 / review needed","public_notes":"Chacuaco Creek is shown as a generalized public-map named-water occurrence for Yellowfin cutthroat historic context. This object is separated from other same-named waters using HUC8, lineage, and local spatial clustering. Linework is grouped from public hydrography and should be treated as interpretive watershed context, not a precise biological boundary.","internal_notes":"Preview occurrence co_11020010_yellowfin_chacuaco_creek_001; 220 segments; 92.7 km"}},{"type":"Feature","geometry":{"type":"LineString","coordinates":[[-103.6303,37.51691],[-103.63215,37.51881],[-103.63669,37.51898],[-103.63726,37.51938],[-103.63748,37.52075],[-103.64065,37.5211],[-103.64038,37.52387],[-103.64174,37.52429],[-103.64151,37.52628],[-103.64311,37.52629]]},"properties":{"huc8":"11020010","huc8Name":"Purgatoire","historic":"yellowfin","current":"introduced","recovery":"recoveryWatch","lineageKey":"yellowfin","lineageLabel":"Yellowfin / Arkansas headwaters historical form","basin":"Purgatoire","note":"Arkansas basin historical Yellowfin context; review needed","state":"CO","confidence":"HUC8 drainage context / generalized","geometryStatus":"Named NHD stream intersecting assigned HUC8","troutSource":"HUC8 lineage assignment v1 / review needed","sourceName":"Chacuaco Creek","name":"Chacuaco Creek","source_id":"131243586","length_km":2.02809286,"FType":460,"FCode":46006,"atlas_class":"streamriver","water_id":"co_11020010_yellowfin_chacuaco_creek_001","occurrence_id":"co_11020010_yellowfin_chacuaco_creek_001","occurrence_number":"001","display_name":"Chacuaco Creek","mapped_name":"Chacuaco Creek","source_name":"Chacuaco Creek","disambiguator":"Yellowfin cutthroat historic context · HUC8 11020010 · occurrence 001","atlas_layer":"curated_named_water_occurrence","object_role":"interactive_named_water","lineage":"yellowfin","historic_label":"Yellowfin cutthroat historic context","current_label":"Yellowfin cutthroat historic context","recovery_label":"Recovery watch / review area","confidence_public":"Generalized public map / needs expert review","confidence_internal":"Occurrence-cluster preview; 220 source segments","geometry_status_public":"Generalized named-water occurrence","geometry_status_internal":"Grouped by display name, HUC8, lineage, and spatial cluster","geometry_source_public":"Grouped public hydrography segments","geometry_source_internal":"Colorado full interpreted natural stream context — occurrence v2 preview","trout_source_public":"Compiled public recovery and lineage context; expert review recommended","trout_source_internal":"HUC8 lineage assignment v1 / review needed","public_notes":"Chacuaco Creek is shown as a generalized public-map named-water occurrence for Yellowfin cutthroat historic context. This object is separated from other same-named waters using HUC8, lineage, and local spatial clustering. Linework is grouped from public hydrography and should be treated as interpretive watershed context, not a precise biological boundary.","internal_notes":"Preview occurrence co_11020010_yellowfin_chacuaco_creek_001; 220 segments; 92.7 km"}},{"type":"Feature","geometry":{"type":"LineString","coordinates":[[-103.63268,37.54298],[-103.63382,37.5447]]},"properties":{"huc8":"11020010","huc8Name":"Purgatoire","historic":"yellowfin","current":"introduced","recovery":"recoveryWatch","lineageKey":"yellowfin","lineageLabel":"Yellowfin / Arkansas headwaters historical form","basin":"Purgatoire","note":"Arkansas basin historical Yellowfin context; review needed","state":"CO","confidence":"HUC8 drainage context / generalized","geometryStatus":"Named NHD stream intersecting assigned HUC8","troutSource":"HUC8 lineage assignment v1 / review needed","sourceName":"Chacuaco Creek","name":"Chacuaco Creek","source_id":"131243583","length_km":0.22686423,"FType":460,"FCode":46006,"atlas_class":"streamriver","water_id":"co_11020010_yellowfin_chacuaco_creek_001","occurrence_id":"co_11020010_yellowfin_chacuaco_creek_001","occurrence_number":"001","display_name":"Chacuaco Creek","mapped_name":"Chacuaco Creek","source_name":"Chacuaco Creek","disambiguator":"Yellowfin cutthroat historic context · HUC8 11020010 · occurrence 001","atlas_layer":"curated_named_water_occurrence","object_role":"interactive_named_water","lineage":"yellowfin","historic_label":"Yellowfin cutthroat historic context","current_label":"Yellowfin cutthroat historic context","recovery_label":"Recovery watch / review area","confidence_public":"Generalized public map / needs expert review","confidence_internal":"Occurrence-cluster preview; 220 source segments","geometry_status_public":"Generalized named-water occurrence","geometry_status_internal":"Grouped by display name, HUC8, lineage, and spatial cluster","geometry_source_public":"Grouped public hydrography segments","geometry_source_internal":"Colorado full interpreted natural stream context — occurrence v2 preview","trout_source_public":"Compiled public recovery and lineage context; expert review recommended","trout_source_internal":"HUC8 lineage assignment v1 / review needed","public_notes":"Chacuaco Creek is shown as a generalized public-map named-water occurrence for Yellowfin cutthroat historic context. This object is separated from other same-named waters using HUC8, lineage, and local spatial clustering. Linework is grouped from public hydrography and should be treated as interpretive watershed context, not a precise biological boundary.","internal_notes":"Preview occurrence co_11020010_yellowfin_chacuaco_creek_001; 220 segments; 92.7 km"}}]}