{"type":"FeatureCollection","metadata":{"description":"Colorado curated named waters occurrence v2 preview tile","source":"C:\\ct-atlas-data\\processed\\geojson\\interpreted\\colorado_curated_named_waters_occurrence_v2_preview.geojson","tileSizeDeg":0.25,"bounds":{"west":-106.5,"east":-106.25,"south":40.25,"north":40.5},"featureCount":10},"features":[{"type":"Feature","geometry":{"type":"LineString","coordinates":[[-106.45582,40.25665],[-106.45622,40.25566],[-106.45583,40.25508],[-106.4545,40.2563],[-106.45416,40.25486],[-106.45257,40.25438],[-106.45234,40.25315],[-106.45406,40.25325]]},"properties":{"huc8":"14010001","huc8Name":"Colorado Headwaters","historic":"coloradoRiver","current":"introduced","recovery":"recoveryWatch","lineageKey":"coloradoRiver","lineageLabel":"Colorado River green lineage","basin":"Colorado Headwaters","note":"Upper Colorado green-lineage context","state":"CO","confidence":"HUC8 drainage context / generalized","geometryStatus":"Named NHD stream intersecting assigned HUC8","troutSource":"HUC8 lineage assignment v1 / review needed","sourceName":"Muddy Creek","name":"Muddy Creek","source_id":"88895383","length_km":1.06015129,"FType":460,"FCode":46006,"atlas_class":"streamriver","water_id":"co_14010001_coloradoriver_muddy_creek_001","occurrence_id":"co_14010001_coloradoriver_muddy_creek_001","occurrence_number":"001","display_name":"Muddy Creek","mapped_name":"Muddy Creek","source_name":"Muddy Creek","disambiguator":"Colorado River cutthroat historic context · HUC8 14010001 · occurrence 001","atlas_layer":"curated_named_water_occurrence","object_role":"interactive_named_water","lineage":"coloradoRiver","historic_label":"Colorado River cutthroat historic context","current_label":"Colorado River cutthroat historic context","recovery_label":"Recovery watch / review area","confidence_public":"Generalized public map / needs expert review","confidence_internal":"Occurrence-cluster preview; 122 source segments","geometry_status_public":"Generalized named-water occurrence","geometry_status_internal":"Grouped by display name, HUC8, lineage, and spatial cluster","geometry_source_public":"Grouped public hydrography segments","geometry_source_internal":"Colorado full interpreted natural stream context — occurrence v2 preview","trout_source_public":"Compiled public recovery and lineage context; expert review recommended","trout_source_internal":"HUC8 lineage assignment v1 / review needed","public_notes":"Muddy Creek is shown as a generalized public-map named-water occurrence for Colorado River cutthroat historic context. This object is separated from other same-named waters using HUC8, lineage, and local spatial clustering. Linework is grouped from public hydrography and should be treated as interpretive watershed context, not a precise biological boundary.","internal_notes":"Preview occurrence co_14010001_coloradoriver_muddy_creek_001; 122 segments; 61.9 km"}},{"type":"Feature","geometry":{"type":"LineString","coordinates":[[-106.47732,40.28662],[-106.47575,40.28689],[-106.4748,40.28607],[-106.47396,40.28655],[-106.47272,40.28573],[-106.47182,40.28582],[-106.47129,40.28539],[-106.47164,40.28409],[-106.4702,40.28291]]},"properties":{"huc8":"14010001","huc8Name":"Colorado Headwaters","historic":"coloradoRiver","current":"introduced","recovery":"recoveryWatch","lineageKey":"coloradoRiver","lineageLabel":"Colorado River green lineage","basin":"Colorado Headwaters","note":"Upper Colorado green-lineage context","state":"CO","confidence":"HUC8 drainage context / generalized","geometryStatus":"Named NHD stream intersecting assigned HUC8","troutSource":"HUC8 lineage assignment v1 / review needed","sourceName":"Muddy Creek","name":"Muddy Creek","source_id":"88895311","length_km":1.06057838,"FType":460,"FCode":46006,"atlas_class":"streamriver","water_id":"co_14010001_coloradoriver_muddy_creek_001","occurrence_id":"co_14010001_coloradoriver_muddy_creek_001","occurrence_number":"001","display_name":"Muddy Creek","mapped_name":"Muddy Creek","source_name":"Muddy Creek","disambiguator":"Colorado River cutthroat historic context · HUC8 14010001 · occurrence 001","atlas_layer":"curated_named_water_occurrence","object_role":"interactive_named_water","lineage":"coloradoRiver","historic_label":"Colorado River cutthroat historic context","current_label":"Colorado River cutthroat historic context","recovery_label":"Recovery watch / review area","confidence_public":"Generalized public map / needs expert review","confidence_internal":"Occurrence-cluster preview; 122 source segments","geometry_status_public":"Generalized named-water occurrence","geometry_status_internal":"Grouped by display name, HUC8, lineage, and spatial cluster","geometry_source_public":"Grouped public hydrography segments","geometry_source_internal":"Colorado full interpreted natural stream context — occurrence v2 preview","trout_source_public":"Compiled public recovery and lineage context; expert review recommended","trout_source_internal":"HUC8 lineage assignment v1 / review needed","public_notes":"Muddy Creek is shown as a generalized public-map named-water occurrence for Colorado River cutthroat historic context. This object is separated from other same-named waters using HUC8, lineage, and local spatial clustering. Linework is grouped from public hydrography and should be treated as interpretive watershed context, not a precise biological boundary.","internal_notes":"Preview occurrence co_14010001_coloradoriver_muddy_creek_001; 122 segments; 61.9 km"}},{"type":"Feature","geometry":{"type":"LineString","coordinates":[[-106.51514,40.30441],[-106.51539,40.30341],[-106.51304,40.3038],[-106.51121,40.3018],[-106.50635,40.30021],[-106.50342,40.29769],[-106.49932,40.29689],[-106.49791,40.29759],[-106.49503,40.29742],[-106.49494,40.2982],[-106.49325,40.29868],[-106.49176,40.29843],[-106.49065,40.29696],[-106.48955,40.29757],[-106.48962,40.29829],[-106.4887,40.2975],[-106.48916,40.29604],[-106.48803,40.29588],[-106.4879,40.29666],[-106.48695,40.29711],[-106.48652,40.29589],[-106.487,40.2954],[-106.48593,40.29478],[-106.48535,40.29564],[-106.48485,40.2949],[-106.48613,40.29406],[-106.4839,40.29444]]},"properties":{"huc8":"14010001","huc8Name":"Colorado Headwaters","historic":"coloradoRiver","current":"introduced","recovery":"recoveryWatch","lineageKey":"coloradoRiver","lineageLabel":"Colorado River green lineage","basin":"Colorado Headwaters","note":"Upper Colorado green-lineage context","state":"CO","confidence":"HUC8 drainage context / generalized","geometryStatus":"Named NHD stream intersecting assigned HUC8","troutSource":"HUC8 lineage assignment v1 / review needed","sourceName":"Muddy Creek","name":"Muddy Creek","source_id":"88895291","length_km":4.80873645,"FType":460,"FCode":46006,"atlas_class":"streamriver","water_id":"co_14010001_coloradoriver_muddy_creek_001","occurrence_id":"co_14010001_coloradoriver_muddy_creek_001","occurrence_number":"001","display_name":"Muddy Creek","mapped_name":"Muddy Creek","source_name":"Muddy Creek","disambiguator":"Colorado River cutthroat historic context · HUC8 14010001 · occurrence 001","atlas_layer":"curated_named_water_occurrence","object_role":"interactive_named_water","lineage":"coloradoRiver","historic_label":"Colorado River cutthroat historic context","current_label":"Colorado River cutthroat historic context","recovery_label":"Recovery watch / review area","confidence_public":"Generalized public map / needs expert review","confidence_internal":"Occurrence-cluster preview; 122 source segments","geometry_status_public":"Generalized named-water occurrence","geometry_status_internal":"Grouped by display name, HUC8, lineage, and spatial cluster","geometry_source_public":"Grouped public hydrography segments","geometry_source_internal":"Colorado full interpreted natural stream context — occurrence v2 preview","trout_source_public":"Compiled public recovery and lineage context; expert review recommended","trout_source_internal":"HUC8 lineage assignment v1 / review needed","public_notes":"Muddy Creek is shown as a generalized public-map named-water occurrence for Colorado River cutthroat historic context. This object is separated from other same-named waters using HUC8, lineage, and local spatial clustering. Linework is grouped from public hydrography and should be treated as interpretive watershed context, not a precise biological boundary.","internal_notes":"Preview occurrence co_14010001_coloradoriver_muddy_creek_001; 122 segments; 61.9 km"}},{"type":"Feature","geometry":{"type":"LineString","coordinates":[[-106.46988,40.28163],[-106.46962,40.27935],[-106.47114,40.27824],[-106.47054,40.27789],[-106.47136,40.27745],[-106.47077,40.27466]]},"properties":{"huc8":"14010001","huc8Name":"Colorado Headwaters","historic":"coloradoRiver","current":"introduced","recovery":"recoveryWatch","lineageKey":"coloradoRiver","lineageLabel":"Colorado River green lineage","basin":"Colorado Headwaters","note":"Upper Colorado green-lineage context","state":"CO","confidence":"HUC8 drainage context / generalized","geometryStatus":"Named NHD stream intersecting assigned HUC8","troutSource":"HUC8 lineage assignment v1 / review needed","sourceName":"Muddy Creek","name":"Muddy Creek","source_id":"88895333","length_km":0.99015481,"FType":460,"FCode":46006,"atlas_class":"streamriver","water_id":"co_14010001_coloradoriver_muddy_creek_001","occurrence_id":"co_14010001_coloradoriver_muddy_creek_001","occurrence_number":"001","display_name":"Muddy Creek","mapped_name":"Muddy Creek","source_name":"Muddy Creek","disambiguator":"Colorado River cutthroat historic context · HUC8 14010001 · occurrence 001","atlas_layer":"curated_named_water_occurrence","object_role":"interactive_named_water","lineage":"coloradoRiver","historic_label":"Colorado River cutthroat historic context","current_label":"Colorado River cutthroat historic context","recovery_label":"Recovery watch / review area","confidence_public":"Generalized public map / needs expert review","confidence_internal":"Occurrence-cluster preview; 122 source segments","geometry_status_public":"Generalized named-water occurrence","geometry_status_internal":"Grouped by display name, HUC8, lineage, and spatial cluster","geometry_source_public":"Grouped public hydrography segments","geometry_source_internal":"Colorado full interpreted natural stream context — occurrence v2 preview","trout_source_public":"Compiled public recovery and lineage context; expert review recommended","trout_source_internal":"HUC8 lineage assignment v1 / review needed","public_notes":"Muddy Creek is shown as a generalized public-map named-water occurrence for Colorado River cutthroat historic context. This object is separated from other same-named waters using HUC8, lineage, and local spatial clustering. Linework is grouped from public hydrography and should be treated as interpretive watershed context, not a precise biological boundary.","internal_notes":"Preview occurrence co_14010001_coloradoriver_muddy_creek_001; 122 segments; 61.9 km"}},{"type":"Feature","geometry":{"type":"LineString","coordinates":[[-106.4839,40.29444],[-106.4839,40.29364],[-106.48303,40.29281],[-106.48062,40.29187]]},"properties":{"huc8":"14010001","huc8Name":"Colorado Headwaters","historic":"coloradoRiver","current":"introduced","recovery":"recoveryWatch","lineageKey":"coloradoRiver","lineageLabel":"Colorado River green lineage","basin":"Colorado Headwaters","note":"Upper Colorado green-lineage context","state":"CO","confidence":"HUC8 drainage context / generalized","geometryStatus":"Named NHD stream intersecting assigned HUC8","troutSource":"HUC8 lineage assignment v1 / review needed","sourceName":"Muddy Creek","name":"Muddy Creek","source_id":"88895293","length_km":0.47600461,"FType":460,"FCode":46006,"atlas_class":"streamriver","water_id":"co_14010001_coloradoriver_muddy_creek_001","occurrence_id":"co_14010001_coloradoriver_muddy_creek_001","occurrence_number":"001","display_name":"Muddy Creek","mapped_name":"Muddy Creek","source_name":"Muddy Creek","disambiguator":"Colorado River cutthroat historic context · HUC8 14010001 · occurrence 001","atlas_layer":"curated_named_water_occurrence","object_role":"interactive_named_water","lineage":"coloradoRiver","historic_label":"Colorado River cutthroat historic context","current_label":"Colorado River cutthroat historic context","recovery_label":"Recovery watch / review area","confidence_public":"Generalized public map / needs expert review","confidence_internal":"Occurrence-cluster preview; 122 source segments","geometry_status_public":"Generalized named-water occurrence","geometry_status_internal":"Grouped by display name, HUC8, lineage, and spatial cluster","geometry_source_public":"Grouped public hydrography segments","geometry_source_internal":"Colorado full interpreted natural stream context — occurrence v2 preview","trout_source_public":"Compiled public recovery and lineage context; expert review recommended","trout_source_internal":"HUC8 lineage assignment v1 / review needed","public_notes":"Muddy Creek is shown as a generalized public-map named-water occurrence for Colorado River cutthroat historic context. This object is separated from other same-named waters using HUC8, lineage, and local spatial clustering. Linework is grouped from public hydrography and should be treated as interpretive watershed context, not a precise biological boundary.","internal_notes":"Preview occurrence co_14010001_coloradoriver_muddy_creek_001; 122 segments; 61.9 km"}},{"type":"Feature","geometry":{"type":"LineString","coordinates":[[-106.48062,40.29187],[-106.48143,40.29168],[-106.48016,40.29022],[-106.48013,40.28834],[-106.47865,40.28817],[-106.47732,40.28662]]},"properties":{"huc8":"14010001","huc8Name":"Colorado Headwaters","historic":"coloradoRiver","current":"introduced","recovery":"recoveryWatch","lineageKey":"coloradoRiver","lineageLabel":"Colorado River green lineage","basin":"Colorado Headwaters","note":"Upper Colorado green-lineage context","state":"CO","confidence":"HUC8 drainage context / generalized","geometryStatus":"Named NHD stream intersecting assigned HUC8","troutSource":"HUC8 lineage assignment v1 / review needed","sourceName":"Muddy Creek","name":"Muddy Creek","source_id":"88895301","length_km":0.88475741,"FType":460,"FCode":46006,"atlas_class":"streamriver","water_id":"co_14010001_coloradoriver_muddy_creek_001","occurrence_id":"co_14010001_coloradoriver_muddy_creek_001","occurrence_number":"001","display_name":"Muddy Creek","mapped_name":"Muddy Creek","source_name":"Muddy Creek","disambiguator":"Colorado River cutthroat historic context · HUC8 14010001 · occurrence 001","atlas_layer":"curated_named_water_occurrence","object_role":"interactive_named_water","lineage":"coloradoRiver","historic_label":"Colorado River cutthroat historic context","current_label":"Colorado River cutthroat historic context","recovery_label":"Recovery watch / review area","confidence_public":"Generalized public map / needs expert review","confidence_internal":"Occurrence-cluster preview; 122 source segments","geometry_status_public":"Generalized named-water occurrence","geometry_status_internal":"Grouped by display name, HUC8, lineage, and spatial cluster","geometry_source_public":"Grouped public hydrography segments","geometry_source_internal":"Colorado full interpreted natural stream context — occurrence v2 preview","trout_source_public":"Compiled public recovery and lineage context; expert review recommended","trout_source_internal":"HUC8 lineage assignment v1 / review needed","public_notes":"Muddy Creek is shown as a generalized public-map named-water occurrence for Colorado River cutthroat historic context. This object is separated from other same-named waters using HUC8, lineage, and local spatial clustering. Linework is grouped from public hydrography and should be treated as interpretive watershed context, not a precise biological boundary.","internal_notes":"Preview occurrence co_14010001_coloradoriver_muddy_creek_001; 122 segments; 61.9 km"}},{"type":"Feature","geometry":{"type":"LineString","coordinates":[[-106.47077,40.27466],[-106.46972,40.27299],[-106.47061,40.27226],[-106.46914,40.2708],[-106.46773,40.27073],[-106.46704,40.26879],[-106.46809,40.26854],[-106.46606,40.26753],[-106.46664,40.26669],[-106.46605,40.2663],[-106.46409,40.26669],[-106.46367,40.26486],[-106.46291,40.26521],[-106.46251,40.26477],[-106.46098,40.26487],[-106.45934,40.26214],[-106.45542,40.25912],[-106.45518,40.25748]]},"properties":{"huc8":"14010001","huc8Name":"Colorado Headwaters","historic":"coloradoRiver","current":"introduced","recovery":"recoveryWatch","lineageKey":"coloradoRiver","lineageLabel":"Colorado River green lineage","basin":"Colorado Headwaters","note":"Upper Colorado green-lineage context","state":"CO","confidence":"HUC8 drainage context / generalized","geometryStatus":"Named NHD stream intersecting assigned HUC8","troutSource":"HUC8 lineage assignment v1 / review needed","sourceName":"Muddy Creek","name":"Muddy Creek","source_id":"88895363","length_km":3.21180229,"FType":460,"FCode":46006,"atlas_class":"streamriver","water_id":"co_14010001_coloradoriver_muddy_creek_001","occurrence_id":"co_14010001_coloradoriver_muddy_creek_001","occurrence_number":"001","display_name":"Muddy Creek","mapped_name":"Muddy Creek","source_name":"Muddy Creek","disambiguator":"Colorado River cutthroat historic context · HUC8 14010001 · occurrence 001","atlas_layer":"curated_named_water_occurrence","object_role":"interactive_named_water","lineage":"coloradoRiver","historic_label":"Colorado River cutthroat historic context","current_label":"Colorado River cutthroat historic context","recovery_label":"Recovery watch / review area","confidence_public":"Generalized public map / needs expert review","confidence_internal":"Occurrence-cluster preview; 122 source segments","geometry_status_public":"Generalized named-water occurrence","geometry_status_internal":"Grouped by display name, HUC8, lineage, and spatial cluster","geometry_source_public":"Grouped public hydrography segments","geometry_source_internal":"Colorado full interpreted natural stream context — occurrence v2 preview","trout_source_public":"Compiled public recovery and lineage context; expert review recommended","trout_source_internal":"HUC8 lineage assignment v1 / review needed","public_notes":"Muddy Creek is shown as a generalized public-map named-water occurrence for Colorado River cutthroat historic context. This object is separated from other same-named waters using HUC8, lineage, and local spatial clustering. Linework is grouped from public hydrography and should be treated as interpretive watershed context, not a precise biological boundary.","internal_notes":"Preview occurrence co_14010001_coloradoriver_muddy_creek_001; 122 segments; 61.9 km"}},{"type":"Feature","geometry":{"type":"LineString","coordinates":[[-106.45518,40.25748],[-106.45582,40.25665]]},"properties":{"huc8":"14010001","huc8Name":"Colorado Headwaters","historic":"coloradoRiver","current":"introduced","recovery":"recoveryWatch","lineageKey":"coloradoRiver","lineageLabel":"Colorado River green lineage","basin":"Colorado Headwaters","note":"Upper Colorado green-lineage context","state":"CO","confidence":"HUC8 drainage context / generalized","geometryStatus":"Named NHD stream intersecting assigned HUC8","troutSource":"HUC8 lineage assignment v1 / review needed","sourceName":"Muddy Creek","name":"Muddy Creek","source_id":"88895373","length_km":0.12861945,"FType":460,"FCode":46006,"atlas_class":"streamriver","water_id":"co_14010001_coloradoriver_muddy_creek_001","occurrence_id":"co_14010001_coloradoriver_muddy_creek_001","occurrence_number":"001","display_name":"Muddy Creek","mapped_name":"Muddy Creek","source_name":"Muddy Creek","disambiguator":"Colorado River cutthroat historic context · HUC8 14010001 · occurrence 001","atlas_layer":"curated_named_water_occurrence","object_role":"interactive_named_water","lineage":"coloradoRiver","historic_label":"Colorado River cutthroat historic context","current_label":"Colorado River cutthroat historic context","recovery_label":"Recovery watch / review area","confidence_public":"Generalized public map / needs expert review","confidence_internal":"Occurrence-cluster preview; 122 source segments","geometry_status_public":"Generalized named-water occurrence","geometry_status_internal":"Grouped by display name, HUC8, lineage, and spatial cluster","geometry_source_public":"Grouped public hydrography segments","geometry_source_internal":"Colorado full interpreted natural stream context — occurrence v2 preview","trout_source_public":"Compiled public recovery and lineage context; expert review recommended","trout_source_internal":"HUC8 lineage assignment v1 / review needed","public_notes":"Muddy Creek is shown as a generalized public-map named-water occurrence for Colorado River cutthroat historic context. This object is separated from other same-named waters using HUC8, lineage, and local spatial clustering. Linework is grouped from public hydrography and should be treated as interpretive watershed context, not a precise biological boundary.","internal_notes":"Preview occurrence co_14010001_coloradoriver_muddy_creek_001; 122 segments; 61.9 km"}},{"type":"Feature","geometry":{"type":"LineString","coordinates":[[-106.45406,40.25325],[-106.45498,40.25261],[-106.45417,40.25168],[-106.45468,40.25083],[-106.45534,40.25095],[-106.45523,40.25043],[-106.45375,40.24909],[-106.45198,40.24963],[-106.45155,40.24894],[-106.45255,40.24797],[-106.45228,40.24629],[-106.45016,40.24378],[-106.44914,40.24344]]},"properties":{"huc8":"14010001","huc8Name":"Colorado Headwaters","historic":"coloradoRiver","current":"introduced","recovery":"recoveryWatch","lineageKey":"coloradoRiver","lineageLabel":"Colorado River green lineage","basin":"Colorado Headwaters","note":"Upper Colorado green-lineage context","state":"CO","confidence":"HUC8 drainage context / generalized","geometryStatus":"Named NHD stream intersecting assigned HUC8","troutSource":"HUC8 lineage assignment v1 / review needed","sourceName":"Muddy Creek","name":"Muddy Creek","source_id":"88865825","length_km":1.74763033,"FType":460,"FCode":46006,"atlas_class":"streamriver","water_id":"co_14010001_coloradoriver_muddy_creek_001","occurrence_id":"co_14010001_coloradoriver_muddy_creek_001","occurrence_number":"001","display_name":"Muddy Creek","mapped_name":"Muddy Creek","source_name":"Muddy Creek","disambiguator":"Colorado River cutthroat historic context · HUC8 14010001 · occurrence 001","atlas_layer":"curated_named_water_occurrence","object_role":"interactive_named_water","lineage":"coloradoRiver","historic_label":"Colorado River cutthroat historic context","current_label":"Colorado River cutthroat historic context","recovery_label":"Recovery watch / review area","confidence_public":"Generalized public map / needs expert review","confidence_internal":"Occurrence-cluster preview; 122 source segments","geometry_status_public":"Generalized named-water occurrence","geometry_status_internal":"Grouped by display name, HUC8, lineage, and spatial cluster","geometry_source_public":"Grouped public hydrography segments","geometry_source_internal":"Colorado full interpreted natural stream context — occurrence v2 preview","trout_source_public":"Compiled public recovery and lineage context; expert review recommended","trout_source_internal":"HUC8 lineage assignment v1 / review needed","public_notes":"Muddy Creek is shown as a generalized public-map named-water occurrence for Colorado River cutthroat historic context. This object is separated from other same-named waters using HUC8, lineage, and local spatial clustering. Linework is grouped from public hydrography and should be treated as interpretive watershed context, not a precise biological boundary.","internal_notes":"Preview occurrence co_14010001_coloradoriver_muddy_creek_001; 122 segments; 61.9 km"}},{"type":"Feature","geometry":{"type":"LineString","coordinates":[[-106.4702,40.28291],[-106.46988,40.28163]]},"properties":{"huc8":"14010001","huc8Name":"Colorado Headwaters","historic":"coloradoRiver","current":"introduced","recovery":"recoveryWatch","lineageKey":"coloradoRiver","lineageLabel":"Colorado River green lineage","basin":"Colorado Headwaters","note":"Upper Colorado green-lineage context","state":"CO","confidence":"HUC8 drainage context / generalized","geometryStatus":"Named NHD stream intersecting assigned HUC8","troutSource":"HUC8 lineage assignment v1 / review needed","sourceName":"Muddy Creek","name":"Muddy Creek","source_id":"88895319","length_km":0.15596702,"FType":460,"FCode":46006,"atlas_class":"streamriver","water_id":"co_14010001_coloradoriver_muddy_creek_001","occurrence_id":"co_14010001_coloradoriver_muddy_creek_001","occurrence_number":"001","display_name":"Muddy Creek","mapped_name":"Muddy Creek","source_name":"Muddy Creek","disambiguator":"Colorado River cutthroat historic context · HUC8 14010001 · occurrence 001","atlas_layer":"curated_named_water_occurrence","object_role":"interactive_named_water","lineage":"coloradoRiver","historic_label":"Colorado River cutthroat historic context","current_label":"Colorado River cutthroat historic context","recovery_label":"Recovery watch / review area","confidence_public":"Generalized public map / needs expert review","confidence_internal":"Occurrence-cluster preview; 122 source segments","geometry_status_public":"Generalized named-water occurrence","geometry_status_internal":"Grouped by display name, HUC8, lineage, and spatial cluster","geometry_source_public":"Grouped public hydrography segments","geometry_source_internal":"Colorado full interpreted natural stream context — occurrence v2 preview","trout_source_public":"Compiled public recovery and lineage context; expert review recommended","trout_source_internal":"HUC8 lineage assignment v1 / review needed","public_notes":"Muddy Creek is shown as a generalized public-map named-water occurrence for Colorado River cutthroat historic context. This object is separated from other same-named waters using HUC8, lineage, and local spatial clustering. Linework is grouped from public hydrography and should be treated as interpretive watershed context, not a precise biological boundary.","internal_notes":"Preview occurrence co_14010001_coloradoriver_muddy_creek_001; 122 segments; 61.9 km"}}]}