{"type":"FeatureCollection","metadata":{"description":"Colorado curated named waters occurrence v2 preview tile","source":"C:\\ct-atlas-data\\processed\\geojson\\interpreted\\colorado_curated_named_waters_occurrence_v2_preview.geojson","tileSizeDeg":0.25,"bounds":{"west":-107.75,"east":-107.5,"south":40.25,"north":40.5},"featureCount":8},"features":[{"type":"Feature","geometry":{"type":"LineString","coordinates":[[-107.753,40.31996],[-107.75158,40.32014],[-107.75108,40.32089],[-107.75302,40.32211],[-107.75361,40.32327],[-107.75226,40.32347],[-107.75137,40.32276],[-107.75044,40.32392],[-107.75229,40.32469],[-107.75386,40.32461],[-107.7531,40.3265],[-107.75125,40.32748],[-107.75094,40.3266],[-107.75187,40.32636],[-107.75195,40.32578],[-107.7492,40.32565],[-107.7491,40.32626],[-107.74844,40.32623],[-107.74785,40.32699]]},"properties":{"huc8":"14050002","huc8Name":"Lower Yampa","historic":"greenRiverBlue","current":"introduced","recovery":"recoveryWatch","lineageKey":"greenRiverBlue","lineageLabel":"Green River / blue-lineage CT","basin":"Lower Yampa","note":"Yampa blue-lineage context","state":"CO","confidence":"HUC8 drainage context / generalized","geometryStatus":"Named NHD stream intersecting assigned HUC8","troutSource":"HUC8 lineage assignment v1 / review needed","sourceName":"Milk Creek","name":"Milk Creek","source_id":"83375307","length_km":2.626,"FType":460,"FCode":46006,"atlas_class":"streamriver","water_id":"co_14050002_greenriverblue_milk_creek_001","occurrence_id":"co_14050002_greenriverblue_milk_creek_001","occurrence_number":"001","display_name":"Milk Creek","mapped_name":"Milk Creek","source_name":"Milk Creek","disambiguator":"Green River / blue-lineage cutthroat historic context · HUC8 14050002 · occurrence 001","atlas_layer":"curated_named_water_occurrence","object_role":"interactive_named_water","lineage":"greenRiverBlue","historic_label":"Green River / blue-lineage cutthroat historic context","current_label":"Green River / blue-lineage cutthroat historic context","recovery_label":"Recovery watch / review area","confidence_public":"Generalized public map / needs expert review","confidence_internal":"Occurrence-cluster preview; 132 source segments","geometry_status_public":"Generalized named-water occurrence","geometry_status_internal":"Grouped by display name, HUC8, lineage, and spatial cluster","geometry_source_public":"Grouped public hydrography segments","geometry_source_internal":"Colorado full interpreted natural stream context — occurrence v2 preview","trout_source_public":"Compiled public recovery and lineage context; expert review recommended","trout_source_internal":"HUC8 lineage assignment v1 / review needed","public_notes":"Milk Creek is shown as a generalized public-map named-water occurrence for Green River / blue-lineage cutthroat historic context. This object is separated from other same-named waters using HUC8, lineage, and local spatial clustering. Linework is grouped from public hydrography and should be treated as interpretive watershed context, not a precise biological boundary.","internal_notes":"Preview occurrence co_14050002_greenriverblue_milk_creek_001; 132 segments; 79.9 km"}},{"type":"Feature","geometry":{"type":"LineString","coordinates":[[-107.75165,40.26997],[-107.75133,40.27064],[-107.74984,40.27081],[-107.75124,40.27124],[-107.75086,40.27179]]},"properties":{"huc8":"14050002","huc8Name":"Lower Yampa","historic":"greenRiverBlue","current":"introduced","recovery":"recoveryWatch","lineageKey":"greenRiverBlue","lineageLabel":"Green River / blue-lineage CT","basin":"Lower Yampa","note":"Yampa blue-lineage context","state":"CO","confidence":"HUC8 drainage context / generalized","geometryStatus":"Named NHD stream intersecting assigned HUC8","troutSource":"HUC8 lineage assignment v1 / review needed","sourceName":"Milk Creek","name":"Milk Creek","source_id":"83375305","length_km":0.491,"FType":460,"FCode":46006,"atlas_class":"streamriver","water_id":"co_14050002_greenriverblue_milk_creek_001","occurrence_id":"co_14050002_greenriverblue_milk_creek_001","occurrence_number":"001","display_name":"Milk Creek","mapped_name":"Milk Creek","source_name":"Milk Creek","disambiguator":"Green River / blue-lineage cutthroat historic context · HUC8 14050002 · occurrence 001","atlas_layer":"curated_named_water_occurrence","object_role":"interactive_named_water","lineage":"greenRiverBlue","historic_label":"Green River / blue-lineage cutthroat historic context","current_label":"Green River / blue-lineage cutthroat historic context","recovery_label":"Recovery watch / review area","confidence_public":"Generalized public map / needs expert review","confidence_internal":"Occurrence-cluster preview; 132 source segments","geometry_status_public":"Generalized named-water occurrence","geometry_status_internal":"Grouped by display name, HUC8, lineage, and spatial cluster","geometry_source_public":"Grouped public hydrography segments","geometry_source_internal":"Colorado full interpreted natural stream context — occurrence v2 preview","trout_source_public":"Compiled public recovery and lineage context; expert review recommended","trout_source_internal":"HUC8 lineage assignment v1 / review needed","public_notes":"Milk Creek is shown as a generalized public-map named-water occurrence for Green River / blue-lineage cutthroat historic context. This object is separated from other same-named waters using HUC8, lineage, and local spatial clustering. Linework is grouped from public hydrography and should be treated as interpretive watershed context, not a precise biological boundary.","internal_notes":"Preview occurrence co_14050002_greenriverblue_milk_creek_001; 132 segments; 79.9 km"}},{"type":"Feature","geometry":{"type":"LineString","coordinates":[[-107.74829,40.32963],[-107.75003,40.33007],[-107.75,40.3307],[-107.75085,40.33031],[-107.75089,40.33091],[-107.75366,40.33115],[-107.75184,40.33237],[-107.75172,40.33547],[-107.75091,40.33631],[-107.75136,40.33877],[-107.75205,40.3385],[-107.75257,40.33916],[-107.75208,40.33998],[-107.75285,40.34044],[-107.75326,40.33985],[-107.75379,40.34007]]},"properties":{"huc8":"14050002","huc8Name":"Lower Yampa","historic":"greenRiverBlue","current":"introduced","recovery":"recoveryWatch","lineageKey":"greenRiverBlue","lineageLabel":"Green River / blue-lineage CT","basin":"Lower Yampa","note":"Yampa blue-lineage context","state":"CO","confidence":"HUC8 drainage context / generalized","geometryStatus":"Named NHD stream intersecting assigned HUC8","troutSource":"HUC8 lineage assignment v1 / review needed","sourceName":"Milk Creek","name":"Milk Creek","source_id":"83340383","length_km":2.19575191,"FType":460,"FCode":46006,"atlas_class":"streamriver","water_id":"co_14050002_greenriverblue_milk_creek_001","occurrence_id":"co_14050002_greenriverblue_milk_creek_001","occurrence_number":"001","display_name":"Milk Creek","mapped_name":"Milk Creek","source_name":"Milk Creek","disambiguator":"Green River / blue-lineage cutthroat historic context · HUC8 14050002 · occurrence 001","atlas_layer":"curated_named_water_occurrence","object_role":"interactive_named_water","lineage":"greenRiverBlue","historic_label":"Green River / blue-lineage cutthroat historic context","current_label":"Green River / blue-lineage cutthroat historic context","recovery_label":"Recovery watch / review area","confidence_public":"Generalized public map / needs expert review","confidence_internal":"Occurrence-cluster preview; 132 source segments","geometry_status_public":"Generalized named-water occurrence","geometry_status_internal":"Grouped by display name, HUC8, lineage, and spatial cluster","geometry_source_public":"Grouped public hydrography segments","geometry_source_internal":"Colorado full interpreted natural stream context — occurrence v2 preview","trout_source_public":"Compiled public recovery and lineage context; expert review recommended","trout_source_internal":"HUC8 lineage assignment v1 / review needed","public_notes":"Milk Creek is shown as a generalized public-map named-water occurrence for Green River / blue-lineage cutthroat historic context. This object is separated from other same-named waters using HUC8, lineage, and local spatial clustering. Linework is grouped from public hydrography and should be treated as interpretive watershed context, not a precise biological boundary.","internal_notes":"Preview occurrence co_14050002_greenriverblue_milk_creek_001; 132 segments; 79.9 km"}},{"type":"Feature","geometry":{"type":"LineString","coordinates":[[-107.74785,40.32699],[-107.74704,40.32792],[-107.74771,40.32842],[-107.74868,40.32817],[-107.74798,40.32899],[-107.74829,40.32963]]},"properties":{"huc8":"14050002","huc8Name":"Lower Yampa","historic":"greenRiverBlue","current":"introduced","recovery":"recoveryWatch","lineageKey":"greenRiverBlue","lineageLabel":"Green River / blue-lineage CT","basin":"Lower Yampa","note":"Yampa blue-lineage context","state":"CO","confidence":"HUC8 drainage context / generalized","geometryStatus":"Named NHD stream intersecting assigned HUC8","troutSource":"HUC8 lineage assignment v1 / review needed","sourceName":"Milk Creek","name":"Milk Creek","source_id":"83362069","length_km":0.515,"FType":460,"FCode":46006,"atlas_class":"streamriver","water_id":"co_14050002_greenriverblue_milk_creek_001","occurrence_id":"co_14050002_greenriverblue_milk_creek_001","occurrence_number":"001","display_name":"Milk Creek","mapped_name":"Milk Creek","source_name":"Milk Creek","disambiguator":"Green River / blue-lineage cutthroat historic context · HUC8 14050002 · occurrence 001","atlas_layer":"curated_named_water_occurrence","object_role":"interactive_named_water","lineage":"greenRiverBlue","historic_label":"Green River / blue-lineage cutthroat historic context","current_label":"Green River / blue-lineage cutthroat historic context","recovery_label":"Recovery watch / review area","confidence_public":"Generalized public map / needs expert review","confidence_internal":"Occurrence-cluster preview; 132 source segments","geometry_status_public":"Generalized named-water occurrence","geometry_status_internal":"Grouped by display name, HUC8, lineage, and spatial cluster","geometry_source_public":"Grouped public hydrography segments","geometry_source_internal":"Colorado full interpreted natural stream context — occurrence v2 preview","trout_source_public":"Compiled public recovery and lineage context; expert review recommended","trout_source_internal":"HUC8 lineage assignment v1 / review needed","public_notes":"Milk Creek is shown as a generalized public-map named-water occurrence for Green River / blue-lineage cutthroat historic context. This object is separated from other same-named waters using HUC8, lineage, and local spatial clustering. Linework is grouped from public hydrography and should be treated as interpretive watershed context, not a precise biological boundary.","internal_notes":"Preview occurrence co_14050002_greenriverblue_milk_creek_001; 132 segments; 79.9 km"}},{"type":"Feature","geometry":{"type":"LineString","coordinates":[[-107.74649,40.25204],[-107.74702,40.25248],[-107.7465,40.25336]]},"properties":{"huc8":"14050002","huc8Name":"Lower Yampa","historic":"greenRiverBlue","current":"introduced","recovery":"recoveryWatch","lineageKey":"greenRiverBlue","lineageLabel":"Green River / blue-lineage CT","basin":"Lower Yampa","note":"Yampa blue-lineage context","state":"CO","confidence":"HUC8 drainage context / generalized","geometryStatus":"Named NHD stream intersecting assigned HUC8","troutSource":"HUC8 lineage assignment v1 / review needed","sourceName":"Milk Creek","name":"Milk Creek","source_id":"83362471","length_km":0.177,"FType":460,"FCode":46006,"atlas_class":"streamriver","water_id":"co_14050002_greenriverblue_milk_creek_001","occurrence_id":"co_14050002_greenriverblue_milk_creek_001","occurrence_number":"001","display_name":"Milk Creek","mapped_name":"Milk Creek","source_name":"Milk Creek","disambiguator":"Green River / blue-lineage cutthroat historic context · HUC8 14050002 · occurrence 001","atlas_layer":"curated_named_water_occurrence","object_role":"interactive_named_water","lineage":"greenRiverBlue","historic_label":"Green River / blue-lineage cutthroat historic context","current_label":"Green River / blue-lineage cutthroat historic context","recovery_label":"Recovery watch / review area","confidence_public":"Generalized public map / needs expert review","confidence_internal":"Occurrence-cluster preview; 132 source segments","geometry_status_public":"Generalized named-water occurrence","geometry_status_internal":"Grouped by display name, HUC8, lineage, and spatial cluster","geometry_source_public":"Grouped public hydrography segments","geometry_source_internal":"Colorado full interpreted natural stream context — occurrence v2 preview","trout_source_public":"Compiled public recovery and lineage context; expert review recommended","trout_source_internal":"HUC8 lineage assignment v1 / review needed","public_notes":"Milk Creek is shown as a generalized public-map named-water occurrence for Green River / blue-lineage cutthroat historic context. This object is separated from other same-named waters using HUC8, lineage, and local spatial clustering. Linework is grouped from public hydrography and should be treated as interpretive watershed context, not a precise biological boundary.","internal_notes":"Preview occurrence co_14050002_greenriverblue_milk_creek_001; 132 segments; 79.9 km"}},{"type":"Feature","geometry":{"type":"LineString","coordinates":[[-107.7465,40.25336],[-107.74421,40.25557],[-107.74443,40.2565],[-107.74367,40.25641],[-107.74394,40.25797],[-107.74306,40.25884],[-107.74358,40.25972],[-107.74491,40.25991],[-107.74579,40.26089],[-107.74513,40.26237],[-107.74627,40.26315],[-107.74676,40.26396],[-107.74637,40.2643],[-107.74699,40.26441],[-107.74806,40.26343],[-107.74935,40.26418],[-107.74789,40.2646],[-107.74814,40.26517],[-107.74724,40.2661],[-107.74854,40.26593],[-107.74933,40.26639],[-107.75015,40.26571],[-107.75088,40.2666],[-107.75053,40.26756]]},"properties":{"huc8":"14050002","huc8Name":"Lower Yampa","historic":"greenRiverBlue","current":"introduced","recovery":"recoveryWatch","lineageKey":"greenRiverBlue","lineageLabel":"Green River / blue-lineage CT","basin":"Lower Yampa","note":"Yampa blue-lineage context","state":"CO","confidence":"HUC8 drainage context / generalized","geometryStatus":"Named NHD stream intersecting assigned HUC8","troutSource":"HUC8 lineage assignment v1 / review needed","sourceName":"Milk Creek","name":"Milk Creek","source_id":"83375339","length_km":3.219,"FType":460,"FCode":46006,"atlas_class":"streamriver","water_id":"co_14050002_greenriverblue_milk_creek_001","occurrence_id":"co_14050002_greenriverblue_milk_creek_001","occurrence_number":"001","display_name":"Milk Creek","mapped_name":"Milk Creek","source_name":"Milk Creek","disambiguator":"Green River / blue-lineage cutthroat historic context · HUC8 14050002 · occurrence 001","atlas_layer":"curated_named_water_occurrence","object_role":"interactive_named_water","lineage":"greenRiverBlue","historic_label":"Green River / blue-lineage cutthroat historic context","current_label":"Green River / blue-lineage cutthroat historic context","recovery_label":"Recovery watch / review area","confidence_public":"Generalized public map / needs expert review","confidence_internal":"Occurrence-cluster preview; 132 source segments","geometry_status_public":"Generalized named-water occurrence","geometry_status_internal":"Grouped by display name, HUC8, lineage, and spatial cluster","geometry_source_public":"Grouped public hydrography segments","geometry_source_internal":"Colorado full interpreted natural stream context — occurrence v2 preview","trout_source_public":"Compiled public recovery and lineage context; expert review recommended","trout_source_internal":"HUC8 lineage assignment v1 / review needed","public_notes":"Milk Creek is shown as a generalized public-map named-water occurrence for Green River / blue-lineage cutthroat historic context. This object is separated from other same-named waters using HUC8, lineage, and local spatial clustering. Linework is grouped from public hydrography and should be treated as interpretive watershed context, not a precise biological boundary.","internal_notes":"Preview occurrence co_14050002_greenriverblue_milk_creek_001; 132 segments; 79.9 km"}},{"type":"Feature","geometry":{"type":"LineString","coordinates":[[-107.74421,40.2456],[-107.74543,40.24665],[-107.74554,40.24761],[-107.74399,40.24818],[-107.74484,40.24899],[-107.74458,40.24985],[-107.74549,40.24974],[-107.74592,40.25053],[-107.74553,40.25119],[-107.74643,40.2512],[-107.74649,40.25204]]},"properties":{"huc8":"14050002","huc8Name":"Lower Yampa","historic":"greenRiverBlue","current":"introduced","recovery":"recoveryWatch","lineageKey":"greenRiverBlue","lineageLabel":"Green River / blue-lineage CT","basin":"Lower Yampa","note":"Yampa blue-lineage context","state":"CO","confidence":"HUC8 drainage context / generalized","geometryStatus":"Named NHD stream intersecting assigned HUC8","troutSource":"HUC8 lineage assignment v1 / review needed","sourceName":"Milk Creek","name":"Milk Creek","source_id":"83370761","length_km":1.11956797,"FType":460,"FCode":46006,"atlas_class":"streamriver","water_id":"co_14050002_greenriverblue_milk_creek_001","occurrence_id":"co_14050002_greenriverblue_milk_creek_001","occurrence_number":"001","display_name":"Milk Creek","mapped_name":"Milk Creek","source_name":"Milk Creek","disambiguator":"Green River / blue-lineage cutthroat historic context · HUC8 14050002 · occurrence 001","atlas_layer":"curated_named_water_occurrence","object_role":"interactive_named_water","lineage":"greenRiverBlue","historic_label":"Green River / blue-lineage cutthroat historic context","current_label":"Green River / blue-lineage cutthroat historic context","recovery_label":"Recovery watch / review area","confidence_public":"Generalized public map / needs expert review","confidence_internal":"Occurrence-cluster preview; 132 source segments","geometry_status_public":"Generalized named-water occurrence","geometry_status_internal":"Grouped by display name, HUC8, lineage, and spatial cluster","geometry_source_public":"Grouped public hydrography segments","geometry_source_internal":"Colorado full interpreted natural stream context — occurrence v2 preview","trout_source_public":"Compiled public recovery and lineage context; expert review recommended","trout_source_internal":"HUC8 lineage assignment v1 / review needed","public_notes":"Milk Creek is shown as a generalized public-map named-water occurrence for Green River / blue-lineage cutthroat historic context. This object is separated from other same-named waters using HUC8, lineage, and local spatial clustering. Linework is grouped from public hydrography and should be treated as interpretive watershed context, not a precise biological boundary.","internal_notes":"Preview occurrence co_14050002_greenriverblue_milk_creek_001; 132 segments; 79.9 km"}},{"type":"Feature","geometry":{"type":"LineString","coordinates":[[-107.53967,40.5025],[-107.5412,40.50225],[-107.5418,40.50114],[-107.54122,40.50037],[-107.53877,40.49997],[-107.53842,40.49942],[-107.53932,40.49902]]},"properties":{"huc8":"14050001","huc8Name":"Upper Yampa","historic":"greenRiverBlue","current":"introduced","recovery":"recoveryWatch","lineageKey":"greenRiverBlue","lineageLabel":"Green River / blue-lineage CT","basin":"Upper Yampa","note":"Yampa blue-lineage context","state":"CO","confidence":"HUC8 drainage context / generalized","geometryStatus":"Named NHD stream intersecting assigned HUC8","troutSource":"HUC8 lineage assignment v1 / review needed","sourceName":"Fortification Creek","name":"Fortification Creek","source_id":"90176975","length_km":0.75413905,"FType":460,"FCode":46006,"atlas_class":"streamriver","water_id":"co_14050001_greenriverblue_fortification_creek_001","occurrence_id":"co_14050001_greenriverblue_fortification_creek_001","occurrence_number":"001","display_name":"Fortification Creek","mapped_name":"Fortification Creek","source_name":"Fortification Creek","disambiguator":"Green River / blue-lineage cutthroat historic context · HUC8 14050001 · occurrence 001","atlas_layer":"curated_named_water_occurrence","object_role":"interactive_named_water","lineage":"greenRiverBlue","historic_label":"Green River / blue-lineage cutthroat historic context","current_label":"Green River / blue-lineage cutthroat historic context","recovery_label":"Recovery watch / review area","confidence_public":"Generalized public map / needs expert review","confidence_internal":"Occurrence-cluster preview; 96 source segments","geometry_status_public":"Generalized named-water occurrence","geometry_status_internal":"Grouped by display name, HUC8, lineage, and spatial cluster","geometry_source_public":"Grouped public hydrography segments","geometry_source_internal":"Colorado full interpreted natural stream context — occurrence v2 preview","trout_source_public":"Compiled public recovery and lineage context; expert review recommended","trout_source_internal":"HUC8 lineage assignment v1 / review needed","public_notes":"Fortification Creek is shown as a generalized public-map named-water occurrence for Green River / blue-lineage cutthroat historic context. This object is separated from other same-named waters using HUC8, lineage, and local spatial clustering. Linework is grouped from public hydrography and should be treated as interpretive watershed context, not a precise biological boundary.","internal_notes":"Preview occurrence co_14050001_greenriverblue_fortification_creek_001; 96 segments; 67.9 km"}}]}