{"type":"FeatureCollection","metadata":{"source":"C:\\ct-atlas-data\\processed\\geojson\\interpreted\\colorado_waterbody_objects_v1.geojson","type":"colorado-waterbody-object-v1-tile","tile_size_degrees":0.25,"x":-429,"y":149,"bounds":{"west":-107.25,"south":37.25,"east":-107,"north":37.5}},"features":[{"type":"Feature","geometry":{"type":"Polygon","coordinates":[[[-107.21914,37.45549],[-107.21949,37.45568],[-107.21948,37.45543],[-107.21914,37.45549]]]},"properties":{"waterbody_id":"co_waterbody_trail_ridge_reservoir_14080102_001","water_id":"co_waterbody_trail_ridge_reservoir_14080102_001","occurrence_id":"co_waterbody_trail_ridge_reservoir_14080102_001","occurrence_number":"001","display_name":"Trail Ridge Reservoir","normalized_name":"trail ridge reservoir","mapped_name":"Trail Ridge Reservoir","source_name":"Trail Ridge Reservoir","disambiguator":"Piedra · reservoir","state":"CO","atlas_layer":"waterbody_object","object_role":"waterbody_object","atlas_class":"named_waterbody","waterbody_type":"reservoir","huc8":"14080102","huc8Name":"Piedra","huc8States":"CO","lineageKey":"sanJuan","lineage":"sanJuan","historic":"sanJuan","current":"sanJuan","recovery":"recoveryWatch","lineageLabel":"San Juan lineage","lineageBasin":"Piedra","lineageNote":"San Juan lineage context","atlas_context":"cutthroat_lineage_context","area_sq_km":0.001,"elevation":0,"FType":390,"FCode":39004,"source_id":"80373813","bounds":{"west":-107.21949,"south":37.45543,"east":-107.21914,"north":37.45568},"confidence_public":"Watershed-level lineage context; expert review recommended","geometry_status_public":"Named waterbody polygon from public hydrography","geometry_source_public":"Public hydrography waterbody polygon","trout_source_public":"Compiled public recovery and lineage context; expert review recommended","public_notes":"Trail Ridge Reservoir is shown as a named waterbody within watershed-level cutthroat lineage context. This is not a precise biological boundary."}},{"type":"Feature","geometry":{"type":"Polygon","coordinates":[[[-107.14598,37.32303],[-107.14618,37.32321],[-107.14637,37.32312],[-107.14625,37.32296],[-107.14598,37.32303]]]},"properties":{"waterbody_id":"co_waterbody_perino_reservoir_14080102_001","water_id":"co_waterbody_perino_reservoir_14080102_001","occurrence_id":"co_waterbody_perino_reservoir_14080102_001","occurrence_number":"001","display_name":"Perino Reservoir","normalized_name":"perino reservoir","mapped_name":"Perino Reservoir","source_name":"Perino Reservoir","disambiguator":"Piedra · reservoir","state":"CO","atlas_layer":"waterbody_object","object_role":"waterbody_object","atlas_class":"named_waterbody","waterbody_type":"reservoir","huc8":"14080102","huc8Name":"Piedra","huc8States":"CO","lineageKey":"sanJuan","lineage":"sanJuan","historic":"sanJuan","current":"sanJuan","recovery":"recoveryWatch","lineageLabel":"San Juan lineage","lineageBasin":"Piedra","lineageNote":"San Juan lineage context","atlas_context":"cutthroat_lineage_context","area_sq_km":0.001,"elevation":0,"FType":390,"FCode":39004,"source_id":"80370253","bounds":{"west":-107.14637,"south":37.32296,"east":-107.14598,"north":37.32321},"confidence_public":"Watershed-level lineage context; expert review recommended","geometry_status_public":"Named waterbody polygon from public hydrography","geometry_source_public":"Public hydrography waterbody polygon","trout_source_public":"Compiled public recovery and lineage context; expert review recommended","public_notes":"Perino Reservoir is shown as a named waterbody within watershed-level cutthroat lineage context. This is not a precise biological boundary."}},{"type":"Feature","geometry":{"type":"Polygon","coordinates":[[[-107.13166,37.27512],[-107.13159,37.27527],[-107.13181,37.27537],[-107.13181,37.27522],[-107.13166,37.27512]]]},"properties":{"waterbody_id":"co_waterbody_round_park_reservoir_14080102_001","water_id":"co_waterbody_round_park_reservoir_14080102_001","occurrence_id":"co_waterbody_round_park_reservoir_14080102_001","occurrence_number":"001","display_name":"Round Park Reservoir","normalized_name":"round park reservoir","mapped_name":"Round Park Reservoir","source_name":"Round Park Reservoir","disambiguator":"Piedra · reservoir · occurrence 001","state":"CO","atlas_layer":"waterbody_object","object_role":"waterbody_object","atlas_class":"named_waterbody","waterbody_type":"reservoir","huc8":"14080102","huc8Name":"Piedra","huc8States":"CO","lineageKey":"sanJuan","lineage":"sanJuan","historic":"sanJuan","current":"sanJuan","recovery":"recoveryWatch","lineageLabel":"San Juan lineage","lineageBasin":"Piedra","lineageNote":"San Juan lineage context","atlas_context":"cutthroat_lineage_context","area_sq_km":0,"elevation":0,"FType":390,"FCode":39004,"source_id":"80370263","bounds":{"west":-107.13181,"south":37.27512,"east":-107.13159,"north":37.27537},"confidence_public":"Watershed-level lineage context; expert review recommended","geometry_status_public":"Named waterbody polygon from public hydrography","geometry_source_public":"Public hydrography waterbody polygon","trout_source_public":"Compiled public recovery and lineage context; expert review recommended","public_notes":"Round Park Reservoir is shown as a named waterbody within watershed-level cutthroat lineage context. This is not a precise biological boundary."}},{"type":"Feature","geometry":{"type":"Polygon","coordinates":[[[-107.06287,37.26464],[-107.06268,37.26513],[-107.06308,37.26542],[-107.06372,37.26526],[-107.06435,37.26477],[-107.06569,37.26451],[-107.06666,37.26398],[-107.06762,37.26395],[-107.06821,37.26454],[-107.0696,37.26289],[-107.06998,37.26121],[-107.06843,37.26246],[-107.06809,37.26226],[-107.06815,37.26182],[-107.06741,37.26176],[-107.0674,37.26124],[-107.06689,37.26076],[-107.06607,37.26107],[-107.06423,37.26213],[-107.06508,37.26269],[-107.06498,37.26388],[-107.06453,37.26407],[-107.06382,37.26402],[-107.06287,37.26464]]]},"properties":{"waterbody_id":"co_waterbody_pinon_lake_reservoir_14080102_001","water_id":"co_waterbody_pinon_lake_reservoir_14080102_001","occurrence_id":"co_waterbody_pinon_lake_reservoir_14080102_001","occurrence_number":"001","display_name":"Pinon Lake Reservoir","normalized_name":"pinon lake reservoir","mapped_name":"Pinon Lake Reservoir","source_name":"Pinon Lake Reservoir","disambiguator":"Piedra · reservoir","state":"CO","atlas_layer":"waterbody_object","object_role":"waterbody_object","atlas_class":"named_waterbody","waterbody_type":"reservoir","huc8":"14080102","huc8Name":"Piedra","huc8States":"CO","lineageKey":"sanJuan","lineage":"sanJuan","historic":"sanJuan","current":"sanJuan","recovery":"recoveryWatch","lineageLabel":"San Juan lineage","lineageBasin":"Piedra","lineageNote":"San Juan lineage context","atlas_context":"cutthroat_lineage_context","area_sq_km":0.138,"elevation":0,"FType":390,"FCode":39004,"source_id":"80374759","bounds":{"west":-107.06998,"south":37.26076,"east":-107.06268,"north":37.26542},"confidence_public":"Watershed-level lineage context; expert review recommended","geometry_status_public":"Named waterbody polygon from public hydrography","geometry_source_public":"Public hydrography waterbody polygon","trout_source_public":"Compiled public recovery and lineage context; expert review recommended","public_notes":"Pinon Lake Reservoir is shown as a named waterbody within watershed-level cutthroat lineage context. This is not a precise biological boundary."}},{"type":"Feature","geometry":{"type":"Polygon","coordinates":[[[-107.04804,37.41781],[-107.04799,37.41742],[-107.04737,37.41738],[-107.04724,37.41768],[-107.04804,37.41781]]]},"properties":{"waterbody_id":"co_waterbody_beaver_lake_14080101_001","water_id":"co_waterbody_beaver_lake_14080101_001","occurrence_id":"co_waterbody_beaver_lake_14080101_001","occurrence_number":"001","display_name":"Beaver Lake","normalized_name":"beaver lake","mapped_name":"Beaver Lake","source_name":"Beaver Lake","disambiguator":"Upper San Juan · lake · occurrence 001","state":"CO","atlas_layer":"waterbody_object","object_role":"waterbody_object","atlas_class":"named_waterbody","waterbody_type":"lake","huc8":"14080101","huc8Name":"Upper San Juan","huc8States":"CO,NM","lineageKey":"sanJuan","lineage":"sanJuan","historic":"sanJuan","current":"sanJuan","recovery":"recoveryWatch","lineageLabel":"San Juan lineage","lineageBasin":"Upper San Juan","lineageNote":"San Juan lineage context","atlas_context":"cutthroat_lineage_context","area_sq_km":0.003,"elevation":0,"FType":390,"FCode":39004,"source_id":"122808169","bounds":{"west":-107.04804,"south":37.41738,"east":-107.04724,"north":37.41781},"confidence_public":"Watershed-level lineage context; expert review recommended","geometry_status_public":"Named waterbody polygon from public hydrography","geometry_source_public":"Public hydrography waterbody polygon","trout_source_public":"Compiled public recovery and lineage context; expert review recommended","public_notes":"Beaver Lake is shown as a named waterbody within watershed-level cutthroat lineage context. This is not a precise biological boundary."}},{"type":"Feature","geometry":{"type":"Polygon","coordinates":[[[-107.12824,37.3892],[-107.12787,37.38898],[-107.12706,37.38973],[-107.12605,37.38976],[-107.12602,37.39067],[-107.12648,37.39071],[-107.12824,37.3892]]]},"properties":{"waterbody_id":"co_waterbody_spring_creek_reservoir_14080102_001","water_id":"co_waterbody_spring_creek_reservoir_14080102_001","occurrence_id":"co_waterbody_spring_creek_reservoir_14080102_001","occurrence_number":"001","display_name":"Spring Creek Reservoir","normalized_name":"spring creek reservoir","mapped_name":"Spring Creek Reservoir","source_name":"Spring Creek Reservoir","disambiguator":"Piedra · reservoir · occurrence 001","state":"CO","atlas_layer":"waterbody_object","object_role":"waterbody_object","atlas_class":"named_waterbody","waterbody_type":"reservoir","huc8":"14080102","huc8Name":"Piedra","huc8States":"CO","lineageKey":"sanJuan","lineage":"sanJuan","historic":"sanJuan","current":"sanJuan","recovery":"recoveryWatch","lineageLabel":"San Juan lineage","lineageBasin":"Piedra","lineageNote":"San Juan lineage context","atlas_context":"cutthroat_lineage_context","area_sq_km":0.015,"elevation":0,"FType":390,"FCode":39004,"source_id":"80373839","bounds":{"west":-107.12824,"south":37.38898,"east":-107.12602,"north":37.39071},"confidence_public":"Watershed-level lineage context; expert review recommended","geometry_status_public":"Named waterbody polygon from public hydrography","geometry_source_public":"Public hydrography waterbody polygon","trout_source_public":"Compiled public recovery and lineage context; expert review recommended","public_notes":"Spring Creek Reservoir is shown as a named waterbody within watershed-level cutthroat lineage context. This is not a precise biological boundary."}},{"type":"Feature","geometry":{"type":"Polygon","coordinates":[[[-107.24002,37.47956],[-107.2395,37.47891],[-107.23851,37.479],[-107.23962,37.48037],[-107.2402,37.48076],[-107.24138,37.48122],[-107.24175,37.48107],[-107.24161,37.48069],[-107.24245,37.48101],[-107.24002,37.47956]]]},"properties":{"waterbody_id":"co_waterbody_martin_lake_14080102_001","water_id":"co_waterbody_martin_lake_14080102_001","occurrence_id":"co_waterbody_martin_lake_14080102_001","occurrence_number":"001","display_name":"Martin Lake","normalized_name":"martin lake","mapped_name":"Martin Lake","source_name":"Martin Lake","disambiguator":"Piedra · lake","state":"CO","atlas_layer":"waterbody_object","object_role":"waterbody_object","atlas_class":"named_waterbody","waterbody_type":"lake","huc8":"14080102","huc8Name":"Piedra","huc8States":"CO","lineageKey":"sanJuan","lineage":"sanJuan","historic":"sanJuan","current":"sanJuan","recovery":"recoveryWatch","lineageLabel":"San Juan lineage","lineageBasin":"Piedra","lineageNote":"San Juan lineage context","atlas_context":"cutthroat_lineage_context","area_sq_km":0.03,"elevation":0,"FType":390,"FCode":39004,"source_id":"80373803","bounds":{"west":-107.24245,"south":37.47891,"east":-107.23851,"north":37.48122},"confidence_public":"Watershed-level lineage context; expert review recommended","geometry_status_public":"Named waterbody polygon from public hydrography","geometry_source_public":"Public hydrography waterbody polygon","trout_source_public":"Compiled public recovery and lineage context; expert review recommended","public_notes":"Martin Lake is shown as a named waterbody within watershed-level cutthroat lineage context. This is not a precise biological boundary."}},{"type":"Feature","geometry":{"type":"Polygon","coordinates":[[[-107.04569,37.3958],[-107.04553,37.39607],[-107.04489,37.39627],[-107.04551,37.39701],[-107.04587,37.39693],[-107.04601,37.39657],[-107.04569,37.3958]]]},"properties":{"waterbody_id":"co_waterbody_quien_sabe_lake_14080101_001","water_id":"co_waterbody_quien_sabe_lake_14080101_001","occurrence_id":"co_waterbody_quien_sabe_lake_14080101_001","occurrence_number":"001","display_name":"Quien Sabe Lake","normalized_name":"quien sabe lake","mapped_name":"Quien Sabe Lake","source_name":"Quien Sabe Lake","disambiguator":"Upper San Juan · lake","state":"CO","atlas_layer":"waterbody_object","object_role":"waterbody_object","atlas_class":"named_waterbody","waterbody_type":"lake","huc8":"14080101","huc8Name":"Upper San Juan","huc8States":"CO,NM","lineageKey":"sanJuan","lineage":"sanJuan","historic":"sanJuan","current":"sanJuan","recovery":"recoveryWatch","lineageLabel":"San Juan lineage","lineageBasin":"Upper San Juan","lineageNote":"San Juan lineage context","atlas_context":"cutthroat_lineage_context","area_sq_km":0.008,"elevation":0,"FType":390,"FCode":39004,"source_id":"{742607F9-41BB-45A5-8CCD-6A8A68D34B7E}","bounds":{"west":-107.04601,"south":37.3958,"east":-107.04489,"north":37.39701},"confidence_public":"Watershed-level lineage context; expert review recommended","geometry_status_public":"Named waterbody polygon from public hydrography","geometry_source_public":"Public hydrography waterbody polygon","trout_source_public":"Compiled public recovery and lineage context; expert review recommended","public_notes":"Quien Sabe Lake is shown as a named waterbody within watershed-level cutthroat lineage context. This is not a precise biological boundary."}},{"type":"Feature","geometry":{"type":"Polygon","coordinates":[[[-107.19418,37.29532],[-107.19404,37.2951],[-107.19378,37.29528],[-107.19418,37.29532]]]},"properties":{"waterbody_id":"co_waterbody_osborn_reservoir_number_2_14080102_001","water_id":"co_waterbody_osborn_reservoir_number_2_14080102_001","occurrence_id":"co_waterbody_osborn_reservoir_number_2_14080102_001","occurrence_number":"001","display_name":"Osborn Reservoir Number 2","normalized_name":"osborn reservoir number 2","mapped_name":"Osborn Reservoir Number 2","source_name":"Osborn Reservoir Number 2","disambiguator":"Piedra · reservoir","state":"CO","atlas_layer":"waterbody_object","object_role":"waterbody_object","atlas_class":"named_waterbody","waterbody_type":"reservoir","huc8":"14080102","huc8Name":"Piedra","huc8States":"CO","lineageKey":"sanJuan","lineage":"sanJuan","historic":"sanJuan","current":"sanJuan","recovery":"recoveryWatch","lineageLabel":"San Juan lineage","lineageBasin":"Piedra","lineageNote":"San Juan lineage context","atlas_context":"cutthroat_lineage_context","area_sq_km":0.001,"elevation":0,"FType":390,"FCode":39004,"source_id":"80370313","bounds":{"west":-107.19418,"south":37.2951,"east":-107.19378,"north":37.29532},"confidence_public":"Watershed-level lineage context; expert review recommended","geometry_status_public":"Named waterbody polygon from public hydrography","geometry_source_public":"Public hydrography waterbody polygon","trout_source_public":"Compiled public recovery and lineage context; expert review recommended","public_notes":"Osborn Reservoir Number 2 is shown as a named waterbody within watershed-level cutthroat lineage context. This is not a precise biological boundary."}},{"type":"Feature","geometry":{"type":"Polygon","coordinates":[[[-107.08138,37.2772],[-107.07985,37.27726],[-107.07871,37.27817],[-107.07864,37.27859],[-107.07807,37.27907],[-107.07699,37.27946],[-107.07682,37.28032],[-107.07868,37.28142],[-107.07989,37.28246],[-107.08057,37.28138],[-107.0806,37.28071],[-107.08038,37.28009],[-107.08062,37.2798],[-107.08119,37.27984],[-107.0816,37.28036],[-107.08401,37.28077],[-107.08594,37.28216],[-107.08621,37.28211],[-107.08612,37.28178],[-107.08626,37.28167],[-107.08697,37.28192],[-107.0875,37.28164],[-107.08766,37.28052],[-107.08697,37.27966],[-107.08733,37.27929],[-107.08693,37.27914],[-107.08774,37.27868],[-107.08785,37.2783],[-107.08669,37.27856],[-107.08678,37.27836],[-107.08638,37.27838],[-107.08627,37.27809],[-107.08517,37.27757],[-107.08483,37.27763],[-107.08425,37.2782],[-107.08396,37.27818],[-107.08166,37.27764],[-107.08138,37.2772]]]},"properties":{"waterbody_id":"co_waterbody_lake_pagosa_14080102_001","water_id":"co_waterbody_lake_pagosa_14080102_001","occurrence_id":"co_waterbody_lake_pagosa_14080102_001","occurrence_number":"001","display_name":"Lake Pagosa","normalized_name":"lake pagosa","mapped_name":"Lake Pagosa","source_name":"Lake Pagosa","disambiguator":"Piedra · lake · occurrence 001","state":"CO","atlas_layer":"waterbody_object","object_role":"waterbody_object","atlas_class":"named_waterbody","waterbody_type":"lake","huc8":"14080102","huc8Name":"Piedra","huc8States":"CO","lineageKey":"sanJuan","lineage":"sanJuan","historic":"sanJuan","current":"sanJuan","recovery":"recoveryWatch","lineageLabel":"San Juan lineage","lineageBasin":"Piedra","lineageNote":"San Juan lineage context","atlas_context":"cutthroat_lineage_context","area_sq_km":0.323,"elevation":0,"FType":390,"FCode":39004,"source_id":"80374747","bounds":{"west":-107.08785,"south":37.2772,"east":-107.07682,"north":37.28246},"confidence_public":"Watershed-level lineage context; expert review recommended","geometry_status_public":"Named waterbody polygon from public hydrography","geometry_source_public":"Public hydrography waterbody polygon","trout_source_public":"Compiled public recovery and lineage context; expert review recommended","public_notes":"Lake Pagosa is shown as a named waterbody within watershed-level cutthroat lineage context. This is not a precise biological boundary."}},{"type":"Feature","geometry":{"type":"Polygon","coordinates":[[[-107.02021,37.47674],[-107.01999,37.47693],[-107.01916,37.47682],[-107.0189,37.47713],[-107.01853,37.47689],[-107.01796,37.47709],[-107.0177,37.47665],[-107.01708,37.47682],[-107.01673,37.47648],[-107.01627,37.47687],[-107.01536,37.47843],[-107.01717,37.47892],[-107.01803,37.47895],[-107.01958,37.47827],[-107.01979,37.47777],[-107.02083,37.47719],[-107.02061,37.47685],[-107.02021,37.47674]]]},"properties":{"waterbody_id":"co_waterbody_turkey_creek_lake_14080101_001","water_id":"co_waterbody_turkey_creek_lake_14080101_001","occurrence_id":"co_waterbody_turkey_creek_lake_14080101_001","occurrence_number":"001","display_name":"Turkey Creek Lake","normalized_name":"turkey creek lake","mapped_name":"Turkey Creek Lake","source_name":"Turkey Creek Lake","disambiguator":"Upper San Juan · lake","state":"CO","atlas_layer":"waterbody_object","object_role":"waterbody_object","atlas_class":"named_waterbody","waterbody_type":"lake","huc8":"14080101","huc8Name":"Upper San Juan","huc8States":"CO,NM","lineageKey":"sanJuan","lineage":"sanJuan","historic":"sanJuan","current":"sanJuan","recovery":"recoveryWatch","lineageLabel":"San Juan lineage","lineageBasin":"Upper San Juan","lineageNote":"San Juan lineage context","atlas_context":"cutthroat_lineage_context","area_sq_km":0.077,"elevation":0,"FType":390,"FCode":39004,"source_id":"122808103","bounds":{"west":-107.02083,"south":37.47648,"east":-107.01536,"north":37.47895},"confidence_public":"Watershed-level lineage context; expert review recommended","geometry_status_public":"Named waterbody polygon from public hydrography","geometry_source_public":"Public hydrography waterbody polygon","trout_source_public":"Compiled public recovery and lineage context; expert review recommended","public_notes":"Turkey Creek Lake is shown as a named waterbody within watershed-level cutthroat lineage context. This is not a precise biological boundary."}},{"type":"Feature","geometry":{"type":"Polygon","coordinates":[[[-107.15743,37.27116],[-107.1578,37.27133],[-107.15765,37.27111],[-107.15743,37.27116]]]},"properties":{"waterbody_id":"co_waterbody_gopher_reservoir_14080102_001","water_id":"co_waterbody_gopher_reservoir_14080102_001","occurrence_id":"co_waterbody_gopher_reservoir_14080102_001","occurrence_number":"001","display_name":"Gopher Reservoir","normalized_name":"gopher reservoir","mapped_name":"Gopher Reservoir","source_name":"Gopher Reservoir","disambiguator":"Piedra · reservoir","state":"CO","atlas_layer":"waterbody_object","object_role":"waterbody_object","atlas_class":"named_waterbody","waterbody_type":"reservoir","huc8":"14080102","huc8Name":"Piedra","huc8States":"CO","lineageKey":"sanJuan","lineage":"sanJuan","historic":"sanJuan","current":"sanJuan","recovery":"recoveryWatch","lineageLabel":"San Juan lineage","lineageBasin":"Piedra","lineageNote":"San Juan lineage context","atlas_context":"cutthroat_lineage_context","area_sq_km":0,"elevation":0,"FType":390,"FCode":39004,"source_id":"80370271","bounds":{"west":-107.1578,"south":37.27111,"east":-107.15743,"north":37.27133},"confidence_public":"Watershed-level lineage context; expert review recommended","geometry_status_public":"Named waterbody polygon from public hydrography","geometry_source_public":"Public hydrography waterbody polygon","trout_source_public":"Compiled public recovery and lineage context; expert review recommended","public_notes":"Gopher Reservoir is shown as a named waterbody within watershed-level cutthroat lineage context. This is not a precise biological boundary."}},{"type":"Feature","geometry":{"type":"Polygon","coordinates":[[[-107.20157,37.27948],[-107.20174,37.2796],[-107.20187,37.27964],[-107.20187,37.27938],[-107.20157,37.27948]]]},"properties":{"waterbody_id":"co_waterbody_osborn_reservoir_number_1_14080102_001","water_id":"co_waterbody_osborn_reservoir_number_1_14080102_001","occurrence_id":"co_waterbody_osborn_reservoir_number_1_14080102_001","occurrence_number":"001","display_name":"Osborn Reservoir Number 1","normalized_name":"osborn reservoir number 1","mapped_name":"Osborn Reservoir Number 1","source_name":"Osborn Reservoir Number 1","disambiguator":"Piedra · reservoir","state":"CO","atlas_layer":"waterbody_object","object_role":"waterbody_object","atlas_class":"named_waterbody","waterbody_type":"reservoir","huc8":"14080102","huc8Name":"Piedra","huc8States":"CO","lineageKey":"sanJuan","lineage":"sanJuan","historic":"sanJuan","current":"sanJuan","recovery":"recoveryWatch","lineageLabel":"San Juan lineage","lineageBasin":"Piedra","lineageNote":"San Juan lineage context","atlas_context":"cutthroat_lineage_context","area_sq_km":0.001,"elevation":0,"FType":390,"FCode":39004,"source_id":"80370317","bounds":{"west":-107.20187,"south":37.27938,"east":-107.20157,"north":37.27964},"confidence_public":"Watershed-level lineage context; expert review recommended","geometry_status_public":"Named waterbody polygon from public hydrography","geometry_source_public":"Public hydrography waterbody polygon","trout_source_public":"Compiled public recovery and lineage context; expert review recommended","public_notes":"Osborn Reservoir Number 1 is shown as a named waterbody within watershed-level cutthroat lineage context. This is not a precise biological boundary."}},{"type":"Feature","geometry":{"type":"Polygon","coordinates":[[[-107.11581,37.46991],[-107.11596,37.47033],[-107.11568,37.47061],[-107.11599,37.47076],[-107.11735,37.46978],[-107.11581,37.46991]]]},"properties":{"waterbody_id":"co_waterbody_arrowhead_lake_14080102_001","water_id":"co_waterbody_arrowhead_lake_14080102_001","occurrence_id":"co_waterbody_arrowhead_lake_14080102_001","occurrence_number":"001","display_name":"Arrowhead Lake","normalized_name":"arrowhead lake","mapped_name":"Arrowhead Lake","source_name":"Arrowhead Lake","disambiguator":"Piedra · lake · occurrence 001","state":"CO","atlas_layer":"waterbody_object","object_role":"waterbody_object","atlas_class":"named_waterbody","waterbody_type":"lake","huc8":"14080102","huc8Name":"Piedra","huc8States":"CO","lineageKey":"sanJuan","lineage":"sanJuan","historic":"sanJuan","current":"sanJuan","recovery":"recoveryWatch","lineageLabel":"San Juan lineage","lineageBasin":"Piedra","lineageNote":"San Juan lineage context","atlas_context":"cutthroat_lineage_context","area_sq_km":0.009,"elevation":0,"FType":390,"FCode":39004,"source_id":"80374389","bounds":{"west":-107.11735,"south":37.46978,"east":-107.11568,"north":37.47076},"confidence_public":"Watershed-level lineage context; expert review recommended","geometry_status_public":"Named waterbody polygon from public hydrography","geometry_source_public":"Public hydrography waterbody polygon","trout_source_public":"Compiled public recovery and lineage context; expert review recommended","public_notes":"Arrowhead Lake is shown as a named waterbody within watershed-level cutthroat lineage context. This is not a precise biological boundary."}},{"type":"Feature","geometry":{"type":"Polygon","coordinates":[[[-107.11956,37.46935],[-107.11965,37.46868],[-107.11859,37.46862],[-107.11832,37.46878],[-107.11935,37.46948],[-107.11956,37.46935]]]},"properties":{"waterbody_id":"co_waterbody_rainbow_lake_14080102_001","water_id":"co_waterbody_rainbow_lake_14080102_001","occurrence_id":"co_waterbody_rainbow_lake_14080102_001","occurrence_number":"001","display_name":"Rainbow Lake","normalized_name":"rainbow lake","mapped_name":"Rainbow Lake","source_name":"Rainbow Lake","disambiguator":"Piedra · lake · occurrence 001","state":"CO","atlas_layer":"waterbody_object","object_role":"waterbody_object","atlas_class":"named_waterbody","waterbody_type":"lake","huc8":"14080102","huc8Name":"Piedra","huc8States":"CO","lineageKey":"sanJuan","lineage":"sanJuan","historic":"sanJuan","current":"sanJuan","recovery":"recoveryWatch","lineageLabel":"San Juan lineage","lineageBasin":"Piedra","lineageNote":"San Juan lineage context","atlas_context":"cutthroat_lineage_context","area_sq_km":0.007,"elevation":0,"FType":390,"FCode":39004,"source_id":"80374391","bounds":{"west":-107.11965,"south":37.46862,"east":-107.11832,"north":37.46948},"confidence_public":"Watershed-level lineage context; expert review recommended","geometry_status_public":"Named waterbody polygon from public hydrography","geometry_source_public":"Public hydrography waterbody polygon","trout_source_public":"Compiled public recovery and lineage context; expert review recommended","public_notes":"Rainbow Lake is shown as a named waterbody within watershed-level cutthroat lineage context. This is not a precise biological boundary."}},{"type":"Feature","geometry":{"type":"Polygon","coordinates":[[[-107.07723,37.30216],[-107.07721,37.30168],[-107.07625,37.3007],[-107.07615,37.30009],[-107.07535,37.29951],[-107.07342,37.3001],[-107.07276,37.29992],[-107.07263,37.30086],[-107.06975,37.30326],[-107.06953,37.30467],[-107.07015,37.30445],[-107.07032,37.30468],[-107.0707,37.30473],[-107.07213,37.30358],[-107.07245,37.30378],[-107.07369,37.30328],[-107.0736,37.30281],[-107.0741,37.30274],[-107.07424,37.302],[-107.07479,37.30109],[-107.07511,37.30111],[-107.07547,37.30153],[-107.07652,37.30154],[-107.07723,37.30216]]]},"properties":{"waterbody_id":"co_waterbody_stevens_reservoir_14080102_001","water_id":"co_waterbody_stevens_reservoir_14080102_001","occurrence_id":"co_waterbody_stevens_reservoir_14080102_001","occurrence_number":"001","display_name":"Stevens Reservoir","normalized_name":"stevens reservoir","mapped_name":"Stevens Reservoir","source_name":"Stevens Reservoir","disambiguator":"Piedra · reservoir","state":"CO","atlas_layer":"waterbody_object","object_role":"waterbody_object","atlas_class":"named_waterbody","waterbody_type":"reservoir","huc8":"14080102","huc8Name":"Piedra","huc8States":"CO","lineageKey":"sanJuan","lineage":"sanJuan","historic":"sanJuan","current":"sanJuan","recovery":"recoveryWatch","lineageLabel":"San Juan lineage","lineageBasin":"Piedra","lineageNote":"San Juan lineage context","atlas_context":"cutthroat_lineage_context","area_sq_km":0.152,"elevation":0,"FType":390,"FCode":39004,"source_id":"80374743","bounds":{"west":-107.07723,"south":37.29951,"east":-107.06953,"north":37.30473},"confidence_public":"Watershed-level lineage context; expert review recommended","geometry_status_public":"Named waterbody polygon from public hydrography","geometry_source_public":"Public hydrography waterbody polygon","trout_source_public":"Compiled public recovery and lineage context; expert review recommended","public_notes":"Stevens Reservoir is shown as a named waterbody within watershed-level cutthroat lineage context. This is not a precise biological boundary."}},{"type":"Feature","geometry":{"type":"Polygon","coordinates":[[[-107.08064,37.27503],[-107.08029,37.27539],[-107.08081,37.2762],[-107.08125,37.27593],[-107.08064,37.27503]]]},"properties":{"waterbody_id":"co_waterbody_lake_pagosa_14080102_002","water_id":"co_waterbody_lake_pagosa_14080102_002","occurrence_id":"co_waterbody_lake_pagosa_14080102_002","occurrence_number":"002","display_name":"Lake Pagosa","normalized_name":"lake pagosa","mapped_name":"Lake Pagosa","source_name":"Lake Pagosa","disambiguator":"Piedra · lake · occurrence 002","state":"CO","atlas_layer":"waterbody_object","object_role":"waterbody_object","atlas_class":"named_waterbody","waterbody_type":"lake","huc8":"14080102","huc8Name":"Piedra","huc8States":"CO","lineageKey":"sanJuan","lineage":"sanJuan","historic":"sanJuan","current":"sanJuan","recovery":"recoveryWatch","lineageLabel":"San Juan lineage","lineageBasin":"Piedra","lineageNote":"San Juan lineage context","atlas_context":"cutthroat_lineage_context","area_sq_km":0.007,"elevation":0,"FType":390,"FCode":39004,"source_id":"80374787","bounds":{"west":-107.08125,"south":37.27503,"east":-107.08029,"north":37.2762},"confidence_public":"Watershed-level lineage context; expert review recommended","geometry_status_public":"Named waterbody polygon from public hydrography","geometry_source_public":"Public hydrography waterbody polygon","trout_source_public":"Compiled public recovery and lineage context; expert review recommended","public_notes":"Lake Pagosa is shown as a named waterbody within watershed-level cutthroat lineage context. This is not a precise biological boundary."}},{"type":"Feature","geometry":{"type":"Polygon","coordinates":[[[-107.1026,37.25679],[-107.1011,37.25806],[-107.10041,37.25835],[-107.09969,37.2592],[-107.09951,37.26001],[-107.09852,37.26124],[-107.09772,37.26164],[-107.09669,37.26183],[-107.09669,37.2622],[-107.0973,37.26287],[-107.09855,37.26362],[-107.09963,37.26403],[-107.10049,37.26387],[-107.10061,37.26346],[-107.1002,37.26275],[-107.1005,37.26181],[-107.10054,37.26063],[-107.10136,37.25994],[-107.10212,37.25849],[-107.10236,37.25837],[-107.10296,37.25858],[-107.10328,37.25844],[-107.10284,37.25798],[-107.10279,37.2576],[-107.10311,37.25743],[-107.1026,37.25679]]]},"properties":{"waterbody_id":"co_waterbody_borns_lake_reservoir_14080102_001","water_id":"co_waterbody_borns_lake_reservoir_14080102_001","occurrence_id":"co_waterbody_borns_lake_reservoir_14080102_001","occurrence_number":"001","display_name":"Borns Lake Reservoir","normalized_name":"borns lake reservoir","mapped_name":"Borns Lake Reservoir","source_name":"Borns Lake Reservoir","disambiguator":"Piedra · reservoir","state":"CO","atlas_layer":"waterbody_object","object_role":"waterbody_object","atlas_class":"named_waterbody","waterbody_type":"reservoir","huc8":"14080102","huc8Name":"Piedra","huc8States":"CO","lineageKey":"sanJuan","lineage":"sanJuan","historic":"sanJuan","current":"sanJuan","recovery":"recoveryWatch","lineageLabel":"San Juan lineage","lineageBasin":"Piedra","lineageNote":"San Juan lineage context","atlas_context":"cutthroat_lineage_context","area_sq_km":0.149,"elevation":0,"FType":390,"FCode":39004,"source_id":"80374767","bounds":{"west":-107.10328,"south":37.25679,"east":-107.09669,"north":37.26403},"confidence_public":"Watershed-level lineage context; expert review recommended","geometry_status_public":"Named waterbody polygon from public hydrography","geometry_source_public":"Public hydrography waterbody polygon","trout_source_public":"Compiled public recovery and lineage context; expert review recommended","public_notes":"Borns Lake Reservoir is shown as a named waterbody within watershed-level cutthroat lineage context. This is not a precise biological boundary."}},{"type":"Feature","geometry":{"type":"Polygon","coordinates":[[[-107.19675,37.39204],[-107.19636,37.392],[-107.19598,37.39254],[-107.19557,37.39255],[-107.1944,37.39203],[-107.19418,37.39142],[-107.19388,37.39197],[-107.19299,37.39237],[-107.19357,37.39265],[-107.1937,37.39236],[-107.19393,37.39233],[-107.19514,37.39336],[-107.19623,37.39323],[-107.19715,37.39338],[-107.19731,37.39359],[-107.19793,37.3931],[-107.19758,37.39274],[-107.19688,37.39266],[-107.19675,37.39204]]]},"properties":{"waterbody_id":"co_waterbody_o_connell_lake_14080102_001","water_id":"co_waterbody_o_connell_lake_14080102_001","occurrence_id":"co_waterbody_o_connell_lake_14080102_001","occurrence_number":"001","display_name":"O'Connell Lake","normalized_name":"o'connell lake","mapped_name":"O'Connell Lake","source_name":"O'Connell Lake","disambiguator":"Piedra · lake","state":"CO","atlas_layer":"waterbody_object","object_role":"waterbody_object","atlas_class":"named_waterbody","waterbody_type":"lake","huc8":"14080102","huc8Name":"Piedra","huc8States":"CO","lineageKey":"sanJuan","lineage":"sanJuan","historic":"sanJuan","current":"sanJuan","recovery":"recoveryWatch","lineageLabel":"San Juan lineage","lineageBasin":"Piedra","lineageNote":"San Juan lineage context","atlas_context":"cutthroat_lineage_context","area_sq_km":0.038,"elevation":0,"FType":390,"FCode":39004,"source_id":"80373837","bounds":{"west":-107.19793,"south":37.39142,"east":-107.19299,"north":37.39359},"confidence_public":"Watershed-level lineage context; expert review recommended","geometry_status_public":"Named waterbody polygon from public hydrography","geometry_source_public":"Public hydrography waterbody polygon","trout_source_public":"Compiled public recovery and lineage context; expert review recommended","public_notes":"O'Connell Lake is shown as a named waterbody within watershed-level cutthroat lineage context. This is not a precise biological boundary."}},{"type":"Feature","geometry":{"type":"Polygon","coordinates":[[[-107.16677,37.29612],[-107.16631,37.29609],[-107.16647,37.29633],[-107.16692,37.29646],[-107.16677,37.29612]]]},"properties":{"waterbody_id":"co_waterbody_turkey_springs_reservoir_14080102_001","water_id":"co_waterbody_turkey_springs_reservoir_14080102_001","occurrence_id":"co_waterbody_turkey_springs_reservoir_14080102_001","occurrence_number":"001","display_name":"Turkey Springs Reservoir","normalized_name":"turkey springs reservoir","mapped_name":"Turkey Springs Reservoir","source_name":"Turkey Springs Reservoir","disambiguator":"Piedra · reservoir","state":"CO","atlas_layer":"waterbody_object","object_role":"waterbody_object","atlas_class":"named_waterbody","waterbody_type":"reservoir","huc8":"14080102","huc8Name":"Piedra","huc8States":"CO","lineageKey":"sanJuan","lineage":"sanJuan","historic":"sanJuan","current":"sanJuan","recovery":"recoveryWatch","lineageLabel":"San Juan lineage","lineageBasin":"Piedra","lineageNote":"San Juan lineage context","atlas_context":"cutthroat_lineage_context","area_sq_km":0.002,"elevation":0,"FType":390,"FCode":39004,"source_id":"80370311","bounds":{"west":-107.16692,"south":37.29609,"east":-107.16631,"north":37.29646},"confidence_public":"Watershed-level lineage context; expert review recommended","geometry_status_public":"Named waterbody polygon from public hydrography","geometry_source_public":"Public hydrography waterbody polygon","trout_source_public":"Compiled public recovery and lineage context; expert review recommended","public_notes":"Turkey Springs Reservoir is shown as a named waterbody within watershed-level cutthroat lineage context. This is not a precise biological boundary."}},{"type":"Feature","geometry":{"type":"Polygon","coordinates":[[[-107.1165,37.32035],[-107.11679,37.32008],[-107.11669,37.31906],[-107.1162,37.31811],[-107.11633,37.31798],[-107.11723,37.31842],[-107.11785,37.31967],[-107.11862,37.31978],[-107.11787,37.31867],[-107.11803,37.31797],[-107.11715,37.31765],[-107.11672,37.31717],[-107.11668,37.31686],[-107.11721,37.31606],[-107.11574,37.31611],[-107.11485,37.31566],[-107.11478,37.31537],[-107.11524,37.315],[-107.11531,37.31468],[-107.11427,37.31472],[-107.11377,37.31455],[-107.11148,37.31273],[-107.1101,37.31241],[-107.10941,37.31257],[-107.10881,37.31334],[-107.10883,37.31433],[-107.10928,37.31599],[-107.11022,37.31668],[-107.11062,37.31778],[-107.11257,37.31866],[-107.11407,37.31856],[-107.11478,37.31922],[-107.1154,37.3193],[-107.11584,37.32007],[-107.1165,37.32035]]]},"properties":{"waterbody_id":"co_waterbody_lake_hatcher_14080102_001","water_id":"co_waterbody_lake_hatcher_14080102_001","occurrence_id":"co_waterbody_lake_hatcher_14080102_001","occurrence_number":"001","display_name":"Lake Hatcher","normalized_name":"lake hatcher","mapped_name":"Lake Hatcher","source_name":"Lake Hatcher","disambiguator":"Piedra · lake","state":"CO","atlas_layer":"waterbody_object","object_role":"waterbody_object","atlas_class":"named_waterbody","waterbody_type":"lake","huc8":"14080102","huc8Name":"Piedra","huc8States":"CO","lineageKey":"sanJuan","lineage":"sanJuan","historic":"sanJuan","current":"sanJuan","recovery":"recoveryWatch","lineageLabel":"San Juan lineage","lineageBasin":"Piedra","lineageNote":"San Juan lineage context","atlas_context":"cutthroat_lineage_context","area_sq_km":0.352,"elevation":0,"FType":390,"FCode":39004,"source_id":"80374739","bounds":{"west":-107.11862,"south":37.31241,"east":-107.10881,"north":37.32035},"confidence_public":"Watershed-level lineage context; expert review recommended","geometry_status_public":"Named waterbody polygon from public hydrography","geometry_source_public":"Public hydrography waterbody polygon","trout_source_public":"Compiled public recovery and lineage context; expert review recommended","public_notes":"Lake Hatcher is shown as a named waterbody within watershed-level cutthroat lineage context. This is not a precise biological boundary."}},{"type":"Feature","geometry":{"type":"Polygon","coordinates":[[[-107.15124,37.31175],[-107.15094,37.31163],[-107.15067,37.31182],[-107.15085,37.31197],[-107.15124,37.31175]]]},"properties":{"waterbody_id":"co_waterbody_park_reservoir_14080102_001","water_id":"co_waterbody_park_reservoir_14080102_001","occurrence_id":"co_waterbody_park_reservoir_14080102_001","occurrence_number":"001","display_name":"Park Reservoir","normalized_name":"park reservoir","mapped_name":"Park Reservoir","source_name":"Park Reservoir","disambiguator":"Piedra · reservoir · occurrence 001","state":"CO","atlas_layer":"waterbody_object","object_role":"waterbody_object","atlas_class":"named_waterbody","waterbody_type":"reservoir","huc8":"14080102","huc8Name":"Piedra","huc8States":"CO","lineageKey":"sanJuan","lineage":"sanJuan","historic":"sanJuan","current":"sanJuan","recovery":"recoveryWatch","lineageLabel":"San Juan lineage","lineageBasin":"Piedra","lineageNote":"San Juan lineage context","atlas_context":"cutthroat_lineage_context","area_sq_km":0.001,"elevation":0,"FType":390,"FCode":39004,"source_id":"80370255","bounds":{"west":-107.15124,"south":37.31163,"east":-107.15067,"north":37.31197},"confidence_public":"Watershed-level lineage context; expert review recommended","geometry_status_public":"Named waterbody polygon from public hydrography","geometry_source_public":"Public hydrography waterbody polygon","trout_source_public":"Compiled public recovery and lineage context; expert review recommended","public_notes":"Park Reservoir is shown as a named waterbody within watershed-level cutthroat lineage context. This is not a precise biological boundary."}},{"type":"Feature","geometry":{"type":"Polygon","coordinates":[[[-107.20834,37.26926],[-107.20864,37.26921],[-107.20857,37.26909],[-107.20834,37.26926]]]},"properties":{"waterbody_id":"co_waterbody_sawmill_reservoir_14080102_001","water_id":"co_waterbody_sawmill_reservoir_14080102_001","occurrence_id":"co_waterbody_sawmill_reservoir_14080102_001","occurrence_number":"001","display_name":"Sawmill Reservoir","normalized_name":"sawmill reservoir","mapped_name":"Sawmill Reservoir","source_name":"Sawmill Reservoir","disambiguator":"Piedra · reservoir · occurrence 001","state":"CO","atlas_layer":"waterbody_object","object_role":"waterbody_object","atlas_class":"named_waterbody","waterbody_type":"reservoir","huc8":"14080102","huc8Name":"Piedra","huc8States":"CO","lineageKey":"sanJuan","lineage":"sanJuan","historic":"sanJuan","current":"sanJuan","recovery":"recoveryWatch","lineageLabel":"San Juan lineage","lineageBasin":"Piedra","lineageNote":"San Juan lineage context","atlas_context":"cutthroat_lineage_context","area_sq_km":0,"elevation":0,"FType":390,"FCode":39004,"source_id":"80370323","bounds":{"west":-107.20864,"south":37.26909,"east":-107.20834,"north":37.26926},"confidence_public":"Watershed-level lineage context; expert review recommended","geometry_status_public":"Named waterbody polygon from public hydrography","geometry_source_public":"Public hydrography waterbody polygon","trout_source_public":"Compiled public recovery and lineage context; expert review recommended","public_notes":"Sawmill Reservoir is shown as a named waterbody within watershed-level cutthroat lineage context. This is not a precise biological boundary."}},{"type":"Feature","geometry":{"type":"Polygon","coordinates":[[[-107.14449,37.29453],[-107.14434,37.29466],[-107.14462,37.29471],[-107.14449,37.29453]]]},"properties":{"waterbody_id":"co_waterbody_newt_jack_spring_reservoir_14080102_001","water_id":"co_waterbody_newt_jack_spring_reservoir_14080102_001","occurrence_id":"co_waterbody_newt_jack_spring_reservoir_14080102_001","occurrence_number":"001","display_name":"Newt Jack Spring Reservoir","normalized_name":"newt jack spring reservoir","mapped_name":"Newt Jack Spring Reservoir","source_name":"Newt Jack Spring Reservoir","disambiguator":"Piedra · reservoir","state":"CO","atlas_layer":"waterbody_object","object_role":"waterbody_object","atlas_class":"named_waterbody","waterbody_type":"reservoir","huc8":"14080102","huc8Name":"Piedra","huc8States":"CO","lineageKey":"sanJuan","lineage":"sanJuan","historic":"sanJuan","current":"sanJuan","recovery":"recoveryWatch","lineageLabel":"San Juan lineage","lineageBasin":"Piedra","lineageNote":"San Juan lineage context","atlas_context":"cutthroat_lineage_context","area_sq_km":0.001,"elevation":0,"FType":390,"FCode":39004,"source_id":"80370315","bounds":{"west":-107.14462,"south":37.29453,"east":-107.14434,"north":37.29471},"confidence_public":"Watershed-level lineage context; expert review recommended","geometry_status_public":"Named waterbody polygon from public hydrography","geometry_source_public":"Public hydrography waterbody polygon","trout_source_public":"Compiled public recovery and lineage context; expert review recommended","public_notes":"Newt Jack Spring Reservoir is shown as a named waterbody within watershed-level cutthroat lineage context. This is not a precise biological boundary."}},{"type":"Feature","geometry":{"type":"Polygon","coordinates":[[[-107.04537,37.47052],[-107.04587,37.4707],[-107.04595,37.47098],[-107.04646,37.47078],[-107.04734,37.46967],[-107.04716,37.46894],[-107.04575,37.46862],[-107.04533,37.4687],[-107.04493,37.4692],[-107.04481,37.46976],[-107.04537,37.47052]]]},"properties":{"waterbody_id":"co_waterbody_fourmile_lake_14080101_001","water_id":"co_waterbody_fourmile_lake_14080101_001","occurrence_id":"co_waterbody_fourmile_lake_14080101_001","occurrence_number":"001","display_name":"Fourmile Lake","normalized_name":"fourmile lake","mapped_name":"Fourmile Lake","source_name":"Fourmile Lake","disambiguator":"Upper San Juan · lake","state":"CO","atlas_layer":"waterbody_object","object_role":"waterbody_object","atlas_class":"named_waterbody","waterbody_type":"lake","huc8":"14080101","huc8Name":"Upper San Juan","huc8States":"CO,NM","lineageKey":"sanJuan","lineage":"sanJuan","historic":"sanJuan","current":"sanJuan","recovery":"recoveryWatch","lineageLabel":"San Juan lineage","lineageBasin":"Upper San Juan","lineageNote":"San Juan lineage context","atlas_context":"cutthroat_lineage_context","area_sq_km":0.041,"elevation":0,"FType":390,"FCode":39004,"source_id":"122808113","bounds":{"west":-107.04734,"south":37.46862,"east":-107.04481,"north":37.47098},"confidence_public":"Watershed-level lineage context; expert review recommended","geometry_status_public":"Named waterbody polygon from public hydrography","geometry_source_public":"Public hydrography waterbody polygon","trout_source_public":"Compiled public recovery and lineage context; expert review recommended","public_notes":"Fourmile Lake is shown as a named waterbody within watershed-level cutthroat lineage context. This is not a precise biological boundary."}},{"type":"Feature","geometry":{"type":"Polygon","coordinates":[[[-107.1385,37.34884],[-107.13814,37.34958],[-107.13861,37.34978],[-107.13921,37.34963],[-107.13977,37.34913],[-107.14026,37.34961],[-107.14122,37.34946],[-107.14175,37.34887],[-107.14274,37.34847],[-107.14222,37.34723],[-107.14117,37.34779],[-107.14059,37.34731],[-107.14031,37.3481],[-107.13842,37.34806],[-107.1385,37.34884]]]},"properties":{"waterbody_id":"co_waterbody_dunnagan_reservoir_14080102_001","water_id":"co_waterbody_dunnagan_reservoir_14080102_001","occurrence_id":"co_waterbody_dunnagan_reservoir_14080102_001","occurrence_number":"001","display_name":"Dunnagan Reservoir","normalized_name":"dunnagan reservoir","mapped_name":"Dunnagan Reservoir","source_name":"Dunnagan Reservoir","disambiguator":"Piedra · reservoir","state":"CO","atlas_layer":"waterbody_object","object_role":"waterbody_object","atlas_class":"named_waterbody","waterbody_type":"reservoir","huc8":"14080102","huc8Name":"Piedra","huc8States":"CO","lineageKey":"sanJuan","lineage":"sanJuan","historic":"sanJuan","current":"sanJuan","recovery":"recoveryWatch","lineageLabel":"San Juan lineage","lineageBasin":"Piedra","lineageNote":"San Juan lineage context","atlas_context":"cutthroat_lineage_context","area_sq_km":0.062,"elevation":0,"FType":390,"FCode":39004,"source_id":"80370243","bounds":{"west":-107.14274,"south":37.34723,"east":-107.13814,"north":37.34978},"confidence_public":"Watershed-level lineage context; expert review recommended","geometry_status_public":"Named waterbody polygon from public hydrography","geometry_source_public":"Public hydrography waterbody polygon","trout_source_public":"Compiled public recovery and lineage context; expert review recommended","public_notes":"Dunnagan Reservoir is shown as a named waterbody within watershed-level cutthroat lineage context. This is not a precise biological boundary."}},{"type":"Feature","geometry":{"type":"Polygon","coordinates":[[[-107.04455,37.47579],[-107.04592,37.47586],[-107.04633,37.4755],[-107.04642,37.47509],[-107.04604,37.47461],[-107.04521,37.47481],[-107.04361,37.47451],[-107.04316,37.47461],[-107.04299,37.47493],[-107.04312,37.47514],[-107.04455,37.47579]]]},"properties":{"waterbody_id":"co_waterbody_upper_fourmile_lake_14080101_001","water_id":"co_waterbody_upper_fourmile_lake_14080101_001","occurrence_id":"co_waterbody_upper_fourmile_lake_14080101_001","occurrence_number":"001","display_name":"Upper Fourmile Lake","normalized_name":"upper fourmile lake","mapped_name":"Upper Fourmile Lake","source_name":"Upper Fourmile Lake","disambiguator":"Upper San Juan · lake","state":"CO","atlas_layer":"waterbody_object","object_role":"waterbody_object","atlas_class":"named_waterbody","waterbody_type":"lake","huc8":"14080101","huc8Name":"Upper San Juan","huc8States":"CO,NM","lineageKey":"sanJuan","lineage":"sanJuan","historic":"sanJuan","current":"sanJuan","recovery":"recoveryWatch","lineageLabel":"San Juan lineage","lineageBasin":"Upper San Juan","lineageNote":"San Juan lineage context","atlas_context":"cutthroat_lineage_context","area_sq_km":0.033,"elevation":0,"FType":390,"FCode":39004,"source_id":"122808102","bounds":{"west":-107.04642,"south":37.47451,"east":-107.04299,"north":37.47586},"confidence_public":"Watershed-level lineage context; expert review recommended","geometry_status_public":"Named waterbody polygon from public hydrography","geometry_source_public":"Public hydrography waterbody polygon","trout_source_public":"Compiled public recovery and lineage context; expert review recommended","public_notes":"Upper Fourmile Lake is shown as a named waterbody within watershed-level cutthroat lineage context. This is not a precise biological boundary."}},{"type":"Feature","geometry":{"type":"Polygon","coordinates":[[[-107.08135,37.26595],[-107.08041,37.26606],[-107.07995,37.26716],[-107.08045,37.26802],[-107.08031,37.26861],[-107.07968,37.26831],[-107.07913,37.26876],[-107.08007,37.26982],[-107.08076,37.2701],[-107.081,37.26998],[-107.08175,37.26842],[-107.08132,37.2678],[-107.08131,37.26741],[-107.08199,37.26703],[-107.08239,37.26643],[-107.08302,37.26619],[-107.08344,37.2665],[-107.08271,37.26789],[-107.08304,37.26832],[-107.08351,37.2684],[-107.08364,37.26819],[-107.08326,37.26755],[-107.08351,37.2673],[-107.08408,37.26729],[-107.08382,37.26669],[-107.08427,37.26637],[-107.08477,37.26635],[-107.08494,37.266],[-107.08586,37.26552],[-107.08526,37.26536],[-107.08435,37.26601],[-107.08401,37.26595],[-107.08381,37.26547],[-107.08423,37.26491],[-107.08549,37.26445],[-107.08677,37.26484],[-107.08783,37.26418],[-107.08893,37.26418],[-107.09034,37.26387],[-107.09073,37.26425],[-107.09146,37.26382],[-107.09221,37.26387],[-107.09282,37.26365],[-107.09313,37.26334],[-107.09312,37.26247],[-107.09347,37.26179],[-107.09421,37.26164],[-107.09416,37.26098],[-107.0921,37.26156],[-107.09157,37.26147],[-107.0922,37.26139],[-107.09215,37.26126],[-107.09118,37.26129],[-107.09055,37.26304],[-107.08869,37.26349],[-107.08561,37.26313],[-107.08544,37.26284],[-107.08546,37.26214],[-107.0846,37.26274],[-107.08411,37.26135],[-107.0839,37.26133],[-107.0837,37.26157],[-107.0839,37.26347],[-107.08366,37.26402],[-107.08328,37.26419],[-107.08182,37.26337],[-107.08297,37.26505],[-107.08186,37.26503],[-107.08166,37.26497],[-107.08166,37.26475],[-107.08084,37.2646],[-107.08068,37.26488],[-107.08118,37.26524],[-107.08135,37.26595]]]},"properties":{"waterbody_id":"co_waterbody_village_lake_14080102_001","water_id":"co_waterbody_village_lake_14080102_001","occurrence_id":"co_waterbody_village_lake_14080102_001","occurrence_number":"001","display_name":"Village Lake","normalized_name":"village lake","mapped_name":"Village Lake","source_name":"Village Lake","disambiguator":"Piedra · lake · occurrence 001","state":"CO","atlas_layer":"waterbody_object","object_role":"waterbody_object","atlas_class":"named_waterbody","waterbody_type":"lake","huc8":"14080102","huc8Name":"Piedra","huc8States":"CO","lineageKey":"sanJuan","lineage":"sanJuan","historic":"sanJuan","current":"sanJuan","recovery":"recoveryWatch","lineageLabel":"San Juan lineage","lineageBasin":"Piedra","lineageNote":"San Juan lineage context","atlas_context":"cutthroat_lineage_context","area_sq_km":0.29296891,"elevation":0,"FType":390,"FCode":39004,"source_id":"80374755","bounds":{"west":-107.09421,"south":37.26098,"east":-107.07913,"north":37.2701},"confidence_public":"Watershed-level lineage context; expert review recommended","geometry_status_public":"Named waterbody polygon from public hydrography","geometry_source_public":"Public hydrography waterbody polygon","trout_source_public":"Compiled public recovery and lineage context; expert review recommended","public_notes":"Village Lake is shown as a named waterbody within watershed-level cutthroat lineage context. This is not a precise biological boundary."}},{"type":"Feature","geometry":{"type":"Polygon","coordinates":[[[-107.0788,37.26867],[-107.07909,37.2683],[-107.07878,37.26827],[-107.07835,37.26861],[-107.0788,37.26867]]]},"properties":{"waterbody_id":"co_waterbody_village_lake_14080102_002","water_id":"co_waterbody_village_lake_14080102_002","occurrence_id":"co_waterbody_village_lake_14080102_002","occurrence_number":"002","display_name":"Village Lake","normalized_name":"village lake","mapped_name":"Village Lake","source_name":"Village Lake","disambiguator":"Piedra · lake · occurrence 002","state":"CO","atlas_layer":"waterbody_object","object_role":"waterbody_object","atlas_class":"named_waterbody","waterbody_type":"lake","huc8":"14080102","huc8Name":"Piedra","huc8States":"CO","lineageKey":"sanJuan","lineage":"sanJuan","historic":"sanJuan","current":"sanJuan","recovery":"recoveryWatch","lineageLabel":"San Juan lineage","lineageBasin":"Piedra","lineageNote":"San Juan lineage context","atlas_context":"cutthroat_lineage_context","area_sq_km":0.00163529,"elevation":0,"FType":390,"FCode":39004,"source_id":"80374757","bounds":{"west":-107.07909,"south":37.26827,"east":-107.07835,"north":37.26867},"confidence_public":"Watershed-level lineage context; expert review recommended","geometry_status_public":"Named waterbody polygon from public hydrography","geometry_source_public":"Public hydrography waterbody polygon","trout_source_public":"Compiled public recovery and lineage context; expert review recommended","public_notes":"Village Lake is shown as a named waterbody within watershed-level cutthroat lineage context. This is not a precise biological boundary."}}]}