{"type":"FeatureCollection","metadata":{"source":"C:\\ct-atlas-data\\processed\\geojson\\interpreted\\colorado_waterbody_objects_v1.geojson","type":"colorado-waterbody-object-v1-tile","tile_size_degrees":0.25,"x":-429,"y":154,"bounds":{"west":-107.25,"south":38.5,"east":-107,"north":38.75}},"features":[{"type":"Feature","geometry":{"type":"Polygon","coordinates":[[[-107.17873,38.63516],[-107.1793,38.63549],[-107.18067,38.63533],[-107.18248,38.6356],[-107.18298,38.63525],[-107.18266,38.63486],[-107.18019,38.63352],[-107.17989,38.63361],[-107.17964,38.63409],[-107.1793,38.63429],[-107.17847,38.6341],[-107.17839,38.63451],[-107.17873,38.63516]]]},"properties":{"waterbody_id":"co_waterbody_rainbow_lake_14020002_001","water_id":"co_waterbody_rainbow_lake_14020002_001","occurrence_id":"co_waterbody_rainbow_lake_14020002_001","occurrence_number":"001","display_name":"Rainbow Lake","normalized_name":"rainbow lake","mapped_name":"Rainbow Lake","source_name":"Rainbow Lake","disambiguator":"Upper Gunnison · lake · occurrence 001","state":"CO","atlas_layer":"waterbody_object","object_role":"waterbody_object","atlas_class":"named_waterbody","waterbody_type":"lake","huc8":"14020002","huc8Name":"Upper Gunnison","huc8States":"CO","lineageKey":"coloradoRiver","lineage":"coloradoRiver","historic":"coloradoRiver","current":"coloradoRiver","recovery":"recoveryWatch","lineageLabel":"Colorado River green lineage","lineageBasin":"Upper Gunnison","lineageNote":"Gunnison green-lineage context","atlas_context":"cutthroat_lineage_context","area_sq_km":0.055,"elevation":0,"FType":390,"FCode":39004,"source_id":"64480028","bounds":{"west":-107.18298,"south":38.63352,"east":-107.17839,"north":38.6356},"confidence_public":"Watershed-level lineage context; expert review recommended","geometry_status_public":"Named waterbody polygon from public hydrography","geometry_source_public":"Public hydrography waterbody polygon","trout_source_public":"Compiled public recovery and lineage context; expert review recommended","public_notes":"Rainbow Lake is shown as a named waterbody within watershed-level cutthroat lineage context. This is not a precise biological boundary."}},{"type":"Feature","geometry":{"type":"Polygon","coordinates":[[[-107.02543,38.50167],[-107.02594,38.50133],[-107.02578,38.49999],[-107.02618,38.49857],[-107.02605,38.49823],[-107.02637,38.49815],[-107.02701,38.49721],[-107.02794,38.49635],[-107.03103,38.49456],[-107.03116,38.49408],[-107.03225,38.49368],[-107.03361,38.49259],[-107.03476,38.48978],[-107.03645,38.48878],[-107.0374,38.48874],[-107.03795,38.4891],[-107.03951,38.48933],[-107.04026,38.48903],[-107.04073,38.48858],[-107.04146,38.48708],[-107.04289,38.48598],[-107.04489,38.48616],[-107.0461,38.48691],[-107.04708,38.48713],[-107.04825,38.48688],[-107.05037,38.48578],[-107.05162,38.48589],[-107.05253,38.48635],[-107.05392,38.48822],[-107.05474,38.48899],[-107.05548,38.48939],[-107.05644,38.48958],[-107.05845,38.48936],[-107.05884,38.48874],[-107.05922,38.48927],[-107.061,38.48902],[-107.06417,38.48701],[-107.06711,38.48626],[-107.07111,38.48776],[-107.07242,38.48743],[-107.07318,38.48782],[-107.07339,38.48748],[-107.07435,38.48741],[-107.07447,38.4876],[-107.07485,38.48747],[-107.07499,38.48783],[-107.0759,38.48771],[-107.07603,38.4881],[-107.07658,38.48789],[-107.07656,38.48818],[-107.07686,38.48838],[-107.07704,38.48795],[-107.07762,38.48813],[-107.07733,38.48783],[-107.07786,38.48772],[-107.07872,38.48794],[-107.07897,38.48859],[-107.07958,38.48868],[-107.07943,38.48836],[-107.07976,38.48819],[-107.08039,38.48879],[-107.08122,38.48879],[-107.08203,38.48844],[-107.0825,38.48784],[-107.08288,38.48767],[-107.08279,38.48746],[-107.08315,38.48701],[-107.08537,38.48639],[-107.08576,38.48678],[-107.08569,38.48703],[-107.08598,38.48768],[-107.08611,38.48648],[-107.08699,38.48618],[-107.08704,38.48719],[-107.08741,38.48686],[-107.08785,38.48682],[-107.08792,38.48747],[-107.08815,38.48758],[-107.08829,38.48691],[-107.08861,38.48684],[-107.08968,38.48803],[-107.08936,38.48739],[-107.08937,38.48698],[-107.08997,38.48691],[-107.08917,38.48639],[-107.08916,38.48621],[-107.08976,38.48612],[-107.09026,38.48577],[-107.09077,38.48584],[-107.09145,38.48556],[-107.09192,38.48612],[-107.09219,38.48618],[-107.09225,38.48601],[-107.09193,38.48578],[-107.09202,38.48535],[-107.09337,38.48504],[-107.09367,38.48545],[-107.09418,38.48542],[-107.09485,38.48657],[-107.09487,38.4872],[-107.09509,38.48716],[-107.09594,38.48692],[-107.09607,38.4853],[-107.09675,38.48517],[-107.09697,38.48467],[-107.09782,38.48429],[-107.09828,38.48419],[-107.09905,38.48467],[-107.10004,38.48468],[-107.10077,38.4853],[-107.10125,38.4853],[-107.10134,38.48497],[-107.10205,38.48506],[-107.10215,38.48482],[-107.10266,38.48477],[-107.10252,38.48456],[-107.10307,38.48409],[-107.10394,38.48395],[-107.10401,38.48361],[-107.10442,38.4836],[-107.10382,38.48324],[-107.10395,38.48283],[-107.10474,38.48252],[-107.10534,38.48295],[-107.10516,38.48241],[-107.10553,38.48199],[-107.10594,38.48224],[-107.10697,38.48173],[-107.10792,38.48214],[-107.10825,38.48255],[-107.10839,38.48214],[-107.10958,38.48206],[-107.10955,38.48181],[-107.10883,38.48163],[-107.10866,38.48141],[-107.1093,38.48095],[-107.10918,38.48047],[-107.10945,38.47986],[-107.11277,38.48156],[-107.11412,38.482],[-107.11355,38.48162],[-107.1135,38.48061],[-107.113,38.47983],[-107.11394,38.4793],[-107.11344,38.47943],[-107.11293,38.4793],[-107.11281,38.47901],[-107.11235,38.47881],[-107.11276,38.47844],[-107.11185,38.47842],[-107.11163,38.47804],[-107.11127,38.47786],[-107.11179,38.47657],[-107.11252,38.47571],[-107.11341,38.47502],[-107.11448,38.4745],[-107.11649,38.47306],[-107.11722,38.47289],[-107.11773,38.47326],[-107.11759,38.47266],[-107.11774,38.47202],[-107.11803,38.47167],[-107.11824,38.47055],[-107.11922,38.4698],[-107.11954,38.46975],[-107.11983,38.4701],[-107.11994,38.4698],[-107.12034,38.46973],[-107.1203,38.46935],[-107.12094,38.46813],[-107.12102,38.46727],[-107.12164,38.46721],[-107.1239,38.46606],[-107.12491,38.46595],[-107.12595,38.46637],[-107.12713,38.46621],[-107.12876,38.46641],[-107.12928,38.46667],[-107.1293,38.46705],[-107.12894,38.46764],[-107.12928,38.46775],[-107.13213,38.46617],[-107.13462,38.46643],[-107.13596,38.46677],[-107.1363,38.46699],[-107.13628,38.46739],[-107.13721,38.46758],[-107.13982,38.46878],[-107.14012,38.46923],[-107.14012,38.46967],[-107.14117,38.46941],[-107.14272,38.46978],[-107.14295,38.47012],[-107.14323,38.47148],[-107.14378,38.47189],[-107.14348,38.4724],[-107.1426,38.47298],[-107.14321,38.47315],[-107.14346,38.47285],[-107.14466,38.47258],[-107.14522,38.47295],[-107.14581,38.47286],[-107.14593,38.4728],[-107.14566,38.47254],[-107.1458,38.4724],[-107.14538,38.47224],[-107.14518,38.47183],[-107.14539,38.4712],[-107.14514,38.4707],[-107.14526,38.47015],[-107.14563,38.46985],[-107.1452,38.46902],[-107.14534,38.46841],[-107.14691,38.46818],[-107.14796,38.46867],[-107.14836,38.46914],[-107.14843,38.46854],[-107.14878,38.46822],[-107.14963,38.46812],[-107.14932,38.46754],[-107.14953,38.46721],[-107.14954,38.4663],[-107.14992,38.46536],[-107.1499,38.46471],[-107.15068,38.46357],[-107.15113,38.46252],[-107.15228,38.46278],[-107.15357,38.46371],[-107.1534,38.46527],[-107.15298,38.46594],[-107.15314,38.4664],[-107.15362,38.46627],[-107.15537,38.46418],[-107.15841,38.46421],[-107.15866,38.46403],[-107.16048,38.46371],[-107.16081,38.46509],[-107.16081,38.46607],[-107.16039,38.46684],[-107.16071,38.46733],[-107.16018,38.4685],[-107.1603,38.46855],[-107.16122,38.46762],[-107.16172,38.46659],[-107.16189,38.46486],[-107.16234,38.4644],[-107.16207,38.46358],[-107.16239,38.46248],[-107.16237,38.46158],[-107.16292,38.46152],[-107.16355,38.46181],[-107.16503,38.46291],[-107.16588,38.46316],[-107.16662,38.46398],[-107.16628,38.46313],[-107.16596,38.46295],[-107.16618,38.46273],[-107.16567,38.46182],[-107.1657,38.46097],[-107.16649,38.46027],[-107.16714,38.46034],[-107.16733,38.45997],[-107.16802,38.45958],[-107.16931,38.45912],[-107.17057,38.45913],[-107.17162,38.45881],[-107.17202,38.45892],[-107.17272,38.45973],[-107.17297,38.46053],[-107.17375,38.46141],[-107.17375,38.46194],[-107.17446,38.4622],[-107.17611,38.46403],[-107.17621,38.46451],[-107.17597,38.4646],[-107.17691,38.46581],[-107.17652,38.46639],[-107.17665,38.46667],[-107.1764,38.46687],[-107.17702,38.46737],[-107.17728,38.46786],[-107.17652,38.46801],[-107.17574,38.4685],[-107.17739,38.47029],[-107.17709,38.47044],[-107.17677,38.47102],[-107.17714,38.47171],[-107.17716,38.47213],[-107.17686,38.47264],[-107.17551,38.47384],[-107.17533,38.47443],[-107.17408,38.47488],[-107.17449,38.47678],[-107.17563,38.47752],[-107.17709,38.47785],[-107.1775,38.47744],[-107.17755,38.47699],[-107.17836,38.47627],[-107.18098,38.4763],[-107.18133,38.47664],[-107.18251,38.47704],[-107.18258,38.47731],[-107.18219,38.4775],[-107.18316,38.47795],[-107.18295,38.4785],[-107.18383,38.47843],[-107.18368,38.4791],[-107.18429,38.47886],[-107.18456,38.47911],[-107.18485,38.47872],[-107.1854,38.47879],[-107.1861,38.47956],[-107.18661,38.47884],[-107.18807,38.47919],[-107.18821,38.4794],[-107.18796,38.48031],[-107.18809,38.4811],[-107.1891,38.48138],[-107.18959,38.4804],[-107.19026,38.47989],[-107.19054,38.48016],[-107.19023,38.48129],[-107.19318,38.4803],[-107.19473,38.4804],[-107.19539,38.48068],[-107.19583,38.48158],[-107.1963,38.48179],[-107.19648,38.48217],[-107.19727,38.4823],[-107.19805,38.48271],[-107.19879,38.48247],[-107.19931,38.48269],[-107.19946,38.48311],[-107.20029,38.48267],[-107.20177,38.48279],[-107.20244,38.4825],[-107.20268,38.48266],[-107.20276,38.48309],[-107.20323,38.48324],[-107.20373,38.4831],[-107.20371,38.48288],[-107.20456,38.48233],[-107.20658,38.48206],[-107.20709,38.48164],[-107.20877,38.48126],[-107.20958,38.48129],[-107.20984,38.48157],[-107.21028,38.48133],[-107.21122,38.4817],[-107.21156,38.4816],[-107.21122,38.48085],[-107.21149,38.48027],[-107.21197,38.48005],[-107.21257,38.48019],[-107.21274,38.47988],[-107.21339,38.47961],[-107.21461,38.47939],[-107.21443,38.4786],[-107.21528,38.47837],[-107.2157,38.47797],[-107.21663,38.47799],[-107.21693,38.47831],[-107.21739,38.47805],[-107.2181,38.4781],[-107.21867,38.4778],[-107.21896,38.47716],[-107.21925,38.47697],[-107.21985,38.47704],[-107.22019,38.47751],[-107.22084,38.4769],[-107.22334,38.47624],[-107.22457,38.47669],[-107.22519,38.47644],[-107.22539,38.47612],[-107.22529,38.47562],[-107.22548,38.47543],[-107.22921,38.47395],[-107.2295,38.474],[-107.22951,38.47422],[-107.22846,38.47573],[-107.22851,38.47655],[-107.2286,38.47672],[-107.22998,38.47647],[-107.23099,38.47557],[-107.23136,38.47492],[-107.23234,38.47424],[-107.23395,38.47427],[-107.23425,38.47379],[-107.23498,38.47327],[-107.23627,38.47343],[-107.23658,38.47316],[-107.23716,38.47337],[-107.23756,38.47276],[-107.23759,38.47232],[-107.23816,38.47198],[-107.23856,38.47197],[-107.23955,38.47133],[-107.24084,38.47121],[-107.24122,38.47135],[-107.24161,38.47097],[-107.24208,38.47107],[-107.24324,38.47073],[-107.24428,38.47087],[-107.24534,38.47076],[-107.24641,38.4714],[-107.24706,38.47117],[-107.24794,38.4713],[-107.24831,38.47155],[-107.24921,38.47132],[-107.24978,38.47143],[-107.25061,38.47098],[-107.25142,38.4709],[-107.25246,38.47041],[-107.25275,38.46997],[-107.25313,38.47002],[-107.2536,38.46965],[-107.25451,38.46944],[-107.25542,38.46952],[-107.25863,38.47149],[-107.25925,38.47252],[-107.25966,38.47232],[-107.26015,38.47247],[-107.26062,38.47308],[-107.26047,38.47336],[-107.26114,38.4735],[-107.26192,38.47333],[-107.26234,38.47433],[-107.26195,38.47531],[-107.26292,38.47471],[-107.26376,38.4738],[-107.26569,38.47366],[-107.26659,38.47477],[-107.26746,38.47418],[-107.26772,38.47461],[-107.26769,38.47567],[-107.26714,38.47783],[-107.26752,38.47769],[-107.26791,38.47783],[-107.26805,38.47844],[-107.2679,38.47865],[-107.26856,38.47834],[-107.26902,38.47839],[-107.27196,38.48003],[-107.27265,38.48102],[-107.27265,38.48138],[-107.27324,38.48138],[-107.27394,38.48175],[-107.27394,38.48204],[-107.2734,38.48253],[-107.27505,38.48191],[-107.27535,38.48234],[-107.27582,38.4825],[-107.27631,38.48186],[-107.27989,38.48108],[-107.28047,38.48071],[-107.2814,38.48084],[-107.28189,38.48212],[-107.2815,38.48307],[-107.28165,38.4835],[-107.28143,38.4846],[-107.28165,38.48504],[-107.28106,38.48642],[-107.28109,38.48772],[-107.2805,38.48888],[-107.27978,38.48886],[-107.28013,38.48983],[-107.2799,38.49011],[-107.27943,38.49022],[-107.27945,38.49091],[-107.27881,38.49198],[-107.27824,38.49251],[-107.2784,38.49305],[-107.2781,38.49373],[-107.27801,38.49468],[-107.27765,38.49518],[-107.27772,38.49558],[-107.27726,38.49697],[-107.27703,38.49704],[-107.27716,38.49741],[-107.27685,38.4983],[-107.27619,38.49908],[-107.27591,38.5002],[-107.27491,38.5011],[-107.27484,38.50164],[-107.27427,38.50233],[-107.27377,38.50266],[-107.27335,38.50356],[-107.27299,38.50382],[-107.27255,38.50486],[-107.27334,38.50642],[-107.27363,38.50584],[-107.27356,38.50491],[-107.27325,38.50421],[-107.27397,38.50406],[-107.27462,38.50322],[-107.27701,38.50206],[-107.27757,38.50153],[-107.27903,38.49947],[-107.27936,38.49847],[-107.27983,38.49824],[-107.28066,38.49627],[-107.28229,38.4936],[-107.28295,38.49355],[-107.28466,38.49428],[-107.28452,38.49389],[-107.28384,38.49337],[-107.28349,38.4927],[-107.28387,38.49136],[-107.28431,38.49079],[-107.28655,38.48992],[-107.28743,38.48845],[-107.28736,38.48763],[-107.28629,38.48641],[-107.28622,38.48593],[-107.28634,38.48555],[-107.28746,38.48559],[-107.28651,38.48493],[-107.28733,38.48307],[-107.288,38.48239],[-107.28962,38.48258],[-107.29009,38.48216],[-107.29136,38.48174],[-107.29335,38.48149],[-107.2937,38.48159],[-107.29513,38.48272],[-107.29682,38.48556],[-107.29672,38.48586],[-107.29702,38.4863],[-107.29695,38.48673],[-107.29729,38.48754],[-107.2972,38.48831],[-107.29771,38.4887],[-107.29803,38.49029],[-107.29783,38.49058],[-107.29813,38.49108],[-107.2982,38.49198],[-107.29852,38.49237],[-107.29874,38.49328],[-107.29848,38.49377],[-107.29891,38.4941],[-107.29885,38.49438],[-107.29943,38.49503],[-107.30023,38.49661],[-107.30034,38.49734],[-107.30075,38.49752],[-107.30138,38.49863],[-107.30184,38.50032],[-107.30175,38.50176],[-107.30112,38.50345],[-107.30139,38.50456],[-107.30093,38.50539],[-107.30067,38.50709],[-107.2997,38.50888],[-107.29915,38.5095],[-107.29866,38.51107],[-107.29766,38.51217],[-107.29896,38.51352],[-107.29901,38.51478],[-107.29811,38.51621],[-107.29806,38.51721],[-107.29734,38.51776],[-107.29705,38.51827],[-107.29615,38.51862],[-107.29604,38.51883],[-107.29672,38.51885],[-107.2983,38.51948],[-107.29884,38.52087],[-107.29962,38.52148],[-107.30006,38.52227],[-107.30159,38.52251],[-107.30288,38.52326],[-107.3029,38.52425],[-107.30327,38.52463],[-107.30347,38.52526],[-107.30422,38.52566],[-107.30601,38.52556],[-107.3069,38.52599],[-107.30657,38.5253],[-107.30569,38.52517],[-107.30539,38.52493],[-107.30528,38.52428],[-107.30419,38.52408],[-107.30391,38.52304],[-107.30338,38.52207],[-107.30148,38.52135],[-107.30146,38.5208],[-107.3018,38.52023],[-107.30169,38.51966],[-107.30225,38.51893],[-107.3016,38.51889],[-107.3013,38.51859],[-107.30234,38.51566],[-107.30226,38.51442],[-107.30191,38.51364],[-107.30195,38.51318],[-107.30168,38.51237],[-107.30188,38.51201],[-107.30261,38.51174],[-107.30248,38.51081],[-107.30328,38.50991],[-107.30448,38.50737],[-107.30511,38.50559],[-107.30537,38.50381],[-107.30642,38.50219],[-107.30643,38.50139],[-107.30601,38.50061],[-107.30599,38.50009],[-107.30671,38.49802],[-107.30702,38.49766],[-107.30607,38.49744],[-107.30532,38.49604],[-107.3052,38.49528],[-107.30568,38.49431],[-107.30601,38.49414],[-107.30513,38.4941],[-107.30492,38.49393],[-107.30487,38.4928],[-107.30537,38.49211],[-107.30439,38.49109],[-107.30444,38.49084],[-107.30499,38.49038],[-107.30609,38.49018],[-107.30588,38.49012],[-107.30555,38.48921],[-107.3058,38.48896],[-107.30579,38.48841],[-107.30679,38.48469],[-107.30663,38.48337],[-107.30632,38.48284],[-107.30643,38.48227],[-107.307,38.48132],[-107.30781,38.48066],[-107.30872,38.48069],[-107.30866,38.48011],[-107.30889,38.47957],[-107.31088,38.4779],[-107.31158,38.47782],[-107.31226,38.47667],[-107.31314,38.47659],[-107.31275,38.47637],[-107.31245,38.4758],[-107.31275,38.47514],[-107.31375,38.47458],[-107.31528,38.47414],[-107.31524,38.47353],[-107.31604,38.47344],[-107.31504,38.47299],[-107.31423,38.47314],[-107.31473,38.47248],[-107.31479,38.47212],[-107.31686,38.47146],[-107.31537,38.47112],[-107.31517,38.4707],[-107.31528,38.47042],[-107.316,38.46981],[-107.3174,38.4695],[-107.31733,38.46932],[-107.31779,38.46889],[-107.31818,38.46797],[-107.31851,38.46769],[-107.32077,38.46703],[-107.32116,38.46671],[-107.32159,38.46686],[-107.32161,38.46614],[-107.3222,38.46612],[-107.32205,38.46572],[-107.32217,38.46527],[-107.32283,38.46451],[-107.3232,38.46447],[-107.32338,38.46406],[-107.32377,38.46397],[-107.32387,38.46323],[-107.32448,38.46283],[-107.32488,38.46295],[-107.32503,38.46255],[-107.32567,38.46243],[-107.32664,38.46032],[-107.32818,38.45962],[-107.32916,38.46012],[-107.32916,38.45939],[-107.32995,38.45815],[-107.33157,38.45712],[-107.33234,38.45625],[-107.33275,38.45615],[-107.33429,38.45648],[-107.33409,38.45542],[-107.33428,38.45512],[-107.3342,38.45472],[-107.33374,38.45462],[-107.33415,38.45455],[-107.33427,38.45421],[-107.33466,38.45417],[-107.33405,38.45232],[-107.33272,38.4525],[-107.33172,38.45309],[-107.33001,38.45354],[-107.32949,38.45345],[-107.32944,38.45367],[-107.32913,38.45381],[-107.32936,38.45459],[-107.32864,38.45516],[-107.32686,38.45596],[-107.32587,38.45605],[-107.32237,38.45572],[-107.32165,38.45515],[-107.32155,38.45455],[-107.32088,38.45386],[-107.32063,38.45284],[-107.31981,38.45311],[-107.31929,38.45285],[-107.31751,38.45352],[-107.31654,38.45318],[-107.31566,38.45372],[-107.31432,38.45398],[-107.31382,38.45369],[-107.31257,38.45346],[-107.31179,38.45288],[-107.31006,38.45219],[-107.30987,38.45178],[-107.30856,38.45163],[-107.30874,38.45121],[-107.30964,38.45141],[-107.30939,38.45079],[-107.30932,38.44973],[-107.30889,38.44965],[-107.30869,38.44939],[-107.30865,38.44739],[-107.30825,38.44697],[-107.30717,38.44706],[-107.30675,38.44675],[-107.30681,38.44703],[-107.30749,38.44728],[-107.30757,38.44754],[-107.307,38.448],[-107.30483,38.44771],[-107.3027,38.44806],[-107.30092,38.44737],[-107.29977,38.44619],[-107.29969,38.44579],[-107.29868,38.44511],[-107.29503,38.44428],[-107.29234,38.44328],[-107.29001,38.44273],[-107.28944,38.44245],[-107.28907,38.44188],[-107.28784,38.44153],[-107.2878,38.44066],[-107.28833,38.43862],[-107.28809,38.43711],[-107.2888,38.43678],[-107.28782,38.43687],[-107.28755,38.43706],[-107.28777,38.43839],[-107.28688,38.43995],[-107.28688,38.44054],[-107.28658,38.44078],[-107.28566,38.44017],[-107.28486,38.43885],[-107.28428,38.43841],[-107.28356,38.43714],[-107.28202,38.4368],[-107.28064,38.437],[-107.28002,38.43659],[-107.27948,38.43675],[-107.27818,38.43615],[-107.2777,38.43521],[-107.27772,38.43472],[-107.27805,38.43442],[-107.27798,38.43402],[-107.27753,38.43387],[-107.27733,38.43285],[-107.27826,38.43122],[-107.27787,38.43124],[-107.276,38.43212],[-107.27383,38.43143],[-107.27359,38.43081],[-107.27366,38.42974],[-107.27409,38.42872],[-107.274,38.42761],[-107.27296,38.42703],[-107.27145,38.42728],[-107.27116,38.42768],[-107.27078,38.42777],[-107.26959,38.42705],[-107.26841,38.42677],[-107.26749,38.42677],[-107.26678,38.42708],[-107.26539,38.42705],[-107.26492,38.42654],[-107.26446,38.42466],[-107.26382,38.42328],[-107.26324,38.42296],[-107.26143,38.42314],[-107.26075,38.423],[-107.25939,38.42181],[-107.25915,38.42101],[-107.26106,38.42048],[-107.25957,38.42026],[-107.25968,38.41931],[-107.2603,38.41768],[-107.25975,38.41656],[-107.25849,38.41562],[-107.25823,38.41513],[-107.25851,38.41358],[-107.25897,38.41318],[-107.25894,38.41235],[-107.25754,38.41127],[-107.25717,38.41077],[-107.25531,38.40998],[-107.25545,38.40944],[-107.25501,38.40949],[-107.2547,38.40928],[-107.25446,38.40838],[-107.25405,38.40791],[-107.25358,38.4068],[-107.25269,38.40643],[-107.25245,38.40616],[-107.25192,38.40629],[-107.25045,38.40595],[-107.24976,38.40548],[-107.24841,38.40159],[-107.24772,38.40026],[-107.24729,38.39997],[-107.24714,38.39957],[-107.24719,38.39887],[-107.24786,38.39758],[-107.24799,38.3968],[-107.24687,38.39495],[-107.24668,38.3924],[-107.24613,38.39151],[-107.24585,38.39145],[-107.24561,38.39171],[-107.24603,38.39283],[-107.24598,38.39457],[-107.24704,38.39712],[-107.24671,38.39807],[-107.2463,38.39859],[-107.24623,38.3996],[-107.24633,38.40003],[-107.24737,38.40141],[-107.24805,38.40368],[-107.24784,38.40385],[-107.24726,38.40381],[-107.24608,38.4032],[-107.24686,38.40401],[-107.24819,38.40441],[-107.24762,38.40558],[-107.24836,38.40561],[-107.24888,38.40636],[-107.25,38.40703],[-107.25172,38.40723],[-107.25251,38.40751],[-107.25285,38.40797],[-107.2525,38.40865],[-107.2528,38.40889],[-107.25279,38.40924],[-107.25341,38.41003],[-107.25651,38.41179],[-107.25747,38.41292],[-107.25726,38.41343],[-107.25613,38.41367],[-107.25709,38.41413],[-107.25704,38.41566],[-107.25807,38.41673],[-107.25803,38.41712],[-107.25843,38.41715],[-107.25887,38.41772],[-107.25878,38.41798],[-107.25849,38.41804],[-107.25884,38.41831],[-107.25841,38.41942],[-107.25842,38.4205],[-107.25815,38.42073],[-107.25821,38.42172],[-107.2578,38.42244],[-107.25822,38.42246],[-107.25865,38.42327],[-107.25855,38.42352],[-107.25946,38.42408],[-107.26036,38.42408],[-107.25998,38.42487],[-107.26128,38.42415],[-107.26195,38.42412],[-107.26263,38.42436],[-107.26271,38.42469],[-107.26303,38.42489],[-107.26344,38.4261],[-107.26332,38.42718],[-107.26304,38.42739],[-107.26331,38.42762],[-107.26314,38.42796],[-107.26377,38.42778],[-107.26436,38.42821],[-107.26437,38.42894],[-107.26518,38.42838],[-107.26633,38.42829],[-107.2668,38.42807],[-107.26767,38.42817],[-107.26813,38.42783],[-107.26856,38.42786],[-107.26915,38.42821],[-107.26928,38.42879],[-107.27051,38.42892],[-107.27138,38.42881],[-107.27237,38.42835],[-107.27254,38.429],[-107.27186,38.4313],[-107.27176,38.43222],[-107.27125,38.43241],[-107.27123,38.43274],[-107.27175,38.43326],[-107.27174,38.43364],[-107.27239,38.43356],[-107.27257,38.43301],[-107.27313,38.43301],[-107.27603,38.43421],[-107.27622,38.43443],[-107.27612,38.43555],[-107.27525,38.43598],[-107.27601,38.43621],[-107.27625,38.43677],[-107.27672,38.4372],[-107.27666,38.43748],[-107.2777,38.43774],[-107.27825,38.43823],[-107.27831,38.43853],[-107.27865,38.43849],[-107.27906,38.43879],[-107.27937,38.43945],[-107.27983,38.43952],[-107.28071,38.4401],[-107.28088,38.44045],[-107.28163,38.44035],[-107.28225,38.44069],[-107.28306,38.44166],[-107.28354,38.44176],[-107.28453,38.44308],[-107.28445,38.44383],[-107.28518,38.44397],[-107.28645,38.44511],[-107.28728,38.4452],[-107.2877,38.44494],[-107.28833,38.44498],[-107.28906,38.44575],[-107.2896,38.44595],[-107.28962,38.44643],[-107.29042,38.44615],[-107.29103,38.44632],[-107.29092,38.44681],[-107.29127,38.44781],[-107.29097,38.44829],[-107.29161,38.44882],[-107.29188,38.4479],[-107.29185,38.44711],[-107.29289,38.44666],[-107.29334,38.44681],[-107.29412,38.44665],[-107.29542,38.44671],[-107.29628,38.44641],[-107.29705,38.44676],[-107.29749,38.44746],[-107.29664,38.44838],[-107.29744,38.44822],[-107.29827,38.44848],[-107.29873,38.44902],[-107.29873,38.45012],[-107.29891,38.45049],[-107.29943,38.45047],[-107.29951,38.44995],[-107.29993,38.44981],[-107.30086,38.45016],[-107.30071,38.45061],[-107.29989,38.45086],[-107.30016,38.45139],[-107.3007,38.45151],[-107.30132,38.45095],[-107.30255,38.45048],[-107.3043,38.45026],[-107.30548,38.45043],[-107.30536,38.45078],[-107.30362,38.4506],[-107.30261,38.45077],[-107.30159,38.45128],[-107.30098,38.45177],[-107.3011,38.45234],[-107.30086,38.45331],[-107.30059,38.45354],[-107.30143,38.45368],[-107.30187,38.45435],[-107.30238,38.45458],[-107.30218,38.45497],[-107.3028,38.45509],[-107.3028,38.45556],[-107.30319,38.45576],[-107.30331,38.45623],[-107.30375,38.45653],[-107.30374,38.45698],[-107.30352,38.45718],[-107.30386,38.45781],[-107.30372,38.4589],[-107.30456,38.4592],[-107.30512,38.45979],[-107.30513,38.46035],[-107.30443,38.46105],[-107.3044,38.46167],[-107.30361,38.46226],[-107.30404,38.46335],[-107.30458,38.4635],[-107.30474,38.46394],[-107.30531,38.46415],[-107.30502,38.46468],[-107.30383,38.46541],[-107.30208,38.46611],[-107.30114,38.46622],[-107.29955,38.4671],[-107.29903,38.46709],[-107.29888,38.46739],[-107.29786,38.46741],[-107.29734,38.46778],[-107.29728,38.46803],[-107.29694,38.468],[-107.29543,38.46897],[-107.29568,38.46919],[-107.29541,38.46967],[-107.29405,38.47014],[-107.29231,38.47005],[-107.29213,38.46962],[-107.29179,38.46988],[-107.29075,38.47002],[-107.29044,38.46926],[-107.28906,38.46909],[-107.28878,38.46876],[-107.28796,38.46861],[-107.28745,38.46817],[-107.28648,38.46808],[-107.28596,38.46753],[-107.28584,38.46804],[-107.28539,38.46865],[-107.28418,38.4686],[-107.28413,38.46918],[-107.28321,38.46932],[-107.2838,38.47025],[-107.28367,38.47055],[-107.28281,38.47054],[-107.28136,38.47117],[-107.27841,38.47129],[-107.27674,38.47113],[-107.27574,38.47092],[-107.27532,38.47063],[-107.27406,38.47049],[-107.27365,38.47001],[-107.2721,38.46939],[-107.27205,38.46922],[-107.27137,38.46941],[-107.2691,38.4694],[-107.26902,38.4691],[-107.26927,38.46886],[-107.26996,38.46868],[-107.26996,38.46797],[-107.26981,38.46773],[-107.26859,38.46737],[-107.26859,38.46705],[-107.26826,38.4666],[-107.26837,38.4663],[-107.26636,38.46724],[-107.26535,38.46722],[-107.2648,38.46709],[-107.26454,38.46677],[-107.26384,38.46678],[-107.26273,38.46645],[-107.26138,38.46582],[-107.26056,38.46605],[-107.26039,38.46634],[-107.25973,38.46645],[-107.25847,38.46615],[-107.2576,38.46625],[-107.25626,38.46507],[-107.25575,38.46498],[-107.25505,38.46525],[-107.2543,38.46616],[-107.25342,38.46604],[-107.25262,38.46556],[-107.2525,38.4651],[-107.25272,38.46463],[-107.25334,38.46408],[-107.25329,38.46338],[-107.2538,38.46291],[-107.25319,38.46271],[-107.25309,38.46191],[-107.25235,38.46189],[-107.25179,38.46128],[-107.25144,38.46117],[-107.25135,38.46074],[-107.25085,38.46089],[-107.24944,38.46023],[-107.24932,38.46026],[-107.24965,38.46093],[-107.25138,38.46208],[-107.25168,38.46291],[-107.25167,38.46316],[-107.25097,38.46375],[-107.25078,38.46448],[-107.24982,38.46498],[-107.25001,38.46569],[-107.2493,38.46569],[-107.24878,38.46512],[-107.24855,38.4651],[-107.24847,38.46473],[-107.24781,38.46552],[-107.24701,38.46557],[-107.24603,38.46635],[-107.24525,38.4666],[-107.24435,38.46651],[-107.242,38.46583],[-107.24178,38.46509],[-107.24112,38.46546],[-107.24087,38.46521],[-107.23954,38.46489],[-107.23876,38.46427],[-107.23819,38.4642],[-107.23749,38.46379],[-107.23717,38.46309],[-107.23623,38.46328],[-107.23573,38.46271],[-107.23539,38.46318],[-107.23472,38.46336],[-107.23289,38.46223],[-107.23156,38.46221],[-107.23122,38.462],[-107.23037,38.46222],[-107.22896,38.46208],[-107.22629,38.46277],[-107.22546,38.46262],[-107.2249,38.46275],[-107.22377,38.46163],[-107.22363,38.46186],[-107.22295,38.46189],[-107.22224,38.4623],[-107.22052,38.46251],[-107.21962,38.46308],[-107.2168,38.46331],[-107.21546,38.46382],[-107.21383,38.46406],[-107.21082,38.46386],[-107.21192,38.46489],[-107.21225,38.46586],[-107.21117,38.46664],[-107.21039,38.46684],[-107.20946,38.46611],[-107.20961,38.46575],[-107.20938,38.46516],[-107.20806,38.46453],[-107.20785,38.46385],[-107.20746,38.46377],[-107.20717,38.46338],[-107.20738,38.46275],[-107.20721,38.4616],[-107.20742,38.46073],[-107.20738,38.46012],[-107.20703,38.45969],[-107.20708,38.45877],[-107.20737,38.45864],[-107.20789,38.45875],[-107.20763,38.45816],[-107.20805,38.45764],[-107.20669,38.45761],[-107.20594,38.45678],[-107.20583,38.4564],[-107.20536,38.45636],[-107.20482,38.45592],[-107.20322,38.45563],[-107.20177,38.45576],[-107.20119,38.45563],[-107.20088,38.45525],[-107.20081,38.45481],[-107.20192,38.45377],[-107.20046,38.45424],[-107.19932,38.4535],[-107.19708,38.45246],[-107.19675,38.45179],[-107.19717,38.45104],[-107.19793,38.45044],[-107.19814,38.44939],[-107.19757,38.45008],[-107.19636,38.45061],[-107.19506,38.44906],[-107.19302,38.44847],[-107.19276,38.44811],[-107.19198,38.44825],[-107.19133,38.44813],[-107.1877,38.44658],[-107.18743,38.44605],[-107.18825,38.44553],[-107.18881,38.44474],[-107.18857,38.44414],[-107.18793,38.44357],[-107.18724,38.44195],[-107.18577,38.44039],[-107.18453,38.43965],[-107.18471,38.43923],[-107.18355,38.43904],[-107.18319,38.43821],[-107.18281,38.43604],[-107.1816,38.43449],[-107.18022,38.43375],[-107.17875,38.4335],[-107.17775,38.43306],[-107.17799,38.43252],[-107.17886,38.43177],[-107.17888,38.4315],[-107.17875,38.43106],[-107.17794,38.43048],[-107.17757,38.43049],[-107.17734,38.43007],[-107.17674,38.42993],[-107.17584,38.42895],[-107.1757,38.42833],[-107.17648,38.42724],[-107.17636,38.4272],[-107.17553,38.42795],[-107.17558,38.42932],[-107.17602,38.42994],[-107.17683,38.43062],[-107.17776,38.43108],[-107.17805,38.43155],[-107.17736,38.43213],[-107.17672,38.43219],[-107.17695,38.43258],[-107.17698,38.43322],[-107.17824,38.43402],[-107.17831,38.43423],[-107.17886,38.43417],[-107.17993,38.43442],[-107.1805,38.4348],[-107.18133,38.43671],[-107.18127,38.43719],[-107.18188,38.43742],[-107.18247,38.43956],[-107.1823,38.44009],[-107.18331,38.44035],[-107.18574,38.44177],[-107.18604,38.44213],[-107.18619,38.44289],[-107.18685,38.44419],[-107.18738,38.44446],[-107.18736,38.44467],[-107.18609,38.44552],[-107.18572,38.44598],[-107.18603,38.44627],[-107.18606,38.4466],[-107.18652,38.44695],[-107.18606,38.44767],[-107.18682,38.44736],[-107.18848,38.44779],[-107.19004,38.44881],[-107.18968,38.44927],[-107.19082,38.44936],[-107.19204,38.44983],[-107.19399,38.45002],[-107.19435,38.45029],[-107.19446,38.45077],[-107.19485,38.45101],[-107.19563,38.4522],[-107.19579,38.4528],[-107.19779,38.45406],[-107.19778,38.45443],[-107.19865,38.45457],[-107.19895,38.4548],[-107.19943,38.45571],[-107.19916,38.45621],[-107.20027,38.45682],[-107.19974,38.45767],[-107.20091,38.4574],[-107.20285,38.45893],[-107.20301,38.45983],[-107.20334,38.46],[-107.20352,38.46048],[-107.20357,38.46146],[-107.20392,38.46188],[-107.20384,38.46227],[-107.20421,38.46267],[-107.20417,38.46319],[-107.20389,38.4633],[-107.20384,38.46396],[-107.20447,38.46389],[-107.20488,38.46421],[-107.20497,38.46489],[-107.20523,38.4653],[-107.2052,38.46649],[-107.20267,38.46646],[-107.20093,38.46706],[-107.19933,38.46726],[-107.19637,38.46702],[-107.19555,38.46676],[-107.19081,38.4671],[-107.18687,38.46628],[-107.1862,38.46644],[-107.18559,38.46696],[-107.18482,38.46707],[-107.18393,38.46657],[-107.18386,38.46625],[-107.18348,38.46593],[-107.18347,38.46513],[-107.18401,38.46441],[-107.1832,38.46427],[-107.18315,38.463],[-107.18261,38.46274],[-107.18235,38.46338],[-107.18198,38.46339],[-107.18215,38.46428],[-107.18145,38.46487],[-107.18078,38.46503],[-107.17986,38.46445],[-107.17941,38.46353],[-107.17945,38.46307],[-107.17872,38.4627],[-107.17853,38.46216],[-107.17862,38.46177],[-107.17809,38.46086],[-107.17835,38.46037],[-107.17837,38.45951],[-107.17774,38.4602],[-107.17686,38.45922],[-107.17678,38.4587],[-107.17494,38.45787],[-107.17428,38.45717],[-107.17441,38.45624],[-107.1732,38.45677],[-107.17169,38.4565],[-107.17143,38.45614],[-107.17047,38.45655],[-107.16972,38.45721],[-107.16676,38.4578],[-107.16658,38.45739],[-107.16693,38.45677],[-107.16505,38.45814],[-107.16428,38.45822],[-107.16383,38.45864],[-107.16306,38.45867],[-107.16169,38.4583],[-107.16102,38.45835],[-107.16065,38.458],[-107.16067,38.457],[-107.1611,38.45568],[-107.16095,38.45534],[-107.16052,38.45605],[-107.15997,38.45617],[-107.16012,38.45653],[-107.15965,38.4575],[-107.15913,38.4577],[-107.15934,38.45816],[-107.15846,38.45998],[-107.15825,38.46009],[-107.15816,38.46077],[-107.15713,38.46151],[-107.15689,38.46194],[-107.15639,38.46093],[-107.15575,38.46047],[-107.15536,38.46044],[-107.15475,38.45976],[-107.15304,38.45908],[-107.14979,38.45981],[-107.14931,38.4596],[-107.14921,38.46035],[-107.148,38.4614],[-107.14787,38.46051],[-107.14639,38.45864],[-107.14673,38.46014],[-107.14636,38.46039],[-107.14555,38.46034],[-107.14636,38.46115],[-107.14654,38.46223],[-107.14559,38.46332],[-107.14505,38.46333],[-107.1444,38.46305],[-107.1445,38.46412],[-107.1443,38.46467],[-107.14444,38.46499],[-107.14392,38.46526],[-107.14161,38.46427],[-107.14094,38.46302],[-107.1411,38.46232],[-107.14038,38.46255],[-107.13964,38.46192],[-107.14015,38.46321],[-107.13999,38.46364],[-107.13974,38.46375],[-107.13742,38.46322],[-107.1361,38.46262],[-107.13586,38.46234],[-107.13596,38.46165],[-107.13682,38.4597],[-107.13668,38.4584],[-107.13686,38.45773],[-107.13656,38.45741],[-107.13602,38.45838],[-107.13601,38.45932],[-107.13552,38.46032],[-107.13499,38.46081],[-107.13433,38.46082],[-107.13453,38.46149],[-107.13435,38.46191],[-107.13327,38.46284],[-107.1321,38.46302],[-107.12765,38.46198],[-107.12684,38.46122],[-107.12427,38.46089],[-107.12382,38.46013],[-107.12239,38.46026],[-107.12209,38.46003],[-107.1215,38.46002],[-107.12072,38.45904],[-107.12017,38.45867],[-107.11969,38.45754],[-107.11972,38.45657],[-107.11926,38.45569],[-107.11893,38.45555],[-107.11922,38.45595],[-107.11926,38.45666],[-107.11893,38.45777],[-107.1198,38.45955],[-107.11971,38.46002],[-107.11922,38.46065],[-107.11747,38.46149],[-107.11666,38.46161],[-107.11561,38.46122],[-107.11408,38.46005],[-107.1138,38.45956],[-107.11328,38.45972],[-107.11227,38.45936],[-107.11106,38.4597],[-107.11058,38.45927],[-107.11006,38.4593],[-107.10973,38.45902],[-107.10986,38.46016],[-107.10925,38.46057],[-107.10849,38.46078],[-107.10907,38.46114],[-107.10899,38.46182],[-107.1079,38.46304],[-107.10739,38.46321],[-107.10783,38.46383],[-107.10768,38.46584],[-107.10625,38.46649],[-107.1057,38.46631],[-107.10585,38.46663],[-107.10566,38.46692],[-107.10615,38.4673],[-107.10615,38.4679],[-107.10541,38.46858],[-107.10479,38.46868],[-107.10472,38.46937],[-107.10311,38.47014],[-107.10305,38.47046],[-107.10222,38.47123],[-107.10148,38.47126],[-107.10179,38.47182],[-107.10143,38.47249],[-107.10088,38.47315],[-107.09958,38.47381],[-107.09732,38.47396],[-107.09618,38.47352],[-107.09504,38.47341],[-107.09402,38.47296],[-107.09386,38.47263],[-107.09353,38.47258],[-107.09278,38.4719],[-107.09311,38.4724],[-107.09307,38.47363],[-107.09228,38.47441],[-107.09131,38.47479],[-107.08498,38.47465],[-107.08366,38.4743],[-107.08241,38.47433],[-107.08041,38.47374],[-107.08007,38.47388],[-107.07948,38.47368],[-107.079,38.47378],[-107.07845,38.47345],[-107.07798,38.47341],[-107.07602,38.47346],[-107.07508,38.47329],[-107.07358,38.47356],[-107.07098,38.4732],[-107.06999,38.47331],[-107.0678,38.47409],[-107.06608,38.47529],[-107.06531,38.4774],[-107.06497,38.47754],[-107.06429,38.4773],[-107.06386,38.47753],[-107.06343,38.4781],[-107.06331,38.47885],[-107.06274,38.47906],[-107.06308,38.47953],[-107.06292,38.47992],[-107.06258,38.48004],[-107.06223,38.48081],[-107.0623,38.48144],[-107.06199,38.48236],[-107.06202,38.48295],[-107.0614,38.48453],[-107.06051,38.48571],[-107.05949,38.48652],[-107.05917,38.48746],[-107.05889,38.4874],[-107.05886,38.48707],[-107.05766,38.48721],[-107.05631,38.4871],[-107.05513,38.48631],[-107.05474,38.48572],[-107.05359,38.48489],[-107.05172,38.48402],[-107.05073,38.48399],[-107.04952,38.48441],[-107.04869,38.48552],[-107.04782,38.48601],[-107.04704,38.48587],[-107.04453,38.48453],[-107.04317,38.48447],[-107.04241,38.48402],[-107.04061,38.48582],[-107.04033,38.4868],[-107.03958,38.48745],[-107.03777,38.4877],[-107.03583,38.48695],[-107.03563,38.48724],[-107.03522,38.48732],[-107.03453,38.48782],[-107.03375,38.48794],[-107.03352,38.4883],[-107.03366,38.48899],[-107.03307,38.49008],[-107.03321,38.49016],[-107.03248,38.49115],[-107.03198,38.4925],[-107.03144,38.49282],[-107.02873,38.49353],[-107.02691,38.49459],[-107.02548,38.49657],[-107.02406,38.49807],[-107.0239,38.49833],[-107.02398,38.49889],[-107.02369,38.49927],[-107.02381,38.4994],[-107.02332,38.49993],[-107.02457,38.49982],[-107.02336,38.50104],[-107.02366,38.50116],[-107.02413,38.50074],[-107.02431,38.50082],[-107.02425,38.50187],[-107.02402,38.50249],[-107.02376,38.50265],[-107.02289,38.50256],[-107.02159,38.50195],[-107.02245,38.50263],[-107.02355,38.50296],[-107.02357,38.50322],[-107.02459,38.50301],[-107.02543,38.50167]],[[-107.23195,38.4686],[-107.23235,38.46889],[-107.23293,38.47039],[-107.23223,38.47123],[-107.23131,38.47172],[-107.23108,38.4712],[-107.23125,38.46984],[-107.2316,38.46886],[-107.23195,38.4686]],[[-107.10686,38.46874],[-107.10636,38.46859],[-107.10631,38.46801],[-107.1067,38.46767],[-107.10715,38.46758],[-107.10775,38.46782],[-107.10789,38.46812],[-107.10772,38.46836],[-107.10686,38.46874]],[[-107.10921,38.47753],[-107.10854,38.47717],[-107.10864,38.47654],[-107.10921,38.47657],[-107.10935,38.4773],[-107.10921,38.47753]],[[-107.23011,38.47346],[-107.22989,38.47323],[-107.23035,38.47312],[-107.2304,38.47331],[-107.23011,38.47346]],[[-107.02507,38.49793],[-107.02495,38.49764],[-107.02543,38.49797],[-107.02507,38.49793]]]},"properties":{"waterbody_id":"co_waterbody_blue_mesa_reservoir_14020002_001","water_id":"co_waterbody_blue_mesa_reservoir_14020002_001","occurrence_id":"co_waterbody_blue_mesa_reservoir_14020002_001","occurrence_number":"001","display_name":"Blue Mesa Reservoir","normalized_name":"blue mesa reservoir","mapped_name":"Blue Mesa Reservoir","source_name":"Blue Mesa Reservoir","disambiguator":"Upper Gunnison · reservoir","state":"CO","atlas_layer":"waterbody_object","object_role":"waterbody_object","atlas_class":"named_waterbody","waterbody_type":"reservoir","huc8":"14020002","huc8Name":"Upper Gunnison","huc8States":"CO","lineageKey":"coloradoRiver","lineage":"coloradoRiver","historic":"coloradoRiver","current":"coloradoRiver","recovery":"recoveryWatch","lineageLabel":"Colorado River green lineage","lineageBasin":"Upper Gunnison","lineageNote":"Gunnison green-lineage context","atlas_context":"cutthroat_lineage_context","area_sq_km":36.19344182,"elevation":2291.7912,"FType":390,"FCode":39009,"source_id":"120027765","bounds":{"west":-107.33466,"south":38.39145,"east":-107.02159,"north":38.52599},"confidence_public":"Watershed-level lineage context; expert review recommended","geometry_status_public":"Named waterbody polygon from public hydrography","geometry_source_public":"Public hydrography waterbody polygon","trout_source_public":"Compiled public recovery and lineage context; expert review recommended","public_notes":"Blue Mesa Reservoir is shown as a named waterbody within watershed-level cutthroat lineage context. This is not a precise biological boundary."}},{"type":"Feature","geometry":{"type":"Polygon","coordinates":[[[-107.04767,38.68907],[-107.04624,38.68855],[-107.04443,38.68864],[-107.04524,38.68905],[-107.04658,38.68928],[-107.04767,38.68907]]]},"properties":{"waterbody_id":"co_waterbody_cunningham_reservoir_14020002_001","water_id":"co_waterbody_cunningham_reservoir_14020002_001","occurrence_id":"co_waterbody_cunningham_reservoir_14020002_001","occurrence_number":"001","display_name":"Cunningham Reservoir","normalized_name":"cunningham reservoir","mapped_name":"Cunningham Reservoir","source_name":"Cunningham Reservoir","disambiguator":"Upper Gunnison · reservoir","state":"CO","atlas_layer":"waterbody_object","object_role":"waterbody_object","atlas_class":"named_waterbody","waterbody_type":"reservoir","huc8":"14020002","huc8Name":"Upper Gunnison","huc8States":"CO","lineageKey":"coloradoRiver","lineage":"coloradoRiver","historic":"coloradoRiver","current":"coloradoRiver","recovery":"recoveryWatch","lineageLabel":"Colorado River green lineage","lineageBasin":"Upper Gunnison","lineageNote":"Gunnison green-lineage context","atlas_context":"cutthroat_lineage_context","area_sq_km":0.015,"elevation":0,"FType":390,"FCode":39004,"source_id":"64476922","bounds":{"west":-107.04767,"south":38.68855,"east":-107.04443,"north":38.68928},"confidence_public":"Watershed-level lineage context; expert review recommended","geometry_status_public":"Named waterbody polygon from public hydrography","geometry_source_public":"Public hydrography waterbody polygon","trout_source_public":"Compiled public recovery and lineage context; expert review recommended","public_notes":"Cunningham Reservoir is shown as a named waterbody within watershed-level cutthroat lineage context. This is not a precise biological boundary."}},{"type":"Feature","geometry":{"type":"Polygon","coordinates":[[[-107.01449,38.66344],[-107.01467,38.66163],[-107.01417,38.66046],[-107.0142,38.65934],[-107.01392,38.6591],[-107.0109,38.65933],[-107.01171,38.66093],[-107.01232,38.66292],[-107.01242,38.66475],[-107.0132,38.6657],[-107.01426,38.66552],[-107.01474,38.6651],[-107.01449,38.66344]]]},"properties":{"waterbody_id":"co_waterbody_kenny_moore_reservoir_14020002_001","water_id":"co_waterbody_kenny_moore_reservoir_14020002_001","occurrence_id":"co_waterbody_kenny_moore_reservoir_14020002_001","occurrence_number":"001","display_name":"Kenny Moore Reservoir","normalized_name":"kenny moore reservoir","mapped_name":"Kenny Moore Reservoir","source_name":"Kenny Moore Reservoir","disambiguator":"Upper Gunnison · reservoir","state":"CO","atlas_layer":"waterbody_object","object_role":"waterbody_object","atlas_class":"named_waterbody","waterbody_type":"reservoir","huc8":"14020002","huc8Name":"Upper Gunnison","huc8States":"CO","lineageKey":"coloradoRiver","lineage":"coloradoRiver","historic":"coloradoRiver","current":"coloradoRiver","recovery":"recoveryWatch","lineageLabel":"Colorado River green lineage","lineageBasin":"Upper Gunnison","lineageNote":"Gunnison green-lineage context","atlas_context":"cutthroat_lineage_context","area_sq_km":0.15346887,"elevation":2645.0544,"FType":390,"FCode":39009,"source_id":"64476940","bounds":{"west":-107.01474,"south":38.6591,"east":-107.0109,"north":38.6657},"confidence_public":"Watershed-level lineage context; expert review recommended","geometry_status_public":"Named waterbody polygon from public hydrography","geometry_source_public":"Public hydrography waterbody polygon","trout_source_public":"Compiled public recovery and lineage context; expert review recommended","public_notes":"Kenny Moore Reservoir is shown as a named waterbody within watershed-level cutthroat lineage context. This is not a precise biological boundary."}}]}