{"type":"FeatureCollection","metadata":{"source":"C:\\ct-atlas-data\\processed\\geojson\\interpreted\\colorado_waterbody_objects_v1.geojson","type":"colorado-waterbody-object-v1-tile","tile_size_degrees":0.25,"x":-415,"y":155,"bounds":{"west":-103.75,"south":38.75,"east":-103.5,"north":39}},"features":[{"type":"Feature","geometry":{"type":"Polygon","coordinates":[[[-103.50353,38.92676],[-103.50352,38.9247],[-103.50436,38.92461],[-103.50451,38.92425],[-103.5042,38.9235],[-103.50362,38.92302],[-103.50315,38.92317],[-103.5028,38.92355],[-103.50217,38.92436],[-103.50215,38.92503],[-103.50143,38.92546],[-103.50237,38.9263],[-103.50288,38.92721],[-103.50353,38.92676]]]},"properties":{"waterbody_id":"co_waterbody_beckman_lake_11020012_001","water_id":"co_waterbody_beckman_lake_11020012_001","occurrence_id":"co_waterbody_beckman_lake_11020012_001","occurrence_number":"001","display_name":"Beckman Lake","normalized_name":"beckman lake","mapped_name":"Beckman Lake","source_name":"Beckman Lake","disambiguator":"Rush · lake · occurrence 001","state":"CO","atlas_layer":"waterbody_object","object_role":"waterbody_object","atlas_class":"named_waterbody","waterbody_type":"lake","huc8":"11020012","huc8Name":"Rush","huc8States":"CO","lineageKey":"statewideContext","lineage":"statewideContext","historic":"statewideContext","current":"statewideContext","recovery":"statewideContext","lineageLabel":"Statewide Colorado hydrography context","lineageBasin":"","lineageNote":"","atlas_context":"statewide_hydrography_context","area_sq_km":0.06,"elevation":0,"FType":390,"FCode":39001,"source_id":"40466583","bounds":{"west":-103.50451,"south":38.92302,"east":-103.50143,"north":38.92721},"confidence_public":"Statewide hydrography context outside current cutthroat lineage model","geometry_status_public":"Named waterbody polygon from public hydrography","geometry_source_public":"Public hydrography waterbody polygon","trout_source_public":"Included for Colorado statewide hydrography completeness","public_notes":"Beckman Lake is shown as statewide Colorado hydrography context outside the current cutthroat lineage assignment set."}},{"type":"Feature","geometry":{"type":"Polygon","coordinates":[[[-103.52748,38.92856],[-103.52808,38.92865],[-103.52875,38.92844],[-103.53044,38.92736],[-103.53093,38.92678],[-103.53116,38.92606],[-103.53066,38.92573],[-103.5307,38.9254],[-103.52947,38.92381],[-103.52705,38.92434],[-103.52564,38.92529],[-103.52514,38.92775],[-103.52664,38.92802],[-103.52748,38.92856]]]},"properties":{"waterbody_id":"co_waterbody_beckman_lake_11020012_002","water_id":"co_waterbody_beckman_lake_11020012_002","occurrence_id":"co_waterbody_beckman_lake_11020012_002","occurrence_number":"002","display_name":"Beckman Lake","normalized_name":"beckman lake","mapped_name":"Beckman Lake","source_name":"Beckman Lake","disambiguator":"Rush · lake · occurrence 002","state":"CO","atlas_layer":"waterbody_object","object_role":"waterbody_object","atlas_class":"named_waterbody","waterbody_type":"lake","huc8":"11020012","huc8Name":"Rush","huc8States":"CO","lineageKey":"statewideContext","lineage":"statewideContext","historic":"statewideContext","current":"statewideContext","recovery":"statewideContext","lineageLabel":"Statewide Colorado hydrography context","lineageBasin":"","lineageNote":"","atlas_context":"statewide_hydrography_context","area_sq_km":0.19,"elevation":0,"FType":390,"FCode":39006,"source_id":"bf19ce7f-daf9-4590-b066-69ed168b5bbe","bounds":{"west":-103.53116,"south":38.92381,"east":-103.52514,"north":38.92865},"confidence_public":"Statewide hydrography context outside current cutthroat lineage model","geometry_status_public":"Named waterbody polygon from public hydrography","geometry_source_public":"Public hydrography waterbody polygon","trout_source_public":"Included for Colorado statewide hydrography completeness","public_notes":"Beckman Lake is shown as statewide Colorado hydrography context outside the current cutthroat lineage assignment set."}}]}