{"type":"FeatureCollection","metadata":{"source":"C:\\ct-atlas-data\\processed\\geojson\\interpreted\\colorado_waterbody_objects_v1.geojson","type":"colorado-waterbody-object-v1-tile","tile_size_degrees":0.25,"x":-414,"y":163,"bounds":{"west":-103.5,"south":40.75,"east":-103.25,"north":41}},"features":[{"type":"Feature","geometry":{"type":"Polygon","coordinates":[[[-103.30953,40.81218],[-103.31225,40.81429],[-103.31285,40.81456],[-103.31066,40.81204],[-103.31075,40.81185],[-103.3111,40.8123],[-103.31145,40.8124],[-103.31118,40.81206],[-103.31015,40.80907],[-103.31143,40.80879],[-103.30842,40.80865],[-103.307,40.80897],[-103.30489,40.8085],[-103.30458,40.80807],[-103.30449,40.80757],[-103.30513,40.80714],[-103.30504,40.80678],[-103.30282,40.80529],[-103.30161,40.80289],[-103.30059,40.80189],[-103.29883,40.80059],[-103.29885,40.79975],[-103.29906,40.79953],[-103.30101,40.79909],[-103.29997,40.79894],[-103.29968,40.79849],[-103.29924,40.79894],[-103.29878,40.7989],[-103.29827,40.79916],[-103.29767,40.80003],[-103.29706,40.80019],[-103.29592,40.79988],[-103.29552,40.79944],[-103.29481,40.7992],[-103.29203,40.79922],[-103.29096,40.79888],[-103.28924,40.79712],[-103.28938,40.79673],[-103.29078,40.79682],[-103.2931,40.79773],[-103.29325,40.79761],[-103.29152,40.79537],[-103.29076,40.79506],[-103.28944,40.79401],[-103.28909,40.79306],[-103.28928,40.7918],[-103.29038,40.79145],[-103.28887,40.79077],[-103.28861,40.78994],[-103.28803,40.78975],[-103.28771,40.78941],[-103.28689,40.78763],[-103.28703,40.7874],[-103.28768,40.78722],[-103.2869,40.78663],[-103.28683,40.78603],[-103.28625,40.78649],[-103.28588,40.78646],[-103.2829,40.78311],[-103.28101,40.78293],[-103.28027,40.78261],[-103.27965,40.78323],[-103.2792,40.78315],[-103.27866,40.78274],[-103.27885,40.78203],[-103.28048,40.78165],[-103.28116,40.78182],[-103.28178,40.78152],[-103.2835,40.78189],[-103.2834,40.78095],[-103.2846,40.78185],[-103.28599,40.7815],[-103.28649,40.78149],[-103.287,40.78176],[-103.28657,40.78092],[-103.28688,40.78082],[-103.28858,40.78128],[-103.28868,40.78179],[-103.28935,40.78191],[-103.28941,40.78276],[-103.29,40.78294],[-103.28985,40.78332],[-103.29021,40.78332],[-103.2911,40.78383],[-103.29074,40.78299],[-103.29086,40.78229],[-103.2907,40.7818],[-103.29121,40.78139],[-103.29218,40.7814],[-103.29161,40.781],[-103.29147,40.78059],[-103.29102,40.78083],[-103.2907,40.78063],[-103.2902,40.78067],[-103.29006,40.77958],[-103.28915,40.77977],[-103.28888,40.77948],[-103.28953,40.77852],[-103.28945,40.77786],[-103.29036,40.77668],[-103.2904,40.77571],[-103.29069,40.77568],[-103.29183,40.77654],[-103.29204,40.77653],[-103.29188,40.77511],[-103.29144,40.77353],[-103.29243,40.77313],[-103.29281,40.77323],[-103.29306,40.77359],[-103.29284,40.77486],[-103.29452,40.7773],[-103.29518,40.7777],[-103.29712,40.77806],[-103.29791,40.77791],[-103.29934,40.77837],[-103.29999,40.77934],[-103.30005,40.78054],[-103.30069,40.78075],[-103.30046,40.77985],[-103.30052,40.77934],[-103.3016,40.77869],[-103.30238,40.77887],[-103.30298,40.77875],[-103.30828,40.77981],[-103.30938,40.77983],[-103.31018,40.78048],[-103.31036,40.78098],[-103.31127,40.78093],[-103.31279,40.78191],[-103.31341,40.78253],[-103.31347,40.783],[-103.31413,40.78296],[-103.31915,40.78469],[-103.32024,40.78481],[-103.32228,40.78455],[-103.32319,40.78485],[-103.32368,40.7848],[-103.32438,40.78564],[-103.32462,40.78523],[-103.32505,40.78515],[-103.32553,40.78534],[-103.32579,40.78572],[-103.32677,40.78537],[-103.33017,40.78546],[-103.33209,40.78509],[-103.33255,40.7846],[-103.3327,40.78369],[-103.33247,40.78337],[-103.3315,40.78279],[-103.33122,40.78207],[-103.33141,40.78126],[-103.33206,40.78107],[-103.33267,40.78135],[-103.33393,40.7824],[-103.33492,40.7826],[-103.33539,40.7829],[-103.33628,40.7847],[-103.33646,40.7856],[-103.33732,40.78694],[-103.33676,40.78437],[-103.33577,40.78217],[-103.33507,40.78182],[-103.33385,40.78176],[-103.33333,40.78098],[-103.3326,40.78046],[-103.33159,40.78053],[-103.33035,40.78096],[-103.33013,40.78282],[-103.33047,40.78362],[-103.32983,40.78398],[-103.32908,40.78353],[-103.32682,40.78289],[-103.32571,40.78293],[-103.32469,40.78247],[-103.3241,40.7819],[-103.3244,40.78137],[-103.32404,40.7813],[-103.32388,40.78105],[-103.32376,40.78141],[-103.32338,40.78158],[-103.32213,40.78104],[-103.32106,40.781],[-103.32021,40.78067],[-103.31983,40.78109],[-103.31805,40.78119],[-103.31602,40.78068],[-103.31557,40.78018],[-103.31491,40.77996],[-103.31423,40.77932],[-103.31365,40.77835],[-103.31336,40.77695],[-103.31346,40.77648],[-103.31276,40.77579],[-103.313,40.77542],[-103.31281,40.77483],[-103.31219,40.77491],[-103.31204,40.77446],[-103.31129,40.77379],[-103.31105,40.77331],[-103.31013,40.77264],[-103.3112,40.77188],[-103.31173,40.77173],[-103.31268,40.77179],[-103.31495,40.77256],[-103.31525,40.77252],[-103.31519,40.77223],[-103.31546,40.7722],[-103.31691,40.77287],[-103.31752,40.77275],[-103.31735,40.77243],[-103.31814,40.7721],[-103.32043,40.77236],[-103.32128,40.77204],[-103.31978,40.77208],[-103.31853,40.77174],[-103.31666,40.772],[-103.31633,40.77179],[-103.31516,40.77168],[-103.3148,40.77132],[-103.31439,40.77149],[-103.314,40.77141],[-103.31315,40.77094],[-103.31287,40.77042],[-103.31237,40.77024],[-103.31196,40.76977],[-103.31149,40.77044],[-103.31116,40.77036],[-103.3106,40.76977],[-103.31033,40.77033],[-103.30956,40.77045],[-103.30891,40.77033],[-103.30717,40.76944],[-103.3067,40.76858],[-103.3066,40.76705],[-103.30554,40.76607],[-103.30533,40.76482],[-103.30555,40.76409],[-103.30658,40.76342],[-103.30661,40.76276],[-103.30613,40.76208],[-103.30621,40.76177],[-103.30686,40.76137],[-103.30785,40.7614],[-103.30793,40.76123],[-103.30727,40.75982],[-103.30627,40.75879],[-103.30591,40.75776],[-103.30575,40.75801],[-103.30587,40.75877],[-103.30654,40.76012],[-103.3065,40.76054],[-103.30462,40.7614],[-103.30424,40.76123],[-103.30327,40.76014],[-103.30224,40.75762],[-103.30208,40.7564],[-103.30182,40.75767],[-103.3029,40.76243],[-103.30253,40.76339],[-103.30185,40.76374],[-103.29766,40.76291],[-103.29678,40.76248],[-103.29639,40.7616],[-103.29674,40.76033],[-103.29552,40.75825],[-103.29515,40.75797],[-103.29583,40.75972],[-103.29571,40.76091],[-103.29452,40.76175],[-103.29278,40.76163],[-103.29151,40.76012],[-103.29095,40.75913],[-103.28837,40.75723],[-103.2864,40.75483],[-103.28612,40.75509],[-103.28555,40.75667],[-103.28502,40.75741],[-103.28175,40.75911],[-103.28057,40.76054],[-103.27997,40.76088],[-103.27925,40.76095],[-103.27721,40.76023],[-103.27502,40.75878],[-103.27605,40.7619],[-103.27589,40.7626],[-103.27554,40.76287],[-103.27483,40.76287],[-103.27422,40.76257],[-103.27091,40.75958],[-103.26929,40.75916],[-103.26929,40.7593],[-103.27107,40.75991],[-103.27261,40.76172],[-103.27448,40.76327],[-103.27503,40.76357],[-103.27636,40.7637],[-103.2769,40.76398],[-103.27799,40.76524],[-103.27842,40.76612],[-103.27973,40.76675],[-103.28035,40.76788],[-103.28162,40.76876],[-103.28188,40.76937],[-103.28175,40.76959],[-103.2811,40.76985],[-103.27963,40.76988],[-103.27999,40.77044],[-103.27991,40.77082],[-103.27958,40.77112],[-103.27871,40.77128],[-103.27613,40.77056],[-103.27507,40.76975],[-103.27388,40.76976],[-103.27276,40.76921],[-103.27358,40.77146],[-103.27316,40.77303],[-103.27383,40.77368],[-103.27386,40.77443],[-103.27327,40.77508],[-103.27254,40.7748],[-103.27232,40.77621],[-103.27181,40.77682],[-103.27141,40.77667],[-103.2715,40.77536],[-103.27114,40.77498],[-103.27015,40.77491],[-103.26947,40.77508],[-103.26916,40.77536],[-103.26649,40.78548],[-103.26742,40.78833],[-103.26585,40.78887],[-103.26595,40.7893],[-103.26706,40.78932],[-103.26686,40.78954],[-103.2668,40.79055],[-103.26582,40.7908],[-103.26637,40.79116],[-103.26614,40.7919],[-103.26653,40.79224],[-103.26662,40.79259],[-103.26626,40.7933],[-103.26621,40.79414],[-103.26593,40.79456],[-103.2668,40.79397],[-103.26709,40.79396],[-103.26798,40.7923],[-103.26857,40.79211],[-103.26909,40.79273],[-103.26968,40.79306],[-103.2703,40.79409],[-103.27049,40.79473],[-103.27039,40.7956],[-103.27131,40.79673],[-103.2719,40.79701],[-103.27263,40.79784],[-103.27323,40.79821],[-103.27301,40.7976],[-103.27258,40.79714],[-103.27232,40.79622],[-103.2724,40.79574],[-103.27209,40.79496],[-103.27211,40.79327],[-103.27133,40.7919],[-103.27077,40.79141],[-103.2704,40.7905],[-103.27043,40.78927],[-103.27105,40.7891],[-103.27196,40.78958],[-103.27329,40.7898],[-103.27414,40.7915],[-103.27498,40.79101],[-103.27544,40.79104],[-103.27609,40.79141],[-103.27646,40.79061],[-103.27744,40.79043],[-103.27888,40.79138],[-103.27921,40.79036],[-103.27974,40.79013],[-103.28069,40.7902],[-103.28127,40.79076],[-103.28148,40.79123],[-103.28143,40.79363],[-103.28225,40.79573],[-103.2823,40.79661],[-103.28206,40.79699],[-103.28235,40.79775],[-103.28228,40.79839],[-103.28305,40.79851],[-103.28318,40.79939],[-103.28373,40.80018],[-103.28446,40.80066],[-103.28535,40.80192],[-103.28508,40.80352],[-103.28533,40.80412],[-103.28515,40.80464],[-103.28523,40.80527],[-103.28445,40.80599],[-103.28516,40.80616],[-103.28569,40.80695],[-103.28567,40.80592],[-103.28607,40.80522],[-103.28656,40.8052],[-103.28721,40.80572],[-103.28658,40.80439],[-103.28666,40.80341],[-103.28689,40.80291],[-103.28744,40.80273],[-103.28975,40.8032],[-103.29046,40.80359],[-103.29326,40.80654],[-103.29376,40.80675],[-103.29416,40.80732],[-103.29546,40.8083],[-103.29649,40.80969],[-103.29481,40.80612],[-103.29346,40.80407],[-103.29377,40.80393],[-103.29489,40.80444],[-103.29558,40.805],[-103.29698,40.80498],[-103.29825,40.80539],[-103.29965,40.80768],[-103.30286,40.80988],[-103.30725,40.81091],[-103.30825,40.81067],[-103.30893,40.81113],[-103.30953,40.81218]]]},"properties":{"waterbody_id":"co_waterbody_north_sterling_reservoir_10190012_001","water_id":"co_waterbody_north_sterling_reservoir_10190012_001","occurrence_id":"co_waterbody_north_sterling_reservoir_10190012_001","occurrence_number":"001","display_name":"North Sterling Reservoir","normalized_name":"north sterling reservoir","mapped_name":"North Sterling Reservoir","source_name":"North Sterling Reservoir","disambiguator":"Middle South Platte-Sterling · reservoir","state":"CO","atlas_layer":"waterbody_object","object_role":"waterbody_object","atlas_class":"named_waterbody","waterbody_type":"reservoir","huc8":"10190012","huc8Name":"Middle South Platte-Sterling","huc8States":"CO,NE","lineageKey":"statewideContext","lineage":"statewideContext","historic":"statewideContext","current":"statewideContext","recovery":"statewideContext","lineageLabel":"Statewide Colorado hydrography context","lineageBasin":"","lineageNote":"","atlas_context":"statewide_hydrography_context","area_sq_km":10.723595,"elevation":1240.2,"FType":390,"FCode":39009,"source_id":"126891289","bounds":{"west":-103.33732,"south":40.75483,"east":-103.26582,"north":40.81456},"confidence_public":"Statewide hydrography context outside current cutthroat lineage model","geometry_status_public":"Named waterbody polygon from public hydrography","geometry_source_public":"Public hydrography waterbody polygon","trout_source_public":"Included for Colorado statewide hydrography completeness","public_notes":"North Sterling Reservoir is shown as statewide Colorado hydrography context outside the current cutthroat lineage assignment set."}}]}