{"type":"FeatureCollection","metadata":{"source":"C:\\ct-atlas-data\\processed\\geojson\\interpreted\\colorado_waterbody_objects_v1.geojson","type":"colorado-waterbody-object-v1-tile","tile_size_degrees":0.25,"x":-421,"y":154,"bounds":{"west":-105.25,"south":38.5,"east":-105,"north":38.75}},"features":[{"type":"Feature","geometry":{"type":"Polygon","coordinates":[[[-105.04746,38.69637],[-105.0476,38.69693],[-105.04824,38.69733],[-105.04826,38.69786],[-105.0486,38.69853],[-105.05013,38.69961],[-105.05013,38.69991],[-105.05078,38.70035],[-105.05094,38.70118],[-105.05184,38.70227],[-105.05311,38.70293],[-105.05369,38.70269],[-105.05378,38.70104],[-105.05349,38.69993],[-105.05244,38.69922],[-105.05073,38.69671],[-105.05162,38.69638],[-105.05299,38.69634],[-105.05238,38.69606],[-105.05059,38.69607],[-105.05044,38.69537],[-105.05077,38.69479],[-105.05067,38.69437],[-105.05089,38.69327],[-105.0514,38.69214],[-105.05204,38.68974],[-105.05241,38.68946],[-105.05419,38.68973],[-105.0544,38.68959],[-105.05426,38.68932],[-105.05217,38.68846],[-105.05202,38.68823],[-105.05088,38.68765],[-105.05019,38.68811],[-105.04939,38.68906],[-105.04878,38.68929],[-105.04874,38.68943],[-105.04949,38.68979],[-105.04971,38.69026],[-105.04923,38.69095],[-105.04864,38.69122],[-105.04875,38.69171],[-105.0478,38.69286],[-105.04704,38.69436],[-105.04708,38.69603],[-105.04746,38.69637]]]},"properties":{"waterbody_id":"co_waterbody_skagway_reservoir_11020002_001","water_id":"co_waterbody_skagway_reservoir_11020002_001","occurrence_id":"co_waterbody_skagway_reservoir_11020002_001","occurrence_number":"001","display_name":"Skagway Reservoir","normalized_name":"skagway reservoir","mapped_name":"Skagway Reservoir","source_name":"Skagway Reservoir","disambiguator":"Upper Arkansas · reservoir","state":"CO","atlas_layer":"waterbody_object","object_role":"waterbody_object","atlas_class":"named_waterbody","waterbody_type":"reservoir","huc8":"11020002","huc8Name":"Upper Arkansas","huc8States":"CO","lineageKey":"yellowfin","lineage":"yellowfin","historic":"yellowfin","current":"yellowfin","recovery":"recoveryWatch","lineageLabel":"Yellowfin / Arkansas headwaters historical form","lineageBasin":"Upper Arkansas","lineageNote":"Atlas model treats Arkansas watershed as Yellowfin historical context","atlas_context":"cutthroat_lineage_context","area_sq_km":0.44128984,"elevation":0,"FType":390,"FCode":39004,"source_id":"127979528","bounds":{"west":-105.0544,"south":38.68765,"east":-105.04704,"north":38.70293},"confidence_public":"Watershed-level lineage context; expert review recommended","geometry_status_public":"Named waterbody polygon from public hydrography","geometry_source_public":"Public hydrography waterbody polygon","trout_source_public":"Compiled public recovery and lineage context; expert review recommended","public_notes":"Skagway Reservoir is shown as a named waterbody within watershed-level cutthroat lineage context. This is not a precise biological boundary."}},{"type":"Feature","geometry":{"type":"Polygon","coordinates":[[[-105.07404,38.72537],[-105.07467,38.72577],[-105.07515,38.72715],[-105.0766,38.72712],[-105.07726,38.72681],[-105.07724,38.72627],[-105.07577,38.72405],[-105.07566,38.72305],[-105.07545,38.72283],[-105.07415,38.72294],[-105.07311,38.72361],[-105.0731,38.72386],[-105.07372,38.7243],[-105.07404,38.72537]]]},"properties":{"waterbody_id":"co_waterbody_pringtime_reservoir_11020002_001","water_id":"co_waterbody_pringtime_reservoir_11020002_001","occurrence_id":"co_waterbody_pringtime_reservoir_11020002_001","occurrence_number":"001","display_name":"Pringtime Reservoir","normalized_name":"pringtime reservoir","mapped_name":"Pringtime Reservoir","source_name":"Pringtime Reservoir","disambiguator":"Upper Arkansas · reservoir","state":"CO","atlas_layer":"waterbody_object","object_role":"waterbody_object","atlas_class":"named_waterbody","waterbody_type":"reservoir","huc8":"11020002","huc8Name":"Upper Arkansas","huc8States":"CO","lineageKey":"yellowfin","lineage":"yellowfin","historic":"yellowfin","current":"yellowfin","recovery":"recoveryWatch","lineageLabel":"Yellowfin / Arkansas headwaters historical form","lineageBasin":"Upper Arkansas","lineageNote":"Atlas model treats Arkansas watershed as Yellowfin historical context","atlas_context":"cutthroat_lineage_context","area_sq_km":0.094,"elevation":0,"FType":390,"FCode":39004,"source_id":"127979363","bounds":{"west":-105.07726,"south":38.72283,"east":-105.0731,"north":38.72715},"confidence_public":"Watershed-level lineage context; expert review recommended","geometry_status_public":"Named waterbody polygon from public hydrography","geometry_source_public":"Public hydrography waterbody polygon","trout_source_public":"Compiled public recovery and lineage context; expert review recommended","public_notes":"Pringtime Reservoir is shown as a named waterbody within watershed-level cutthroat lineage context. This is not a precise biological boundary."}}]}