{"type":"FeatureCollection","metadata":{"source":"C:\\ct-atlas-data\\processed\\geojson\\interpreted\\colorado_waterbody_objects_v1.geojson","type":"colorado-waterbody-object-v1-tile","tile_size_degrees":0.25,"x":-427,"y":149,"bounds":{"west":-106.75,"south":37.25,"east":-106.5,"north":37.5}},"features":[{"type":"Feature","geometry":{"type":"Polygon","coordinates":[[[-106.59283,37.34645],[-106.59304,37.34629],[-106.59296,37.34611],[-106.59281,37.34621],[-106.59283,37.34645]]]},"properties":{"waterbody_id":"co_waterbody_hilman_park_13010005_001","water_id":"co_waterbody_hilman_park_13010005_001","occurrence_id":"co_waterbody_hilman_park_13010005_001","occurrence_number":"001","display_name":"Hilman Park","normalized_name":"hilman park","mapped_name":"Hilman Park","source_name":"Hilman Park","disambiguator":"Conejos · lake_or_pond","state":"CO","atlas_layer":"waterbody_object","object_role":"waterbody_object","atlas_class":"named_waterbody","waterbody_type":"lake_or_pond","huc8":"13010005","huc8Name":"Conejos","huc8States":"CO,NM","lineageKey":"rioGrande","lineage":"rioGrande","historic":"rioGrande","current":"rioGrande","recovery":"recoveryWatch","lineageLabel":"Rio Grande lineage","lineageBasin":"Conejos","lineageNote":"Generalized Rio Grande cutthroat drainage context","atlas_context":"cutthroat_lineage_context","area_sq_km":0.001,"elevation":0,"FType":390,"FCode":39004,"source_id":"133157159","bounds":{"west":-106.59304,"south":37.34611,"east":-106.59281,"north":37.34645},"confidence_public":"Watershed-level lineage context; expert review recommended","geometry_status_public":"Named waterbody polygon from public hydrography","geometry_source_public":"Public hydrography waterbody polygon","trout_source_public":"Compiled public recovery and lineage context; expert review recommended","public_notes":"Hilman Park is shown as a named waterbody within watershed-level cutthroat lineage context. This is not a precise biological boundary."}},{"type":"Feature","geometry":{"type":"Polygon","coordinates":[[[-106.57937,37.26717],[-106.57902,37.26704],[-106.57882,37.26734],[-106.57824,37.26693],[-106.57753,37.2671],[-106.57711,37.26697],[-106.57669,37.26735],[-106.57724,37.26782],[-106.57845,37.26804],[-106.57929,37.2677],[-106.57937,37.26717]]]},"properties":{"waterbody_id":"co_waterbody_twin_lakes_13010005_001","water_id":"co_waterbody_twin_lakes_13010005_001","occurrence_id":"co_waterbody_twin_lakes_13010005_001","occurrence_number":"001","display_name":"Twin Lakes","normalized_name":"twin lakes","mapped_name":"Twin Lakes","source_name":"Twin Lakes","disambiguator":"Conejos · lake · occurrence 001","state":"CO","atlas_layer":"waterbody_object","object_role":"waterbody_object","atlas_class":"named_waterbody","waterbody_type":"lake","huc8":"13010005","huc8Name":"Conejos","huc8States":"CO,NM","lineageKey":"rioGrande","lineage":"rioGrande","historic":"rioGrande","current":"rioGrande","recovery":"recoveryWatch","lineageLabel":"Rio Grande lineage","lineageBasin":"Conejos","lineageNote":"Generalized Rio Grande cutthroat drainage context","atlas_context":"cutthroat_lineage_context","area_sq_km":0.021,"elevation":0,"FType":390,"FCode":39004,"source_id":"133157311","bounds":{"west":-106.57937,"south":37.26693,"east":-106.57669,"north":37.26804},"confidence_public":"Watershed-level lineage context; expert review recommended","geometry_status_public":"Named waterbody polygon from public hydrography","geometry_source_public":"Public hydrography waterbody polygon","trout_source_public":"Compiled public recovery and lineage context; expert review recommended","public_notes":"Twin Lakes is shown as a named waterbody within watershed-level cutthroat lineage context. This is not a precise biological boundary."}},{"type":"Feature","geometry":{"type":"Polygon","coordinates":[[[-106.59041,37.42863],[-106.58868,37.42875],[-106.58814,37.42972],[-106.58904,37.42993],[-106.59044,37.42906],[-106.59041,37.42863]]]},"properties":{"waterbody_id":"co_waterbody_summitville_tailings_pond_13010002_001","water_id":"co_waterbody_summitville_tailings_pond_13010002_001","occurrence_id":"co_waterbody_summitville_tailings_pond_13010002_001","occurrence_number":"001","display_name":"Summitville Tailings Pond","normalized_name":"summitville tailings pond","mapped_name":"Summitville Tailings Pond","source_name":"Summitville Tailings Pond","disambiguator":"Alamosa-Trinchera · pond","state":"CO","atlas_layer":"waterbody_object","object_role":"waterbody_object","atlas_class":"named_waterbody","waterbody_type":"pond","huc8":"13010002","huc8Name":"Alamosa-Trinchera","huc8States":"CO,NM","lineageKey":"rioGrande","lineage":"rioGrande","historic":"rioGrande","current":"rioGrande","recovery":"recoveryWatch","lineageLabel":"Rio Grande lineage","lineageBasin":"Alamosa-Trinchera","lineageNote":"Generalized Rio Grande cutthroat drainage context","atlas_context":"cutthroat_lineage_context","area_sq_km":0.02,"elevation":0,"FType":390,"FCode":39004,"source_id":"136496291","bounds":{"west":-106.59044,"south":37.42863,"east":-106.58814,"north":37.42993},"confidence_public":"Watershed-level lineage context; expert review recommended","geometry_status_public":"Named waterbody polygon from public hydrography","geometry_source_public":"Public hydrography waterbody polygon","trout_source_public":"Compiled public recovery and lineage context; expert review recommended","public_notes":"Summitville Tailings Pond is shown as a named waterbody within watershed-level cutthroat lineage context. This is not a precise biological boundary."}},{"type":"Feature","geometry":{"type":"Polygon","coordinates":[[[-106.51349,37.38395],[-106.51324,37.38418],[-106.51332,37.38532],[-106.51188,37.3857],[-106.51089,37.38673],[-106.51082,37.38702],[-106.51116,37.38718],[-106.51271,37.38695],[-106.51344,37.38704],[-106.5144,37.38778],[-106.51502,37.38731],[-106.51611,37.38733],[-106.51774,37.38659],[-106.51783,37.38631],[-106.51746,37.38553],[-106.51666,37.38474],[-106.51591,37.38458],[-106.51527,37.38403],[-106.51467,37.38409],[-106.51424,37.38386],[-106.51349,37.38395]]]},"properties":{"waterbody_id":"co_waterbody_kerr_lake_13010002_001","water_id":"co_waterbody_kerr_lake_13010002_001","occurrence_id":"co_waterbody_kerr_lake_13010002_001","occurrence_number":"001","display_name":"Kerr Lake","normalized_name":"kerr lake","mapped_name":"Kerr Lake","source_name":"Kerr Lake","disambiguator":"Alamosa-Trinchera · lake","state":"CO","atlas_layer":"waterbody_object","object_role":"waterbody_object","atlas_class":"named_waterbody","waterbody_type":"lake","huc8":"13010002","huc8Name":"Alamosa-Trinchera","huc8States":"CO,NM","lineageKey":"rioGrande","lineage":"rioGrande","historic":"rioGrande","current":"rioGrande","recovery":"recoveryWatch","lineageLabel":"Rio Grande lineage","lineageBasin":"Alamosa-Trinchera","lineageNote":"Generalized Rio Grande cutthroat drainage context","atlas_context":"cutthroat_lineage_context","area_sq_km":0.15,"elevation":0,"FType":390,"FCode":39004,"source_id":"136496582","bounds":{"west":-106.51783,"south":37.38386,"east":-106.51082,"north":37.38778},"confidence_public":"Watershed-level lineage context; expert review recommended","geometry_status_public":"Named waterbody polygon from public hydrography","geometry_source_public":"Public hydrography waterbody polygon","trout_source_public":"Compiled public recovery and lineage context; expert review recommended","public_notes":"Kerr Lake is shown as a named waterbody within watershed-level cutthroat lineage context. This is not a precise biological boundary."}},{"type":"Feature","geometry":{"type":"Polygon","coordinates":[[[-106.59309,37.35128],[-106.59333,37.35155],[-106.59394,37.3516],[-106.59424,37.35096],[-106.59359,37.35053],[-106.59325,37.35052],[-106.59309,37.35128]]]},"properties":{"waterbody_id":"co_waterbody_hilman_lake_13010002_001","water_id":"co_waterbody_hilman_lake_13010002_001","occurrence_id":"co_waterbody_hilman_lake_13010002_001","occurrence_number":"001","display_name":"Hilman Lake","normalized_name":"hilman lake","mapped_name":"Hilman Lake","source_name":"Hilman Lake","disambiguator":"Alamosa-Trinchera · lake","state":"CO","atlas_layer":"waterbody_object","object_role":"waterbody_object","atlas_class":"named_waterbody","waterbody_type":"lake","huc8":"13010002","huc8Name":"Alamosa-Trinchera","huc8States":"CO,NM","lineageKey":"rioGrande","lineage":"rioGrande","historic":"rioGrande","current":"rioGrande","recovery":"recoveryWatch","lineageLabel":"Rio Grande lineage","lineageBasin":"Alamosa-Trinchera","lineageNote":"Generalized Rio Grande cutthroat drainage context","atlas_context":"cutthroat_lineage_context","area_sq_km":0.01,"elevation":0,"FType":390,"FCode":39004,"source_id":"136496793","bounds":{"west":-106.59424,"south":37.35052,"east":-106.59309,"north":37.3516},"confidence_public":"Watershed-level lineage context; expert review recommended","geometry_status_public":"Named waterbody polygon from public hydrography","geometry_source_public":"Public hydrography waterbody polygon","trout_source_public":"Compiled public recovery and lineage context; expert review recommended","public_notes":"Hilman Lake is shown as a named waterbody within watershed-level cutthroat lineage context. This is not a precise biological boundary."}},{"type":"Feature","geometry":{"type":"Polygon","coordinates":[[[-106.54585,37.34913],[-106.54552,37.34998],[-106.54683,37.35062],[-106.54732,37.35058],[-106.54659,37.35036],[-106.54662,37.35014],[-106.5473,37.34954],[-106.54799,37.34929],[-106.54818,37.34979],[-106.5478,37.35024],[-106.55011,37.35052],[-106.55022,37.35026],[-106.54992,37.34918],[-106.55015,37.34823],[-106.55115,37.34699],[-106.55295,37.3461],[-106.55355,37.34533],[-106.55406,37.34506],[-106.55712,37.3439],[-106.56083,37.34356],[-106.56192,37.34309],[-106.56332,37.34295],[-106.56736,37.34158],[-106.5692,37.34143],[-106.57222,37.34014],[-106.57352,37.3392],[-106.5741,37.33823],[-106.57476,37.33759],[-106.57595,37.33765],[-106.57766,37.33636],[-106.57832,37.33548],[-106.57835,37.3348],[-106.57805,37.33411],[-106.57838,37.33359],[-106.57771,37.33376],[-106.57761,37.33335],[-106.57703,37.33332],[-106.57599,37.33288],[-106.57279,37.33207],[-106.57007,37.33317],[-106.56844,37.33321],[-106.56749,37.33357],[-106.56644,37.33343],[-106.56525,37.33447],[-106.56397,37.33497],[-106.56172,37.33669],[-106.56112,37.33788],[-106.56174,37.33933],[-106.56143,37.33972],[-106.56089,37.33995],[-106.55948,37.33971],[-106.5565,37.33989],[-106.55583,37.34024],[-106.55516,37.34111],[-106.55396,37.34186],[-106.55385,37.3421],[-106.55413,37.34255],[-106.55225,37.3437],[-106.55169,37.34394],[-106.55006,37.34345],[-106.54935,37.34364],[-106.54864,37.34444],[-106.54789,37.34612],[-106.54699,37.34688],[-106.5467,37.34812],[-106.54585,37.34913]],[[-106.57653,37.33502],[-106.57641,37.33522],[-106.57615,37.33491],[-106.57622,37.33487],[-106.57653,37.33502]],[[-106.57737,37.33504],[-106.57729,37.33489],[-106.57743,37.33473],[-106.57755,37.33484],[-106.57737,37.33504]]]},"properties":{"waterbody_id":"co_waterbody_platoro_reservoir_13010005_001","water_id":"co_waterbody_platoro_reservoir_13010005_001","occurrence_id":"co_waterbody_platoro_reservoir_13010005_001","occurrence_number":"001","display_name":"Platoro Reservoir","normalized_name":"platoro reservoir","mapped_name":"Platoro Reservoir","source_name":"Platoro Reservoir","disambiguator":"Conejos · reservoir","state":"CO","atlas_layer":"waterbody_object","object_role":"waterbody_object","atlas_class":"named_waterbody","waterbody_type":"reservoir","huc8":"13010005","huc8Name":"Conejos","huc8States":"CO,NM","lineageKey":"rioGrande","lineage":"rioGrande","historic":"rioGrande","current":"rioGrande","recovery":"recoveryWatch","lineageLabel":"Rio Grande lineage","lineageBasin":"Conejos","lineageNote":"Generalized Rio Grande cutthroat drainage context","atlas_context":"cutthroat_lineage_context","area_sq_km":1.71347984,"elevation":3038.9,"FType":390,"FCode":39009,"source_id":"133157171","bounds":{"west":-106.57838,"south":37.33207,"east":-106.54552,"north":37.35062},"confidence_public":"Watershed-level lineage context; expert review recommended","geometry_status_public":"Named waterbody polygon from public hydrography","geometry_source_public":"Public hydrography waterbody polygon","trout_source_public":"Compiled public recovery and lineage context; expert review recommended","public_notes":"Platoro Reservoir is shown as a named waterbody within watershed-level cutthroat lineage context. This is not a precise biological boundary."}},{"type":"Feature","geometry":{"type":"Polygon","coordinates":[[[-106.62487,37.37289],[-106.62518,37.37312],[-106.62652,37.37324],[-106.62802,37.37257],[-106.62702,37.37227],[-106.6265,37.37242],[-106.62517,37.37234],[-106.62487,37.37257],[-106.62487,37.37289]]]},"properties":{"waterbody_id":"co_waterbody_lake_annella_13010002_001","water_id":"co_waterbody_lake_annella_13010002_001","occurrence_id":"co_waterbody_lake_annella_13010002_001","occurrence_number":"001","display_name":"Lake Annella","normalized_name":"lake annella","mapped_name":"Lake Annella","source_name":"Lake Annella","disambiguator":"Alamosa-Trinchera · lake","state":"CO","atlas_layer":"waterbody_object","object_role":"waterbody_object","atlas_class":"named_waterbody","waterbody_type":"lake","huc8":"13010002","huc8Name":"Alamosa-Trinchera","huc8States":"CO,NM","lineageKey":"rioGrande","lineage":"rioGrande","historic":"rioGrande","current":"rioGrande","recovery":"recoveryWatch","lineageLabel":"Rio Grande lineage","lineageBasin":"Alamosa-Trinchera","lineageNote":"Generalized Rio Grande cutthroat drainage context","atlas_context":"cutthroat_lineage_context","area_sq_km":0.021,"elevation":3279,"FType":390,"FCode":39009,"source_id":"136496626","bounds":{"west":-106.62802,"south":37.37227,"east":-106.62487,"north":37.37324},"confidence_public":"Watershed-level lineage context; expert review recommended","geometry_status_public":"Named waterbody polygon from public hydrography","geometry_source_public":"Public hydrography waterbody polygon","trout_source_public":"Compiled public recovery and lineage context; expert review recommended","public_notes":"Lake Annella is shown as a named waterbody within watershed-level cutthroat lineage context. This is not a precise biological boundary."}},{"type":"Feature","geometry":{"type":"Polygon","coordinates":[[[-106.51969,37.4721],[-106.5198,37.47188],[-106.5181,37.47246],[-106.51756,37.47206],[-106.5179,37.47171],[-106.51748,37.47162],[-106.51663,37.47237],[-106.51583,37.47437],[-106.51647,37.47557],[-106.51654,37.47644],[-106.51686,37.47646],[-106.51698,37.47622],[-106.51714,37.47418],[-106.51869,37.47259],[-106.51969,37.4721]]]},"properties":{"waterbody_id":"co_waterbody_fuchs_reservoir_13010002_001","water_id":"co_waterbody_fuchs_reservoir_13010002_001","occurrence_id":"co_waterbody_fuchs_reservoir_13010002_001","occurrence_number":"001","display_name":"Fuchs Reservoir","normalized_name":"fuchs reservoir","mapped_name":"Fuchs Reservoir","source_name":"Fuchs Reservoir","disambiguator":"Alamosa-Trinchera · reservoir · occurrence 001","state":"CO","atlas_layer":"waterbody_object","object_role":"waterbody_object","atlas_class":"named_waterbody","waterbody_type":"reservoir","huc8":"13010002","huc8Name":"Alamosa-Trinchera","huc8States":"CO,NM","lineageKey":"rioGrande","lineage":"rioGrande","historic":"rioGrande","current":"rioGrande","recovery":"recoveryWatch","lineageLabel":"Rio Grande lineage","lineageBasin":"Alamosa-Trinchera","lineageNote":"Generalized Rio Grande cutthroat drainage context","atlas_context":"cutthroat_lineage_context","area_sq_km":0.057,"elevation":0,"FType":390,"FCode":39004,"source_id":"136495951","bounds":{"west":-106.5198,"south":37.47162,"east":-106.51583,"north":37.47646},"confidence_public":"Watershed-level lineage context; expert review recommended","geometry_status_public":"Named waterbody polygon from public hydrography","geometry_source_public":"Public hydrography waterbody polygon","trout_source_public":"Compiled public recovery and lineage context; expert review recommended","public_notes":"Fuchs Reservoir is shown as a named waterbody within watershed-level cutthroat lineage context. This is not a precise biological boundary."}},{"type":"Feature","geometry":{"type":"Polygon","coordinates":[[[-106.56441,37.29832],[-106.56382,37.29745],[-106.56295,37.2969],[-106.5622,37.29677],[-106.56169,37.297],[-106.56169,37.29789],[-106.56282,37.29857],[-106.56275,37.29934],[-106.56361,37.2993],[-106.56441,37.29832]]]},"properties":{"waterbody_id":"co_waterbody_tobacco_lake_13010005_001","water_id":"co_waterbody_tobacco_lake_13010005_001","occurrence_id":"co_waterbody_tobacco_lake_13010005_001","occurrence_number":"001","display_name":"Tobacco Lake","normalized_name":"tobacco lake","mapped_name":"Tobacco Lake","source_name":"Tobacco Lake","disambiguator":"Conejos · lake","state":"CO","atlas_layer":"waterbody_object","object_role":"waterbody_object","atlas_class":"named_waterbody","waterbody_type":"lake","huc8":"13010005","huc8Name":"Conejos","huc8States":"CO,NM","lineageKey":"rioGrande","lineage":"rioGrande","historic":"rioGrande","current":"rioGrande","recovery":"recoveryWatch","lineageLabel":"Rio Grande lineage","lineageBasin":"Conejos","lineageNote":"Generalized Rio Grande cutthroat drainage context","atlas_context":"cutthroat_lineage_context","area_sq_km":0.042,"elevation":0,"FType":390,"FCode":39004,"source_id":"133157245","bounds":{"west":-106.56441,"south":37.29677,"east":-106.56169,"north":37.29934},"confidence_public":"Watershed-level lineage context; expert review recommended","geometry_status_public":"Named waterbody polygon from public hydrography","geometry_source_public":"Public hydrography waterbody polygon","trout_source_public":"Compiled public recovery and lineage context; expert review recommended","public_notes":"Tobacco Lake is shown as a named waterbody within watershed-level cutthroat lineage context. This is not a precise biological boundary."}},{"type":"Feature","geometry":{"type":"Polygon","coordinates":[[[-106.64317,37.49755],[-106.64272,37.49747],[-106.64251,37.49786],[-106.64208,37.49799],[-106.64166,37.49932],[-106.64213,37.49978],[-106.64207,37.50046],[-106.64264,37.50142],[-106.64348,37.50166],[-106.64389,37.50156],[-106.64415,37.50125],[-106.64449,37.4998],[-106.64404,37.49819],[-106.64317,37.49755]]]},"properties":{"waterbody_id":"co_waterbody_poage_lake_13010001_001","water_id":"co_waterbody_poage_lake_13010001_001","occurrence_id":"co_waterbody_poage_lake_13010001_001","occurrence_number":"001","display_name":"Poage Lake","normalized_name":"poage lake","mapped_name":"Poage Lake","source_name":"Poage Lake","disambiguator":"Rio Grande Headwaters · lake","state":"CO","atlas_layer":"waterbody_object","object_role":"waterbody_object","atlas_class":"named_waterbody","waterbody_type":"lake","huc8":"13010001","huc8Name":"Rio Grande Headwaters","huc8States":"CO","lineageKey":"rioGrande","lineage":"rioGrande","historic":"rioGrande","current":"rioGrande","recovery":"recoveryWatch","lineageLabel":"Rio Grande lineage","lineageBasin":"Rio Grande Headwaters","lineageNote":"Generalized Rio Grande cutthroat drainage context","atlas_context":"cutthroat_lineage_context","area_sq_km":0.08,"elevation":0,"FType":390,"FCode":39004,"source_id":"136354111","bounds":{"west":-106.64449,"south":37.49747,"east":-106.64166,"north":37.50166},"confidence_public":"Watershed-level lineage context; expert review recommended","geometry_status_public":"Named waterbody polygon from public hydrography","geometry_source_public":"Public hydrography waterbody polygon","trout_source_public":"Compiled public recovery and lineage context; expert review recommended","public_notes":"Poage Lake is shown as a named waterbody within watershed-level cutthroat lineage context. This is not a precise biological boundary."}},{"type":"Feature","geometry":{"type":"Polygon","coordinates":[[[-106.58172,37.26711],[-106.58207,37.26769],[-106.58257,37.26785],[-106.58314,37.26744],[-106.58332,37.26672],[-106.58321,37.26658],[-106.58242,37.26666],[-106.58172,37.26711]]]},"properties":{"waterbody_id":"co_waterbody_twin_lakes_13010005_002","water_id":"co_waterbody_twin_lakes_13010005_002","occurrence_id":"co_waterbody_twin_lakes_13010005_002","occurrence_number":"002","display_name":"Twin Lakes","normalized_name":"twin lakes","mapped_name":"Twin Lakes","source_name":"Twin Lakes","disambiguator":"Conejos · lake · occurrence 002","state":"CO","atlas_layer":"waterbody_object","object_role":"waterbody_object","atlas_class":"named_waterbody","waterbody_type":"lake","huc8":"13010005","huc8Name":"Conejos","huc8States":"CO,NM","lineageKey":"rioGrande","lineage":"rioGrande","historic":"rioGrande","current":"rioGrande","recovery":"recoveryWatch","lineageLabel":"Rio Grande lineage","lineageBasin":"Conejos","lineageNote":"Generalized Rio Grande cutthroat drainage context","atlas_context":"cutthroat_lineage_context","area_sq_km":0.014,"elevation":0,"FType":390,"FCode":39004,"source_id":"133157309","bounds":{"west":-106.58332,"south":37.26658,"east":-106.58172,"north":37.26785},"confidence_public":"Watershed-level lineage context; expert review recommended","geometry_status_public":"Named waterbody polygon from public hydrography","geometry_source_public":"Public hydrography waterbody polygon","trout_source_public":"Compiled public recovery and lineage context; expert review recommended","public_notes":"Twin Lakes is shown as a named waterbody within watershed-level cutthroat lineage context. This is not a precise biological boundary."}},{"type":"Feature","geometry":{"type":"Polygon","coordinates":[[[-106.5494,37.35866],[-106.54985,37.35851],[-106.54963,37.35792],[-106.54979,37.35736],[-106.55069,37.35637],[-106.55111,37.35398],[-106.55146,37.3533],[-106.55134,37.35272],[-106.55156,37.352],[-106.5513,37.35174],[-106.55112,37.35176],[-106.55076,37.35272],[-106.55035,37.35314],[-106.5505,37.35552],[-106.55029,37.35634],[-106.54968,37.35658],[-106.54894,37.35576],[-106.5486,37.35589],[-106.54756,37.35562],[-106.5489,37.35685],[-106.54894,37.35797],[-106.5494,37.35866]]]},"properties":{"waterbody_id":"co_waterbody_mix_lake_13010005_001","water_id":"co_waterbody_mix_lake_13010005_001","occurrence_id":"co_waterbody_mix_lake_13010005_001","occurrence_number":"001","display_name":"Mix Lake","normalized_name":"mix lake","mapped_name":"Mix Lake","source_name":"Mix Lake","disambiguator":"Conejos · lake","state":"CO","atlas_layer":"waterbody_object","object_role":"waterbody_object","atlas_class":"named_waterbody","waterbody_type":"lake","huc8":"13010005","huc8Name":"Conejos","huc8States":"CO,NM","lineageKey":"rioGrande","lineage":"rioGrande","historic":"rioGrande","current":"rioGrande","recovery":"recoveryWatch","lineageLabel":"Rio Grande lineage","lineageBasin":"Conejos","lineageNote":"Generalized Rio Grande cutthroat drainage context","atlas_context":"cutthroat_lineage_context","area_sq_km":0.056,"elevation":0,"FType":390,"FCode":39004,"source_id":"133157138","bounds":{"west":-106.55156,"south":37.35174,"east":-106.54756,"north":37.35866},"confidence_public":"Watershed-level lineage context; expert review recommended","geometry_status_public":"Named waterbody polygon from public hydrography","geometry_source_public":"Public hydrography waterbody polygon","trout_source_public":"Compiled public recovery and lineage context; expert review recommended","public_notes":"Mix Lake is shown as a named waterbody within watershed-level cutthroat lineage context. This is not a precise biological boundary."}},{"type":"Feature","geometry":{"type":"Polygon","coordinates":[[[-106.54307,37.38016],[-106.54215,37.37844],[-106.54176,37.37852],[-106.54172,37.37949],[-106.5421,37.37966],[-106.54131,37.38022],[-106.54159,37.38054],[-106.54171,37.38114],[-106.54136,37.3816],[-106.54148,37.38191],[-106.54118,37.38218],[-106.54017,37.38215],[-106.53997,37.3823],[-106.54055,37.38271],[-106.54201,37.38306],[-106.54247,37.38388],[-106.54284,37.38405],[-106.54327,37.38386],[-106.54335,37.38327],[-106.54408,37.3826],[-106.54414,37.38215],[-106.54366,37.38172],[-106.54223,37.381],[-106.54281,37.38066],[-106.54307,37.38016]],[[-106.54075,37.38247],[-106.54098,37.38235],[-106.54108,37.38256],[-106.54075,37.38247]]]},"properties":{"waterbody_id":"co_waterbody_lilly_pond_13010002_001","water_id":"co_waterbody_lilly_pond_13010002_001","occurrence_id":"co_waterbody_lilly_pond_13010002_001","occurrence_number":"001","display_name":"Lilly Pond","normalized_name":"lilly pond","mapped_name":"Lilly Pond","source_name":"Lilly Pond","disambiguator":"Alamosa-Trinchera · pond","state":"CO","atlas_layer":"waterbody_object","object_role":"waterbody_object","atlas_class":"named_waterbody","waterbody_type":"pond","huc8":"13010002","huc8Name":"Alamosa-Trinchera","huc8States":"CO,NM","lineageKey":"rioGrande","lineage":"rioGrande","historic":"rioGrande","current":"rioGrande","recovery":"recoveryWatch","lineageLabel":"Rio Grande lineage","lineageBasin":"Alamosa-Trinchera","lineageNote":"Generalized Rio Grande cutthroat drainage context","atlas_context":"cutthroat_lineage_context","area_sq_km":0.084,"elevation":0,"FType":390,"FCode":39004,"source_id":"136496627","bounds":{"west":-106.54414,"south":37.37844,"east":-106.53997,"north":37.38405},"confidence_public":"Watershed-level lineage context; expert review recommended","geometry_status_public":"Named waterbody polygon from public hydrography","geometry_source_public":"Public hydrography waterbody polygon","trout_source_public":"Compiled public recovery and lineage context; expert review recommended","public_notes":"Lilly Pond is shown as a named waterbody within watershed-level cutthroat lineage context. This is not a precise biological boundary."}},{"type":"Feature","geometry":{"type":"Polygon","coordinates":[[[-106.52293,37.3294],[-106.52417,37.33064],[-106.52505,37.33064],[-106.5257,37.33011],[-106.52514,37.32947],[-106.52539,37.32924],[-106.52541,37.32809],[-106.52485,37.32761],[-106.52458,37.3276],[-106.52444,37.32795],[-106.52387,37.3281],[-106.52405,37.32831],[-106.52392,37.32851],[-106.52308,37.3288],[-106.52293,37.3294]],[[-106.52423,37.32911],[-106.52434,37.32886],[-106.52471,37.32908],[-106.52423,37.32911]],[[-106.52479,37.32867],[-106.52462,37.3286],[-106.52519,37.3286],[-106.52479,37.32867]]]},"properties":{"waterbody_id":"co_waterbody_big_lake_13010005_001","water_id":"co_waterbody_big_lake_13010005_001","occurrence_id":"co_waterbody_big_lake_13010005_001","occurrence_number":"001","display_name":"Big Lake","normalized_name":"big lake","mapped_name":"Big Lake","source_name":"Big Lake","disambiguator":"Conejos · lake · occurrence 001","state":"CO","atlas_layer":"waterbody_object","object_role":"waterbody_object","atlas_class":"named_waterbody","waterbody_type":"lake","huc8":"13010005","huc8Name":"Conejos","huc8States":"CO,NM","lineageKey":"rioGrande","lineage":"rioGrande","historic":"rioGrande","current":"rioGrande","recovery":"recoveryWatch","lineageLabel":"Rio Grande lineage","lineageBasin":"Conejos","lineageNote":"Generalized Rio Grande cutthroat drainage context","atlas_context":"cutthroat_lineage_context","area_sq_km":0.051,"elevation":0,"FType":390,"FCode":39004,"source_id":"133157190","bounds":{"west":-106.5257,"south":37.3276,"east":-106.52293,"north":37.33064},"confidence_public":"Watershed-level lineage context; expert review recommended","geometry_status_public":"Named waterbody polygon from public hydrography","geometry_source_public":"Public hydrography waterbody polygon","trout_source_public":"Compiled public recovery and lineage context; expert review recommended","public_notes":"Big Lake is shown as a named waterbody within watershed-level cutthroat lineage context. This is not a precise biological boundary."}},{"type":"Feature","geometry":{"type":"Polygon","coordinates":[[[-106.50055,37.31554],[-106.49988,37.31532],[-106.49942,37.31488],[-106.49836,37.31519],[-106.49907,37.31548],[-106.4994,37.31532],[-106.49959,37.31542],[-106.49921,37.31569],[-106.49832,37.31588],[-106.4997,37.31644],[-106.50055,37.31554]]]},"properties":{"waterbody_id":"co_waterbody_rock_lake_13010005_001","water_id":"co_waterbody_rock_lake_13010005_001","occurrence_id":"co_waterbody_rock_lake_13010005_001","occurrence_number":"001","display_name":"Rock Lake","normalized_name":"rock lake","mapped_name":"Rock Lake","source_name":"Rock Lake","disambiguator":"Conejos · lake · occurrence 001","state":"CO","atlas_layer":"waterbody_object","object_role":"waterbody_object","atlas_class":"named_waterbody","waterbody_type":"lake","huc8":"13010005","huc8Name":"Conejos","huc8States":"CO,NM","lineageKey":"rioGrande","lineage":"rioGrande","historic":"rioGrande","current":"rioGrande","recovery":"recoveryWatch","lineageLabel":"Rio Grande lineage","lineageBasin":"Conejos","lineageNote":"Generalized Rio Grande cutthroat drainage context","atlas_context":"cutthroat_lineage_context","area_sq_km":0.016,"elevation":0,"FType":390,"FCode":39004,"source_id":"133157232","bounds":{"west":-106.50055,"south":37.31488,"east":-106.49832,"north":37.31644},"confidence_public":"Watershed-level lineage context; expert review recommended","geometry_status_public":"Named waterbody polygon from public hydrography","geometry_source_public":"Public hydrography waterbody polygon","trout_source_public":"Compiled public recovery and lineage context; expert review recommended","public_notes":"Rock Lake is shown as a named waterbody within watershed-level cutthroat lineage context. This is not a precise biological boundary."}},{"type":"Feature","geometry":{"type":"Polygon","coordinates":[[[-106.62353,37.37434],[-106.62224,37.37478],[-106.62163,37.3747],[-106.62122,37.37513],[-106.6226,37.37516],[-106.62382,37.3755],[-106.62416,37.37534],[-106.62353,37.37434]]]},"properties":{"waterbody_id":"co_waterbody_lake_de_nolda_13010002_001","water_id":"co_waterbody_lake_de_nolda_13010002_001","occurrence_id":"co_waterbody_lake_de_nolda_13010002_001","occurrence_number":"001","display_name":"Lake De Nolda","normalized_name":"lake de nolda","mapped_name":"Lake De Nolda","source_name":"Lake De Nolda","disambiguator":"Alamosa-Trinchera · lake","state":"CO","atlas_layer":"waterbody_object","object_role":"waterbody_object","atlas_class":"named_waterbody","waterbody_type":"lake","huc8":"13010002","huc8Name":"Alamosa-Trinchera","huc8States":"CO,NM","lineageKey":"rioGrande","lineage":"rioGrande","historic":"rioGrande","current":"rioGrande","recovery":"recoveryWatch","lineageLabel":"Rio Grande lineage","lineageBasin":"Alamosa-Trinchera","lineageNote":"Generalized Rio Grande cutthroat drainage context","atlas_context":"cutthroat_lineage_context","area_sq_km":0.017,"elevation":0,"FType":390,"FCode":39004,"source_id":"136496603","bounds":{"west":-106.62416,"south":37.37434,"east":-106.62122,"north":37.3755},"confidence_public":"Watershed-level lineage context; expert review recommended","geometry_status_public":"Named waterbody polygon from public hydrography","geometry_source_public":"Public hydrography waterbody polygon","trout_source_public":"Compiled public recovery and lineage context; expert review recommended","public_notes":"Lake De Nolda is shown as a named waterbody within watershed-level cutthroat lineage context. This is not a precise biological boundary."}},{"type":"Feature","geometry":{"type":"Polygon","coordinates":[[[-106.68431,37.49112],[-106.6848,37.49172],[-106.68484,37.49215],[-106.68607,37.49253],[-106.68602,37.49213],[-106.68488,37.49092],[-106.68459,37.49085],[-106.68431,37.49112]]]},"properties":{"waterbody_id":"co_waterbody_swale_lake_13010001_001","water_id":"co_waterbody_swale_lake_13010001_001","occurrence_id":"co_waterbody_swale_lake_13010001_001","occurrence_number":"001","display_name":"Swale Lake","normalized_name":"swale lake","mapped_name":"Swale Lake","source_name":"Swale Lake","disambiguator":"Rio Grande Headwaters · lake","state":"CO","atlas_layer":"waterbody_object","object_role":"waterbody_object","atlas_class":"named_waterbody","waterbody_type":"lake","huc8":"13010001","huc8Name":"Rio Grande Headwaters","huc8States":"CO","lineageKey":"rioGrande","lineage":"rioGrande","historic":"rioGrande","current":"rioGrande","recovery":"recoveryWatch","lineageLabel":"Rio Grande lineage","lineageBasin":"Rio Grande Headwaters","lineageNote":"Generalized Rio Grande cutthroat drainage context","atlas_context":"cutthroat_lineage_context","area_sq_km":0.013,"elevation":0,"FType":390,"FCode":39001,"source_id":"136354114","bounds":{"west":-106.68607,"south":37.49085,"east":-106.68431,"north":37.49253},"confidence_public":"Watershed-level lineage context; expert review recommended","geometry_status_public":"Named waterbody polygon from public hydrography","geometry_source_public":"Public hydrography waterbody polygon","trout_source_public":"Compiled public recovery and lineage context; expert review recommended","public_notes":"Swale Lake is shown as a named waterbody within watershed-level cutthroat lineage context. This is not a precise biological boundary."}},{"type":"Feature","geometry":{"type":"Polygon","coordinates":[[[-106.62742,37.40343],[-106.6274,37.4036],[-106.62766,37.4035],[-106.62761,37.40344],[-106.62742,37.40343]]]},"properties":{"waterbody_id":"co_waterbody_schinzel_flats_13010002_001","water_id":"co_waterbody_schinzel_flats_13010002_001","occurrence_id":"co_waterbody_schinzel_flats_13010002_001","occurrence_number":"001","display_name":"Schinzel Flats","normalized_name":"schinzel flats","mapped_name":"Schinzel Flats","source_name":"Schinzel Flats","disambiguator":"Alamosa-Trinchera · lake_or_pond","state":"CO","atlas_layer":"waterbody_object","object_role":"waterbody_object","atlas_class":"named_waterbody","waterbody_type":"lake_or_pond","huc8":"13010002","huc8Name":"Alamosa-Trinchera","huc8States":"CO,NM","lineageKey":"rioGrande","lineage":"rioGrande","historic":"rioGrande","current":"rioGrande","recovery":"recoveryWatch","lineageLabel":"Rio Grande lineage","lineageBasin":"Alamosa-Trinchera","lineageNote":"Generalized Rio Grande cutthroat drainage context","atlas_context":"cutthroat_lineage_context","area_sq_km":0,"elevation":0,"FType":390,"FCode":39004,"source_id":"136496418","bounds":{"west":-106.62766,"south":37.40343,"east":-106.6274,"north":37.4036},"confidence_public":"Watershed-level lineage context; expert review recommended","geometry_status_public":"Named waterbody polygon from public hydrography","geometry_source_public":"Public hydrography waterbody polygon","trout_source_public":"Compiled public recovery and lineage context; expert review recommended","public_notes":"Schinzel Flats is shown as a named waterbody within watershed-level cutthroat lineage context. This is not a precise biological boundary."}},{"type":"Feature","geometry":{"type":"Polygon","coordinates":[[[-106.68956,37.27263],[-106.68904,37.27243],[-106.68762,37.2725],[-106.68686,37.27335],[-106.68638,37.27352],[-106.68614,37.27408],[-106.68624,37.27458],[-106.68695,37.27486],[-106.68777,37.27454],[-106.6892,37.27332],[-106.68956,37.27263]]]},"properties":{"waterbody_id":"co_waterbody_lake_ann_13010005_001","water_id":"co_waterbody_lake_ann_13010005_001","occurrence_id":"co_waterbody_lake_ann_13010005_001","occurrence_number":"001","display_name":"Lake Ann","normalized_name":"lake ann","mapped_name":"Lake Ann","source_name":"Lake Ann","disambiguator":"Conejos · lake · occurrence 001","state":"CO","atlas_layer":"waterbody_object","object_role":"waterbody_object","atlas_class":"named_waterbody","waterbody_type":"lake","huc8":"13010005","huc8Name":"Conejos","huc8States":"CO,NM","lineageKey":"rioGrande","lineage":"rioGrande","historic":"rioGrande","current":"rioGrande","recovery":"recoveryWatch","lineageLabel":"Rio Grande lineage","lineageBasin":"Conejos","lineageNote":"Generalized Rio Grande cutthroat drainage context","atlas_context":"cutthroat_lineage_context","area_sq_km":0.049,"elevation":3630.2,"FType":390,"FCode":39009,"source_id":"133157258","bounds":{"west":-106.68956,"south":37.27243,"east":-106.68614,"north":37.27486},"confidence_public":"Watershed-level lineage context; expert review recommended","geometry_status_public":"Named waterbody polygon from public hydrography","geometry_source_public":"Public hydrography waterbody polygon","trout_source_public":"Compiled public recovery and lineage context; expert review recommended","public_notes":"Lake Ann is shown as a named waterbody within watershed-level cutthroat lineage context. This is not a precise biological boundary."}},{"type":"Feature","geometry":{"type":"Polygon","coordinates":[[[-106.51605,37.27455],[-106.51519,37.27452],[-106.51371,37.27601],[-106.51356,37.27679],[-106.5145,37.2771],[-106.5168,37.27651],[-106.51703,37.2761],[-106.51605,37.27455]]]},"properties":{"waterbody_id":"co_waterbody_bear_lake_13010005_001","water_id":"co_waterbody_bear_lake_13010005_001","occurrence_id":"co_waterbody_bear_lake_13010005_001","occurrence_number":"001","display_name":"Bear Lake","normalized_name":"bear lake","mapped_name":"Bear Lake","source_name":"Bear Lake","disambiguator":"Conejos · lake · occurrence 001","state":"CO","atlas_layer":"waterbody_object","object_role":"waterbody_object","atlas_class":"named_waterbody","waterbody_type":"lake","huc8":"13010005","huc8Name":"Conejos","huc8States":"CO,NM","lineageKey":"rioGrande","lineage":"rioGrande","historic":"rioGrande","current":"rioGrande","recovery":"recoveryWatch","lineageLabel":"Rio Grande lineage","lineageBasin":"Conejos","lineageNote":"Generalized Rio Grande cutthroat drainage context","atlas_context":"cutthroat_lineage_context","area_sq_km":0.058,"elevation":0,"FType":390,"FCode":39004,"source_id":"133157292","bounds":{"west":-106.51703,"south":37.27452,"east":-106.51356,"north":37.2771},"confidence_public":"Watershed-level lineage context; expert review recommended","geometry_status_public":"Named waterbody polygon from public hydrography","geometry_source_public":"Public hydrography waterbody polygon","trout_source_public":"Compiled public recovery and lineage context; expert review recommended","public_notes":"Bear Lake is shown as a named waterbody within watershed-level cutthroat lineage context. This is not a precise biological boundary."}},{"type":"Feature","geometry":{"type":"Polygon","coordinates":[[[-106.69332,37.38771],[-106.69315,37.38847],[-106.69423,37.39039],[-106.69523,37.39056],[-106.69596,37.39025],[-106.69619,37.38759],[-106.69503,37.38723],[-106.69466,37.38683],[-106.69429,37.38683],[-106.69388,37.38741],[-106.69332,37.38771]]]},"properties":{"waterbody_id":"co_waterbody_crater_lake_14080101_001","water_id":"co_waterbody_crater_lake_14080101_001","occurrence_id":"co_waterbody_crater_lake_14080101_001","occurrence_number":"001","display_name":"Crater Lake","normalized_name":"crater lake","mapped_name":"Crater Lake","source_name":"Crater Lake","disambiguator":"Upper San Juan · lake · occurrence 001","state":"CO","atlas_layer":"waterbody_object","object_role":"waterbody_object","atlas_class":"named_waterbody","waterbody_type":"lake","huc8":"14080101","huc8Name":"Upper San Juan","huc8States":"CO,NM","lineageKey":"sanJuan","lineage":"sanJuan","historic":"sanJuan","current":"sanJuan","recovery":"recoveryWatch","lineageLabel":"San Juan lineage","lineageBasin":"Upper San Juan","lineageNote":"San Juan lineage context","atlas_context":"cutthroat_lineage_context","area_sq_km":0.081,"elevation":0,"FType":390,"FCode":39004,"source_id":"122808270","bounds":{"west":-106.69619,"south":37.38683,"east":-106.69315,"north":37.39056},"confidence_public":"Watershed-level lineage context; expert review recommended","geometry_status_public":"Named waterbody polygon from public hydrography","geometry_source_public":"Public hydrography waterbody polygon","trout_source_public":"Compiled public recovery and lineage context; expert review recommended","public_notes":"Crater Lake is shown as a named waterbody within watershed-level cutthroat lineage context. This is not a precise biological boundary."}},{"type":"Feature","geometry":{"type":"Polygon","coordinates":[[[-106.68551,37.25305],[-106.68458,37.25252],[-106.68329,37.25257],[-106.68273,37.25282],[-106.6827,37.25333],[-106.68292,37.25399],[-106.68456,37.25445],[-106.68604,37.25399],[-106.68605,37.25375],[-106.68551,37.25305]]]},"properties":{"waterbody_id":"co_waterbody_fish_lake_14080101_001","water_id":"co_waterbody_fish_lake_14080101_001","occurrence_id":"co_waterbody_fish_lake_14080101_001","occurrence_number":"001","display_name":"Fish Lake","normalized_name":"fish lake","mapped_name":"Fish Lake","source_name":"Fish Lake","disambiguator":"Upper San Juan · lake","state":"CO","atlas_layer":"waterbody_object","object_role":"waterbody_object","atlas_class":"named_waterbody","waterbody_type":"lake","huc8":"14080101","huc8Name":"Upper San Juan","huc8States":"CO,NM","lineageKey":"sanJuan","lineage":"sanJuan","historic":"sanJuan","current":"sanJuan","recovery":"recoveryWatch","lineageLabel":"San Juan lineage","lineageBasin":"Upper San Juan","lineageNote":"San Juan lineage context","atlas_context":"cutthroat_lineage_context","area_sq_km":0.047,"elevation":0,"FType":390,"FCode":39004,"source_id":"122808727","bounds":{"west":-106.68605,"south":37.25252,"east":-106.6827,"north":37.25445},"confidence_public":"Watershed-level lineage context; expert review recommended","geometry_status_public":"Named waterbody polygon from public hydrography","geometry_source_public":"Public hydrography waterbody polygon","trout_source_public":"Compiled public recovery and lineage context; expert review recommended","public_notes":"Fish Lake is shown as a named waterbody within watershed-level cutthroat lineage context. This is not a precise biological boundary."}}]}