{"type":"FeatureCollection","metadata":{"source":"C:\\ct-atlas-data\\processed\\geojson\\interpreted\\colorado_waterbody_objects_v1.geojson","type":"colorado-waterbody-object-v1-tile","tile_size_degrees":0.25,"x":-409,"y":152,"bounds":{"west":-102.25,"south":38,"east":-102,"north":38.25}},"features":[{"type":"Feature","geometry":{"type":"Polygon","coordinates":[[[-102.14657,38.11046],[-102.14652,38.11093],[-102.1474,38.11271],[-102.14738,38.11329],[-102.14658,38.11405],[-102.14585,38.1154],[-102.14575,38.11588],[-102.14591,38.11613],[-102.14646,38.11509],[-102.14765,38.11398],[-102.1484,38.11366],[-102.14871,38.1133],[-102.14874,38.11228],[-102.14838,38.11129],[-102.14791,38.11063],[-102.147,38.11024],[-102.14657,38.11046]]]},"properties":{"waterbody_id":"co_waterbody_romer_reservoir_11020009_001","water_id":"co_waterbody_romer_reservoir_11020009_001","occurrence_id":"co_waterbody_romer_reservoir_11020009_001","occurrence_number":"001","display_name":"Romer Reservoir","normalized_name":"romer reservoir","mapped_name":"Romer Reservoir","source_name":"Romer Reservoir","disambiguator":"Upper Arkansas-John Martin Reservoir · reservoir","state":"CO","atlas_layer":"waterbody_object","object_role":"waterbody_object","atlas_class":"named_waterbody","waterbody_type":"reservoir","huc8":"11020009","huc8Name":"Upper Arkansas-John Martin Reservoir","huc8States":"CO,KS","lineageKey":"statewideContext","lineage":"statewideContext","historic":"statewideContext","current":"statewideContext","recovery":"statewideContext","lineageLabel":"Statewide Colorado hydrography context","lineageBasin":"","lineageNote":"","atlas_context":"statewide_hydrography_context","area_sq_km":0.06217853,"elevation":3487,"FType":390,"FCode":39009,"source_id":"120027866","bounds":{"west":-102.14874,"south":38.11024,"east":-102.14575,"north":38.11613},"confidence_public":"Statewide hydrography context outside current cutthroat lineage model","geometry_status_public":"Named waterbody polygon from public hydrography","geometry_source_public":"Public hydrography waterbody polygon","trout_source_public":"Included for Colorado statewide hydrography completeness","public_notes":"Romer Reservoir is shown as statewide Colorado hydrography context outside the current cutthroat lineage assignment set."}},{"type":"Feature","geometry":{"type":"Polygon","coordinates":[[[-102.2476,38.09564],[-102.24719,38.09655],[-102.24716,38.09709],[-102.2468,38.09752],[-102.24664,38.09855],[-102.2454,38.1004],[-102.24631,38.1004],[-102.24813,38.09889],[-102.2482,38.09714],[-102.24889,38.09668],[-102.2476,38.09564]]]},"properties":{"waterbody_id":"co_waterbody_verhoeff_reservoir_11020009_001","water_id":"co_waterbody_verhoeff_reservoir_11020009_001","occurrence_id":"co_waterbody_verhoeff_reservoir_11020009_001","occurrence_number":"001","display_name":"Verhoeff Reservoir","normalized_name":"verhoeff reservoir","mapped_name":"Verhoeff Reservoir","source_name":"Verhoeff Reservoir","disambiguator":"Upper Arkansas-John Martin Reservoir · reservoir","state":"CO","atlas_layer":"waterbody_object","object_role":"waterbody_object","atlas_class":"named_waterbody","waterbody_type":"reservoir","huc8":"11020009","huc8Name":"Upper Arkansas-John Martin Reservoir","huc8States":"CO,KS","lineageKey":"statewideContext","lineage":"statewideContext","historic":"statewideContext","current":"statewideContext","recovery":"statewideContext","lineageLabel":"Statewide Colorado hydrography context","lineageBasin":"","lineageNote":"","atlas_context":"statewide_hydrography_context","area_sq_km":0.05907172,"elevation":3493,"FType":390,"FCode":39010,"source_id":"72537735","bounds":{"west":-102.24889,"south":38.09564,"east":-102.2454,"north":38.1004},"confidence_public":"Statewide hydrography context outside current cutthroat lineage model","geometry_status_public":"Named waterbody polygon from public hydrography","geometry_source_public":"Public hydrography waterbody polygon","trout_source_public":"Included for Colorado statewide hydrography completeness","public_notes":"Verhoeff Reservoir is shown as statewide Colorado hydrography context outside the current cutthroat lineage assignment set."}}]}