{"type":"FeatureCollection","metadata":{"source":"C:\\ct-atlas-data\\processed\\geojson\\interpreted\\colorado_waterbody_objects_v1.geojson","type":"colorado-waterbody-object-v1-tile","tile_size_degrees":0.25,"x":-422,"y":156,"bounds":{"west":-105.5,"south":39,"east":-105.25,"north":39.25}},"features":[{"type":"Feature","geometry":{"type":"Polygon","coordinates":[[[-105.46334,39.14288],[-105.46466,39.14298],[-105.4652,39.14337],[-105.46666,39.1435],[-105.46769,39.14404],[-105.46822,39.14336],[-105.46714,39.14258],[-105.4669,39.14104],[-105.46647,39.14087],[-105.46425,39.14107],[-105.46267,39.14092],[-105.46223,39.14125],[-105.46214,39.14219],[-105.46334,39.14288]]]},"properties":{"waterbody_id":"co_waterbody_bayou_salado_reservoir_10190001_001","water_id":"co_waterbody_bayou_salado_reservoir_10190001_001","occurrence_id":"co_waterbody_bayou_salado_reservoir_10190001_001","occurrence_number":"001","display_name":"Bayou Salado Reservoir","normalized_name":"bayou salado reservoir","mapped_name":"Bayou Salado Reservoir","source_name":"Bayou Salado Reservoir","disambiguator":"South Platte Headwaters · reservoir","state":"CO","atlas_layer":"waterbody_object","object_role":"waterbody_object","atlas_class":"named_waterbody","waterbody_type":"reservoir","huc8":"10190001","huc8Name":"South Platte Headwaters","huc8States":"CO","lineageKey":"greenback","lineage":"greenback","historic":"greenback","current":"greenback","recovery":"recoveryWatch","lineageLabel":"Greenback / South Platte lineage","lineageBasin":"South Platte Headwaters","lineageNote":"Generalized historical greenback context; not exact population mapping","atlas_context":"cutthroat_lineage_context","area_sq_km":0.107,"elevation":0,"FType":390,"FCode":39004,"source_id":"127818870","bounds":{"west":-105.46822,"south":39.14087,"east":-105.46214,"north":39.14404},"confidence_public":"Watershed-level lineage context; expert review recommended","geometry_status_public":"Named waterbody polygon from public hydrography","geometry_source_public":"Public hydrography waterbody polygon","trout_source_public":"Compiled public recovery and lineage context; expert review recommended","public_notes":"Bayou Salado Reservoir is shown as a named waterbody within watershed-level cutthroat lineage context. This is not a precise biological boundary."}},{"type":"Feature","geometry":{"type":"Polygon","coordinates":[[[-105.25345,39.07325],[-105.25325,39.07286],[-105.25355,39.07197],[-105.25349,39.07142],[-105.25323,39.07124],[-105.25295,39.07189],[-105.25157,39.07252],[-105.25099,39.07341],[-105.2517,39.07411],[-105.25345,39.07325]]]},"properties":{"waterbody_id":"co_waterbody_hoder_recreation_reservoir_10190002_001","water_id":"co_waterbody_hoder_recreation_reservoir_10190002_001","occurrence_id":"co_waterbody_hoder_recreation_reservoir_10190002_001","occurrence_number":"001","display_name":"Hoder Recreation Reservoir","normalized_name":"hoder recreation reservoir","mapped_name":"Hoder Recreation Reservoir","source_name":"Hoder Recreation Reservoir","disambiguator":"Upper South Platte · reservoir","state":"CO","atlas_layer":"waterbody_object","object_role":"waterbody_object","atlas_class":"named_waterbody","waterbody_type":"reservoir","huc8":"10190002","huc8Name":"Upper South Platte","huc8States":"CO","lineageKey":"greenback","lineage":"greenback","historic":"greenback","current":"greenback","recovery":"recoveryWatch","lineageLabel":"Greenback / South Platte lineage","lineageBasin":"Upper South Platte","lineageNote":"Generalized historical greenback context; not exact population mapping","atlas_context":"cutthroat_lineage_context","area_sq_km":0.035,"elevation":0,"FType":390,"FCode":39004,"source_id":"117825213","bounds":{"west":-105.25355,"south":39.07124,"east":-105.25099,"north":39.07411},"confidence_public":"Watershed-level lineage context; expert review recommended","geometry_status_public":"Named waterbody polygon from public hydrography","geometry_source_public":"Public hydrography waterbody polygon","trout_source_public":"Compiled public recovery and lineage context; expert review recommended","public_notes":"Hoder Recreation Reservoir is shown as a named waterbody within watershed-level cutthroat lineage context. This is not a precise biological boundary."}},{"type":"Feature","geometry":{"type":"Polygon","coordinates":[[[-105.27434,39.21587],[-105.27521,39.21619],[-105.27556,39.21671],[-105.27612,39.21698],[-105.27731,39.21908],[-105.2794,39.22042],[-105.28001,39.21967],[-105.27989,39.21903],[-105.28056,39.21873],[-105.28072,39.21672],[-105.28093,39.21623],[-105.28133,39.216],[-105.28265,39.21578],[-105.28406,39.21803],[-105.28568,39.21846],[-105.28661,39.21786],[-105.28788,39.21793],[-105.28877,39.21765],[-105.28899,39.2172],[-105.28991,39.21634],[-105.29212,39.21719],[-105.29244,39.21641],[-105.29274,39.21625],[-105.29347,39.21626],[-105.29425,39.21655],[-105.29449,39.21471],[-105.2956,39.21479],[-105.29601,39.21445],[-105.29616,39.21367],[-105.29636,39.21354],[-105.29878,39.2133],[-105.29632,39.21319],[-105.29555,39.21333],[-105.29519,39.21444],[-105.29355,39.21432],[-105.29383,39.21528],[-105.29367,39.21558],[-105.29335,39.21565],[-105.29122,39.21593],[-105.28989,39.21542],[-105.28931,39.21494],[-105.28774,39.21689],[-105.28526,39.21731],[-105.28488,39.21697],[-105.28449,39.21569],[-105.2856,39.21508],[-105.28524,39.21445],[-105.28514,39.21304],[-105.28433,39.21347],[-105.28385,39.21353],[-105.28304,39.21405],[-105.28174,39.21422],[-105.28126,39.21406],[-105.28088,39.21373],[-105.28083,39.21337],[-105.2803,39.21302],[-105.28017,39.21264],[-105.27963,39.21238],[-105.27894,39.21303],[-105.27868,39.21381],[-105.27801,39.21388],[-105.27725,39.21282],[-105.27723,39.21219],[-105.27737,39.21193],[-105.27842,39.21157],[-105.27953,39.21166],[-105.27958,39.21078],[-105.28044,39.2106],[-105.28024,39.20999],[-105.28073,39.20941],[-105.28021,39.20924],[-105.28011,39.20887],[-105.27969,39.20862],[-105.27958,39.2072],[-105.27924,39.20658],[-105.2793,39.20539],[-105.27954,39.20495],[-105.28076,39.20451],[-105.28109,39.20358],[-105.28141,39.20352],[-105.28198,39.20393],[-105.2814,39.20418],[-105.28138,39.20441],[-105.28224,39.20497],[-105.28246,39.20554],[-105.28322,39.20602],[-105.28536,39.20426],[-105.28513,39.20351],[-105.286,39.20206],[-105.28632,39.20042],[-105.28701,39.20018],[-105.28692,39.19978],[-105.28634,39.19921],[-105.28654,39.19871],[-105.28637,39.19828],[-105.28735,39.19834],[-105.2879,39.19779],[-105.28802,39.19627],[-105.28748,39.19531],[-105.28832,39.19515],[-105.28914,39.19467],[-105.28834,39.19421],[-105.28862,39.19388],[-105.28861,39.19256],[-105.28714,39.19201],[-105.28722,39.19075],[-105.28822,39.19028],[-105.28848,39.18988],[-105.28793,39.1885],[-105.28809,39.187],[-105.28859,39.18672],[-105.2905,39.18728],[-105.29183,39.1873],[-105.29189,39.18708],[-105.29154,39.18679],[-105.2908,39.18659],[-105.29073,39.18641],[-105.29186,39.18589],[-105.29221,39.18597],[-105.29263,39.18641],[-105.29282,39.18609],[-105.29321,39.18591],[-105.29305,39.18531],[-105.29353,39.18458],[-105.29411,39.18416],[-105.29345,39.18384],[-105.29198,39.18356],[-105.29211,39.18318],[-105.29176,39.18279],[-105.2917,39.18242],[-105.29204,39.18155],[-105.29135,39.18153],[-105.29098,39.18131],[-105.29047,39.18152],[-105.29012,39.18127],[-105.2904,39.17946],[-105.29193,39.17941],[-105.29147,39.17883],[-105.291,39.17863],[-105.29107,39.17811],[-105.2924,39.17684],[-105.29293,39.17673],[-105.29329,39.17634],[-105.2952,39.17579],[-105.29591,39.17534],[-105.29734,39.17533],[-105.29575,39.17429],[-105.29524,39.17345],[-105.2957,39.17342],[-105.2964,39.17304],[-105.29727,39.17327],[-105.29813,39.17382],[-105.29868,39.17381],[-105.30019,39.17303],[-105.3011,39.17295],[-105.30116,39.17262],[-105.30085,39.17189],[-105.30111,39.1715],[-105.30131,39.17159],[-105.30159,39.1723],[-105.30276,39.17277],[-105.30226,39.17166],[-105.30241,39.17041],[-105.30258,39.1701],[-105.30349,39.17033],[-105.30283,39.16927],[-105.30261,39.16841],[-105.30138,39.16811],[-105.30124,39.16788],[-105.30169,39.16754],[-105.30179,39.16717],[-105.30242,39.16718],[-105.30293,39.1668],[-105.30479,39.1643],[-105.30518,39.16432],[-105.30702,39.16562],[-105.30798,39.16561],[-105.3087,39.16432],[-105.30995,39.16389],[-105.30961,39.16359],[-105.30859,39.16401],[-105.30777,39.16506],[-105.30745,39.16516],[-105.30656,39.16488],[-105.3059,39.16385],[-105.30502,39.1636],[-105.30451,39.16324],[-105.30454,39.16372],[-105.30417,39.16392],[-105.30326,39.1652],[-105.30225,39.16621],[-105.29958,39.16643],[-105.2992,39.16752],[-105.29936,39.16834],[-105.30001,39.16869],[-105.30007,39.16909],[-105.30101,39.16948],[-105.30122,39.16981],[-105.29903,39.17138],[-105.29881,39.17207],[-105.29783,39.17219],[-105.29637,39.17202],[-105.29544,39.17236],[-105.29433,39.17231],[-105.29366,39.17249],[-105.2925,39.17231],[-105.29183,39.17402],[-105.29321,39.17429],[-105.29337,39.17466],[-105.29186,39.17512],[-105.29105,39.17555],[-105.29038,39.17624],[-105.28892,39.17603],[-105.28871,39.17664],[-105.28763,39.17701],[-105.28696,39.17759],[-105.28642,39.17621],[-105.28644,39.17539],[-105.28594,39.1745],[-105.28428,39.17309],[-105.28399,39.17227],[-105.28343,39.17244],[-105.28278,39.17201],[-105.28228,39.17064],[-105.2822,39.17215],[-105.28376,39.17426],[-105.2831,39.17487],[-105.28378,39.1751],[-105.28371,39.17548],[-105.28424,39.17568],[-105.28481,39.17735],[-105.28481,39.1785],[-105.28456,39.17947],[-105.28474,39.1802],[-105.28446,39.18076],[-105.28391,39.18066],[-105.28377,39.18079],[-105.28536,39.1823],[-105.28552,39.18336],[-105.28501,39.18488],[-105.2847,39.18519],[-105.28477,39.18654],[-105.28391,39.18661],[-105.28323,39.1863],[-105.28281,39.18671],[-105.28129,39.18677],[-105.28279,39.18775],[-105.28354,39.18847],[-105.28349,39.18884],[-105.28432,39.18887],[-105.28406,39.18921],[-105.28344,39.18944],[-105.28293,39.1901],[-105.28317,39.19049],[-105.28285,39.19091],[-105.28277,39.19154],[-105.28175,39.19174],[-105.28264,39.19271],[-105.2821,39.19342],[-105.28142,39.19371],[-105.28201,39.19436],[-105.28207,39.19526],[-105.28157,39.19574],[-105.28156,39.19632],[-105.28121,39.19669],[-105.28108,39.19759],[-105.27994,39.19824],[-105.28065,39.1988],[-105.28037,39.19927],[-105.28039,39.19998],[-105.28005,39.2001],[-105.2797,39.19998],[-105.2794,39.19921],[-105.2786,39.19839],[-105.27804,39.19813],[-105.27786,39.19815],[-105.27773,39.19888],[-105.27715,39.19907],[-105.27622,39.1988],[-105.27496,39.19771],[-105.27437,39.19766],[-105.27375,39.19835],[-105.27448,39.19874],[-105.27479,39.20012],[-105.27474,39.20056],[-105.27423,39.20073],[-105.27446,39.20136],[-105.27421,39.2019],[-105.27487,39.2022],[-105.27486,39.20275],[-105.27451,39.20303],[-105.2746,39.20358],[-105.27421,39.20436],[-105.27467,39.20585],[-105.27449,39.20715],[-105.27304,39.20614],[-105.27182,39.20499],[-105.27137,39.20496],[-105.2714,39.20563],[-105.27119,39.20607],[-105.27237,39.20765],[-105.27218,39.20865],[-105.27264,39.21029],[-105.27362,39.21135],[-105.27384,39.21189],[-105.27377,39.21231],[-105.27428,39.21297],[-105.27431,39.21389],[-105.27406,39.21431],[-105.27425,39.21479],[-105.27399,39.21531],[-105.27434,39.21587]],[[-105.28845,39.18323],[-105.28927,39.18376],[-105.2891,39.18421],[-105.28685,39.18401],[-105.28612,39.18316],[-105.28713,39.18249],[-105.2879,39.18287],[-105.28808,39.1832],[-105.28845,39.18323]]]},"properties":{"waterbody_id":"co_waterbody_cheesman_lake_10190002_001","water_id":"co_waterbody_cheesman_lake_10190002_001","occurrence_id":"co_waterbody_cheesman_lake_10190002_001","occurrence_number":"001","display_name":"Cheesman Lake","normalized_name":"cheesman lake","mapped_name":"Cheesman Lake","source_name":"Cheesman Lake","disambiguator":"Upper South Platte · lake","state":"CO","atlas_layer":"waterbody_object","object_role":"waterbody_object","atlas_class":"named_waterbody","waterbody_type":"lake","huc8":"10190002","huc8Name":"Upper South Platte","huc8States":"CO","lineageKey":"greenback","lineage":"greenback","historic":"greenback","current":"greenback","recovery":"recoveryWatch","lineageLabel":"Greenback / South Platte lineage","lineageBasin":"Upper South Platte","lineageNote":"Generalized historical greenback context; not exact population mapping","atlas_context":"cutthroat_lineage_context","area_sq_km":3.58143493,"elevation":2085.4416,"FType":390,"FCode":39009,"source_id":"120030962","bounds":{"west":-105.30995,"south":39.16324,"east":-105.27119,"north":39.22042},"confidence_public":"Watershed-level lineage context; expert review recommended","geometry_status_public":"Named waterbody polygon from public hydrography","geometry_source_public":"Public hydrography waterbody polygon","trout_source_public":"Compiled public recovery and lineage context; expert review recommended","public_notes":"Cheesman Lake is shown as a named waterbody within watershed-level cutthroat lineage context. This is not a precise biological boundary."}}]}