{"type":"FeatureCollection","metadata":{"source":"C:\\ct-atlas-data\\processed\\geojson\\interpreted\\colorado_waterbody_objects_v1.geojson","type":"colorado-waterbody-object-v1-tile","tile_size_degrees":0.25,"x":-425,"y":154,"bounds":{"west":-106.25,"south":38.5,"east":-106,"north":38.75}},"features":[{"type":"Feature","geometry":{"type":"Polygon","coordinates":[[[-106.22561,38.62341],[-106.22581,38.62388],[-106.22709,38.62453],[-106.22708,38.62484],[-106.22737,38.62496],[-106.22785,38.62482],[-106.22778,38.62439],[-106.2273,38.6239],[-106.22595,38.62326],[-106.22561,38.62341]]]},"properties":{"waterbody_id":"co_waterbody_shavano_lake_11020001_001","water_id":"co_waterbody_shavano_lake_11020001_001","occurrence_id":"co_waterbody_shavano_lake_11020001_001","occurrence_number":"001","display_name":"Shavano Lake","normalized_name":"shavano lake","mapped_name":"Shavano Lake","source_name":"Shavano Lake","disambiguator":"Arkansas Headwaters · lake","state":"CO","atlas_layer":"waterbody_object","object_role":"waterbody_object","atlas_class":"named_waterbody","waterbody_type":"lake","huc8":"11020001","huc8Name":"Arkansas Headwaters","huc8States":"CO","lineageKey":"yellowfin","lineage":"yellowfin","historic":"yellowfin","current":"yellowfin","recovery":"recoveryWatch","lineageLabel":"Yellowfin / Arkansas headwaters historical form","lineageBasin":"Arkansas Headwaters","lineageNote":"Atlas model treats Arkansas watershed as Yellowfin historical context","atlas_context":"cutthroat_lineage_context","area_sq_km":0.015,"elevation":0,"FType":390,"FCode":39004,"source_id":"133050693","bounds":{"west":-106.22785,"south":38.62326,"east":-106.22561,"north":38.62496},"confidence_public":"Watershed-level lineage context; expert review recommended","geometry_status_public":"Named waterbody polygon from public hydrography","geometry_source_public":"Public hydrography waterbody polygon","trout_source_public":"Compiled public recovery and lineage context; expert review recommended","public_notes":"Shavano Lake is shown as a named waterbody within watershed-level cutthroat lineage context. This is not a precise biological boundary."}},{"type":"Feature","geometry":{"type":"Polygon","coordinates":[[[-106.23371,38.71145],[-106.234,38.71147],[-106.23421,38.71181],[-106.23456,38.71168],[-106.23441,38.71076],[-106.23388,38.71021],[-106.23364,38.71041],[-106.23371,38.71145]]]},"properties":{"waterbody_id":"co_waterbody_chalk_lake_11020001_002","water_id":"co_waterbody_chalk_lake_11020001_002","occurrence_id":"co_waterbody_chalk_lake_11020001_002","occurrence_number":"002","display_name":"Chalk Lake","normalized_name":"chalk lake","mapped_name":"Chalk Lake","source_name":"Chalk Lake","disambiguator":"Arkansas Headwaters · lake · occurrence 002","state":"CO","atlas_layer":"waterbody_object","object_role":"waterbody_object","atlas_class":"named_waterbody","waterbody_type":"lake","huc8":"11020001","huc8Name":"Arkansas Headwaters","huc8States":"CO","lineageKey":"yellowfin","lineage":"yellowfin","historic":"yellowfin","current":"yellowfin","recovery":"recoveryWatch","lineageLabel":"Yellowfin / Arkansas headwaters historical form","lineageBasin":"Arkansas Headwaters","lineageNote":"Atlas model treats Arkansas watershed as Yellowfin historical context","atlas_context":"cutthroat_lineage_context","area_sq_km":0.01,"elevation":0,"FType":390,"FCode":39004,"source_id":"133050291","bounds":{"west":-106.23456,"south":38.71021,"east":-106.23364,"north":38.71181},"confidence_public":"Watershed-level lineage context; expert review recommended","geometry_status_public":"Named waterbody polygon from public hydrography","geometry_source_public":"Public hydrography waterbody polygon","trout_source_public":"Compiled public recovery and lineage context; expert review recommended","public_notes":"Chalk Lake is shown as a named waterbody within watershed-level cutthroat lineage context. This is not a precise biological boundary."}},{"type":"Feature","geometry":{"type":"Polygon","coordinates":[[[-106.02383,38.5428],[-106.02342,38.54258],[-106.02257,38.54257],[-106.0225,38.54332],[-106.02235,38.54331],[-106.02241,38.54258],[-106.02159,38.54263],[-106.02127,38.54312],[-106.02128,38.54407],[-106.02317,38.54478],[-106.02399,38.54474],[-106.02383,38.5428]],[[-106.02233,38.54385],[-106.02236,38.54351],[-106.02256,38.54355],[-106.02254,38.54391],[-106.02233,38.54385]]]},"properties":{"waterbody_id":"co_waterbody_frantz_lake_11020001_001","water_id":"co_waterbody_frantz_lake_11020001_001","occurrence_id":"co_waterbody_frantz_lake_11020001_001","occurrence_number":"001","display_name":"Frantz Lake","normalized_name":"frantz lake","mapped_name":"Frantz Lake","source_name":"Frantz Lake","disambiguator":"Arkansas Headwaters · lake","state":"CO","atlas_layer":"waterbody_object","object_role":"waterbody_object","atlas_class":"named_waterbody","waterbody_type":"lake","huc8":"11020001","huc8Name":"Arkansas Headwaters","huc8States":"CO","lineageKey":"yellowfin","lineage":"yellowfin","historic":"yellowfin","current":"yellowfin","recovery":"recoveryWatch","lineageLabel":"Yellowfin / Arkansas headwaters historical form","lineageBasin":"Arkansas Headwaters","lineageNote":"Atlas model treats Arkansas watershed as Yellowfin historical context","atlas_context":"cutthroat_lineage_context","area_sq_km":0.048,"elevation":0,"FType":390,"FCode":39004,"source_id":"133051387","bounds":{"west":-106.02399,"south":38.54257,"east":-106.02127,"north":38.54478},"confidence_public":"Watershed-level lineage context; expert review recommended","geometry_status_public":"Named waterbody polygon from public hydrography","geometry_source_public":"Public hydrography waterbody polygon","trout_source_public":"Compiled public recovery and lineage context; expert review recommended","public_notes":"Frantz Lake is shown as a named waterbody within watershed-level cutthroat lineage context. This is not a precise biological boundary."}},{"type":"Feature","geometry":{"type":"Polygon","coordinates":[[[-106.24906,38.54],[-106.24789,38.53995],[-106.24775,38.54024],[-106.24818,38.54053],[-106.24906,38.54]]]},"properties":{"waterbody_id":"co_waterbody_fooses_lake_11020001_001","water_id":"co_waterbody_fooses_lake_11020001_001","occurrence_id":"co_waterbody_fooses_lake_11020001_001","occurrence_number":"001","display_name":"Fooses Lake","normalized_name":"fooses lake","mapped_name":"Fooses Lake","source_name":"Fooses Lake","disambiguator":"Arkansas Headwaters · lake","state":"CO","atlas_layer":"waterbody_object","object_role":"waterbody_object","atlas_class":"named_waterbody","waterbody_type":"lake","huc8":"11020001","huc8Name":"Arkansas Headwaters","huc8States":"CO","lineageKey":"yellowfin","lineage":"yellowfin","historic":"yellowfin","current":"yellowfin","recovery":"recoveryWatch","lineageLabel":"Yellowfin / Arkansas headwaters historical form","lineageBasin":"Arkansas Headwaters","lineageNote":"Atlas model treats Arkansas watershed as Yellowfin historical context","atlas_context":"cutthroat_lineage_context","area_sq_km":0.005,"elevation":0,"FType":390,"FCode":39004,"source_id":"133051275","bounds":{"west":-106.24906,"south":38.53995,"east":-106.24775,"north":38.54053},"confidence_public":"Watershed-level lineage context; expert review recommended","geometry_status_public":"Named waterbody polygon from public hydrography","geometry_source_public":"Public hydrography waterbody polygon","trout_source_public":"Compiled public recovery and lineage context; expert review recommended","public_notes":"Fooses Lake is shown as a named waterbody within watershed-level cutthroat lineage context. This is not a precise biological boundary."}}]}