{"type":"FeatureCollection","metadata":{"source":"C:\\ct-atlas-data\\processed\\geojson\\interpreted\\colorado_waterbody_objects_v1.geojson","type":"colorado-waterbody-object-v1-tile","tile_size_degrees":0.25,"x":-412,"y":148,"bounds":{"west":-103,"south":37,"east":-102.75,"north":37.25}},"features":[{"type":"Feature","geometry":{"type":"Polygon","coordinates":[[[-102.94713,37.16044],[-102.94734,37.15913],[-102.94665,37.15819],[-102.94586,37.15804],[-102.94434,37.15931],[-102.94356,37.16057],[-102.94349,37.16097],[-102.94451,37.16163],[-102.94585,37.16157],[-102.94659,37.16123],[-102.94713,37.16044]]]},"properties":{"waterbody_id":"co_waterbody_reader_lake_11040002_001","water_id":"co_waterbody_reader_lake_11040002_001","occurrence_id":"co_waterbody_reader_lake_11040002_001","occurrence_number":"001","display_name":"Reader Lake","normalized_name":"reader lake","mapped_name":"Reader Lake","source_name":"Reader Lake","disambiguator":"Upper Cimarron · lake","state":"CO","atlas_layer":"waterbody_object","object_role":"waterbody_object","atlas_class":"named_waterbody","waterbody_type":"lake","huc8":"11040002","huc8Name":"Upper Cimarron","huc8States":"CO,KS,NM,OK","lineageKey":"statewideContext","lineage":"statewideContext","historic":"statewideContext","current":"statewideContext","recovery":"statewideContext","lineageLabel":"Statewide Colorado hydrography context","lineageBasin":"","lineageNote":"","atlas_context":"statewide_hydrography_context","area_sq_km":0.096,"elevation":0,"FType":390,"FCode":39001,"source_id":"135326824","bounds":{"west":-102.94734,"south":37.15804,"east":-102.94349,"north":37.16163},"confidence_public":"Statewide hydrography context outside current cutthroat lineage model","geometry_status_public":"Named waterbody polygon from public hydrography","geometry_source_public":"Public hydrography waterbody polygon","trout_source_public":"Included for Colorado statewide hydrography completeness","public_notes":"Reader Lake is shown as statewide Colorado hydrography context outside the current cutthroat lineage assignment set."}}]}