{"type":"FeatureCollection","metadata":{"source":"C:\\ct-atlas-data\\processed\\geojson\\interpreted\\colorado_waterbody_objects_v1.geojson","type":"colorado-waterbody-object-v1-tile","tile_size_degrees":0.25,"x":-427,"y":153,"bounds":{"west":-106.75,"south":38.25,"east":-106.5,"north":38.5}},"features":[{"type":"Feature","geometry":{"type":"Polygon","coordinates":[[[-106.66106,38.34917],[-106.66044,38.34956],[-106.66054,38.35022],[-106.66204,38.35249],[-106.66264,38.35295],[-106.66332,38.35509],[-106.66448,38.35502],[-106.66452,38.35456],[-106.66504,38.35414],[-106.66493,38.35358],[-106.66447,38.35327],[-106.66324,38.35159],[-106.66292,38.35139],[-106.66178,38.3496],[-106.66106,38.34917]]]},"properties":{"waterbody_id":"co_waterbody_vouga_reservoir_14020003_001","water_id":"co_waterbody_vouga_reservoir_14020003_001","occurrence_id":"co_waterbody_vouga_reservoir_14020003_001","occurrence_number":"001","display_name":"Vouga Reservoir","normalized_name":"vouga reservoir","mapped_name":"Vouga Reservoir","source_name":"Vouga Reservoir","disambiguator":"Tomichi · reservoir","state":"CO","atlas_layer":"waterbody_object","object_role":"waterbody_object","atlas_class":"named_waterbody","waterbody_type":"reservoir","huc8":"14020003","huc8Name":"Tomichi","huc8States":"CO","lineageKey":"coloradoRiver","lineage":"coloradoRiver","historic":"coloradoRiver","current":"coloradoRiver","recovery":"recoveryWatch","lineageLabel":"Colorado River green lineage","lineageBasin":"Tomichi","lineageNote":"Gunnison green-lineage context","atlas_context":"cutthroat_lineage_context","area_sq_km":0.091,"elevation":0,"FType":390,"FCode":39004,"source_id":"69194797","bounds":{"west":-106.66504,"south":38.34917,"east":-106.66044,"north":38.35509},"confidence_public":"Watershed-level lineage context; expert review recommended","geometry_status_public":"Named waterbody polygon from public hydrography","geometry_source_public":"Public hydrography waterbody polygon","trout_source_public":"Compiled public recovery and lineage context; expert review recommended","public_notes":"Vouga Reservoir is shown as a named waterbody within watershed-level cutthroat lineage context. This is not a precise biological boundary."}},{"type":"Feature","geometry":{"type":"Polygon","coordinates":[[[-106.56372,38.34925],[-106.56241,38.34909],[-106.56217,38.34888],[-106.56296,38.34717],[-106.56203,38.34826],[-106.56033,38.34971],[-106.5581,38.35054],[-106.55608,38.34897],[-106.55571,38.34812],[-106.55564,38.34861],[-106.55603,38.35029],[-106.55572,38.35174],[-106.5576,38.35315],[-106.5589,38.35307],[-106.55914,38.35295],[-106.55969,38.35189],[-106.56167,38.34994],[-106.56372,38.34925]]]},"properties":{"waterbody_id":"co_waterbody_needle_creek_reservoir_14020003_001","water_id":"co_waterbody_needle_creek_reservoir_14020003_001","occurrence_id":"co_waterbody_needle_creek_reservoir_14020003_001","occurrence_number":"001","display_name":"Needle Creek Reservoir","normalized_name":"needle creek reservoir","mapped_name":"Needle Creek Reservoir","source_name":"Needle Creek Reservoir","disambiguator":"Tomichi · reservoir","state":"CO","atlas_layer":"waterbody_object","object_role":"waterbody_object","atlas_class":"named_waterbody","waterbody_type":"reservoir","huc8":"14020003","huc8Name":"Tomichi","huc8States":"CO","lineageKey":"coloradoRiver","lineage":"coloradoRiver","historic":"coloradoRiver","current":"coloradoRiver","recovery":"recoveryWatch","lineageLabel":"Colorado River green lineage","lineageBasin":"Tomichi","lineageNote":"Gunnison green-lineage context","atlas_context":"cutthroat_lineage_context","area_sq_km":0.15,"elevation":0,"FType":390,"FCode":39004,"source_id":"69200181","bounds":{"west":-106.56372,"south":38.34717,"east":-106.55564,"north":38.35315},"confidence_public":"Watershed-level lineage context; expert review recommended","geometry_status_public":"Named waterbody polygon from public hydrography","geometry_source_public":"Public hydrography waterbody polygon","trout_source_public":"Compiled public recovery and lineage context; expert review recommended","public_notes":"Needle Creek Reservoir is shown as a named waterbody within watershed-level cutthroat lineage context. This is not a precise biological boundary."}},{"type":"Feature","geometry":{"type":"Polygon","coordinates":[[[-106.74882,38.26933],[-106.74883,38.26887],[-106.74952,38.26858],[-106.74992,38.26788],[-106.75059,38.26722],[-106.75104,38.26567],[-106.75053,38.26574],[-106.75034,38.26661],[-106.74882,38.26764],[-106.74858,38.26799],[-106.74689,38.2681],[-106.74674,38.26856],[-106.74723,38.26941],[-106.74755,38.26957],[-106.74882,38.26933]]]},"properties":{"waterbody_id":"co_waterbody_moss_lake_14020003_001","water_id":"co_waterbody_moss_lake_14020003_001","occurrence_id":"co_waterbody_moss_lake_14020003_001","occurrence_number":"001","display_name":"Moss Lake","normalized_name":"moss lake","mapped_name":"Moss Lake","source_name":"Moss Lake","disambiguator":"Tomichi · lake · occurrence 001","state":"CO","atlas_layer":"waterbody_object","object_role":"waterbody_object","atlas_class":"named_waterbody","waterbody_type":"lake","huc8":"14020003","huc8Name":"Tomichi","huc8States":"CO","lineageKey":"coloradoRiver","lineage":"coloradoRiver","historic":"coloradoRiver","current":"coloradoRiver","recovery":"recoveryWatch","lineageLabel":"Colorado River green lineage","lineageBasin":"Tomichi","lineageNote":"Gunnison green-lineage context","atlas_context":"cutthroat_lineage_context","area_sq_km":0.04906099,"elevation":0,"FType":390,"FCode":39004,"source_id":"69201795","bounds":{"west":-106.75104,"south":38.26567,"east":-106.74674,"north":38.26957},"confidence_public":"Watershed-level lineage context; expert review recommended","geometry_status_public":"Named waterbody polygon from public hydrography","geometry_source_public":"Public hydrography waterbody polygon","trout_source_public":"Compiled public recovery and lineage context; expert review recommended","public_notes":"Moss Lake is shown as a named waterbody within watershed-level cutthroat lineage context. This is not a precise biological boundary."}}]}