{"type":"FeatureCollection","metadata":{"source":"C:\\ct-atlas-data\\processed\\geojson\\interpreted\\colorado_waterbody_objects_v1.geojson","type":"colorado-waterbody-object-v1-tile","tile_size_degrees":0.25,"x":-420,"y":155,"bounds":{"west":-105,"south":38.75,"east":-104.75,"north":39}},"features":[{"type":"Feature","geometry":{"type":"Polygon","coordinates":[[[-104.97304,38.82636],[-104.97181,38.8279],[-104.97114,38.82831],[-104.97003,38.82727],[-104.96983,38.82741],[-104.96974,38.82775],[-104.96993,38.82845],[-104.97042,38.82949],[-104.97171,38.82977],[-104.9724,38.82901],[-104.97301,38.82704],[-104.97304,38.82636]]]},"properties":{"waterbody_id":"co_waterbody_big_tooth_reservoir_11020003_001","water_id":"co_waterbody_big_tooth_reservoir_11020003_001","occurrence_id":"co_waterbody_big_tooth_reservoir_11020003_001","occurrence_number":"001","display_name":"Big Tooth Reservoir","normalized_name":"big tooth reservoir","mapped_name":"Big Tooth Reservoir","source_name":"Big Tooth Reservoir","disambiguator":"Fountain · reservoir","state":"CO","atlas_layer":"waterbody_object","object_role":"waterbody_object","atlas_class":"named_waterbody","waterbody_type":"reservoir","huc8":"11020003","huc8Name":"Fountain","huc8States":"CO","lineageKey":"yellowfin","lineage":"yellowfin","historic":"yellowfin","current":"yellowfin","recovery":"recoveryWatch","lineageLabel":"Yellowfin / Arkansas headwaters historical form","lineageBasin":"Fountain / Bear Creek","lineageNote":"Includes Bear Creek as Arkansas watershed context; modern greenback refuge is a translocation story","atlas_context":"cutthroat_lineage_context","area_sq_km":0.047,"elevation":0,"FType":390,"FCode":39004,"source_id":"128019036","bounds":{"west":-104.97304,"south":38.82636,"east":-104.96974,"north":38.82977},"confidence_public":"Watershed-level lineage context; expert review recommended","geometry_status_public":"Named waterbody polygon from public hydrography","geometry_source_public":"Public hydrography waterbody polygon","trout_source_public":"Compiled public recovery and lineage context; expert review recommended","public_notes":"Big Tooth Reservoir is shown as a named waterbody within watershed-level cutthroat lineage context. This is not a precise biological boundary."}},{"type":"Feature","geometry":{"type":"Polygon","coordinates":[[[-104.86676,38.79513],[-104.86637,38.79426],[-104.86515,38.79471],[-104.86393,38.79547],[-104.86449,38.79667],[-104.86584,38.79679],[-104.86628,38.79659],[-104.86676,38.79513]]]},"properties":{"waterbody_id":"co_waterbody_south_suburban_reservoir_11020003_001","water_id":"co_waterbody_south_suburban_reservoir_11020003_001","occurrence_id":"co_waterbody_south_suburban_reservoir_11020003_001","occurrence_number":"001","display_name":"South Suburban Reservoir","normalized_name":"south suburban reservoir","mapped_name":"South Suburban Reservoir","source_name":"South Suburban Reservoir","disambiguator":"Fountain · reservoir","state":"CO","atlas_layer":"waterbody_object","object_role":"waterbody_object","atlas_class":"named_waterbody","waterbody_type":"reservoir","huc8":"11020003","huc8Name":"Fountain","huc8States":"CO","lineageKey":"yellowfin","lineage":"yellowfin","historic":"yellowfin","current":"yellowfin","recovery":"recoveryWatch","lineageLabel":"Yellowfin / Arkansas headwaters historical form","lineageBasin":"Fountain / Bear Creek","lineageNote":"Includes Bear Creek as Arkansas watershed context; modern greenback refuge is a translocation story","atlas_context":"cutthroat_lineage_context","area_sq_km":0.049,"elevation":0,"FType":390,"FCode":39004,"source_id":"128019115","bounds":{"west":-104.86676,"south":38.79426,"east":-104.86393,"north":38.79679},"confidence_public":"Watershed-level lineage context; expert review recommended","geometry_status_public":"Named waterbody polygon from public hydrography","geometry_source_public":"Public hydrography waterbody polygon","trout_source_public":"Compiled public recovery and lineage context; expert review recommended","public_notes":"South Suburban Reservoir is shown as a named waterbody within watershed-level cutthroat lineage context. This is not a precise biological boundary."}},{"type":"Feature","geometry":{"type":"Polygon","coordinates":[[[-104.83964,38.84568],[-104.83977,38.84516],[-104.83945,38.84484],[-104.83907,38.84481],[-104.83852,38.84514],[-104.83854,38.8457],[-104.83927,38.846],[-104.83964,38.84568]]]},"properties":{"waterbody_id":"co_waterbody_mesa_reservoir_number_2_11020003_001","water_id":"co_waterbody_mesa_reservoir_number_2_11020003_001","occurrence_id":"co_waterbody_mesa_reservoir_number_2_11020003_001","occurrence_number":"001","display_name":"Mesa Reservoir Number 2","normalized_name":"mesa reservoir number 2","mapped_name":"Mesa Reservoir Number 2","source_name":"Mesa Reservoir Number 2","disambiguator":"Fountain · reservoir","state":"CO","atlas_layer":"waterbody_object","object_role":"waterbody_object","atlas_class":"named_waterbody","waterbody_type":"reservoir","huc8":"11020003","huc8Name":"Fountain","huc8States":"CO","lineageKey":"yellowfin","lineage":"yellowfin","historic":"yellowfin","current":"yellowfin","recovery":"recoveryWatch","lineageLabel":"Yellowfin / Arkansas headwaters historical form","lineageBasin":"Fountain / Bear Creek","lineageNote":"Includes Bear Creek as Arkansas watershed context; modern greenback refuge is a translocation story","atlas_context":"cutthroat_lineage_context","area_sq_km":0.011,"elevation":0,"FType":390,"FCode":39004,"source_id":"128019027","bounds":{"west":-104.83977,"south":38.84481,"east":-104.83852,"north":38.846},"confidence_public":"Watershed-level lineage context; expert review recommended","geometry_status_public":"Named waterbody polygon from public hydrography","geometry_source_public":"Public hydrography waterbody polygon","trout_source_public":"Compiled public recovery and lineage context; expert review recommended","public_notes":"Mesa Reservoir Number 2 is shown as a named waterbody within watershed-level cutthroat lineage context. This is not a precise biological boundary."}},{"type":"Feature","geometry":{"type":"Polygon","coordinates":[[[-105.00098,38.87187],[-105.00083,38.87157],[-105.00034,38.87176],[-104.99869,38.87303],[-104.99598,38.87445],[-104.99382,38.876],[-104.99381,38.8771],[-104.99415,38.87725],[-104.99395,38.87753],[-104.99421,38.87769],[-104.99463,38.87745],[-104.99494,38.87697],[-104.99548,38.87684],[-104.99554,38.87648],[-104.99611,38.87602],[-104.99693,38.87612],[-104.99712,38.87559],[-104.99878,38.87529],[-105.00022,38.87447],[-105.00027,38.8743],[-104.99898,38.87446],[-104.99765,38.87489],[-104.99735,38.87484],[-104.99729,38.87459],[-104.99973,38.87328],[-105.00098,38.87187]]]},"properties":{"waterbody_id":"co_waterbody_manitou_reservoir_11020003_001","water_id":"co_waterbody_manitou_reservoir_11020003_001","occurrence_id":"co_waterbody_manitou_reservoir_11020003_001","occurrence_number":"001","display_name":"Manitou Reservoir","normalized_name":"manitou reservoir","mapped_name":"Manitou Reservoir","source_name":"Manitou Reservoir","disambiguator":"Fountain · reservoir","state":"CO","atlas_layer":"waterbody_object","object_role":"waterbody_object","atlas_class":"named_waterbody","waterbody_type":"reservoir","huc8":"11020003","huc8Name":"Fountain","huc8States":"CO","lineageKey":"yellowfin","lineage":"yellowfin","historic":"yellowfin","current":"yellowfin","recovery":"recoveryWatch","lineageLabel":"Yellowfin / Arkansas headwaters historical form","lineageBasin":"Fountain / Bear Creek","lineageNote":"Includes Bear Creek as Arkansas watershed context; modern greenback refuge is a translocation story","atlas_context":"cutthroat_lineage_context","area_sq_km":0.104,"elevation":0,"FType":390,"FCode":39004,"source_id":"128018977","bounds":{"west":-105.00098,"south":38.87157,"east":-104.99381,"north":38.87769},"confidence_public":"Watershed-level lineage context; expert review recommended","geometry_status_public":"Named waterbody polygon from public hydrography","geometry_source_public":"Public hydrography waterbody polygon","trout_source_public":"Compiled public recovery and lineage context; expert review recommended","public_notes":"Manitou Reservoir is shown as a named waterbody within watershed-level cutthroat lineage context. This is not a precise biological boundary."}},{"type":"Feature","geometry":{"type":"Polygon","coordinates":[[[-104.95437,38.97258],[-104.95366,38.97212],[-104.95268,38.97189],[-104.95259,38.97158],[-104.95205,38.97134],[-104.95163,38.97078],[-104.95092,38.97035],[-104.95106,38.96993],[-104.95208,38.969],[-104.95191,38.9684],[-104.95166,38.96839],[-104.95125,38.96898],[-104.95101,38.9683],[-104.95008,38.96906],[-104.9494,38.96913],[-104.94862,38.96888],[-104.94825,38.96907],[-104.94867,38.96917],[-104.9482,38.96941],[-104.94873,38.97044],[-104.94942,38.97046],[-104.94969,38.97084],[-104.9512,38.97158],[-104.9517,38.97234],[-104.95264,38.97313],[-104.95292,38.9731],[-104.95305,38.97264],[-104.95332,38.97246],[-104.95437,38.97258]]]},"properties":{"waterbody_id":"co_waterbody_nichols_reservoir_11020003_001","water_id":"co_waterbody_nichols_reservoir_11020003_001","occurrence_id":"co_waterbody_nichols_reservoir_11020003_001","occurrence_number":"001","display_name":"Nichols Reservoir","normalized_name":"nichols reservoir","mapped_name":"Nichols Reservoir","source_name":"Nichols Reservoir","disambiguator":"Fountain · reservoir","state":"CO","atlas_layer":"waterbody_object","object_role":"waterbody_object","atlas_class":"named_waterbody","waterbody_type":"reservoir","huc8":"11020003","huc8Name":"Fountain","huc8States":"CO","lineageKey":"yellowfin","lineage":"yellowfin","historic":"yellowfin","current":"yellowfin","recovery":"recoveryWatch","lineageLabel":"Yellowfin / Arkansas headwaters historical form","lineageBasin":"Fountain / Bear Creek","lineageNote":"Includes Bear Creek as Arkansas watershed context; modern greenback refuge is a translocation story","atlas_context":"cutthroat_lineage_context","area_sq_km":0.086,"elevation":0,"FType":390,"FCode":39004,"source_id":"128018731","bounds":{"west":-104.95437,"south":38.9683,"east":-104.9482,"north":38.97313},"confidence_public":"Watershed-level lineage context; expert review recommended","geometry_status_public":"Named waterbody polygon from public hydrography","geometry_source_public":"Public hydrography waterbody polygon","trout_source_public":"Compiled public recovery and lineage context; expert review recommended","public_notes":"Nichols Reservoir is shown as a named waterbody within watershed-level cutthroat lineage context. This is not a precise biological boundary."}},{"type":"Feature","geometry":{"type":"Polygon","coordinates":[[[-104.87584,38.87117],[-104.87539,38.87122],[-104.87518,38.87148],[-104.87512,38.8731],[-104.87629,38.87432],[-104.87676,38.87458],[-104.87731,38.87461],[-104.87773,38.87416],[-104.8776,38.87322],[-104.87584,38.87117]]]},"properties":{"waterbody_id":"co_waterbody_valley_reservoir_number_1_11020003_001","water_id":"co_waterbody_valley_reservoir_number_1_11020003_001","occurrence_id":"co_waterbody_valley_reservoir_number_1_11020003_001","occurrence_number":"001","display_name":"Valley Reservoir Number 1","normalized_name":"valley reservoir number 1","mapped_name":"Valley Reservoir Number 1","source_name":"Valley Reservoir Number 1","disambiguator":"Fountain · reservoir","state":"CO","atlas_layer":"waterbody_object","object_role":"waterbody_object","atlas_class":"named_waterbody","waterbody_type":"reservoir","huc8":"11020003","huc8Name":"Fountain","huc8States":"CO","lineageKey":"yellowfin","lineage":"yellowfin","historic":"yellowfin","current":"yellowfin","recovery":"recoveryWatch","lineageLabel":"Yellowfin / Arkansas headwaters historical form","lineageBasin":"Fountain / Bear Creek","lineageNote":"Includes Bear Creek as Arkansas watershed context; modern greenback refuge is a translocation story","atlas_context":"cutthroat_lineage_context","area_sq_km":0.055,"elevation":0,"FType":390,"FCode":39004,"source_id":"128018987","bounds":{"west":-104.87773,"south":38.87117,"east":-104.87512,"north":38.87461},"confidence_public":"Watershed-level lineage context; expert review recommended","geometry_status_public":"Named waterbody polygon from public hydrography","geometry_source_public":"Public hydrography waterbody polygon","trout_source_public":"Compiled public recovery and lineage context; expert review recommended","public_notes":"Valley Reservoir Number 1 is shown as a named waterbody within watershed-level cutthroat lineage context. This is not a precise biological boundary."}},{"type":"Feature","geometry":{"type":"Polygon","coordinates":[[[-104.79789,38.82248],[-104.79645,38.82293],[-104.79503,38.82411],[-104.79675,38.82564],[-104.79882,38.82696],[-104.80077,38.82789],[-104.80254,38.82703],[-104.80259,38.82662],[-104.79789,38.82248]]]},"properties":{"waterbody_id":"co_waterbody_prospect_lake_11020003_001","water_id":"co_waterbody_prospect_lake_11020003_001","occurrence_id":"co_waterbody_prospect_lake_11020003_001","occurrence_number":"001","display_name":"Prospect Lake","normalized_name":"prospect lake","mapped_name":"Prospect Lake","source_name":"Prospect Lake","disambiguator":"Fountain · lake","state":"CO","atlas_layer":"waterbody_object","object_role":"waterbody_object","atlas_class":"named_waterbody","waterbody_type":"lake","huc8":"11020003","huc8Name":"Fountain","huc8States":"CO","lineageKey":"yellowfin","lineage":"yellowfin","historic":"yellowfin","current":"yellowfin","recovery":"recoveryWatch","lineageLabel":"Yellowfin / Arkansas headwaters historical form","lineageBasin":"Fountain / Bear Creek","lineageNote":"Includes Bear Creek as Arkansas watershed context; modern greenback refuge is a translocation story","atlas_context":"cutthroat_lineage_context","area_sq_km":0.193,"elevation":0,"FType":390,"FCode":39004,"source_id":"128019052","bounds":{"west":-104.80259,"south":38.82248,"east":-104.79503,"north":38.82789},"confidence_public":"Watershed-level lineage context; expert review recommended","geometry_status_public":"Named waterbody polygon from public hydrography","geometry_source_public":"Public hydrography waterbody polygon","trout_source_public":"Compiled public recovery and lineage context; expert review recommended","public_notes":"Prospect Lake is shown as a named waterbody within watershed-level cutthroat lineage context. This is not a precise biological boundary."}},{"type":"Feature","geometry":{"type":"Polygon","coordinates":[[[-104.94673,38.97368],[-104.94598,38.97366],[-104.94448,38.97386],[-104.94384,38.97371],[-104.94353,38.97338],[-104.94307,38.97343],[-104.94289,38.97298],[-104.94239,38.97318],[-104.94185,38.97311],[-104.94111,38.97391],[-104.941,38.9753],[-104.94177,38.97614],[-104.94196,38.97596],[-104.94174,38.9753],[-104.94184,38.97482],[-104.94219,38.97447],[-104.94362,38.97496],[-104.94528,38.97508],[-104.94519,38.97467],[-104.94665,38.97425],[-104.94673,38.97368]]]},"properties":{"waterbody_id":"co_waterbody_northfield_reservoir_11020003_001","water_id":"co_waterbody_northfield_reservoir_11020003_001","occurrence_id":"co_waterbody_northfield_reservoir_11020003_001","occurrence_number":"001","display_name":"Northfield Reservoir","normalized_name":"northfield reservoir","mapped_name":"Northfield Reservoir","source_name":"Northfield Reservoir","disambiguator":"Fountain · reservoir","state":"CO","atlas_layer":"waterbody_object","object_role":"waterbody_object","atlas_class":"named_waterbody","waterbody_type":"reservoir","huc8":"11020003","huc8Name":"Fountain","huc8States":"CO","lineageKey":"yellowfin","lineage":"yellowfin","historic":"yellowfin","current":"yellowfin","recovery":"recoveryWatch","lineageLabel":"Yellowfin / Arkansas headwaters historical form","lineageBasin":"Fountain / Bear Creek","lineageNote":"Includes Bear Creek as Arkansas watershed context; modern greenback refuge is a translocation story","atlas_context":"cutthroat_lineage_context","area_sq_km":0.069,"elevation":0,"FType":390,"FCode":39004,"source_id":"128018719","bounds":{"west":-104.94673,"south":38.97298,"east":-104.941,"north":38.97614},"confidence_public":"Watershed-level lineage context; expert review recommended","geometry_status_public":"Named waterbody polygon from public hydrography","geometry_source_public":"Public hydrography waterbody polygon","trout_source_public":"Compiled public recovery and lineage context; expert review recommended","public_notes":"Northfield Reservoir is shown as a named waterbody within watershed-level cutthroat lineage context. This is not a precise biological boundary."}},{"type":"Feature","geometry":{"type":"Polygon","coordinates":[[[-104.92974,38.83134],[-104.92978,38.83161],[-104.93038,38.83165],[-104.93036,38.83135],[-104.92974,38.83134]]]},"properties":{"waterbody_id":"co_waterbody_crystal_park_11020003_001","water_id":"co_waterbody_crystal_park_11020003_001","occurrence_id":"co_waterbody_crystal_park_11020003_001","occurrence_number":"001","display_name":"Crystal Park","normalized_name":"crystal park","mapped_name":"Crystal Park","source_name":"Crystal Park","disambiguator":"Fountain · lake_or_pond","state":"CO","atlas_layer":"waterbody_object","object_role":"waterbody_object","atlas_class":"named_waterbody","waterbody_type":"lake_or_pond","huc8":"11020003","huc8Name":"Fountain","huc8States":"CO","lineageKey":"yellowfin","lineage":"yellowfin","historic":"yellowfin","current":"yellowfin","recovery":"recoveryWatch","lineageLabel":"Yellowfin / Arkansas headwaters historical form","lineageBasin":"Fountain / Bear Creek","lineageNote":"Includes Bear Creek as Arkansas watershed context; modern greenback refuge is a translocation story","atlas_context":"cutthroat_lineage_context","area_sq_km":0.002,"elevation":0,"FType":390,"FCode":39004,"source_id":"128019034","bounds":{"west":-104.93038,"south":38.83134,"east":-104.92974,"north":38.83165},"confidence_public":"Watershed-level lineage context; expert review recommended","geometry_status_public":"Named waterbody polygon from public hydrography","geometry_source_public":"Public hydrography waterbody polygon","trout_source_public":"Compiled public recovery and lineage context; expert review recommended","public_notes":"Crystal Park is shown as a named waterbody within watershed-level cutthroat lineage context. This is not a precise biological boundary."}},{"type":"Feature","geometry":{"type":"Polygon","coordinates":[[[-104.95117,38.93626],[-104.95059,38.93602],[-104.95046,38.93551],[-104.95005,38.93547],[-104.94904,38.93487],[-104.94809,38.9354],[-104.949,38.93688],[-104.94902,38.93763],[-104.94949,38.93735],[-104.94946,38.93678],[-104.9504,38.93662],[-104.95117,38.93626]]]},"properties":{"waterbody_id":"co_waterbody_palmer_reservoir_11020003_001","water_id":"co_waterbody_palmer_reservoir_11020003_001","occurrence_id":"co_waterbody_palmer_reservoir_11020003_001","occurrence_number":"001","display_name":"Palmer Reservoir","normalized_name":"palmer reservoir","mapped_name":"Palmer Reservoir","source_name":"Palmer Reservoir","disambiguator":"Fountain · reservoir · occurrence 001","state":"CO","atlas_layer":"waterbody_object","object_role":"waterbody_object","atlas_class":"named_waterbody","waterbody_type":"reservoir","huc8":"11020003","huc8Name":"Fountain","huc8States":"CO","lineageKey":"yellowfin","lineage":"yellowfin","historic":"yellowfin","current":"yellowfin","recovery":"recoveryWatch","lineageLabel":"Yellowfin / Arkansas headwaters historical form","lineageBasin":"Fountain / Bear Creek","lineageNote":"Includes Bear Creek as Arkansas watershed context; modern greenback refuge is a translocation story","atlas_context":"cutthroat_lineage_context","area_sq_km":0.036,"elevation":0,"FType":390,"FCode":39004,"source_id":"128018858","bounds":{"west":-104.95117,"south":38.93487,"east":-104.94809,"north":38.93763},"confidence_public":"Watershed-level lineage context; expert review recommended","geometry_status_public":"Named waterbody polygon from public hydrography","geometry_source_public":"Public hydrography waterbody polygon","trout_source_public":"Compiled public recovery and lineage context; expert review recommended","public_notes":"Palmer Reservoir is shown as a named waterbody within watershed-level cutthroat lineage context. This is not a precise biological boundary."}},{"type":"Feature","geometry":{"type":"Polygon","coordinates":[[[-104.99838,38.80875],[-104.99812,38.80855],[-104.99777,38.80759],[-104.99741,38.80732],[-104.99598,38.808],[-104.99552,38.80926],[-104.99495,38.80966],[-104.99399,38.81139],[-104.99227,38.81292],[-104.99177,38.8144],[-104.99129,38.81456],[-104.99129,38.81476],[-104.99217,38.81543],[-104.99355,38.81546],[-104.99387,38.81581],[-104.9948,38.81585],[-104.99508,38.81576],[-104.99568,38.81508],[-104.99652,38.81467],[-104.99727,38.81351],[-104.99693,38.81296],[-104.99579,38.81332],[-104.99417,38.81452],[-104.99375,38.81443],[-104.99637,38.8126],[-104.9966,38.81154],[-104.9975,38.81155],[-104.99817,38.81111],[-104.99911,38.81089],[-105.00002,38.8101],[-104.99996,38.80997],[-104.99911,38.81054],[-104.99826,38.81011],[-104.99761,38.81024],[-104.99744,38.80955],[-104.99838,38.80875]]]},"properties":{"waterbody_id":"co_waterbody_lake_moraine_11020003_001","water_id":"co_waterbody_lake_moraine_11020003_001","occurrence_id":"co_waterbody_lake_moraine_11020003_001","occurrence_number":"001","display_name":"Lake Moraine","normalized_name":"lake moraine","mapped_name":"Lake Moraine","source_name":"Lake Moraine","disambiguator":"Fountain · lake","state":"CO","atlas_layer":"waterbody_object","object_role":"waterbody_object","atlas_class":"named_waterbody","waterbody_type":"lake","huc8":"11020003","huc8Name":"Fountain","huc8States":"CO","lineageKey":"yellowfin","lineage":"yellowfin","historic":"yellowfin","current":"yellowfin","recovery":"recoveryWatch","lineageLabel":"Yellowfin / Arkansas headwaters historical form","lineageBasin":"Fountain / Bear Creek","lineageNote":"Includes Bear Creek as Arkansas watershed context; modern greenback refuge is a translocation story","atlas_context":"cutthroat_lineage_context","area_sq_km":0.27,"elevation":0,"FType":390,"FCode":39004,"source_id":"128019047","bounds":{"west":-105.00002,"south":38.80732,"east":-104.99129,"north":38.81585},"confidence_public":"Watershed-level lineage context; expert review recommended","geometry_status_public":"Named waterbody polygon from public hydrography","geometry_source_public":"Public hydrography waterbody polygon","trout_source_public":"Compiled public recovery and lineage context; expert review recommended","public_notes":"Lake Moraine is shown as a named waterbody within watershed-level cutthroat lineage context. This is not a precise biological boundary."}},{"type":"Feature","geometry":{"type":"Polygon","coordinates":[[[-104.97976,38.75363],[-104.9794,38.75357],[-104.97916,38.75424],[-104.97976,38.75524],[-104.97994,38.75527],[-104.98014,38.75507],[-104.97978,38.75443],[-104.97976,38.75363]]]},"properties":{"waterbody_id":"co_waterbody_deer_park_11020002_001","water_id":"co_waterbody_deer_park_11020002_001","occurrence_id":"co_waterbody_deer_park_11020002_001","occurrence_number":"001","display_name":"Deer Park","normalized_name":"deer park","mapped_name":"Deer Park","source_name":"Deer Park","disambiguator":"Upper Arkansas · lake_or_pond","state":"CO","atlas_layer":"waterbody_object","object_role":"waterbody_object","atlas_class":"named_waterbody","waterbody_type":"lake_or_pond","huc8":"11020002","huc8Name":"Upper Arkansas","huc8States":"CO","lineageKey":"yellowfin","lineage":"yellowfin","historic":"yellowfin","current":"yellowfin","recovery":"recoveryWatch","lineageLabel":"Yellowfin / Arkansas headwaters historical form","lineageBasin":"Upper Arkansas","lineageNote":"Atlas model treats Arkansas watershed as Yellowfin historical context","atlas_context":"cutthroat_lineage_context","area_sq_km":0.008,"elevation":0,"FType":390,"FCode":39004,"source_id":"127979274","bounds":{"west":-104.98014,"south":38.75357,"east":-104.97916,"north":38.75527},"confidence_public":"Watershed-level lineage context; expert review recommended","geometry_status_public":"Named waterbody polygon from public hydrography","geometry_source_public":"Public hydrography waterbody polygon","trout_source_public":"Compiled public recovery and lineage context; expert review recommended","public_notes":"Deer Park is shown as a named waterbody within watershed-level cutthroat lineage context. This is not a precise biological boundary."}},{"type":"Feature","geometry":{"type":"Polygon","coordinates":[[[-104.86076,38.87298],[-104.86098,38.8726],[-104.86024,38.87169],[-104.8593,38.87213],[-104.85976,38.87268],[-104.86045,38.87304],[-104.86076,38.87298]]]},"properties":{"waterbody_id":"co_waterbody_highline_reservoir_11020003_001","water_id":"co_waterbody_highline_reservoir_11020003_001","occurrence_id":"co_waterbody_highline_reservoir_11020003_001","occurrence_number":"001","display_name":"Highline Reservoir","normalized_name":"highline reservoir","mapped_name":"Highline Reservoir","source_name":"Highline Reservoir","disambiguator":"Fountain · reservoir","state":"CO","atlas_layer":"waterbody_object","object_role":"waterbody_object","atlas_class":"named_waterbody","waterbody_type":"reservoir","huc8":"11020003","huc8Name":"Fountain","huc8States":"CO","lineageKey":"yellowfin","lineage":"yellowfin","historic":"yellowfin","current":"yellowfin","recovery":"recoveryWatch","lineageLabel":"Yellowfin / Arkansas headwaters historical form","lineageBasin":"Fountain / Bear Creek","lineageNote":"Includes Bear Creek as Arkansas watershed context; modern greenback refuge is a translocation story","atlas_context":"cutthroat_lineage_context","area_sq_km":0.014,"elevation":0,"FType":390,"FCode":39004,"source_id":"128018993","bounds":{"west":-104.86098,"south":38.87169,"east":-104.8593,"north":38.87304},"confidence_public":"Watershed-level lineage context; expert review recommended","geometry_status_public":"Named waterbody polygon from public hydrography","geometry_source_public":"Public hydrography waterbody polygon","trout_source_public":"Compiled public recovery and lineage context; expert review recommended","public_notes":"Highline Reservoir is shown as a named waterbody within watershed-level cutthroat lineage context. This is not a precise biological boundary."}},{"type":"Feature","geometry":{"type":"Polygon","coordinates":[[[-104.85062,38.7742],[-104.85134,38.77495],[-104.85184,38.77439],[-104.85106,38.77374],[-104.85054,38.77387],[-104.85062,38.7742]]]},"properties":{"waterbody_id":"co_waterbody_penrose_reservoir_11020003_001","water_id":"co_waterbody_penrose_reservoir_11020003_001","occurrence_id":"co_waterbody_penrose_reservoir_11020003_001","occurrence_number":"001","display_name":"Penrose Reservoir","normalized_name":"penrose reservoir","mapped_name":"Penrose Reservoir","source_name":"Penrose Reservoir","disambiguator":"Fountain · reservoir","state":"CO","atlas_layer":"waterbody_object","object_role":"waterbody_object","atlas_class":"named_waterbody","waterbody_type":"reservoir","huc8":"11020003","huc8Name":"Fountain","huc8States":"CO","lineageKey":"yellowfin","lineage":"yellowfin","historic":"yellowfin","current":"yellowfin","recovery":"recoveryWatch","lineageLabel":"Yellowfin / Arkansas headwaters historical form","lineageBasin":"Fountain / Bear Creek","lineageNote":"Includes Bear Creek as Arkansas watershed context; modern greenback refuge is a translocation story","atlas_context":"cutthroat_lineage_context","area_sq_km":0.01,"elevation":0,"FType":390,"FCode":39004,"source_id":"128019162","bounds":{"west":-104.85184,"south":38.77374,"east":-104.85054,"north":38.77495},"confidence_public":"Watershed-level lineage context; expert review recommended","geometry_status_public":"Named waterbody polygon from public hydrography","geometry_source_public":"Public hydrography waterbody polygon","trout_source_public":"Compiled public recovery and lineage context; expert review recommended","public_notes":"Penrose Reservoir is shown as a named waterbody within watershed-level cutthroat lineage context. This is not a precise biological boundary."}},{"type":"Feature","geometry":{"type":"Polygon","coordinates":[[[-104.8523,38.79104],[-104.85194,38.78917],[-104.85139,38.78899],[-104.85071,38.78911],[-104.85058,38.78931],[-104.85088,38.79091],[-104.85144,38.7915],[-104.85174,38.79221],[-104.8525,38.7927],[-104.85307,38.79273],[-104.8534,38.79202],[-104.8523,38.79104]],[[-104.85271,38.7917],[-104.85289,38.79204],[-104.85251,38.79207],[-104.85244,38.79177],[-104.85271,38.7917]]]},"properties":{"waterbody_id":"co_waterbody_cheyenne_lake_11020003_001","water_id":"co_waterbody_cheyenne_lake_11020003_001","occurrence_id":"co_waterbody_cheyenne_lake_11020003_001","occurrence_number":"001","display_name":"Cheyenne Lake","normalized_name":"cheyenne lake","mapped_name":"Cheyenne Lake","source_name":"Cheyenne Lake","disambiguator":"Fountain · lake","state":"CO","atlas_layer":"waterbody_object","object_role":"waterbody_object","atlas_class":"named_waterbody","waterbody_type":"lake","huc8":"11020003","huc8Name":"Fountain","huc8States":"CO","lineageKey":"yellowfin","lineage":"yellowfin","historic":"yellowfin","current":"yellowfin","recovery":"recoveryWatch","lineageLabel":"Yellowfin / Arkansas headwaters historical form","lineageBasin":"Fountain / Bear Creek","lineageNote":"Includes Bear Creek as Arkansas watershed context; modern greenback refuge is a translocation story","atlas_context":"cutthroat_lineage_context","area_sq_km":0.049,"elevation":0,"FType":390,"FCode":39004,"source_id":"128019125","bounds":{"west":-104.8534,"south":38.78899,"east":-104.85058,"north":38.79273},"confidence_public":"Watershed-level lineage context; expert review recommended","geometry_status_public":"Named waterbody polygon from public hydrography","geometry_source_public":"Public hydrography waterbody polygon","trout_source_public":"Compiled public recovery and lineage context; expert review recommended","public_notes":"Cheyenne Lake is shown as a named waterbody within watershed-level cutthroat lineage context. This is not a precise biological boundary."}},{"type":"Feature","geometry":{"type":"Polygon","coordinates":[[[-104.98828,38.77927],[-104.98864,38.77968],[-104.98909,38.78104],[-104.98983,38.78122],[-104.98988,38.78146],[-104.99031,38.78141],[-104.99136,38.77984],[-104.99058,38.77922],[-104.98984,38.77836],[-104.98965,38.77783],[-104.98919,38.77747],[-104.9885,38.77773],[-104.98828,38.77927]]]},"properties":{"waterbody_id":"co_waterbody_stratton_reservoir_11020003_001","water_id":"co_waterbody_stratton_reservoir_11020003_001","occurrence_id":"co_waterbody_stratton_reservoir_11020003_001","occurrence_number":"001","display_name":"Stratton Reservoir","normalized_name":"stratton reservoir","mapped_name":"Stratton Reservoir","source_name":"Stratton Reservoir","disambiguator":"Fountain · reservoir","state":"CO","atlas_layer":"waterbody_object","object_role":"waterbody_object","atlas_class":"named_waterbody","waterbody_type":"reservoir","huc8":"11020003","huc8Name":"Fountain","huc8States":"CO","lineageKey":"yellowfin","lineage":"yellowfin","historic":"yellowfin","current":"yellowfin","recovery":"recoveryWatch","lineageLabel":"Yellowfin / Arkansas headwaters historical form","lineageBasin":"Fountain / Bear Creek","lineageNote":"Includes Bear Creek as Arkansas watershed context; modern greenback refuge is a translocation story","atlas_context":"cutthroat_lineage_context","area_sq_km":0.068,"elevation":0,"FType":390,"FCode":39004,"source_id":"127979178","bounds":{"west":-104.99136,"south":38.77747,"east":-104.98828,"north":38.78146},"confidence_public":"Watershed-level lineage context; expert review recommended","geometry_status_public":"Named waterbody polygon from public hydrography","geometry_source_public":"Public hydrography waterbody polygon","trout_source_public":"Compiled public recovery and lineage context; expert review recommended","public_notes":"Stratton Reservoir is shown as a named waterbody within watershed-level cutthroat lineage context. This is not a precise biological boundary."}},{"type":"Feature","geometry":{"type":"Polygon","coordinates":[[[-104.83162,38.79267],[-104.83133,38.79234],[-104.82921,38.79279],[-104.82876,38.79319],[-104.82867,38.79365],[-104.82994,38.79469],[-104.83027,38.79468],[-104.83187,38.7936],[-104.83162,38.79267]]]},"properties":{"waterbody_id":"co_waterbody_big_stratton_reservoir_11020003_001","water_id":"co_waterbody_big_stratton_reservoir_11020003_001","occurrence_id":"co_waterbody_big_stratton_reservoir_11020003_001","occurrence_number":"001","display_name":"Big Stratton Reservoir","normalized_name":"big stratton reservoir","mapped_name":"Big Stratton Reservoir","source_name":"Big Stratton Reservoir","disambiguator":"Fountain · reservoir","state":"CO","atlas_layer":"waterbody_object","object_role":"waterbody_object","atlas_class":"named_waterbody","waterbody_type":"reservoir","huc8":"11020003","huc8Name":"Fountain","huc8States":"CO","lineageKey":"yellowfin","lineage":"yellowfin","historic":"yellowfin","current":"yellowfin","recovery":"recoveryWatch","lineageLabel":"Yellowfin / Arkansas headwaters historical form","lineageBasin":"Fountain / Bear Creek","lineageNote":"Includes Bear Creek as Arkansas watershed context; modern greenback refuge is a translocation story","atlas_context":"cutthroat_lineage_context","area_sq_km":0.049,"elevation":0,"FType":390,"FCode":39004,"source_id":"128019126","bounds":{"west":-104.83187,"south":38.79234,"east":-104.82867,"north":38.79469},"confidence_public":"Watershed-level lineage context; expert review recommended","geometry_status_public":"Named waterbody polygon from public hydrography","geometry_source_public":"Public hydrography waterbody polygon","trout_source_public":"Compiled public recovery and lineage context; expert review recommended","public_notes":"Big Stratton Reservoir is shown as a named waterbody within watershed-level cutthroat lineage context. This is not a precise biological boundary."}},{"type":"Feature","geometry":{"type":"Polygon","coordinates":[[[-104.8754,38.86689],[-104.87591,38.86712],[-104.87622,38.86682],[-104.87693,38.86674],[-104.87633,38.86618],[-104.87636,38.8651],[-104.87567,38.86455],[-104.87436,38.86511],[-104.87448,38.86585],[-104.8754,38.86689]]]},"properties":{"waterbody_id":"co_waterbody_valley_reservoir_number_2_11020003_001","water_id":"co_waterbody_valley_reservoir_number_2_11020003_001","occurrence_id":"co_waterbody_valley_reservoir_number_2_11020003_001","occurrence_number":"001","display_name":"Valley Reservoir Number 2","normalized_name":"valley reservoir number 2","mapped_name":"Valley Reservoir Number 2","source_name":"Valley Reservoir Number 2","disambiguator":"Fountain · reservoir","state":"CO","atlas_layer":"waterbody_object","object_role":"waterbody_object","atlas_class":"named_waterbody","waterbody_type":"reservoir","huc8":"11020003","huc8Name":"Fountain","huc8States":"CO","lineageKey":"yellowfin","lineage":"yellowfin","historic":"yellowfin","current":"yellowfin","recovery":"recoveryWatch","lineageLabel":"Yellowfin / Arkansas headwaters historical form","lineageBasin":"Fountain / Bear Creek","lineageNote":"Includes Bear Creek as Arkansas watershed context; modern greenback refuge is a translocation story","atlas_context":"cutthroat_lineage_context","area_sq_km":0.037,"elevation":0,"FType":390,"FCode":39001,"source_id":"128019004","bounds":{"west":-104.87693,"south":38.86455,"east":-104.87436,"north":38.86712},"confidence_public":"Watershed-level lineage context; expert review recommended","geometry_status_public":"Named waterbody polygon from public hydrography","geometry_source_public":"Public hydrography waterbody polygon","trout_source_public":"Compiled public recovery and lineage context; expert review recommended","public_notes":"Valley Reservoir Number 2 is shown as a named waterbody within watershed-level cutthroat lineage context. This is not a precise biological boundary."}},{"type":"Feature","geometry":{"type":"Polygon","coordinates":[[[-104.82251,38.77682],[-104.82218,38.77678],[-104.82196,38.77732],[-104.82141,38.77734],[-104.81991,38.77788],[-104.81969,38.77911],[-104.81941,38.77943],[-104.81991,38.78004],[-104.81939,38.78054],[-104.81965,38.78097],[-104.82041,38.78102],[-104.82098,38.78136],[-104.82141,38.78042],[-104.82277,38.78008],[-104.82314,38.78072],[-104.82376,38.781],[-104.82442,38.78024],[-104.82385,38.77972],[-104.82376,38.77808],[-104.82271,38.77724],[-104.82251,38.77682]]]},"properties":{"waterbody_id":"co_waterbody_curr_reservoir_11020003_001","water_id":"co_waterbody_curr_reservoir_11020003_001","occurrence_id":"co_waterbody_curr_reservoir_11020003_001","occurrence_number":"001","display_name":"Curr Reservoir","normalized_name":"curr reservoir","mapped_name":"Curr Reservoir","source_name":"Curr Reservoir","disambiguator":"Fountain · reservoir","state":"CO","atlas_layer":"waterbody_object","object_role":"waterbody_object","atlas_class":"named_waterbody","waterbody_type":"reservoir","huc8":"11020003","huc8Name":"Fountain","huc8States":"CO","lineageKey":"yellowfin","lineage":"yellowfin","historic":"yellowfin","current":"yellowfin","recovery":"recoveryWatch","lineageLabel":"Yellowfin / Arkansas headwaters historical form","lineageBasin":"Fountain / Bear Creek","lineageNote":"Includes Bear Creek as Arkansas watershed context; modern greenback refuge is a translocation story","atlas_context":"cutthroat_lineage_context","area_sq_km":0.132,"elevation":0,"FType":390,"FCode":39004,"source_id":"128019157","bounds":{"west":-104.82442,"south":38.77678,"east":-104.81939,"north":38.78136},"confidence_public":"Watershed-level lineage context; expert review recommended","geometry_status_public":"Named waterbody polygon from public hydrography","geometry_source_public":"Public hydrography waterbody polygon","trout_source_public":"Compiled public recovery and lineage context; expert review recommended","public_notes":"Curr Reservoir is shown as a named waterbody within watershed-level cutthroat lineage context. This is not a precise biological boundary."}},{"type":"Feature","geometry":{"type":"Polygon","coordinates":[[[-104.83608,38.99931],[-104.83584,38.99897],[-104.83515,38.99863],[-104.83459,38.99907],[-104.83266,38.99938],[-104.83255,39.00052],[-104.83288,39.00076],[-104.83325,39.00072],[-104.83444,38.99972],[-104.83571,38.9997],[-104.83608,38.99931]]]},"properties":{"waterbody_id":"co_waterbody_non_potable_reservoir_1_11020003_001","water_id":"co_waterbody_non_potable_reservoir_1_11020003_001","occurrence_id":"co_waterbody_non_potable_reservoir_1_11020003_001","occurrence_number":"001","display_name":"Non Potable Reservoir 1","normalized_name":"non potable reservoir 1","mapped_name":"Non Potable Reservoir 1","source_name":"Non Potable Reservoir 1","disambiguator":"Fountain · reservoir","state":"CO","atlas_layer":"waterbody_object","object_role":"waterbody_object","atlas_class":"named_waterbody","waterbody_type":"reservoir","huc8":"11020003","huc8Name":"Fountain","huc8States":"CO","lineageKey":"yellowfin","lineage":"yellowfin","historic":"yellowfin","current":"yellowfin","recovery":"recoveryWatch","lineageLabel":"Yellowfin / Arkansas headwaters historical form","lineageBasin":"Fountain / Bear Creek","lineageNote":"Includes Bear Creek as Arkansas watershed context; modern greenback refuge is a translocation story","atlas_context":"cutthroat_lineage_context","area_sq_km":0.034,"elevation":0,"FType":390,"FCode":39004,"source_id":"128018665","bounds":{"west":-104.83608,"south":38.99863,"east":-104.83255,"north":39.00076},"confidence_public":"Watershed-level lineage context; expert review recommended","geometry_status_public":"Named waterbody polygon from public hydrography","geometry_source_public":"Public hydrography waterbody polygon","trout_source_public":"Compiled public recovery and lineage context; expert review recommended","public_notes":"Non Potable Reservoir 1 is shown as a named waterbody within watershed-level cutthroat lineage context. This is not a precise biological boundary."}},{"type":"Feature","geometry":{"type":"Polygon","coordinates":[[[-104.81158,38.78497],[-104.81142,38.7844],[-104.80751,38.78501],[-104.80599,38.78455],[-104.80559,38.78505],[-104.80556,38.78589],[-104.80649,38.78632],[-104.80901,38.78616],[-104.81158,38.78497]]]},"properties":{"waterbody_id":"co_waterbody_quail_lake_11020003_001","water_id":"co_waterbody_quail_lake_11020003_001","occurrence_id":"co_waterbody_quail_lake_11020003_001","occurrence_number":"001","display_name":"Quail Lake","normalized_name":"quail lake","mapped_name":"Quail Lake","source_name":"Quail Lake","disambiguator":"Fountain · lake","state":"CO","atlas_layer":"waterbody_object","object_role":"waterbody_object","atlas_class":"named_waterbody","waterbody_type":"lake","huc8":"11020003","huc8Name":"Fountain","huc8States":"CO","lineageKey":"yellowfin","lineage":"yellowfin","historic":"yellowfin","current":"yellowfin","recovery":"recoveryWatch","lineageLabel":"Yellowfin / Arkansas headwaters historical form","lineageBasin":"Fountain / Bear Creek","lineageNote":"Includes Bear Creek as Arkansas watershed context; modern greenback refuge is a translocation story","atlas_context":"cutthroat_lineage_context","area_sq_km":0.068,"elevation":0,"FType":390,"FCode":39004,"source_id":"128019146","bounds":{"west":-104.81158,"south":38.7844,"east":-104.80556,"north":38.78632},"confidence_public":"Watershed-level lineage context; expert review recommended","geometry_status_public":"Named waterbody polygon from public hydrography","geometry_source_public":"Public hydrography waterbody polygon","trout_source_public":"Compiled public recovery and lineage context; expert review recommended","public_notes":"Quail Lake is shown as a named waterbody within watershed-level cutthroat lineage context. This is not a precise biological boundary."}},{"type":"Feature","geometry":{"type":"Polygon","coordinates":[[[-104.96286,38.98364],[-104.96335,38.98396],[-104.96335,38.98443],[-104.96386,38.98492],[-104.96356,38.98629],[-104.96402,38.98593],[-104.96448,38.98455],[-104.96393,38.98369],[-104.96385,38.98298],[-104.96405,38.98253],[-104.96453,38.98229],[-104.96501,38.98242],[-104.96523,38.98289],[-104.96677,38.98299],[-104.96714,38.98321],[-104.9667,38.98401],[-104.96729,38.98414],[-104.96744,38.9845],[-104.96661,38.98492],[-104.96729,38.985],[-104.96778,38.98551],[-104.96781,38.98582],[-104.96687,38.98676],[-104.96688,38.98739],[-104.96717,38.98699],[-104.96835,38.98659],[-104.96905,38.98577],[-104.96969,38.98581],[-104.97014,38.98607],[-104.97031,38.98642],[-104.97022,38.98672],[-104.96987,38.98687],[-104.96981,38.9885],[-104.96939,38.98921],[-104.96905,38.98943],[-104.96933,38.98996],[-104.9687,38.99136],[-104.96954,38.99052],[-104.97019,38.98877],[-104.97051,38.98858],[-104.97104,38.98866],[-104.97151,38.98932],[-104.97152,38.9901],[-104.97197,38.99115],[-104.97194,38.99237],[-104.97164,38.9933],[-104.97172,38.99379],[-104.97206,38.99355],[-104.97248,38.9936],[-104.97205,38.99297],[-104.97223,38.99247],[-104.97268,38.99218],[-104.97245,38.99191],[-104.9724,38.99129],[-104.97317,38.991],[-104.97313,38.99063],[-104.9725,38.99031],[-104.97283,38.98979],[-104.9725,38.98959],[-104.97245,38.9893],[-104.97268,38.98901],[-104.97252,38.9886],[-104.97137,38.98761],[-104.97134,38.98713],[-104.97165,38.98652],[-104.97154,38.9854],[-104.97185,38.98547],[-104.97189,38.9862],[-104.97229,38.98656],[-104.97343,38.98708],[-104.9742,38.98693],[-104.97461,38.98744],[-104.97663,38.98709],[-104.9778,38.98648],[-104.97634,38.98656],[-104.9748,38.98637],[-104.97465,38.98595],[-104.97498,38.98556],[-104.97418,38.98523],[-104.97424,38.98471],[-104.97403,38.98455],[-104.97301,38.98445],[-104.97306,38.98394],[-104.97233,38.98354],[-104.97253,38.98301],[-104.97341,38.98264],[-104.97423,38.98292],[-104.97569,38.98307],[-104.97627,38.98338],[-104.97652,38.98404],[-104.97667,38.98353],[-104.97721,38.98312],[-104.97777,38.98315],[-104.97798,38.98333],[-104.9786,38.98311],[-104.97931,38.98342],[-104.97959,38.98335],[-104.9791,38.98293],[-104.97914,38.98247],[-104.98104,38.98178],[-104.98133,38.98202],[-104.98147,38.98275],[-104.98209,38.98269],[-104.98367,38.98315],[-104.98431,38.9838],[-104.98552,38.98384],[-104.98379,38.98291],[-104.98352,38.98258],[-104.98359,38.9823],[-104.98433,38.982],[-104.98523,38.9811],[-104.98756,38.98094],[-104.98883,38.98115],[-104.9889,38.98076],[-104.98974,38.98022],[-104.9897,38.98005],[-104.98793,38.98044],[-104.98469,38.98067],[-104.98439,38.9806],[-104.98399,38.98011],[-104.98216,38.9809],[-104.97921,38.98083],[-104.97882,38.98063],[-104.97865,38.98023],[-104.97758,38.98053],[-104.97664,38.98049],[-104.97486,38.9799],[-104.97444,38.97951],[-104.97463,38.97838],[-104.97522,38.978],[-104.97508,38.97752],[-104.97597,38.9767],[-104.97534,38.97683],[-104.97388,38.97808],[-104.97225,38.97904],[-104.97164,38.97915],[-104.97143,38.97871],[-104.97161,38.9783],[-104.97123,38.97777],[-104.97011,38.97735],[-104.96941,38.9778],[-104.9682,38.97744],[-104.96846,38.97697],[-104.96913,38.97674],[-104.96857,38.97648],[-104.96818,38.9757],[-104.96839,38.97536],[-104.96896,38.97517],[-104.9698,38.97448],[-104.97026,38.97458],[-104.97079,38.97498],[-104.97154,38.97489],[-104.97183,38.97519],[-104.97227,38.97498],[-104.97266,38.97504],[-104.97197,38.97464],[-104.97169,38.97426],[-104.97172,38.97353],[-104.97116,38.97385],[-104.97079,38.97384],[-104.97045,38.97369],[-104.97026,38.9733],[-104.9699,38.97324],[-104.96913,38.97371],[-104.96806,38.97372],[-104.96763,38.97353],[-104.96735,38.97314],[-104.96646,38.97332],[-104.96615,38.97366],[-104.96579,38.97373],[-104.9651,38.97346],[-104.96491,38.97294],[-104.96422,38.97295],[-104.9635,38.97341],[-104.95968,38.9782],[-104.9599,38.97855],[-104.95974,38.97896],[-104.95996,38.97923],[-104.9599,38.97946],[-104.9602,38.97978],[-104.95993,38.9806],[-104.96023,38.98042],[-104.96049,38.98055],[-104.96103,38.97996],[-104.96186,38.98033],[-104.96178,38.97962],[-104.96224,38.9793],[-104.96292,38.9798],[-104.96316,38.98043],[-104.96393,38.98065],[-104.96371,38.9812],[-104.96313,38.98169],[-104.962,38.98215],[-104.96245,38.9825],[-104.96243,38.98295],[-104.96286,38.98364]]]},"properties":{"waterbody_id":"co_waterbody_rampart_reservoir_11020003_001","water_id":"co_waterbody_rampart_reservoir_11020003_001","occurrence_id":"co_waterbody_rampart_reservoir_11020003_001","occurrence_number":"001","display_name":"Rampart Reservoir","normalized_name":"rampart reservoir","mapped_name":"Rampart Reservoir","source_name":"Rampart Reservoir","disambiguator":"Fountain · reservoir","state":"CO","atlas_layer":"waterbody_object","object_role":"waterbody_object","atlas_class":"named_waterbody","waterbody_type":"reservoir","huc8":"11020003","huc8Name":"Fountain","huc8States":"CO","lineageKey":"yellowfin","lineage":"yellowfin","historic":"yellowfin","current":"yellowfin","recovery":"recoveryWatch","lineageLabel":"Yellowfin / Arkansas headwaters historical form","lineageBasin":"Fountain / Bear Creek","lineageNote":"Includes Bear Creek as Arkansas watershed context; modern greenback refuge is a translocation story","atlas_context":"cutthroat_lineage_context","area_sq_km":1.53,"elevation":2743.2,"FType":390,"FCode":39009,"source_id":"128018699","bounds":{"west":-104.98974,"south":38.97294,"east":-104.95968,"north":38.99379},"confidence_public":"Watershed-level lineage context; expert review recommended","geometry_status_public":"Named waterbody polygon from public hydrography","geometry_source_public":"Public hydrography waterbody polygon","trout_source_public":"Compiled public recovery and lineage context; expert review recommended","public_notes":"Rampart Reservoir is shown as a named waterbody within watershed-level cutthroat lineage context. This is not a precise biological boundary."}},{"type":"Feature","geometry":{"type":"Polygon","coordinates":[[[-104.88403,38.95198],[-104.88424,38.95142],[-104.88363,38.95095],[-104.88321,38.95127],[-104.8829,38.95191],[-104.88319,38.9519],[-104.88403,38.95198]]]},"properties":{"waterbody_id":"co_waterbody_modern_woodman_of_america_reservoir_11020003_001","water_id":"co_waterbody_modern_woodman_of_america_reservoir_11020003_001","occurrence_id":"co_waterbody_modern_woodman_of_america_reservoir_11020003_001","occurrence_number":"001","display_name":"Modern Woodman of America Reservoir","normalized_name":"modern woodman of america reservoir","mapped_name":"Modern Woodman of America Reservoir","source_name":"Modern Woodman of America Reservoir","disambiguator":"Fountain · reservoir","state":"CO","atlas_layer":"waterbody_object","object_role":"waterbody_object","atlas_class":"named_waterbody","waterbody_type":"reservoir","huc8":"11020003","huc8Name":"Fountain","huc8States":"CO","lineageKey":"yellowfin","lineage":"yellowfin","historic":"yellowfin","current":"yellowfin","recovery":"recoveryWatch","lineageLabel":"Yellowfin / Arkansas headwaters historical form","lineageBasin":"Fountain / Bear Creek","lineageNote":"Includes Bear Creek as Arkansas watershed context; modern greenback refuge is a translocation story","atlas_context":"cutthroat_lineage_context","area_sq_km":0.009,"elevation":0,"FType":390,"FCode":39004,"source_id":"128018830","bounds":{"west":-104.88424,"south":38.95095,"east":-104.8829,"north":38.95198},"confidence_public":"Watershed-level lineage context; expert review recommended","geometry_status_public":"Named waterbody polygon from public hydrography","geometry_source_public":"Public hydrography waterbody polygon","trout_source_public":"Compiled public recovery and lineage context; expert review recommended","public_notes":"Modern Woodman of America Reservoir is shown as a named waterbody within watershed-level cutthroat lineage context. This is not a precise biological boundary."}},{"type":"Feature","geometry":{"type":"Polygon","coordinates":[[[-104.84701,38.76073],[-104.8465,38.761],[-104.84644,38.76199],[-104.84729,38.76213],[-104.84751,38.76193],[-104.84701,38.76073]]]},"properties":{"waterbody_id":"co_waterbody_fisher_canon_reservoir_11020003_001","water_id":"co_waterbody_fisher_canon_reservoir_11020003_001","occurrence_id":"co_waterbody_fisher_canon_reservoir_11020003_001","occurrence_number":"001","display_name":"Fisher Canon Reservoir","normalized_name":"fisher canon reservoir","mapped_name":"Fisher Canon Reservoir","source_name":"Fisher Canon Reservoir","disambiguator":"Fountain · reservoir","state":"CO","atlas_layer":"waterbody_object","object_role":"waterbody_object","atlas_class":"named_waterbody","waterbody_type":"reservoir","huc8":"11020003","huc8Name":"Fountain","huc8States":"CO","lineageKey":"yellowfin","lineage":"yellowfin","historic":"yellowfin","current":"yellowfin","recovery":"recoveryWatch","lineageLabel":"Yellowfin / Arkansas headwaters historical form","lineageBasin":"Fountain / Bear Creek","lineageNote":"Includes Bear Creek as Arkansas watershed context; modern greenback refuge is a translocation story","atlas_context":"cutthroat_lineage_context","area_sq_km":0.012,"elevation":0,"FType":390,"FCode":39004,"source_id":"128019175","bounds":{"west":-104.84751,"south":38.76073,"east":-104.84644,"north":38.76213},"confidence_public":"Watershed-level lineage context; expert review recommended","geometry_status_public":"Named waterbody polygon from public hydrography","geometry_source_public":"Public hydrography waterbody polygon","trout_source_public":"Compiled public recovery and lineage context; expert review recommended","public_notes":"Fisher Canon Reservoir is shown as a named waterbody within watershed-level cutthroat lineage context. This is not a precise biological boundary."}},{"type":"Feature","geometry":{"type":"Polygon","coordinates":[[[-104.87023,38.89204],[-104.87102,38.89185],[-104.87145,38.8914],[-104.87144,38.89097],[-104.87016,38.89026],[-104.86911,38.89034],[-104.86858,38.89059],[-104.86849,38.89101],[-104.86878,38.8915],[-104.86929,38.89192],[-104.87023,38.89204]]]},"properties":{"waterbody_id":"co_waterbody_glen_eyrie_reservoir_11020003_001","water_id":"co_waterbody_glen_eyrie_reservoir_11020003_001","occurrence_id":"co_waterbody_glen_eyrie_reservoir_11020003_001","occurrence_number":"001","display_name":"Glen Eyrie Reservoir","normalized_name":"glen eyrie reservoir","mapped_name":"Glen Eyrie Reservoir","source_name":"Glen Eyrie Reservoir","disambiguator":"Fountain · reservoir","state":"CO","atlas_layer":"waterbody_object","object_role":"waterbody_object","atlas_class":"named_waterbody","waterbody_type":"reservoir","huc8":"11020003","huc8Name":"Fountain","huc8States":"CO","lineageKey":"yellowfin","lineage":"yellowfin","historic":"yellowfin","current":"yellowfin","recovery":"recoveryWatch","lineageLabel":"Yellowfin / Arkansas headwaters historical form","lineageBasin":"Fountain / Bear Creek","lineageNote":"Includes Bear Creek as Arkansas watershed context; modern greenback refuge is a translocation story","atlas_context":"cutthroat_lineage_context","area_sq_km":0.04,"elevation":0,"FType":390,"FCode":39004,"source_id":"128018964","bounds":{"west":-104.87145,"south":38.89026,"east":-104.86849,"north":38.89204},"confidence_public":"Watershed-level lineage context; expert review recommended","geometry_status_public":"Named waterbody polygon from public hydrography","geometry_source_public":"Public hydrography waterbody polygon","trout_source_public":"Compiled public recovery and lineage context; expert review recommended","public_notes":"Glen Eyrie Reservoir is shown as a named waterbody within watershed-level cutthroat lineage context. This is not a precise biological boundary."}},{"type":"Feature","geometry":{"type":"Polygon","coordinates":[[[-104.87149,38.79634],[-104.87206,38.79563],[-104.87223,38.7942],[-104.87212,38.79401],[-104.86951,38.79378],[-104.86936,38.79415],[-104.87057,38.79611],[-104.87099,38.79645],[-104.87149,38.79634]]]},"properties":{"waterbody_id":"co_waterbody_gold_camp_reservoir_11020003_001","water_id":"co_waterbody_gold_camp_reservoir_11020003_001","occurrence_id":"co_waterbody_gold_camp_reservoir_11020003_001","occurrence_number":"001","display_name":"Gold Camp Reservoir","normalized_name":"gold camp reservoir","mapped_name":"Gold Camp Reservoir","source_name":"Gold Camp Reservoir","disambiguator":"Fountain · reservoir","state":"CO","atlas_layer":"waterbody_object","object_role":"waterbody_object","atlas_class":"named_waterbody","waterbody_type":"reservoir","huc8":"11020003","huc8Name":"Fountain","huc8States":"CO","lineageKey":"yellowfin","lineage":"yellowfin","historic":"yellowfin","current":"yellowfin","recovery":"recoveryWatch","lineageLabel":"Yellowfin / Arkansas headwaters historical form","lineageBasin":"Fountain / Bear Creek","lineageNote":"Includes Bear Creek as Arkansas watershed context; modern greenback refuge is a translocation story","atlas_context":"cutthroat_lineage_context","area_sq_km":0.05,"elevation":0,"FType":390,"FCode":39004,"source_id":"128019114","bounds":{"west":-104.87223,"south":38.79378,"east":-104.86936,"north":38.79645},"confidence_public":"Watershed-level lineage context; expert review recommended","geometry_status_public":"Named waterbody polygon from public hydrography","geometry_source_public":"Public hydrography waterbody polygon","trout_source_public":"Compiled public recovery and lineage context; expert review recommended","public_notes":"Gold Camp Reservoir is shown as a named waterbody within watershed-level cutthroat lineage context. This is not a precise biological boundary."}},{"type":"Feature","geometry":{"type":"Polygon","coordinates":[[[-104.9319,38.98974],[-104.93048,38.98958],[-104.93032,38.9889],[-104.92883,38.98973],[-104.92949,38.99075],[-104.93077,38.99079],[-104.93224,38.99022],[-104.9319,38.98974]]]},"properties":{"waterbody_id":"co_waterbody_stanley_reservoir_11020003_001","water_id":"co_waterbody_stanley_reservoir_11020003_001","occurrence_id":"co_waterbody_stanley_reservoir_11020003_001","occurrence_number":"001","display_name":"Stanley Reservoir","normalized_name":"stanley reservoir","mapped_name":"Stanley Reservoir","source_name":"Stanley Reservoir","disambiguator":"Fountain · reservoir","state":"CO","atlas_layer":"waterbody_object","object_role":"waterbody_object","atlas_class":"named_waterbody","waterbody_type":"reservoir","huc8":"11020003","huc8Name":"Fountain","huc8States":"CO","lineageKey":"yellowfin","lineage":"yellowfin","historic":"yellowfin","current":"yellowfin","recovery":"recoveryWatch","lineageLabel":"Yellowfin / Arkansas headwaters historical form","lineageBasin":"Fountain / Bear Creek","lineageNote":"Includes Bear Creek as Arkansas watershed context; modern greenback refuge is a translocation story","atlas_context":"cutthroat_lineage_context","area_sq_km":0.033,"elevation":0,"FType":390,"FCode":39004,"source_id":"128018672","bounds":{"west":-104.93224,"south":38.9889,"east":-104.92883,"north":38.99079},"confidence_public":"Watershed-level lineage context; expert review recommended","geometry_status_public":"Named waterbody polygon from public hydrography","geometry_source_public":"Public hydrography waterbody polygon","trout_source_public":"Compiled public recovery and lineage context; expert review recommended","public_notes":"Stanley Reservoir is shown as a named waterbody within watershed-level cutthroat lineage context. This is not a precise biological boundary."}}]}