{"type":"FeatureCollection","metadata":{"source":"C:\\ct-atlas-data\\processed\\geojson\\interpreted\\colorado_waterbody_objects_v1.geojson","type":"colorado-waterbody-object-v1-tile","tile_size_degrees":0.25,"x":-427,"y":161,"bounds":{"west":-106.75,"south":40.25,"east":-106.5,"north":40.5}},"features":[{"type":"Feature","geometry":{"type":"Polygon","coordinates":[[[-106.6621,40.47392],[-106.66272,40.47411],[-106.66414,40.4739],[-106.66476,40.47322],[-106.66468,40.47218],[-106.6643,40.4717],[-106.66392,40.47159],[-106.6625,40.47165],[-106.66212,40.47187],[-106.66156,40.47294],[-106.6621,40.47392]]]},"properties":{"waterbody_id":"co_waterbody_round_lake_10180001_001","water_id":"co_waterbody_round_lake_10180001_001","occurrence_id":"co_waterbody_round_lake_10180001_001","occurrence_number":"001","display_name":"Round Lake","normalized_name":"round lake","mapped_name":"Round Lake","source_name":"Round Lake","disambiguator":"North Platte Headwaters · lake · occurrence 001","state":"CO","atlas_layer":"waterbody_object","object_role":"waterbody_object","atlas_class":"named_waterbody","waterbody_type":"lake","huc8":"10180001","huc8Name":"North Platte Headwaters","huc8States":"CO","lineageKey":"statewideContext","lineage":"statewideContext","historic":"statewideContext","current":"statewideContext","recovery":"statewideContext","lineageLabel":"Statewide Colorado hydrography context","lineageBasin":"","lineageNote":"","atlas_context":"statewide_hydrography_context","area_sq_km":0.06200683,"elevation":3066.288,"FType":390,"FCode":39009,"source_id":"128862630","bounds":{"west":-106.66476,"south":40.47159,"east":-106.66156,"north":40.47411},"confidence_public":"Statewide hydrography context outside current cutthroat lineage model","geometry_status_public":"Named waterbody polygon from public hydrography","geometry_source_public":"Public hydrography waterbody polygon","trout_source_public":"Included for Colorado statewide hydrography completeness","public_notes":"Round Lake is shown as statewide Colorado hydrography context outside the current cutthroat lineage assignment set."}},{"type":"Feature","geometry":{"type":"Polygon","coordinates":[[[-106.66004,40.47545],[-106.66041,40.47503],[-106.66041,40.47446],[-106.65992,40.47398],[-106.65876,40.47383],[-106.65823,40.47402],[-106.65791,40.47457],[-106.65567,40.47544],[-106.65592,40.47581],[-106.65685,40.47603],[-106.66004,40.47545]]]},"properties":{"waterbody_id":"co_waterbody_lake_percy_10180001_001","water_id":"co_waterbody_lake_percy_10180001_001","occurrence_id":"co_waterbody_lake_percy_10180001_001","occurrence_number":"001","display_name":"Lake Percy","normalized_name":"lake percy","mapped_name":"Lake Percy","source_name":"Lake Percy","disambiguator":"North Platte Headwaters · lake","state":"CO","atlas_layer":"waterbody_object","object_role":"waterbody_object","atlas_class":"named_waterbody","waterbody_type":"lake","huc8":"10180001","huc8Name":"North Platte Headwaters","huc8States":"CO","lineageKey":"statewideContext","lineage":"statewideContext","historic":"statewideContext","current":"statewideContext","recovery":"statewideContext","lineageLabel":"Statewide Colorado hydrography context","lineageBasin":"","lineageNote":"","atlas_context":"statewide_hydrography_context","area_sq_km":0.05746282,"elevation":3058.3632,"FType":390,"FCode":39009,"source_id":"128862629","bounds":{"west":-106.66041,"south":40.47383,"east":-106.65567,"north":40.47603},"confidence_public":"Statewide hydrography context outside current cutthroat lineage model","geometry_status_public":"Named waterbody polygon from public hydrography","geometry_source_public":"Public hydrography waterbody polygon","trout_source_public":"Included for Colorado statewide hydrography completeness","public_notes":"Lake Percy is shown as statewide Colorado hydrography context outside the current cutthroat lineage assignment set."}},{"type":"Feature","geometry":{"type":"Polygon","coordinates":[[[-106.61474,40.49163],[-106.61438,40.49161],[-106.61365,40.4923],[-106.61399,40.49256],[-106.61458,40.49213],[-106.61474,40.49163]]]},"properties":{"waterbody_id":"co_waterbody_bear_park_reservoir_10180001_001","water_id":"co_waterbody_bear_park_reservoir_10180001_001","occurrence_id":"co_waterbody_bear_park_reservoir_10180001_001","occurrence_number":"001","display_name":"Bear Park Reservoir","normalized_name":"bear park reservoir","mapped_name":"Bear Park Reservoir","source_name":"Bear Park Reservoir","disambiguator":"North Platte Headwaters · reservoir","state":"CO","atlas_layer":"waterbody_object","object_role":"waterbody_object","atlas_class":"named_waterbody","waterbody_type":"reservoir","huc8":"10180001","huc8Name":"North Platte Headwaters","huc8States":"CO","lineageKey":"statewideContext","lineage":"statewideContext","historic":"statewideContext","current":"statewideContext","recovery":"statewideContext","lineageLabel":"Statewide Colorado hydrography context","lineageBasin":"","lineageNote":"","atlas_context":"statewide_hydrography_context","area_sq_km":0.00511957,"elevation":0,"FType":390,"FCode":39004,"source_id":"128867250","bounds":{"west":-106.61474,"south":40.49161,"east":-106.61365,"north":40.49256},"confidence_public":"Statewide hydrography context outside current cutthroat lineage model","geometry_status_public":"Named waterbody polygon from public hydrography","geometry_source_public":"Public hydrography waterbody polygon","trout_source_public":"Included for Colorado statewide hydrography completeness","public_notes":"Bear Park Reservoir is shown as statewide Colorado hydrography context outside the current cutthroat lineage assignment set."}},{"type":"Feature","geometry":{"type":"Polygon","coordinates":[[[-106.58902,40.38836],[-106.58967,40.38814],[-106.58963,40.38772],[-106.58881,40.38748],[-106.58826,40.38682],[-106.58738,40.38627],[-106.58642,40.38601],[-106.58585,40.38555],[-106.58489,40.38542],[-106.58466,40.3851],[-106.58424,40.38522],[-106.58463,40.38566],[-106.58565,40.38604],[-106.58631,40.38691],[-106.58649,40.38762],[-106.58792,40.38768],[-106.58902,40.38836]]]},"properties":{"waterbody_id":"co_waterbody_muddy_pass_lake_10180001_001","water_id":"co_waterbody_muddy_pass_lake_10180001_001","occurrence_id":"co_waterbody_muddy_pass_lake_10180001_001","occurrence_number":"001","display_name":"Muddy Pass Lake","normalized_name":"muddy pass lake","mapped_name":"Muddy Pass Lake","source_name":"Muddy Pass Lake","disambiguator":"North Platte Headwaters · lake","state":"CO","atlas_layer":"waterbody_object","object_role":"waterbody_object","atlas_class":"named_waterbody","waterbody_type":"lake","huc8":"10180001","huc8Name":"North Platte Headwaters","huc8States":"CO","lineageKey":"statewideContext","lineage":"statewideContext","historic":"statewideContext","current":"statewideContext","recovery":"statewideContext","lineageLabel":"Statewide Colorado hydrography context","lineageBasin":"","lineageNote":"","atlas_context":"statewide_hydrography_context","area_sq_km":0.04354659,"elevation":0,"FType":390,"FCode":39004,"source_id":"128867321","bounds":{"west":-106.58967,"south":40.3851,"east":-106.58424,"north":40.38836},"confidence_public":"Statewide hydrography context outside current cutthroat lineage model","geometry_status_public":"Named waterbody polygon from public hydrography","geometry_source_public":"Public hydrography waterbody polygon","trout_source_public":"Included for Colorado statewide hydrography completeness","public_notes":"Muddy Pass Lake is shown as statewide Colorado hydrography context outside the current cutthroat lineage assignment set."}},{"type":"Feature","geometry":{"type":"Polygon","coordinates":[[[-106.52141,40.49547],[-106.52033,40.49539],[-106.51831,40.49605],[-106.51724,40.49663],[-106.51761,40.49711],[-106.51822,40.49703],[-106.51859,40.49658],[-106.52141,40.49547]]]},"properties":{"waterbody_id":"co_waterbody_mcgowan_reservoir_10180001_001","water_id":"co_waterbody_mcgowan_reservoir_10180001_001","occurrence_id":"co_waterbody_mcgowan_reservoir_10180001_001","occurrence_number":"001","display_name":"McGowan Reservoir","normalized_name":"mcgowan reservoir","mapped_name":"McGowan Reservoir","source_name":"McGowan Reservoir","disambiguator":"North Platte Headwaters · reservoir","state":"CO","atlas_layer":"waterbody_object","object_role":"waterbody_object","atlas_class":"named_waterbody","waterbody_type":"reservoir","huc8":"10180001","huc8Name":"North Platte Headwaters","huc8States":"CO","lineageKey":"statewideContext","lineage":"statewideContext","historic":"statewideContext","current":"statewideContext","recovery":"statewideContext","lineageLabel":"Statewide Colorado hydrography context","lineageBasin":"","lineageNote":"","atlas_context":"statewide_hydrography_context","area_sq_km":0.021,"elevation":0,"FType":390,"FCode":39004,"source_id":"128867247","bounds":{"west":-106.52141,"south":40.49539,"east":-106.51724,"north":40.49711},"confidence_public":"Statewide hydrography context outside current cutthroat lineage model","geometry_status_public":"Named waterbody polygon from public hydrography","geometry_source_public":"Public hydrography waterbody polygon","trout_source_public":"Included for Colorado statewide hydrography completeness","public_notes":"McGowan Reservoir is shown as statewide Colorado hydrography context outside the current cutthroat lineage assignment set."}},{"type":"Feature","geometry":{"type":"Polygon","coordinates":[[[-106.56649,40.27089],[-106.56736,40.271],[-106.56729,40.26998],[-106.56789,40.26903],[-106.5663,40.26938],[-106.5661,40.26983],[-106.56618,40.27066],[-106.56649,40.27089]]]},"properties":{"waterbody_id":"co_waterbody_milk_creek_reservoir_14010001_001","water_id":"co_waterbody_milk_creek_reservoir_14010001_001","occurrence_id":"co_waterbody_milk_creek_reservoir_14010001_001","occurrence_number":"001","display_name":"Milk Creek Reservoir","normalized_name":"milk creek reservoir","mapped_name":"Milk Creek Reservoir","source_name":"Milk Creek Reservoir","disambiguator":"Colorado Headwaters · reservoir","state":"CO","atlas_layer":"waterbody_object","object_role":"waterbody_object","atlas_class":"named_waterbody","waterbody_type":"reservoir","huc8":"14010001","huc8Name":"Colorado Headwaters","huc8States":"CO","lineageKey":"coloradoRiver","lineage":"coloradoRiver","historic":"coloradoRiver","current":"coloradoRiver","recovery":"recoveryWatch","lineageLabel":"Colorado River green lineage","lineageBasin":"Colorado Headwaters","lineageNote":"Upper Colorado green-lineage context","atlas_context":"cutthroat_lineage_context","area_sq_km":0.021,"elevation":0,"FType":390,"FCode":39004,"source_id":"88870709","bounds":{"west":-106.56789,"south":40.26903,"east":-106.5661,"north":40.271},"confidence_public":"Watershed-level lineage context; expert review recommended","geometry_status_public":"Named waterbody polygon from public hydrography","geometry_source_public":"Public hydrography waterbody polygon","trout_source_public":"Compiled public recovery and lineage context; expert review recommended","public_notes":"Milk Creek Reservoir is shown as a named waterbody within watershed-level cutthroat lineage context. This is not a precise biological boundary."}},{"type":"Feature","geometry":{"type":"Polygon","coordinates":[[[-106.60799,40.35349],[-106.60843,40.35293],[-106.60843,40.35247],[-106.60823,40.35184],[-106.60788,40.35157],[-106.60797,40.3511],[-106.60732,40.3503],[-106.6072,40.34903],[-106.60739,40.34904],[-106.60773,40.34978],[-106.60869,40.34969],[-106.60876,40.34947],[-106.60918,40.34936],[-106.60876,40.34883],[-106.60893,40.34852],[-106.60848,40.3478],[-106.60746,40.34728],[-106.60672,40.34747],[-106.60628,40.34709],[-106.60625,40.34763],[-106.60559,40.347],[-106.60597,40.34926],[-106.60692,40.34894],[-106.60675,40.35075],[-106.60697,40.35061],[-106.60706,40.35095],[-106.60731,40.35058],[-106.60743,40.35073],[-106.60786,40.35222],[-106.60799,40.35349]],[[-106.60802,40.3528],[-106.60803,40.35225],[-106.60815,40.35258],[-106.60802,40.3528]]]},"properties":{"waterbody_id":"co_waterbody_lily_lake_14010001_001","water_id":"co_waterbody_lily_lake_14010001_001","occurrence_id":"co_waterbody_lily_lake_14010001_001","occurrence_number":"001","display_name":"Lily Lake","normalized_name":"lily lake","mapped_name":"Lily Lake","source_name":"Lily Lake","disambiguator":"Colorado Headwaters · lake · occurrence 001","state":"CO","atlas_layer":"waterbody_object","object_role":"waterbody_object","atlas_class":"named_waterbody","waterbody_type":"lake","huc8":"14010001","huc8Name":"Colorado Headwaters","huc8States":"CO","lineageKey":"coloradoRiver","lineage":"coloradoRiver","historic":"coloradoRiver","current":"coloradoRiver","recovery":"recoveryWatch","lineageLabel":"Colorado River green lineage","lineageBasin":"Colorado Headwaters","lineageNote":"Upper Colorado green-lineage context","atlas_context":"cutthroat_lineage_context","area_sq_km":0.07406507,"elevation":2760.5736,"FType":390,"FCode":39009,"source_id":"88870515","bounds":{"west":-106.60918,"south":40.347,"east":-106.60559,"north":40.35349},"confidence_public":"Watershed-level lineage context; expert review recommended","geometry_status_public":"Named waterbody polygon from public hydrography","geometry_source_public":"Public hydrography waterbody polygon","trout_source_public":"Compiled public recovery and lineage context; expert review recommended","public_notes":"Lily Lake is shown as a named waterbody within watershed-level cutthroat lineage context. This is not a precise biological boundary."}},{"type":"Feature","geometry":{"type":"Polygon","coordinates":[[[-106.55683,40.25549],[-106.55727,40.25508],[-106.55766,40.25599],[-106.5575,40.25635],[-106.5577,40.25669],[-106.55841,40.25712],[-106.55869,40.25699],[-106.55875,40.25644],[-106.55903,40.256],[-106.55872,40.25569],[-106.5586,40.25507],[-106.55889,40.25465],[-106.55829,40.25433],[-106.55798,40.25391],[-106.55816,40.25302],[-106.55769,40.25289],[-106.55689,40.25348],[-106.55654,40.25405],[-106.55668,40.25433],[-106.55642,40.25499],[-106.55683,40.25549]]]},"properties":{"waterbody_id":"co_waterbody_albert_reservoir_14010001_001","water_id":"co_waterbody_albert_reservoir_14010001_001","occurrence_id":"co_waterbody_albert_reservoir_14010001_001","occurrence_number":"001","display_name":"Albert Reservoir","normalized_name":"albert reservoir","mapped_name":"Albert Reservoir","source_name":"Albert Reservoir","disambiguator":"Colorado Headwaters · reservoir · occurrence 001","state":"CO","atlas_layer":"waterbody_object","object_role":"waterbody_object","atlas_class":"named_waterbody","waterbody_type":"reservoir","huc8":"14010001","huc8Name":"Colorado Headwaters","huc8States":"CO","lineageKey":"coloradoRiver","lineage":"coloradoRiver","historic":"coloradoRiver","current":"coloradoRiver","recovery":"recoveryWatch","lineageLabel":"Colorado River green lineage","lineageBasin":"Colorado Headwaters","lineageNote":"Upper Colorado green-lineage context","atlas_context":"cutthroat_lineage_context","area_sq_km":0.05364247,"elevation":2584.3992,"FType":390,"FCode":39009,"source_id":"88870733","bounds":{"west":-106.55903,"south":40.25289,"east":-106.55642,"north":40.25712},"confidence_public":"Watershed-level lineage context; expert review recommended","geometry_status_public":"Named waterbody polygon from public hydrography","geometry_source_public":"Public hydrography waterbody polygon","trout_source_public":"Compiled public recovery and lineage context; expert review recommended","public_notes":"Albert Reservoir is shown as a named waterbody within watershed-level cutthroat lineage context. This is not a precise biological boundary."}},{"type":"Feature","geometry":{"type":"Polygon","coordinates":[[[-106.54556,40.26948],[-106.54592,40.26814],[-106.54716,40.26663],[-106.54787,40.26608],[-106.54816,40.26505],[-106.54808,40.26492],[-106.54686,40.26516],[-106.54627,40.26477],[-106.54648,40.26297],[-106.54695,40.26254],[-106.54663,40.26202],[-106.54667,40.26131],[-106.54698,40.26106],[-106.54689,40.26086],[-106.54607,40.26117],[-106.54558,40.2623],[-106.54519,40.26266],[-106.54558,40.26346],[-106.54528,40.26392],[-106.54547,40.26662],[-106.5443,40.26901],[-106.54556,40.26948]]]},"properties":{"waterbody_id":"co_waterbody_binco_reservoir_14010001_001","water_id":"co_waterbody_binco_reservoir_14010001_001","occurrence_id":"co_waterbody_binco_reservoir_14010001_001","occurrence_number":"001","display_name":"Binco Reservoir","normalized_name":"binco reservoir","mapped_name":"Binco Reservoir","source_name":"Binco Reservoir","disambiguator":"Colorado Headwaters · reservoir","state":"CO","atlas_layer":"waterbody_object","object_role":"waterbody_object","atlas_class":"named_waterbody","waterbody_type":"reservoir","huc8":"14010001","huc8Name":"Colorado Headwaters","huc8States":"CO","lineageKey":"coloradoRiver","lineage":"coloradoRiver","historic":"coloradoRiver","current":"coloradoRiver","recovery":"recoveryWatch","lineageLabel":"Colorado River green lineage","lineageBasin":"Colorado Headwaters","lineageNote":"Upper Colorado green-lineage context","atlas_context":"cutthroat_lineage_context","area_sq_km":0.111,"elevation":0,"FType":390,"FCode":39004,"source_id":"88870717","bounds":{"west":-106.54816,"south":40.26086,"east":-106.5443,"north":40.26948},"confidence_public":"Watershed-level lineage context; expert review recommended","geometry_status_public":"Named waterbody polygon from public hydrography","geometry_source_public":"Public hydrography waterbody polygon","trout_source_public":"Compiled public recovery and lineage context; expert review recommended","public_notes":"Binco Reservoir is shown as a named waterbody within watershed-level cutthroat lineage context. This is not a precise biological boundary."}},{"type":"Feature","geometry":{"type":"Polygon","coordinates":[[[-106.6343,40.40743],[-106.63369,40.40615],[-106.63378,40.40538],[-106.63271,40.4051],[-106.63224,40.40414],[-106.63144,40.40386],[-106.63005,40.40283],[-106.62945,40.40287],[-106.62897,40.40255],[-106.6288,40.40159],[-106.62718,40.40239],[-106.62744,40.40299],[-106.62745,40.40364],[-106.6297,40.40629],[-106.63136,40.40688],[-106.63177,40.40721],[-106.63274,40.40733],[-106.63382,40.40785],[-106.6343,40.40743]]]},"properties":{"waterbody_id":"co_waterbody_dumont_lake_14010001_001","water_id":"co_waterbody_dumont_lake_14010001_001","occurrence_id":"co_waterbody_dumont_lake_14010001_001","occurrence_number":"001","display_name":"Dumont Lake","normalized_name":"dumont lake","mapped_name":"Dumont Lake","source_name":"Dumont Lake","disambiguator":"Colorado Headwaters · lake","state":"CO","atlas_layer":"waterbody_object","object_role":"waterbody_object","atlas_class":"named_waterbody","waterbody_type":"lake","huc8":"14010001","huc8Name":"Colorado Headwaters","huc8States":"CO","lineageKey":"coloradoRiver","lineage":"coloradoRiver","historic":"coloradoRiver","current":"coloradoRiver","recovery":"recoveryWatch","lineageLabel":"Colorado River green lineage","lineageBasin":"Colorado Headwaters","lineageNote":"Upper Colorado green-lineage context","atlas_context":"cutthroat_lineage_context","area_sq_km":0.1755065,"elevation":2898.0384,"FType":390,"FCode":39009,"source_id":"88876693","bounds":{"west":-106.6343,"south":40.40159,"east":-106.62718,"north":40.40785},"confidence_public":"Watershed-level lineage context; expert review recommended","geometry_status_public":"Named waterbody polygon from public hydrography","geometry_source_public":"Public hydrography waterbody polygon","trout_source_public":"Compiled public recovery and lineage context; expert review recommended","public_notes":"Dumont Lake is shown as a named waterbody within watershed-level cutthroat lineage context. This is not a precise biological boundary."}},{"type":"Feature","geometry":{"type":"Polygon","coordinates":[[[-106.54675,40.29336],[-106.54615,40.29334],[-106.5458,40.29365],[-106.54636,40.29538],[-106.54711,40.29608],[-106.54707,40.29662],[-106.54649,40.29745],[-106.54638,40.29811],[-106.54831,40.29782],[-106.54823,40.29694],[-106.54855,40.29667],[-106.54844,40.29608],[-106.54805,40.29604],[-106.54793,40.29574],[-106.54689,40.29491],[-106.54646,40.29377],[-106.54675,40.29336]]]},"properties":{"waterbody_id":"co_waterbody_basin_reservoir_14010001_001","water_id":"co_waterbody_basin_reservoir_14010001_001","occurrence_id":"co_waterbody_basin_reservoir_14010001_001","occurrence_number":"001","display_name":"Basin Reservoir","normalized_name":"basin reservoir","mapped_name":"Basin Reservoir","source_name":"Basin Reservoir","disambiguator":"Colorado Headwaters · reservoir · occurrence 001","state":"CO","atlas_layer":"waterbody_object","object_role":"waterbody_object","atlas_class":"named_waterbody","waterbody_type":"reservoir","huc8":"14010001","huc8Name":"Colorado Headwaters","huc8States":"CO","lineageKey":"coloradoRiver","lineage":"coloradoRiver","historic":"coloradoRiver","current":"coloradoRiver","recovery":"recoveryWatch","lineageLabel":"Colorado River green lineage","lineageBasin":"Colorado Headwaters","lineageNote":"Upper Colorado green-lineage context","atlas_context":"cutthroat_lineage_context","area_sq_km":0.048,"elevation":0,"FType":390,"FCode":39004,"source_id":"88870615","bounds":{"west":-106.54855,"south":40.29334,"east":-106.5458,"north":40.29811},"confidence_public":"Watershed-level lineage context; expert review recommended","geometry_status_public":"Named waterbody polygon from public hydrography","geometry_source_public":"Public hydrography waterbody polygon","trout_source_public":"Compiled public recovery and lineage context; expert review recommended","public_notes":"Basin Reservoir is shown as a named waterbody within watershed-level cutthroat lineage context. This is not a precise biological boundary."}},{"type":"Feature","geometry":{"type":"Polygon","coordinates":[[[-106.59553,40.34826],[-106.59473,40.34875],[-106.59459,40.34865],[-106.59476,40.34822],[-106.59463,40.34815],[-106.59181,40.34947],[-106.59074,40.35016],[-106.59044,40.35076],[-106.59054,40.35112],[-106.59243,40.35291],[-106.5927,40.35419],[-106.59339,40.35488],[-106.59334,40.3553],[-106.59393,40.35646],[-106.5953,40.35704],[-106.59625,40.35686],[-106.59654,40.35605],[-106.59843,40.35635],[-106.59832,40.35227],[-106.59729,40.34986],[-106.59742,40.34929],[-106.59722,40.34895],[-106.59645,40.34892],[-106.59553,40.34826]]]},"properties":{"waterbody_id":"co_waterbody_lake_agnes_14010001_001","water_id":"co_waterbody_lake_agnes_14010001_001","occurrence_id":"co_waterbody_lake_agnes_14010001_001","occurrence_number":"001","display_name":"Lake Agnes","normalized_name":"lake agnes","mapped_name":"Lake Agnes","source_name":"Lake Agnes","disambiguator":"Colorado Headwaters · lake · occurrence 001","state":"CO","atlas_layer":"waterbody_object","object_role":"waterbody_object","atlas_class":"named_waterbody","waterbody_type":"lake","huc8":"14010001","huc8Name":"Colorado Headwaters","huc8States":"CO","lineageKey":"coloradoRiver","lineage":"coloradoRiver","historic":"coloradoRiver","current":"coloradoRiver","recovery":"recoveryWatch","lineageLabel":"Colorado River green lineage","lineageBasin":"Colorado Headwaters","lineageNote":"Upper Colorado green-lineage context","atlas_context":"cutthroat_lineage_context","area_sq_km":0.43214047,"elevation":2670.048,"FType":390,"FCode":39009,"source_id":"88870507","bounds":{"west":-106.59843,"south":40.34815,"east":-106.59044,"north":40.35704},"confidence_public":"Watershed-level lineage context; expert review recommended","geometry_status_public":"Named waterbody polygon from public hydrography","geometry_source_public":"Public hydrography waterbody polygon","trout_source_public":"Compiled public recovery and lineage context; expert review recommended","public_notes":"Lake Agnes is shown as a named waterbody within watershed-level cutthroat lineage context. This is not a precise biological boundary."}},{"type":"Feature","geometry":{"type":"Polygon","coordinates":[[[-106.51297,40.33528],[-106.51296,40.33426],[-106.51273,40.33378],[-106.51297,40.33319],[-106.51621,40.33005],[-106.51706,40.32999],[-106.51671,40.32946],[-106.517,40.32906],[-106.51694,40.32873],[-106.5173,40.32894],[-106.51831,40.32804],[-106.51892,40.32791],[-106.51873,40.32721],[-106.51774,40.32734],[-106.51676,40.3271],[-106.51638,40.32722],[-106.51529,40.32854],[-106.51469,40.32886],[-106.51449,40.32968],[-106.51405,40.33022],[-106.51304,40.33058],[-106.51162,40.33079],[-106.51264,40.3311],[-106.51289,40.33139],[-106.51122,40.33297],[-106.51121,40.33333],[-106.51151,40.33333],[-106.51171,40.3341],[-106.51237,40.33432],[-106.51239,40.33469],[-106.51297,40.33528]]]},"properties":{"waterbody_id":"co_waterbody_whiteley_peak_reservoir_14010001_001","water_id":"co_waterbody_whiteley_peak_reservoir_14010001_001","occurrence_id":"co_waterbody_whiteley_peak_reservoir_14010001_001","occurrence_number":"001","display_name":"Whiteley Peak Reservoir","normalized_name":"whiteley peak reservoir","mapped_name":"Whiteley Peak Reservoir","source_name":"Whiteley Peak Reservoir","disambiguator":"Colorado Headwaters · reservoir","state":"CO","atlas_layer":"waterbody_object","object_role":"waterbody_object","atlas_class":"named_waterbody","waterbody_type":"reservoir","huc8":"14010001","huc8Name":"Colorado Headwaters","huc8States":"CO","lineageKey":"coloradoRiver","lineage":"coloradoRiver","historic":"coloradoRiver","current":"coloradoRiver","recovery":"recoveryWatch","lineageLabel":"Colorado River green lineage","lineageBasin":"Colorado Headwaters","lineageNote":"Upper Colorado green-lineage context","atlas_context":"cutthroat_lineage_context","area_sq_km":0.149,"elevation":0,"FType":390,"FCode":39004,"source_id":"88870553","bounds":{"west":-106.51892,"south":40.3271,"east":-106.51121,"north":40.33528},"confidence_public":"Watershed-level lineage context; expert review recommended","geometry_status_public":"Named waterbody polygon from public hydrography","geometry_source_public":"Public hydrography waterbody polygon","trout_source_public":"Compiled public recovery and lineage context; expert review recommended","public_notes":"Whiteley Peak Reservoir is shown as a named waterbody within watershed-level cutthroat lineage context. This is not a precise biological boundary."}},{"type":"Feature","geometry":{"type":"Polygon","coordinates":[[[-106.66218,40.44639],[-106.6619,40.44645],[-106.66178,40.44682],[-106.66027,40.44839],[-106.65989,40.44921],[-106.65943,40.4496],[-106.65934,40.45004],[-106.65961,40.45002],[-106.65995,40.45029],[-106.65974,40.44973],[-106.661,40.44914],[-106.66142,40.44855],[-106.66283,40.44763],[-106.66293,40.44714],[-106.66252,40.44696],[-106.66218,40.44639]]]},"properties":{"waterbody_id":"co_waterbody_fishhook_lake_14050001_001","water_id":"co_waterbody_fishhook_lake_14050001_001","occurrence_id":"co_waterbody_fishhook_lake_14050001_001","occurrence_number":"001","display_name":"Fishhook Lake","normalized_name":"fishhook lake","mapped_name":"Fishhook Lake","source_name":"Fishhook Lake","disambiguator":"Upper Yampa · lake","state":"CO","atlas_layer":"waterbody_object","object_role":"waterbody_object","atlas_class":"named_waterbody","waterbody_type":"lake","huc8":"14050001","huc8Name":"Upper Yampa","huc8States":"CO","lineageKey":"greenRiverBlue","lineage":"greenRiverBlue","historic":"greenRiverBlue","current":"greenRiverBlue","recovery":"recoveryWatch","lineageLabel":"Green River / blue-lineage CT","lineageBasin":"Upper Yampa","lineageNote":"Yampa blue-lineage context","atlas_context":"cutthroat_lineage_context","area_sq_km":0.039,"elevation":0,"FType":390,"FCode":39004,"source_id":"90201293","bounds":{"west":-106.66293,"south":40.44639,"east":-106.65934,"north":40.45029},"confidence_public":"Watershed-level lineage context; expert review recommended","geometry_status_public":"Named waterbody polygon from public hydrography","geometry_source_public":"Public hydrography waterbody polygon","trout_source_public":"Compiled public recovery and lineage context; expert review recommended","public_notes":"Fishhook Lake is shown as a named waterbody within watershed-level cutthroat lineage context. This is not a precise biological boundary."}},{"type":"Feature","geometry":{"type":"Polygon","coordinates":[[[-106.68239,40.47352],[-106.68265,40.47398],[-106.68248,40.47476],[-106.68293,40.475],[-106.68716,40.47522],[-106.69027,40.47575],[-106.69227,40.47552],[-106.69248,40.47534],[-106.69176,40.47521],[-106.69198,40.47486],[-106.69157,40.47443],[-106.68934,40.47439],[-106.68554,40.47304],[-106.68239,40.47352]],[[-106.68702,40.47483],[-106.68712,40.47492],[-106.6862,40.47494],[-106.68702,40.47483]]]},"properties":{"waterbody_id":"co_waterbody_long_lake_14050001_001","water_id":"co_waterbody_long_lake_14050001_001","occurrence_id":"co_waterbody_long_lake_14050001_001","occurrence_number":"001","display_name":"Long Lake","normalized_name":"long lake","mapped_name":"Long Lake","source_name":"Long Lake","disambiguator":"Upper Yampa · lake · occurrence 001","state":"CO","atlas_layer":"waterbody_object","object_role":"waterbody_object","atlas_class":"named_waterbody","waterbody_type":"lake","huc8":"14050001","huc8Name":"Upper Yampa","huc8States":"CO","lineageKey":"greenRiverBlue","lineage":"greenRiverBlue","historic":"greenRiverBlue","current":"greenRiverBlue","recovery":"recoveryWatch","lineageLabel":"Green River / blue-lineage CT","lineageBasin":"Upper Yampa","lineageNote":"Yampa blue-lineage context","atlas_context":"cutthroat_lineage_context","area_sq_km":0.137,"elevation":0,"FType":390,"FCode":39004,"source_id":"90201223","bounds":{"west":-106.69248,"south":40.47304,"east":-106.68239,"north":40.47575},"confidence_public":"Watershed-level lineage context; expert review recommended","geometry_status_public":"Named waterbody polygon from public hydrography","geometry_source_public":"Public hydrography waterbody polygon","trout_source_public":"Compiled public recovery and lineage context; expert review recommended","public_notes":"Long Lake is shown as a named waterbody within watershed-level cutthroat lineage context. This is not a precise biological boundary."}},{"type":"Feature","geometry":{"type":"Polygon","coordinates":[[[-106.65312,40.4557],[-106.65432,40.45549],[-106.65523,40.45479],[-106.65505,40.45325],[-106.65532,40.45274],[-106.65525,40.45242],[-106.65422,40.45252],[-106.65324,40.4535],[-106.65311,40.45389],[-106.65257,40.45418],[-106.65269,40.45485],[-106.65234,40.4552],[-106.65226,40.4556],[-106.65312,40.4557]]]},"properties":{"waterbody_id":"co_waterbody_lost_lake_14050001_001","water_id":"co_waterbody_lost_lake_14050001_001","occurrence_id":"co_waterbody_lost_lake_14050001_001","occurrence_number":"001","display_name":"Lost Lake","normalized_name":"lost lake","mapped_name":"Lost Lake","source_name":"Lost Lake","disambiguator":"Upper Yampa · lake · occurrence 001","state":"CO","atlas_layer":"waterbody_object","object_role":"waterbody_object","atlas_class":"named_waterbody","waterbody_type":"lake","huc8":"14050001","huc8Name":"Upper Yampa","huc8States":"CO","lineageKey":"greenRiverBlue","lineage":"greenRiverBlue","historic":"greenRiverBlue","current":"greenRiverBlue","recovery":"recoveryWatch","lineageLabel":"Green River / blue-lineage CT","lineageBasin":"Upper Yampa","lineageNote":"Yampa blue-lineage context","atlas_context":"cutthroat_lineage_context","area_sq_km":0.06,"elevation":0,"FType":390,"FCode":39004,"source_id":"90201287","bounds":{"west":-106.65532,"south":40.45242,"east":-106.65226,"north":40.4557},"confidence_public":"Watershed-level lineage context; expert review recommended","geometry_status_public":"Named waterbody polygon from public hydrography","geometry_source_public":"Public hydrography waterbody polygon","trout_source_public":"Compiled public recovery and lineage context; expert review recommended","public_notes":"Lost Lake is shown as a named waterbody within watershed-level cutthroat lineage context. This is not a precise biological boundary."}},{"type":"Feature","geometry":{"type":"Polygon","coordinates":[[[-106.66323,40.46276],[-106.66216,40.46283],[-106.66143,40.4632],[-106.66138,40.46365],[-106.66221,40.46406],[-106.66248,40.46476],[-106.66238,40.46508],[-106.66188,40.46537],[-106.66229,40.46535],[-106.66241,40.46571],[-106.66323,40.46551],[-106.66454,40.46565],[-106.66471,40.4653],[-106.66397,40.46486],[-106.66405,40.46395],[-106.66323,40.46276]]]},"properties":{"waterbody_id":"co_waterbody_lake_elmo_14050001_001","water_id":"co_waterbody_lake_elmo_14050001_001","occurrence_id":"co_waterbody_lake_elmo_14050001_001","occurrence_number":"001","display_name":"Lake Elmo","normalized_name":"lake elmo","mapped_name":"Lake Elmo","source_name":"Lake Elmo","disambiguator":"Upper Yampa · lake","state":"CO","atlas_layer":"waterbody_object","object_role":"waterbody_object","atlas_class":"named_waterbody","waterbody_type":"lake","huc8":"14050001","huc8Name":"Upper Yampa","huc8States":"CO","lineageKey":"greenRiverBlue","lineage":"greenRiverBlue","historic":"greenRiverBlue","current":"greenRiverBlue","recovery":"recoveryWatch","lineageLabel":"Green River / blue-lineage CT","lineageBasin":"Upper Yampa","lineageNote":"Yampa blue-lineage context","atlas_context":"cutthroat_lineage_context","area_sq_km":0.052,"elevation":0,"FType":390,"FCode":39004,"source_id":"90201249","bounds":{"west":-106.66471,"south":40.46276,"east":-106.66138,"north":40.46571},"confidence_public":"Watershed-level lineage context; expert review recommended","geometry_status_public":"Named waterbody polygon from public hydrography","geometry_source_public":"Public hydrography waterbody polygon","trout_source_public":"Compiled public recovery and lineage context; expert review recommended","public_notes":"Lake Elmo is shown as a named waterbody within watershed-level cutthroat lineage context. This is not a precise biological boundary."}},{"type":"Feature","geometry":{"type":"Polygon","coordinates":[[[-106.69443,40.49432],[-106.69498,40.49456],[-106.6948,40.49555],[-106.69518,40.49636],[-106.69689,40.49646],[-106.69726,40.49691],[-106.69865,40.49674],[-106.69926,40.49688],[-106.69943,40.49684],[-106.6994,40.49663],[-106.69886,40.49606],[-106.69881,40.49568],[-106.69996,40.49615],[-106.7009,40.49571],[-106.70197,40.49562],[-106.70446,40.49455],[-106.70553,40.49441],[-106.70561,40.49297],[-106.7037,40.49226],[-106.70081,40.49197],[-106.6995,40.49275],[-106.69891,40.49285],[-106.69846,40.49328],[-106.69738,40.49322],[-106.69638,40.4936],[-106.69512,40.49346],[-106.69505,40.49394],[-106.69443,40.49432]],[[-106.69875,40.49543],[-106.69852,40.49509],[-106.69896,40.49464],[-106.69907,40.4948],[-106.69875,40.49543]]]},"properties":{"waterbody_id":"co_waterbody_fish_creek_reservoir_14050001_001","water_id":"co_waterbody_fish_creek_reservoir_14050001_001","occurrence_id":"co_waterbody_fish_creek_reservoir_14050001_001","occurrence_number":"001","display_name":"Fish Creek Reservoir","normalized_name":"fish creek reservoir","mapped_name":"Fish Creek Reservoir","source_name":"Fish Creek Reservoir","disambiguator":"Upper Yampa · reservoir","state":"CO","atlas_layer":"waterbody_object","object_role":"waterbody_object","atlas_class":"named_waterbody","waterbody_type":"reservoir","huc8":"14050001","huc8Name":"Upper Yampa","huc8States":"CO","lineageKey":"greenRiverBlue","lineage":"greenRiverBlue","historic":"greenRiverBlue","current":"greenRiverBlue","recovery":"recoveryWatch","lineageLabel":"Green River / blue-lineage CT","lineageBasin":"Upper Yampa","lineageNote":"Yampa blue-lineage context","atlas_context":"cutthroat_lineage_context","area_sq_km":0.309,"elevation":0,"FType":390,"FCode":39004,"source_id":"90201191","bounds":{"west":-106.70561,"south":40.49197,"east":-106.69443,"north":40.49691},"confidence_public":"Watershed-level lineage context; expert review recommended","geometry_status_public":"Named waterbody polygon from public hydrography","geometry_source_public":"Public hydrography waterbody polygon","trout_source_public":"Compiled public recovery and lineage context; expert review recommended","public_notes":"Fish Creek Reservoir is shown as a named waterbody within watershed-level cutthroat lineage context. This is not a precise biological boundary."}},{"type":"Feature","geometry":{"type":"Polygon","coordinates":[[[-106.65977,40.46963],[-106.66036,40.46968],[-106.66061,40.4695],[-106.66028,40.46905],[-106.65943,40.46852],[-106.65906,40.46877],[-106.65903,40.46926],[-106.65977,40.46963]]]},"properties":{"waterbody_id":"co_waterbody_little_lost_lake_14050001_001","water_id":"co_waterbody_little_lost_lake_14050001_001","occurrence_id":"co_waterbody_little_lost_lake_14050001_001","occurrence_number":"001","display_name":"Little Lost Lake","normalized_name":"little lost lake","mapped_name":"Little Lost Lake","source_name":"Little Lost Lake","disambiguator":"Upper Yampa · lake","state":"CO","atlas_layer":"waterbody_object","object_role":"waterbody_object","atlas_class":"named_waterbody","waterbody_type":"lake","huc8":"14050001","huc8Name":"Upper Yampa","huc8States":"CO","lineageKey":"greenRiverBlue","lineage":"greenRiverBlue","historic":"greenRiverBlue","current":"greenRiverBlue","recovery":"recoveryWatch","lineageLabel":"Green River / blue-lineage CT","lineageBasin":"Upper Yampa","lineageNote":"Yampa blue-lineage context","atlas_context":"cutthroat_lineage_context","area_sq_km":0.011,"elevation":0,"FType":390,"FCode":39004,"source_id":"90201229","bounds":{"west":-106.66061,"south":40.46852,"east":-106.65903,"north":40.46968},"confidence_public":"Watershed-level lineage context; expert review recommended","geometry_status_public":"Named waterbody polygon from public hydrography","geometry_source_public":"Public hydrography waterbody polygon","trout_source_public":"Compiled public recovery and lineage context; expert review recommended","public_notes":"Little Lost Lake is shown as a named waterbody within watershed-level cutthroat lineage context. This is not a precise biological boundary."}}]}