{"type":"FeatureCollection","metadata":{"source":"C:\\ct-atlas-data\\processed\\geojson\\interpreted\\colorado_waterbody_objects_v1.geojson","type":"colorado-waterbody-object-v1-tile","tile_size_degrees":0.25,"x":-425,"y":156,"bounds":{"west":-106.25,"south":39,"east":-106,"north":39.25}},"features":[{"type":"Feature","geometry":{"type":"Polygon","coordinates":[[[-106.17362,39.18657],[-106.17326,39.1881],[-106.1738,39.18869],[-106.17431,39.18847],[-106.17452,39.18805],[-106.17426,39.18722],[-106.17362,39.18657]]]},"properties":{"waterbody_id":"co_waterbody_leavick_tarn_10190001_001","water_id":"co_waterbody_leavick_tarn_10190001_001","occurrence_id":"co_waterbody_leavick_tarn_10190001_001","occurrence_number":"001","display_name":"Leavick Tarn","normalized_name":"leavick tarn","mapped_name":"Leavick Tarn","source_name":"Leavick Tarn","disambiguator":"South Platte Headwaters · lake_or_pond","state":"CO","atlas_layer":"waterbody_object","object_role":"waterbody_object","atlas_class":"named_waterbody","waterbody_type":"lake_or_pond","huc8":"10190001","huc8Name":"South Platte Headwaters","huc8States":"CO","lineageKey":"greenback","lineage":"greenback","historic":"greenback","current":"greenback","recovery":"recoveryWatch","lineageLabel":"Greenback / South Platte lineage","lineageBasin":"South Platte Headwaters","lineageNote":"Generalized historical greenback context; not exact population mapping","atlas_context":"cutthroat_lineage_context","area_sq_km":0.017,"elevation":0,"FType":390,"FCode":39004,"source_id":"127818585","bounds":{"west":-106.17452,"south":39.18657,"east":-106.17326,"north":39.18869},"confidence_public":"Watershed-level lineage context; expert review recommended","geometry_status_public":"Named waterbody polygon from public hydrography","geometry_source_public":"Public hydrography waterbody polygon","trout_source_public":"Compiled public recovery and lineage context; expert review recommended","public_notes":"Leavick Tarn is shown as a named waterbody within watershed-level cutthroat lineage context. This is not a precise biological boundary."}},{"type":"Feature","geometry":{"type":"Polygon","coordinates":[[[-106.06102,39.20418],[-106.06123,39.20408],[-106.06101,39.20394],[-106.06102,39.20418]]]},"properties":{"waterbody_id":"co_waterbody_thompson_park_10190001_001","water_id":"co_waterbody_thompson_park_10190001_001","occurrence_id":"co_waterbody_thompson_park_10190001_001","occurrence_number":"001","display_name":"Thompson Park","normalized_name":"thompson park","mapped_name":"Thompson Park","source_name":"Thompson Park","disambiguator":"South Platte Headwaters · lake_or_pond","state":"CO","atlas_layer":"waterbody_object","object_role":"waterbody_object","atlas_class":"named_waterbody","waterbody_type":"lake_or_pond","huc8":"10190001","huc8Name":"South Platte Headwaters","huc8States":"CO","lineageKey":"greenback","lineage":"greenback","historic":"greenback","current":"greenback","recovery":"recoveryWatch","lineageLabel":"Greenback / South Platte lineage","lineageBasin":"South Platte Headwaters","lineageNote":"Generalized historical greenback context; not exact population mapping","atlas_context":"cutthroat_lineage_context","area_sq_km":0,"elevation":0,"FType":390,"FCode":39004,"source_id":"127818563","bounds":{"west":-106.06123,"south":39.20394,"east":-106.06101,"north":39.20418},"confidence_public":"Watershed-level lineage context; expert review recommended","geometry_status_public":"Named waterbody polygon from public hydrography","geometry_source_public":"Public hydrography waterbody polygon","trout_source_public":"Compiled public recovery and lineage context; expert review recommended","public_notes":"Thompson Park is shown as a named waterbody within watershed-level cutthroat lineage context. This is not a precise biological boundary."}},{"type":"Feature","geometry":{"type":"Polygon","coordinates":[[[-106.12911,39.15445],[-106.12927,39.15554],[-106.12948,39.15585],[-106.12928,39.15643],[-106.13015,39.15652],[-106.13045,39.15602],[-106.12999,39.15437],[-106.12911,39.15445]]]},"properties":{"waterbody_id":"co_waterbody_twelvemile_lake_10190001_001","water_id":"co_waterbody_twelvemile_lake_10190001_001","occurrence_id":"co_waterbody_twelvemile_lake_10190001_001","occurrence_number":"001","display_name":"Twelvemile Lake","normalized_name":"twelvemile lake","mapped_name":"Twelvemile Lake","source_name":"Twelvemile Lake","disambiguator":"South Platte Headwaters · lake","state":"CO","atlas_layer":"waterbody_object","object_role":"waterbody_object","atlas_class":"named_waterbody","waterbody_type":"lake","huc8":"10190001","huc8Name":"South Platte Headwaters","huc8States":"CO","lineageKey":"greenback","lineage":"greenback","historic":"greenback","current":"greenback","recovery":"recoveryWatch","lineageLabel":"Greenback / South Platte lineage","lineageBasin":"South Platte Headwaters","lineageNote":"Generalized historical greenback context; not exact population mapping","atlas_context":"cutthroat_lineage_context","area_sq_km":0.022,"elevation":3382.1,"FType":390,"FCode":39009,"source_id":"127818669","bounds":{"west":-106.13045,"south":39.15437,"east":-106.12911,"north":39.15652},"confidence_public":"Watershed-level lineage context; expert review recommended","geometry_status_public":"Named waterbody polygon from public hydrography","geometry_source_public":"Public hydrography waterbody polygon","trout_source_public":"Compiled public recovery and lineage context; expert review recommended","public_notes":"Twelvemile Lake is shown as a named waterbody within watershed-level cutthroat lineage context. This is not a precise biological boundary."}},{"type":"Feature","geometry":{"type":"Polygon","coordinates":[[[-106.10263,39.16449],[-106.10267,39.16434],[-106.10246,39.16443],[-106.10263,39.16449]]]},"properties":{"waterbody_id":"co_waterbody_sheep_park_10190001_001","water_id":"co_waterbody_sheep_park_10190001_001","occurrence_id":"co_waterbody_sheep_park_10190001_001","occurrence_number":"001","display_name":"Sheep Park","normalized_name":"sheep park","mapped_name":"Sheep Park","source_name":"Sheep Park","disambiguator":"South Platte Headwaters · lake_or_pond","state":"CO","atlas_layer":"waterbody_object","object_role":"waterbody_object","atlas_class":"named_waterbody","waterbody_type":"lake_or_pond","huc8":"10190001","huc8Name":"South Platte Headwaters","huc8States":"CO","lineageKey":"greenback","lineage":"greenback","historic":"greenback","current":"greenback","recovery":"recoveryWatch","lineageLabel":"Greenback / South Platte lineage","lineageBasin":"South Platte Headwaters","lineageNote":"Generalized historical greenback context; not exact population mapping","atlas_context":"cutthroat_lineage_context","area_sq_km":0,"elevation":0,"FType":390,"FCode":39004,"source_id":"127818645","bounds":{"west":-106.10267,"south":39.16434,"east":-106.10246,"north":39.16449},"confidence_public":"Watershed-level lineage context; expert review recommended","geometry_status_public":"Named waterbody polygon from public hydrography","geometry_source_public":"Public hydrography waterbody polygon","trout_source_public":"Compiled public recovery and lineage context; expert review recommended","public_notes":"Sheep Park is shown as a named waterbody within watershed-level cutthroat lineage context. This is not a precise biological boundary."}},{"type":"Feature","geometry":{"type":"Polygon","coordinates":[[[-106.03607,39.05235],[-106.03589,39.05301],[-106.03637,39.05376],[-106.03591,39.0548],[-106.03645,39.05689],[-106.03675,39.05735],[-106.03752,39.0573],[-106.03791,39.05709],[-106.03819,39.05629],[-106.03787,39.05453],[-106.03913,39.05297],[-106.03758,39.05287],[-106.03644,39.05227],[-106.03607,39.05235]]]},"properties":{"waterbody_id":"co_waterbody_long_park_10190001_001","water_id":"co_waterbody_long_park_10190001_001","occurrence_id":"co_waterbody_long_park_10190001_001","occurrence_number":"001","display_name":"Long Park","normalized_name":"long park","mapped_name":"Long Park","source_name":"Long Park","disambiguator":"South Platte Headwaters · lake_or_pond","state":"CO","atlas_layer":"waterbody_object","object_role":"waterbody_object","atlas_class":"named_waterbody","waterbody_type":"lake_or_pond","huc8":"10190001","huc8Name":"South Platte Headwaters","huc8States":"CO","lineageKey":"greenback","lineage":"greenback","historic":"greenback","current":"greenback","recovery":"recoveryWatch","lineageLabel":"Greenback / South Platte lineage","lineageBasin":"South Platte Headwaters","lineageNote":"Generalized historical greenback context; not exact population mapping","atlas_context":"cutthroat_lineage_context","area_sq_km":0.091,"elevation":0,"FType":390,"FCode":39001,"source_id":"127818999","bounds":{"west":-106.03913,"south":39.05227,"east":-106.03589,"north":39.05735},"confidence_public":"Watershed-level lineage context; expert review recommended","geometry_status_public":"Named waterbody polygon from public hydrography","geometry_source_public":"Public hydrography waterbody polygon","trout_source_public":"Compiled public recovery and lineage context; expert review recommended","public_notes":"Long Park is shown as a named waterbody within watershed-level cutthroat lineage context. This is not a precise biological boundary."}},{"type":"Feature","geometry":{"type":"Polygon","coordinates":[[[-106.2469,39.01574],[-106.24412,39.01776],[-106.24284,39.01761],[-106.24268,39.01794],[-106.2438,39.01966],[-106.24636,39.02198],[-106.24767,39.02211],[-106.24782,39.02286],[-106.24733,39.02332],[-106.24817,39.02471],[-106.24937,39.02422],[-106.25057,39.02412],[-106.25247,39.02346],[-106.2539,39.0222],[-106.25365,39.02183],[-106.25652,39.02154],[-106.25758,39.02126],[-106.25945,39.02117],[-106.26192,39.02159],[-106.26375,39.02271],[-106.26628,39.02294],[-106.26773,39.02274],[-106.27006,39.02197],[-106.27345,39.02195],[-106.27415,39.02159],[-106.27345,39.02127],[-106.27254,39.02043],[-106.2724,39.02012],[-106.27258,39.01963],[-106.27176,39.01935],[-106.27214,39.01894],[-106.27238,39.01819],[-106.27287,39.01826],[-106.27269,39.018],[-106.27223,39.01799],[-106.27183,39.01867],[-106.2711,39.01897],[-106.27096,39.01822],[-106.26871,39.01757],[-106.26682,39.01756],[-106.26493,39.01705],[-106.2626,39.01701],[-106.26179,39.01669],[-106.26107,39.01699],[-106.26008,39.01693],[-106.25911,39.01652],[-106.25739,39.01628],[-106.25442,39.01548],[-106.2469,39.01574]]]},"properties":{"waterbody_id":"co_waterbody_clear_creek_reservoir_11020001_001","water_id":"co_waterbody_clear_creek_reservoir_11020001_001","occurrence_id":"co_waterbody_clear_creek_reservoir_11020001_001","occurrence_number":"001","display_name":"Clear Creek Reservoir","normalized_name":"clear creek reservoir","mapped_name":"Clear Creek Reservoir","source_name":"Clear Creek Reservoir","disambiguator":"Arkansas Headwaters · reservoir","state":"CO","atlas_layer":"waterbody_object","object_role":"waterbody_object","atlas_class":"named_waterbody","waterbody_type":"reservoir","huc8":"11020001","huc8Name":"Arkansas Headwaters","huc8States":"CO","lineageKey":"yellowfin","lineage":"yellowfin","historic":"yellowfin","current":"yellowfin","recovery":"recoveryWatch","lineageLabel":"Yellowfin / Arkansas headwaters historical form","lineageBasin":"Arkansas Headwaters","lineageNote":"Atlas model treats Arkansas watershed as Yellowfin historical context","atlas_context":"cutthroat_lineage_context","area_sq_km":1.572,"elevation":2705.1,"FType":390,"FCode":39009,"source_id":"133049575","bounds":{"west":-106.27415,"south":39.01548,"east":-106.24268,"north":39.02471},"confidence_public":"Watershed-level lineage context; expert review recommended","geometry_status_public":"Named waterbody polygon from public hydrography","geometry_source_public":"Public hydrography waterbody polygon","trout_source_public":"Compiled public recovery and lineage context; expert review recommended","public_notes":"Clear Creek Reservoir is shown as a named waterbody within watershed-level cutthroat lineage context. This is not a precise biological boundary."}},{"type":"Feature","geometry":{"type":"Polygon","coordinates":[[[-106.21924,39.20107],[-106.21897,39.20115],[-106.21848,39.20192],[-106.21934,39.20245],[-106.22002,39.20327],[-106.22042,39.2027],[-106.22042,39.2019],[-106.22023,39.20148],[-106.21924,39.20107]]]},"properties":{"waterbody_id":"co_waterbody_empire_reservoir_11020001_001","water_id":"co_waterbody_empire_reservoir_11020001_001","occurrence_id":"co_waterbody_empire_reservoir_11020001_001","occurrence_number":"001","display_name":"Empire Reservoir","normalized_name":"empire reservoir","mapped_name":"Empire Reservoir","source_name":"Empire Reservoir","disambiguator":"Arkansas Headwaters · reservoir · occurrence 001","state":"CO","atlas_layer":"waterbody_object","object_role":"waterbody_object","atlas_class":"named_waterbody","waterbody_type":"reservoir","huc8":"11020001","huc8Name":"Arkansas Headwaters","huc8States":"CO","lineageKey":"yellowfin","lineage":"yellowfin","historic":"yellowfin","current":"yellowfin","recovery":"recoveryWatch","lineageLabel":"Yellowfin / Arkansas headwaters historical form","lineageBasin":"Arkansas Headwaters","lineageNote":"Atlas model treats Arkansas watershed as Yellowfin historical context","atlas_context":"cutthroat_lineage_context","area_sq_km":0.024,"elevation":0,"FType":390,"FCode":39004,"source_id":"133049252","bounds":{"west":-106.22042,"south":39.20107,"east":-106.21848,"north":39.20327},"confidence_public":"Watershed-level lineage context; expert review recommended","geometry_status_public":"Named waterbody polygon from public hydrography","geometry_source_public":"Public hydrography waterbody polygon","trout_source_public":"Compiled public recovery and lineage context; expert review recommended","public_notes":"Empire Reservoir is shown as a named waterbody within watershed-level cutthroat lineage context. This is not a precise biological boundary."}}]}