{"type":"FeatureCollection","metadata":{"source":"C:\\ct-atlas-data\\processed\\geojson\\interpreted\\colorado_waterbody_objects_v1.geojson","type":"colorado-waterbody-object-v1-tile","tile_size_degrees":0.25,"x":-434,"y":151,"bounds":{"west":-108.5,"south":37.75,"east":-108.25,"north":38}},"features":[{"type":"Feature","geometry":{"type":"Polygon","coordinates":[[[-108.27584,37.75404],[-108.27643,37.75466],[-108.27682,37.75418],[-108.27602,37.75395],[-108.27584,37.75404]]]},"properties":{"waterbody_id":"co_waterbody_saddle_reservoir_14030002_001","water_id":"co_waterbody_saddle_reservoir_14030002_001","occurrence_id":"co_waterbody_saddle_reservoir_14030002_001","occurrence_number":"001","display_name":"Saddle Reservoir","normalized_name":"saddle reservoir","mapped_name":"Saddle Reservoir","source_name":"Saddle Reservoir","disambiguator":"Upper Dolores · reservoir · occurrence 001","state":"CO","atlas_layer":"waterbody_object","object_role":"waterbody_object","atlas_class":"named_waterbody","waterbody_type":"reservoir","huc8":"14030002","huc8Name":"Upper Dolores","huc8States":"CO,UT","lineageKey":"coloradoRiver","lineage":"coloradoRiver","historic":"coloradoRiver","current":"coloradoRiver","recovery":"recoveryWatch","lineageLabel":"Colorado River green lineage","lineageBasin":"Upper Dolores","lineageNote":"Dolores green-lineage context","atlas_context":"cutthroat_lineage_context","area_sq_km":0.004,"elevation":0,"FType":390,"FCode":39001,"source_id":"87433237","bounds":{"west":-108.27682,"south":37.75395,"east":-108.27584,"north":37.75466},"confidence_public":"Watershed-level lineage context; expert review recommended","geometry_status_public":"Named waterbody polygon from public hydrography","geometry_source_public":"Public hydrography waterbody polygon","trout_source_public":"Compiled public recovery and lineage context; expert review recommended","public_notes":"Saddle Reservoir is shown as a named waterbody within watershed-level cutthroat lineage context. This is not a precise biological boundary."}},{"type":"Feature","geometry":{"type":"Polygon","coordinates":[[[-108.40482,37.89779],[-108.40601,37.89763],[-108.40642,37.89713],[-108.40593,37.89719],[-108.40563,37.89749],[-108.40488,37.89759],[-108.40482,37.89779]]]},"properties":{"waterbody_id":"co_waterbody_jensen_lake_14030002_001","water_id":"co_waterbody_jensen_lake_14030002_001","occurrence_id":"co_waterbody_jensen_lake_14030002_001","occurrence_number":"001","display_name":"Jensen Lake","normalized_name":"jensen lake","mapped_name":"Jensen Lake","source_name":"Jensen Lake","disambiguator":"Upper Dolores · lake","state":"CO","atlas_layer":"waterbody_object","object_role":"waterbody_object","atlas_class":"named_waterbody","waterbody_type":"lake","huc8":"14030002","huc8Name":"Upper Dolores","huc8States":"CO,UT","lineageKey":"coloradoRiver","lineage":"coloradoRiver","historic":"coloradoRiver","current":"coloradoRiver","recovery":"recoveryWatch","lineageLabel":"Colorado River green lineage","lineageBasin":"Upper Dolores","lineageNote":"Dolores green-lineage context","atlas_context":"cutthroat_lineage_context","area_sq_km":0.004,"elevation":0,"FType":390,"FCode":39004,"source_id":"87446872","bounds":{"west":-108.40642,"south":37.89713,"east":-108.40482,"north":37.89779},"confidence_public":"Watershed-level lineage context; expert review recommended","geometry_status_public":"Named waterbody polygon from public hydrography","geometry_source_public":"Public hydrography waterbody polygon","trout_source_public":"Compiled public recovery and lineage context; expert review recommended","public_notes":"Jensen Lake is shown as a named waterbody within watershed-level cutthroat lineage context. This is not a precise biological boundary."}},{"type":"Feature","geometry":{"type":"Polygon","coordinates":[[[-108.47619,37.79808],[-108.47609,37.79821],[-108.47634,37.79823],[-108.47619,37.79808]]]},"properties":{"waterbody_id":"co_waterbody_mesa_point_reservoir_14030002_001","water_id":"co_waterbody_mesa_point_reservoir_14030002_001","occurrence_id":"co_waterbody_mesa_point_reservoir_14030002_001","occurrence_number":"001","display_name":"Mesa Point Reservoir","normalized_name":"mesa point reservoir","mapped_name":"Mesa Point Reservoir","source_name":"Mesa Point Reservoir","disambiguator":"Upper Dolores · reservoir","state":"CO","atlas_layer":"waterbody_object","object_role":"waterbody_object","atlas_class":"named_waterbody","waterbody_type":"reservoir","huc8":"14030002","huc8Name":"Upper Dolores","huc8States":"CO,UT","lineageKey":"coloradoRiver","lineage":"coloradoRiver","historic":"coloradoRiver","current":"coloradoRiver","recovery":"recoveryWatch","lineageLabel":"Colorado River green lineage","lineageBasin":"Upper Dolores","lineageNote":"Dolores green-lineage context","atlas_context":"cutthroat_lineage_context","area_sq_km":0.00033923,"elevation":0,"FType":390,"FCode":39001,"source_id":"87455811","bounds":{"west":-108.47634,"south":37.79808,"east":-108.47609,"north":37.79823},"confidence_public":"Watershed-level lineage context; expert review recommended","geometry_status_public":"Named waterbody polygon from public hydrography","geometry_source_public":"Public hydrography waterbody polygon","trout_source_public":"Compiled public recovery and lineage context; expert review recommended","public_notes":"Mesa Point Reservoir is shown as a named waterbody within watershed-level cutthroat lineage context. This is not a precise biological boundary."}},{"type":"Feature","geometry":{"type":"Polygon","coordinates":[[[-108.35698,37.80787],[-108.35632,37.808],[-108.35525,37.80782],[-108.3545,37.80802],[-108.35432,37.80943],[-108.35375,37.80904],[-108.35357,37.80951],[-108.35364,37.81004],[-108.3542,37.81046],[-108.35402,37.81147],[-108.35334,37.81179],[-108.35332,37.81219],[-108.3528,37.81257],[-108.353,37.81302],[-108.35258,37.81281],[-108.35251,37.81329],[-108.35371,37.81396],[-108.35437,37.8132],[-108.35486,37.81294],[-108.35525,37.81189],[-108.35599,37.81087],[-108.35599,37.81039],[-108.35544,37.80989],[-108.35544,37.80894],[-108.35698,37.80787]]]},"properties":{"waterbody_id":"co_waterbody_belmear_lake_14030002_001","water_id":"co_waterbody_belmear_lake_14030002_001","occurrence_id":"co_waterbody_belmear_lake_14030002_001","occurrence_number":"001","display_name":"Belmear Lake","normalized_name":"belmear lake","mapped_name":"Belmear Lake","source_name":"Belmear Lake","disambiguator":"Upper Dolores · lake","state":"CO","atlas_layer":"waterbody_object","object_role":"waterbody_object","atlas_class":"named_waterbody","waterbody_type":"lake","huc8":"14030002","huc8Name":"Upper Dolores","huc8States":"CO,UT","lineageKey":"coloradoRiver","lineage":"coloradoRiver","historic":"coloradoRiver","current":"coloradoRiver","recovery":"recoveryWatch","lineageLabel":"Colorado River green lineage","lineageBasin":"Upper Dolores","lineageNote":"Dolores green-lineage context","atlas_context":"cutthroat_lineage_context","area_sq_km":0.099,"elevation":0,"FType":390,"FCode":39004,"source_id":"87433041","bounds":{"west":-108.35698,"south":37.80782,"east":-108.35251,"north":37.81396},"confidence_public":"Watershed-level lineage context; expert review recommended","geometry_status_public":"Named waterbody polygon from public hydrography","geometry_source_public":"Public hydrography waterbody polygon","trout_source_public":"Compiled public recovery and lineage context; expert review recommended","public_notes":"Belmear Lake is shown as a named waterbody within watershed-level cutthroat lineage context. This is not a precise biological boundary."}},{"type":"Feature","geometry":{"type":"Polygon","coordinates":[[[-108.47011,37.81734],[-108.47025,37.81751],[-108.47047,37.81731],[-108.47028,37.81725],[-108.47011,37.81734]]]},"properties":{"waterbody_id":"co_waterbody_dopey_reservoir_14030002_001","water_id":"co_waterbody_dopey_reservoir_14030002_001","occurrence_id":"co_waterbody_dopey_reservoir_14030002_001","occurrence_number":"001","display_name":"Dopey Reservoir","normalized_name":"dopey reservoir","mapped_name":"Dopey Reservoir","source_name":"Dopey Reservoir","disambiguator":"Upper Dolores · reservoir","state":"CO","atlas_layer":"waterbody_object","object_role":"waterbody_object","atlas_class":"named_waterbody","waterbody_type":"reservoir","huc8":"14030002","huc8Name":"Upper Dolores","huc8States":"CO,UT","lineageKey":"coloradoRiver","lineage":"coloradoRiver","historic":"coloradoRiver","current":"coloradoRiver","recovery":"recoveryWatch","lineageLabel":"Colorado River green lineage","lineageBasin":"Upper Dolores","lineageNote":"Dolores green-lineage context","atlas_context":"cutthroat_lineage_context","area_sq_km":0.001,"elevation":0,"FType":390,"FCode":39001,"source_id":"87455753","bounds":{"west":-108.47047,"south":37.81725,"east":-108.47011,"north":37.81751},"confidence_public":"Watershed-level lineage context; expert review recommended","geometry_status_public":"Named waterbody polygon from public hydrography","geometry_source_public":"Public hydrography waterbody polygon","trout_source_public":"Compiled public recovery and lineage context; expert review recommended","public_notes":"Dopey Reservoir is shown as a named waterbody within watershed-level cutthroat lineage context. This is not a precise biological boundary."}},{"type":"Feature","geometry":{"type":"Polygon","coordinates":[[[-108.46821,37.80388],[-108.46793,37.80365],[-108.46776,37.80374],[-108.46823,37.80445],[-108.4683,37.80436],[-108.46821,37.80388]]]},"properties":{"waterbody_id":"co_waterbody_island_reservoir_14030002_001","water_id":"co_waterbody_island_reservoir_14030002_001","occurrence_id":"co_waterbody_island_reservoir_14030002_001","occurrence_number":"001","display_name":"Island Reservoir","normalized_name":"island reservoir","mapped_name":"Island Reservoir","source_name":"Island Reservoir","disambiguator":"Upper Dolores · reservoir · occurrence 001","state":"CO","atlas_layer":"waterbody_object","object_role":"waterbody_object","atlas_class":"named_waterbody","waterbody_type":"reservoir","huc8":"14030002","huc8Name":"Upper Dolores","huc8States":"CO,UT","lineageKey":"coloradoRiver","lineage":"coloradoRiver","historic":"coloradoRiver","current":"coloradoRiver","recovery":"recoveryWatch","lineageLabel":"Colorado River green lineage","lineageBasin":"Upper Dolores","lineageNote":"Dolores green-lineage context","atlas_context":"cutthroat_lineage_context","area_sq_km":0.002,"elevation":0,"FType":390,"FCode":39001,"source_id":"87455789","bounds":{"west":-108.4683,"south":37.80365,"east":-108.46776,"north":37.80445},"confidence_public":"Watershed-level lineage context; expert review recommended","geometry_status_public":"Named waterbody polygon from public hydrography","geometry_source_public":"Public hydrography waterbody polygon","trout_source_public":"Compiled public recovery and lineage context; expert review recommended","public_notes":"Island Reservoir is shown as a named waterbody within watershed-level cutthroat lineage context. This is not a precise biological boundary."}},{"type":"Feature","geometry":{"type":"Polygon","coordinates":[[[-108.27467,37.76258],[-108.27471,37.76239],[-108.27435,37.7623],[-108.27433,37.76249],[-108.27467,37.76258]]]},"properties":{"waterbody_id":"co_waterbody_north_nipple_reservoir_14030002_001","water_id":"co_waterbody_north_nipple_reservoir_14030002_001","occurrence_id":"co_waterbody_north_nipple_reservoir_14030002_001","occurrence_number":"001","display_name":"North Nipple Reservoir","normalized_name":"north nipple reservoir","mapped_name":"North Nipple Reservoir","source_name":"North Nipple Reservoir","disambiguator":"Upper Dolores · reservoir","state":"CO","atlas_layer":"waterbody_object","object_role":"waterbody_object","atlas_class":"named_waterbody","waterbody_type":"reservoir","huc8":"14030002","huc8Name":"Upper Dolores","huc8States":"CO,UT","lineageKey":"coloradoRiver","lineage":"coloradoRiver","historic":"coloradoRiver","current":"coloradoRiver","recovery":"recoveryWatch","lineageLabel":"Colorado River green lineage","lineageBasin":"Upper Dolores","lineageNote":"Dolores green-lineage context","atlas_context":"cutthroat_lineage_context","area_sq_km":0.001,"elevation":0,"FType":390,"FCode":39001,"source_id":"87433201","bounds":{"west":-108.27471,"south":37.7623,"east":-108.27433,"north":37.76258},"confidence_public":"Watershed-level lineage context; expert review recommended","geometry_status_public":"Named waterbody polygon from public hydrography","geometry_source_public":"Public hydrography waterbody polygon","trout_source_public":"Compiled public recovery and lineage context; expert review recommended","public_notes":"North Nipple Reservoir is shown as a named waterbody within watershed-level cutthroat lineage context. This is not a precise biological boundary."}},{"type":"Feature","geometry":{"type":"Polygon","coordinates":[[[-108.47027,37.82965],[-108.47015,37.83011],[-108.47069,37.82998],[-108.47061,37.82972],[-108.47027,37.82965]]]},"properties":{"waterbody_id":"co_waterbody_black_jack_reservoir_14030002_001","water_id":"co_waterbody_black_jack_reservoir_14030002_001","occurrence_id":"co_waterbody_black_jack_reservoir_14030002_001","occurrence_number":"001","display_name":"Black Jack Reservoir","normalized_name":"black jack reservoir","mapped_name":"Black Jack Reservoir","source_name":"Black Jack Reservoir","disambiguator":"Upper Dolores · reservoir","state":"CO","atlas_layer":"waterbody_object","object_role":"waterbody_object","atlas_class":"named_waterbody","waterbody_type":"reservoir","huc8":"14030002","huc8Name":"Upper Dolores","huc8States":"CO,UT","lineageKey":"coloradoRiver","lineage":"coloradoRiver","historic":"coloradoRiver","current":"coloradoRiver","recovery":"recoveryWatch","lineageLabel":"Colorado River green lineage","lineageBasin":"Upper Dolores","lineageNote":"Dolores green-lineage context","atlas_context":"cutthroat_lineage_context","area_sq_km":0.002,"elevation":0,"FType":390,"FCode":39001,"source_id":"87455735","bounds":{"west":-108.47069,"south":37.82965,"east":-108.47015,"north":37.83011},"confidence_public":"Watershed-level lineage context; expert review recommended","geometry_status_public":"Named waterbody polygon from public hydrography","geometry_source_public":"Public hydrography waterbody polygon","trout_source_public":"Compiled public recovery and lineage context; expert review recommended","public_notes":"Black Jack Reservoir is shown as a named waterbody within watershed-level cutthroat lineage context. This is not a precise biological boundary."}},{"type":"Feature","geometry":{"type":"Polygon","coordinates":[[[-108.39991,37.8975],[-108.40006,37.89743],[-108.40008,37.89724],[-108.39973,37.89726],[-108.39991,37.8975]]]},"properties":{"waterbody_id":"co_waterbody_bull_lake_14030002_001","water_id":"co_waterbody_bull_lake_14030002_001","occurrence_id":"co_waterbody_bull_lake_14030002_001","occurrence_number":"001","display_name":"Bull Lake","normalized_name":"bull lake","mapped_name":"Bull Lake","source_name":"Bull Lake","disambiguator":"Upper Dolores · lake · occurrence 001","state":"CO","atlas_layer":"waterbody_object","object_role":"waterbody_object","atlas_class":"named_waterbody","waterbody_type":"lake","huc8":"14030002","huc8Name":"Upper Dolores","huc8States":"CO,UT","lineageKey":"coloradoRiver","lineage":"coloradoRiver","historic":"coloradoRiver","current":"coloradoRiver","recovery":"recoveryWatch","lineageLabel":"Colorado River green lineage","lineageBasin":"Upper Dolores","lineageNote":"Dolores green-lineage context","atlas_context":"cutthroat_lineage_context","area_sq_km":0.001,"elevation":0,"FType":390,"FCode":39004,"source_id":"87446864","bounds":{"west":-108.40008,"south":37.89724,"east":-108.39973,"north":37.8975},"confidence_public":"Watershed-level lineage context; expert review recommended","geometry_status_public":"Named waterbody polygon from public hydrography","geometry_source_public":"Public hydrography waterbody polygon","trout_source_public":"Compiled public recovery and lineage context; expert review recommended","public_notes":"Bull Lake is shown as a named waterbody within watershed-level cutthroat lineage context. This is not a precise biological boundary."}},{"type":"Feature","geometry":{"type":"Polygon","coordinates":[[[-108.39438,37.83943],[-108.39473,37.83937],[-108.39488,37.8391],[-108.3944,37.83901],[-108.39438,37.83943]]]},"properties":{"waterbody_id":"co_waterbody_garner_reservoir_14030002_001","water_id":"co_waterbody_garner_reservoir_14030002_001","occurrence_id":"co_waterbody_garner_reservoir_14030002_001","occurrence_number":"001","display_name":"Garner Reservoir","normalized_name":"garner reservoir","mapped_name":"Garner Reservoir","source_name":"Garner Reservoir","disambiguator":"Upper Dolores · reservoir","state":"CO","atlas_layer":"waterbody_object","object_role":"waterbody_object","atlas_class":"named_waterbody","waterbody_type":"reservoir","huc8":"14030002","huc8Name":"Upper Dolores","huc8States":"CO,UT","lineageKey":"coloradoRiver","lineage":"coloradoRiver","historic":"coloradoRiver","current":"coloradoRiver","recovery":"recoveryWatch","lineageLabel":"Colorado River green lineage","lineageBasin":"Upper Dolores","lineageNote":"Dolores green-lineage context","atlas_context":"cutthroat_lineage_context","area_sq_km":0.002,"elevation":0,"FType":390,"FCode":39001,"source_id":"87455713","bounds":{"west":-108.39488,"south":37.83901,"east":-108.39438,"north":37.83943},"confidence_public":"Watershed-level lineage context; expert review recommended","geometry_status_public":"Named waterbody polygon from public hydrography","geometry_source_public":"Public hydrography waterbody polygon","trout_source_public":"Compiled public recovery and lineage context; expert review recommended","public_notes":"Garner Reservoir is shown as a named waterbody within watershed-level cutthroat lineage context. This is not a precise biological boundary."}},{"type":"Feature","geometry":{"type":"Polygon","coordinates":[[[-108.4666,37.77004],[-108.46641,37.77012],[-108.46643,37.77037],[-108.46674,37.77037],[-108.4666,37.77004]]]},"properties":{"waterbody_id":"co_waterbody_border_reservoir_14030002_001","water_id":"co_waterbody_border_reservoir_14030002_001","occurrence_id":"co_waterbody_border_reservoir_14030002_001","occurrence_number":"001","display_name":"Border Reservoir","normalized_name":"border reservoir","mapped_name":"Border Reservoir","source_name":"Border Reservoir","disambiguator":"Upper Dolores · reservoir","state":"CO","atlas_layer":"waterbody_object","object_role":"waterbody_object","atlas_class":"named_waterbody","waterbody_type":"reservoir","huc8":"14030002","huc8Name":"Upper Dolores","huc8States":"CO,UT","lineageKey":"coloradoRiver","lineage":"coloradoRiver","historic":"coloradoRiver","current":"coloradoRiver","recovery":"recoveryWatch","lineageLabel":"Colorado River green lineage","lineageBasin":"Upper Dolores","lineageNote":"Dolores green-lineage context","atlas_context":"cutthroat_lineage_context","area_sq_km":0.001,"elevation":0,"FType":390,"FCode":39001,"source_id":"87455891","bounds":{"west":-108.46674,"south":37.77004,"east":-108.46641,"north":37.77037},"confidence_public":"Watershed-level lineage context; expert review recommended","geometry_status_public":"Named waterbody polygon from public hydrography","geometry_source_public":"Public hydrography waterbody polygon","trout_source_public":"Compiled public recovery and lineage context; expert review recommended","public_notes":"Border Reservoir is shown as a named waterbody within watershed-level cutthroat lineage context. This is not a precise biological boundary."}},{"type":"Feature","geometry":{"type":"Polygon","coordinates":[[[-108.36811,37.8594],[-108.36733,37.85895],[-108.36724,37.85797],[-108.3667,37.85863],[-108.36599,37.85843],[-108.36552,37.85795],[-108.36558,37.85863],[-108.36447,37.85893],[-108.3648,37.85904],[-108.36511,37.85945],[-108.36546,37.85926],[-108.3665,37.85926],[-108.36644,37.85993],[-108.36673,37.86032],[-108.36751,37.86034],[-108.36811,37.8594]]]},"properties":{"waterbody_id":"co_waterbody_morrison_lake_14030002_001","water_id":"co_waterbody_morrison_lake_14030002_001","occurrence_id":"co_waterbody_morrison_lake_14030002_001","occurrence_number":"001","display_name":"Morrison Lake","normalized_name":"morrison lake","mapped_name":"Morrison Lake","source_name":"Morrison Lake","disambiguator":"Upper Dolores · lake","state":"CO","atlas_layer":"waterbody_object","object_role":"waterbody_object","atlas_class":"named_waterbody","waterbody_type":"lake","huc8":"14030002","huc8Name":"Upper Dolores","huc8States":"CO,UT","lineageKey":"coloradoRiver","lineage":"coloradoRiver","historic":"coloradoRiver","current":"coloradoRiver","recovery":"recoveryWatch","lineageLabel":"Colorado River green lineage","lineageBasin":"Upper Dolores","lineageNote":"Dolores green-lineage context","atlas_context":"cutthroat_lineage_context","area_sq_km":0.03578534,"elevation":2336.5968,"FType":390,"FCode":39010,"source_id":"87432877","bounds":{"west":-108.36811,"south":37.85795,"east":-108.36447,"north":37.86034},"confidence_public":"Watershed-level lineage context; expert review recommended","geometry_status_public":"Named waterbody polygon from public hydrography","geometry_source_public":"Public hydrography waterbody polygon","trout_source_public":"Compiled public recovery and lineage context; expert review recommended","public_notes":"Morrison Lake is shown as a named waterbody within watershed-level cutthroat lineage context. This is not a precise biological boundary."}},{"type":"Feature","geometry":{"type":"Polygon","coordinates":[[[-108.48283,37.76584],[-108.48266,37.7658],[-108.48251,37.76597],[-108.48269,37.76602],[-108.48283,37.76584]]]},"properties":{"waterbody_id":"co_waterbody_neil_reservoir_14030002_001","water_id":"co_waterbody_neil_reservoir_14030002_001","occurrence_id":"co_waterbody_neil_reservoir_14030002_001","occurrence_number":"001","display_name":"Neil Reservoir","normalized_name":"neil reservoir","mapped_name":"Neil Reservoir","source_name":"Neil Reservoir","disambiguator":"Upper Dolores · reservoir","state":"CO","atlas_layer":"waterbody_object","object_role":"waterbody_object","atlas_class":"named_waterbody","waterbody_type":"reservoir","huc8":"14030002","huc8Name":"Upper Dolores","huc8States":"CO,UT","lineageKey":"coloradoRiver","lineage":"coloradoRiver","historic":"coloradoRiver","current":"coloradoRiver","recovery":"recoveryWatch","lineageLabel":"Colorado River green lineage","lineageBasin":"Upper Dolores","lineageNote":"Dolores green-lineage context","atlas_context":"cutthroat_lineage_context","area_sq_km":0.001,"elevation":0,"FType":390,"FCode":39001,"source_id":"87455901","bounds":{"west":-108.48283,"south":37.7658,"east":-108.48251,"north":37.76602},"confidence_public":"Watershed-level lineage context; expert review recommended","geometry_status_public":"Named waterbody polygon from public hydrography","geometry_source_public":"Public hydrography waterbody polygon","trout_source_public":"Compiled public recovery and lineage context; expert review recommended","public_notes":"Neil Reservoir is shown as a named waterbody within watershed-level cutthroat lineage context. This is not a precise biological boundary."}},{"type":"Feature","geometry":{"type":"Polygon","coordinates":[[[-108.34604,37.98077],[-108.34748,37.98059],[-108.34688,37.98014],[-108.34659,37.97874],[-108.34546,37.97727],[-108.34536,37.97683],[-108.34532,37.97455],[-108.34547,37.97403],[-108.34594,37.97352],[-108.34582,37.97311],[-108.34538,37.97266],[-108.34554,37.97157],[-108.3451,37.97108],[-108.34515,37.9709],[-108.34603,37.97051],[-108.34593,37.96993],[-108.34556,37.9696],[-108.34564,37.96905],[-108.34482,37.96854],[-108.34502,37.96783],[-108.34416,37.96784],[-108.34341,37.96742],[-108.3415,37.96877],[-108.34119,37.96869],[-108.34141,37.96718],[-108.34227,37.96608],[-108.34296,37.96566],[-108.34434,37.966],[-108.34509,37.96467],[-108.34512,37.96363],[-108.34488,37.96324],[-108.34344,37.96426],[-108.34314,37.96429],[-108.34302,37.96395],[-108.34232,37.96366],[-108.34225,37.96296],[-108.34359,37.96198],[-108.34297,37.96063],[-108.34282,37.95944],[-108.34221,37.95922],[-108.34132,37.96058],[-108.3398,37.96113],[-108.3394,37.96153],[-108.33621,37.96261],[-108.33559,37.96297],[-108.33407,37.96414],[-108.33421,37.96504],[-108.33367,37.9658],[-108.33317,37.96698],[-108.33197,37.96705],[-108.33293,37.96824],[-108.33299,37.96927],[-108.33344,37.97048],[-108.33342,37.97112],[-108.33266,37.97352],[-108.33266,37.9744],[-108.3329,37.97451],[-108.3335,37.97401],[-108.33398,37.97393],[-108.33541,37.97416],[-108.33621,37.97526],[-108.33754,37.97563],[-108.33768,37.97647],[-108.3373,37.97707],[-108.33814,37.97721],[-108.33851,37.97801],[-108.33873,37.97789],[-108.33894,37.97675],[-108.3392,37.97659],[-108.33938,37.97695],[-108.33934,37.97776],[-108.33968,37.97829],[-108.34057,37.97804],[-108.34112,37.97861],[-108.34062,37.98001],[-108.34117,37.98046],[-108.34131,37.97958],[-108.34204,37.979],[-108.34247,37.97895],[-108.34604,37.98077]],[[-108.33496,37.9687],[-108.33598,37.9695],[-108.33612,37.97064],[-108.33564,37.97135],[-108.33528,37.97248],[-108.33476,37.97282],[-108.33452,37.97267],[-108.33461,37.97083],[-108.33433,37.96924],[-108.33463,37.96868],[-108.33496,37.9687]]]},"properties":{"waterbody_id":"co_waterbody_miramonte_reservoir_14030003_001","water_id":"co_waterbody_miramonte_reservoir_14030003_001","occurrence_id":"co_waterbody_miramonte_reservoir_14030003_001","occurrence_number":"001","display_name":"Miramonte Reservoir","normalized_name":"miramonte reservoir","mapped_name":"Miramonte Reservoir","source_name":"Miramonte Reservoir","disambiguator":"San Miguel · reservoir","state":"CO","atlas_layer":"waterbody_object","object_role":"waterbody_object","atlas_class":"named_waterbody","waterbody_type":"reservoir","huc8":"14030003","huc8Name":"San Miguel","huc8States":"CO","lineageKey":"coloradoRiver","lineage":"coloradoRiver","historic":"coloradoRiver","current":"coloradoRiver","recovery":"recoveryWatch","lineageLabel":"Colorado River green lineage","lineageBasin":"San Miguel","lineageNote":"Dolores / San Miguel green-lineage context","atlas_context":"cutthroat_lineage_context","area_sq_km":1.6870534,"elevation":0,"FType":390,"FCode":39004,"source_id":"80674041","bounds":{"west":-108.34748,"south":37.95922,"east":-108.33197,"north":37.98077},"confidence_public":"Watershed-level lineage context; expert review recommended","geometry_status_public":"Named waterbody polygon from public hydrography","geometry_source_public":"Public hydrography waterbody polygon","trout_source_public":"Compiled public recovery and lineage context; expert review recommended","public_notes":"Miramonte Reservoir is shown as a named waterbody within watershed-level cutthroat lineage context. This is not a precise biological boundary."}},{"type":"Feature","geometry":{"type":"Polygon","coordinates":[[[-108.31143,37.98413],[-108.31162,37.984],[-108.31141,37.984],[-108.31143,37.98413]]]},"properties":{"waterbody_id":"co_waterbody_stockdale_reservoir_14030003_001","water_id":"co_waterbody_stockdale_reservoir_14030003_001","occurrence_id":"co_waterbody_stockdale_reservoir_14030003_001","occurrence_number":"001","display_name":"Stockdale Reservoir","normalized_name":"stockdale reservoir","mapped_name":"Stockdale Reservoir","source_name":"Stockdale Reservoir","disambiguator":"San Miguel · reservoir","state":"CO","atlas_layer":"waterbody_object","object_role":"waterbody_object","atlas_class":"named_waterbody","waterbody_type":"reservoir","huc8":"14030003","huc8Name":"San Miguel","huc8States":"CO","lineageKey":"coloradoRiver","lineage":"coloradoRiver","historic":"coloradoRiver","current":"coloradoRiver","recovery":"recoveryWatch","lineageLabel":"Colorado River green lineage","lineageBasin":"San Miguel","lineageNote":"Dolores / San Miguel green-lineage context","atlas_context":"cutthroat_lineage_context","area_sq_km":0,"elevation":0,"FType":390,"FCode":39004,"source_id":"80674037","bounds":{"west":-108.31162,"south":37.984,"east":-108.31141,"north":37.98413},"confidence_public":"Watershed-level lineage context; expert review recommended","geometry_status_public":"Named waterbody polygon from public hydrography","geometry_source_public":"Public hydrography waterbody polygon","trout_source_public":"Compiled public recovery and lineage context; expert review recommended","public_notes":"Stockdale Reservoir is shown as a named waterbody within watershed-level cutthroat lineage context. This is not a precise biological boundary."}},{"type":"Feature","geometry":{"type":"Polygon","coordinates":[[[-108.28958,37.8001],[-108.29006,37.80078],[-108.29029,37.80162],[-108.29084,37.80207],[-108.29052,37.80303],[-108.29097,37.80304],[-108.29124,37.8033],[-108.29017,37.80426],[-108.28975,37.80443],[-108.29046,37.80488],[-108.29059,37.80525],[-108.29006,37.80642],[-108.29005,37.80703],[-108.28938,37.80735],[-108.28897,37.80778],[-108.28958,37.80801],[-108.2896,37.80824],[-108.28877,37.80968],[-108.28974,37.8087],[-108.29107,37.808],[-108.2913,37.80734],[-108.29183,37.80684],[-108.29184,37.80639],[-108.29237,37.80584],[-108.29254,37.80505],[-108.29409,37.80336],[-108.29504,37.80277],[-108.29569,37.80289],[-108.29631,37.80276],[-108.29914,37.80345],[-108.29943,37.80362],[-108.29983,37.80433],[-108.30027,37.80557],[-108.30037,37.80712],[-108.29979,37.80832],[-108.30071,37.8078],[-108.30097,37.80798],[-108.3001,37.80909],[-108.29961,37.80926],[-108.29919,37.81029],[-108.30023,37.80988],[-108.30152,37.80875],[-108.30236,37.8073],[-108.30237,37.80605],[-108.30285,37.80578],[-108.30327,37.80595],[-108.30356,37.80646],[-108.30345,37.80753],[-108.30425,37.80684],[-108.30546,37.80716],[-108.30745,37.80857],[-108.30757,37.80885],[-108.30668,37.80967],[-108.30762,37.80939],[-108.30814,37.80945],[-108.30896,37.81011],[-108.30914,37.81004],[-108.30979,37.81039],[-108.30971,37.80987],[-108.3085,37.80898],[-108.30845,37.80854],[-108.30712,37.8073],[-108.30621,37.80607],[-108.30628,37.80582],[-108.30659,37.80567],[-108.30782,37.80565],[-108.30841,37.80543],[-108.30676,37.8051],[-108.30454,37.80514],[-108.30403,37.80402],[-108.3041,37.80358],[-108.30458,37.80311],[-108.30642,37.80272],[-108.30527,37.80268],[-108.30415,37.80235],[-108.30424,37.80213],[-108.30398,37.80165],[-108.30406,37.80048],[-108.30426,37.80017],[-108.30486,37.80002],[-108.30454,37.79889],[-108.30372,37.79755],[-108.30382,37.79679],[-108.30302,37.7964],[-108.30264,37.79592],[-108.30265,37.79555],[-108.30165,37.79496],[-108.30091,37.79355],[-108.30081,37.79243],[-108.3023,37.7915],[-108.30374,37.79097],[-108.30278,37.79056],[-108.30193,37.78948],[-108.30222,37.78766],[-108.30252,37.78692],[-108.3022,37.78575],[-108.30157,37.78608],[-108.30083,37.786],[-108.30035,37.78622],[-108.30007,37.78605],[-108.29973,37.78516],[-108.29952,37.78565],[-108.29948,37.78669],[-108.29873,37.78728],[-108.29849,37.78673],[-108.29839,37.78722],[-108.29805,37.78752],[-108.29831,37.78794],[-108.29796,37.78857],[-108.29783,37.78843],[-108.29731,37.7888],[-108.29665,37.79017],[-108.2957,37.79088],[-108.2949,37.79085],[-108.29539,37.79017],[-108.29527,37.78878],[-108.29571,37.78824],[-108.29505,37.78867],[-108.29428,37.78986],[-108.29341,37.79029],[-108.29268,37.79032],[-108.29222,37.79009],[-108.29067,37.79124],[-108.29206,37.79231],[-108.29215,37.79294],[-108.29196,37.79356],[-108.2911,37.79418],[-108.29008,37.79446],[-108.28968,37.79496],[-108.28929,37.79493],[-108.28909,37.79538],[-108.28852,37.79571],[-108.28772,37.79591],[-108.28701,37.79644],[-108.2867,37.79696],[-108.2868,37.79744],[-108.28788,37.79722],[-108.28855,37.7976],[-108.28995,37.79791],[-108.28991,37.79827],[-108.29024,37.79874],[-108.2902,37.79936],[-108.28958,37.8001]],[[-108.30082,37.78986],[-108.30028,37.78997],[-108.30011,37.78963],[-108.30093,37.78956],[-108.30082,37.78986]]]},"properties":{"waterbody_id":"co_waterbody_groundhog_reservoir_14030002_001","water_id":"co_waterbody_groundhog_reservoir_14030002_001","occurrence_id":"co_waterbody_groundhog_reservoir_14030002_001","occurrence_number":"001","display_name":"Groundhog Reservoir","normalized_name":"groundhog reservoir","mapped_name":"Groundhog Reservoir","source_name":"Groundhog Reservoir","disambiguator":"Upper Dolores · reservoir","state":"CO","atlas_layer":"waterbody_object","object_role":"waterbody_object","atlas_class":"named_waterbody","waterbody_type":"reservoir","huc8":"14030002","huc8Name":"Upper Dolores","huc8States":"CO,UT","lineageKey":"coloradoRiver","lineage":"coloradoRiver","historic":"coloradoRiver","current":"coloradoRiver","recovery":"recoveryWatch","lineageLabel":"Colorado River green lineage","lineageBasin":"Upper Dolores","lineageNote":"Dolores green-lineage context","atlas_context":"cutthroat_lineage_context","area_sq_km":2.2031016,"elevation":2657.856,"FType":390,"FCode":39010,"source_id":"87433049","bounds":{"west":-108.30979,"south":37.78516,"east":-108.2867,"north":37.81039},"confidence_public":"Watershed-level lineage context; expert review recommended","geometry_status_public":"Named waterbody polygon from public hydrography","geometry_source_public":"Public hydrography waterbody polygon","trout_source_public":"Compiled public recovery and lineage context; expert review recommended","public_notes":"Groundhog Reservoir is shown as a named waterbody within watershed-level cutthroat lineage context. This is not a precise biological boundary."}},{"type":"Feature","geometry":{"type":"Polygon","coordinates":[[[-108.47153,37.77104],[-108.47145,37.7713],[-108.47169,37.77131],[-108.47186,37.77105],[-108.47177,37.77097],[-108.47153,37.77104]]]},"properties":{"waterbody_id":"co_waterbody_lone_mesa_number_two_reservoir_14030002_001","water_id":"co_waterbody_lone_mesa_number_two_reservoir_14030002_001","occurrence_id":"co_waterbody_lone_mesa_number_two_reservoir_14030002_001","occurrence_number":"001","display_name":"Lone Mesa Number Two Reservoir","normalized_name":"lone mesa number two reservoir","mapped_name":"Lone Mesa Number Two Reservoir","source_name":"Lone Mesa Number Two Reservoir","disambiguator":"Upper Dolores · reservoir","state":"CO","atlas_layer":"waterbody_object","object_role":"waterbody_object","atlas_class":"named_waterbody","waterbody_type":"reservoir","huc8":"14030002","huc8Name":"Upper Dolores","huc8States":"CO,UT","lineageKey":"coloradoRiver","lineage":"coloradoRiver","historic":"coloradoRiver","current":"coloradoRiver","recovery":"recoveryWatch","lineageLabel":"Colorado River green lineage","lineageBasin":"Upper Dolores","lineageNote":"Dolores green-lineage context","atlas_context":"cutthroat_lineage_context","area_sq_km":0.001,"elevation":0,"FType":390,"FCode":39001,"source_id":"87455887","bounds":{"west":-108.47186,"south":37.77097,"east":-108.47145,"north":37.77131},"confidence_public":"Watershed-level lineage context; expert review recommended","geometry_status_public":"Named waterbody polygon from public hydrography","geometry_source_public":"Public hydrography waterbody polygon","trout_source_public":"Compiled public recovery and lineage context; expert review recommended","public_notes":"Lone Mesa Number Two Reservoir is shown as a named waterbody within watershed-level cutthroat lineage context. This is not a precise biological boundary."}},{"type":"Feature","geometry":{"type":"Polygon","coordinates":[[[-108.34005,37.8185],[-108.34005,37.81867],[-108.34193,37.8187],[-108.34329,37.81904],[-108.34381,37.81879],[-108.34405,37.81815],[-108.34327,37.81768],[-108.34309,37.81789],[-108.3421,37.81794],[-108.34005,37.8185]]]},"properties":{"waterbody_id":"co_waterbody_old_dunham_reservoir_14030002_001","water_id":"co_waterbody_old_dunham_reservoir_14030002_001","occurrence_id":"co_waterbody_old_dunham_reservoir_14030002_001","occurrence_number":"001","display_name":"Old Dunham Reservoir","normalized_name":"old dunham reservoir","mapped_name":"Old Dunham Reservoir","source_name":"Old Dunham Reservoir","disambiguator":"Upper Dolores · reservoir","state":"CO","atlas_layer":"waterbody_object","object_role":"waterbody_object","atlas_class":"named_waterbody","waterbody_type":"reservoir","huc8":"14030002","huc8Name":"Upper Dolores","huc8States":"CO,UT","lineageKey":"coloradoRiver","lineage":"coloradoRiver","historic":"coloradoRiver","current":"coloradoRiver","recovery":"recoveryWatch","lineageLabel":"Colorado River green lineage","lineageBasin":"Upper Dolores","lineageNote":"Dolores green-lineage context","atlas_context":"cutthroat_lineage_context","area_sq_km":0.029,"elevation":0,"FType":390,"FCode":39001,"source_id":"87433015","bounds":{"west":-108.34405,"south":37.81768,"east":-108.34005,"north":37.81904},"confidence_public":"Watershed-level lineage context; expert review recommended","geometry_status_public":"Named waterbody polygon from public hydrography","geometry_source_public":"Public hydrography waterbody polygon","trout_source_public":"Compiled public recovery and lineage context; expert review recommended","public_notes":"Old Dunham Reservoir is shown as a named waterbody within watershed-level cutthroat lineage context. This is not a precise biological boundary."}},{"type":"Feature","geometry":{"type":"Polygon","coordinates":[[[-108.46526,37.78746],[-108.46523,37.78773],[-108.46631,37.78805],[-108.46675,37.78791],[-108.46654,37.78774],[-108.46584,37.78771],[-108.46526,37.78746]]]},"properties":{"waterbody_id":"co_waterbody_lone_mesa_reservoir_14030002_001","water_id":"co_waterbody_lone_mesa_reservoir_14030002_001","occurrence_id":"co_waterbody_lone_mesa_reservoir_14030002_001","occurrence_number":"001","display_name":"Lone Mesa Reservoir","normalized_name":"lone mesa reservoir","mapped_name":"Lone Mesa Reservoir","source_name":"Lone Mesa Reservoir","disambiguator":"Upper Dolores · reservoir","state":"CO","atlas_layer":"waterbody_object","object_role":"waterbody_object","atlas_class":"named_waterbody","waterbody_type":"reservoir","huc8":"14030002","huc8Name":"Upper Dolores","huc8States":"CO,UT","lineageKey":"coloradoRiver","lineage":"coloradoRiver","historic":"coloradoRiver","current":"coloradoRiver","recovery":"recoveryWatch","lineageLabel":"Colorado River green lineage","lineageBasin":"Upper Dolores","lineageNote":"Dolores green-lineage context","atlas_context":"cutthroat_lineage_context","area_sq_km":0.003,"elevation":0,"FType":390,"FCode":39001,"source_id":"87455839","bounds":{"west":-108.46675,"south":37.78746,"east":-108.46523,"north":37.78805},"confidence_public":"Watershed-level lineage context; expert review recommended","geometry_status_public":"Named waterbody polygon from public hydrography","geometry_source_public":"Public hydrography waterbody polygon","trout_source_public":"Compiled public recovery and lineage context; expert review recommended","public_notes":"Lone Mesa Reservoir is shown as a named waterbody within watershed-level cutthroat lineage context. This is not a precise biological boundary."}},{"type":"Feature","geometry":{"type":"Polygon","coordinates":[[[-108.25054,38.0088],[-108.25117,38.00762],[-108.25172,38.00522],[-108.25235,38.00435],[-108.25389,38.00347],[-108.25542,38.00306],[-108.2566,38.00312],[-108.25563,37.99722],[-108.25391,37.99555],[-108.25334,37.99614],[-108.25186,37.99633],[-108.25098,37.99605],[-108.25021,37.99524],[-108.24906,37.99687],[-108.24886,37.99781],[-108.24849,37.99822],[-108.2487,37.99912],[-108.24862,37.99963],[-108.24727,38.00169],[-108.24714,38.00393],[-108.24752,38.00476],[-108.24704,38.00584],[-108.24739,38.00673],[-108.24681,38.00803],[-108.24795,38.00783],[-108.24903,38.00692],[-108.24967,38.00676],[-108.2503,38.00724],[-108.25019,38.00868],[-108.25027,38.00887],[-108.25054,38.0088]]]},"properties":{"waterbody_id":"co_waterbody_cone_reservoir_14030003_001","water_id":"co_waterbody_cone_reservoir_14030003_001","occurrence_id":"co_waterbody_cone_reservoir_14030003_001","occurrence_number":"001","display_name":"Cone Reservoir","normalized_name":"cone reservoir","mapped_name":"Cone Reservoir","source_name":"Cone Reservoir","disambiguator":"San Miguel · reservoir","state":"CO","atlas_layer":"waterbody_object","object_role":"waterbody_object","atlas_class":"named_waterbody","waterbody_type":"reservoir","huc8":"14030003","huc8Name":"San Miguel","huc8States":"CO","lineageKey":"coloradoRiver","lineage":"coloradoRiver","historic":"coloradoRiver","current":"coloradoRiver","recovery":"recoveryWatch","lineageLabel":"Colorado River green lineage","lineageBasin":"San Miguel","lineageNote":"Dolores / San Miguel green-lineage context","atlas_context":"cutthroat_lineage_context","area_sq_km":0.74320575,"elevation":2536.8504,"FType":390,"FCode":39009,"source_id":"80687469","bounds":{"west":-108.2566,"south":37.99524,"east":-108.24681,"north":38.00887},"confidence_public":"Watershed-level lineage context; expert review recommended","geometry_status_public":"Named waterbody polygon from public hydrography","geometry_source_public":"Public hydrography waterbody polygon","trout_source_public":"Compiled public recovery and lineage context; expert review recommended","public_notes":"Cone Reservoir is shown as a named waterbody within watershed-level cutthroat lineage context. This is not a precise biological boundary."}},{"type":"Feature","geometry":{"type":"Polygon","coordinates":[[[-108.34206,37.8577],[-108.34217,37.85784],[-108.34352,37.85785],[-108.34451,37.85735],[-108.34359,37.85708],[-108.34206,37.8577]]]},"properties":{"waterbody_id":"co_waterbody_arrowhead_lake_14030002_001","water_id":"co_waterbody_arrowhead_lake_14030002_001","occurrence_id":"co_waterbody_arrowhead_lake_14030002_001","occurrence_number":"001","display_name":"Arrowhead Lake","normalized_name":"arrowhead lake","mapped_name":"Arrowhead Lake","source_name":"Arrowhead Lake","disambiguator":"Upper Dolores · lake · occurrence 001","state":"CO","atlas_layer":"waterbody_object","object_role":"waterbody_object","atlas_class":"named_waterbody","waterbody_type":"lake","huc8":"14030002","huc8Name":"Upper Dolores","huc8States":"CO,UT","lineageKey":"coloradoRiver","lineage":"coloradoRiver","historic":"coloradoRiver","current":"coloradoRiver","recovery":"recoveryWatch","lineageLabel":"Colorado River green lineage","lineageBasin":"Upper Dolores","lineageNote":"Dolores green-lineage context","atlas_context":"cutthroat_lineage_context","area_sq_km":0.011,"elevation":0,"FType":390,"FCode":39004,"source_id":"87432885","bounds":{"west":-108.34451,"south":37.85708,"east":-108.34206,"north":37.85785},"confidence_public":"Watershed-level lineage context; expert review recommended","geometry_status_public":"Named waterbody polygon from public hydrography","geometry_source_public":"Public hydrography waterbody polygon","trout_source_public":"Compiled public recovery and lineage context; expert review recommended","public_notes":"Arrowhead Lake is shown as a named waterbody within watershed-level cutthroat lineage context. This is not a precise biological boundary."}},{"type":"Feature","geometry":{"type":"Polygon","coordinates":[[[-108.35257,37.91488],[-108.35425,37.91407],[-108.3554,37.91412],[-108.35565,37.91392],[-108.35569,37.9135],[-108.35512,37.91285],[-108.35359,37.91257],[-108.35329,37.91236],[-108.35309,37.91182],[-108.35257,37.9118],[-108.353,37.91206],[-108.35333,37.91283],[-108.35264,37.91315],[-108.3517,37.91429],[-108.35166,37.91466],[-108.35257,37.91488]]]},"properties":{"waterbody_id":"co_waterbody_lilylands_reservoir_14030003_001","water_id":"co_waterbody_lilylands_reservoir_14030003_001","occurrence_id":"co_waterbody_lilylands_reservoir_14030003_001","occurrence_number":"001","display_name":"Lilylands Reservoir","normalized_name":"lilylands reservoir","mapped_name":"Lilylands Reservoir","source_name":"Lilylands Reservoir","disambiguator":"San Miguel · reservoir","state":"CO","atlas_layer":"waterbody_object","object_role":"waterbody_object","atlas_class":"named_waterbody","waterbody_type":"reservoir","huc8":"14030003","huc8Name":"San Miguel","huc8States":"CO","lineageKey":"coloradoRiver","lineage":"coloradoRiver","historic":"coloradoRiver","current":"coloradoRiver","recovery":"recoveryWatch","lineageLabel":"Colorado River green lineage","lineageBasin":"San Miguel","lineageNote":"Dolores / San Miguel green-lineage context","atlas_context":"cutthroat_lineage_context","area_sq_km":0.05687278,"elevation":2467.0512,"FType":390,"FCode":39009,"source_id":"80674149","bounds":{"west":-108.35569,"south":37.9118,"east":-108.35166,"north":37.91488},"confidence_public":"Watershed-level lineage context; expert review recommended","geometry_status_public":"Named waterbody polygon from public hydrography","geometry_source_public":"Public hydrography waterbody polygon","trout_source_public":"Compiled public recovery and lineage context; expert review recommended","public_notes":"Lilylands Reservoir is shown as a named waterbody within watershed-level cutthroat lineage context. This is not a precise biological boundary."}},{"type":"Feature","geometry":{"type":"Polygon","coordinates":[[[-108.38884,37.90385],[-108.38934,37.90373],[-108.38944,37.90337],[-108.3892,37.90304],[-108.38858,37.90331],[-108.38884,37.90385]]]},"properties":{"waterbody_id":"co_waterbody_mud_lake_14030002_001","water_id":"co_waterbody_mud_lake_14030002_001","occurrence_id":"co_waterbody_mud_lake_14030002_001","occurrence_number":"001","display_name":"Mud Lake","normalized_name":"mud lake","mapped_name":"Mud Lake","source_name":"Mud Lake","disambiguator":"Upper Dolores · lake · occurrence 001","state":"CO","atlas_layer":"waterbody_object","object_role":"waterbody_object","atlas_class":"named_waterbody","waterbody_type":"lake","huc8":"14030002","huc8Name":"Upper Dolores","huc8States":"CO,UT","lineageKey":"coloradoRiver","lineage":"coloradoRiver","historic":"coloradoRiver","current":"coloradoRiver","recovery":"recoveryWatch","lineageLabel":"Colorado River green lineage","lineageBasin":"Upper Dolores","lineageNote":"Dolores green-lineage context","atlas_context":"cutthroat_lineage_context","area_sq_km":0.005,"elevation":0,"FType":390,"FCode":39004,"source_id":"87446832","bounds":{"west":-108.38944,"south":37.90304,"east":-108.38858,"north":37.90385},"confidence_public":"Watershed-level lineage context; expert review recommended","geometry_status_public":"Named waterbody polygon from public hydrography","geometry_source_public":"Public hydrography waterbody polygon","trout_source_public":"Compiled public recovery and lineage context; expert review recommended","public_notes":"Mud Lake is shown as a named waterbody within watershed-level cutthroat lineage context. This is not a precise biological boundary."}},{"type":"Feature","geometry":{"type":"Polygon","coordinates":[[[-108.47316,37.78818],[-108.47303,37.78839],[-108.47324,37.78844],[-108.47316,37.78818]]]},"properties":{"waterbody_id":"co_waterbody_dead_doe_reservoir_14030002_001","water_id":"co_waterbody_dead_doe_reservoir_14030002_001","occurrence_id":"co_waterbody_dead_doe_reservoir_14030002_001","occurrence_number":"001","display_name":"Dead Doe Reservoir","normalized_name":"dead doe reservoir","mapped_name":"Dead Doe Reservoir","source_name":"Dead Doe Reservoir","disambiguator":"Upper Dolores · reservoir","state":"CO","atlas_layer":"waterbody_object","object_role":"waterbody_object","atlas_class":"named_waterbody","waterbody_type":"reservoir","huc8":"14030002","huc8Name":"Upper Dolores","huc8States":"CO,UT","lineageKey":"coloradoRiver","lineage":"coloradoRiver","historic":"coloradoRiver","current":"coloradoRiver","recovery":"recoveryWatch","lineageLabel":"Colorado River green lineage","lineageBasin":"Upper Dolores","lineageNote":"Dolores green-lineage context","atlas_context":"cutthroat_lineage_context","area_sq_km":0.001,"elevation":0,"FType":390,"FCode":39001,"source_id":"87455837","bounds":{"west":-108.47324,"south":37.78818,"east":-108.47303,"north":37.78844},"confidence_public":"Watershed-level lineage context; expert review recommended","geometry_status_public":"Named waterbody polygon from public hydrography","geometry_source_public":"Public hydrography waterbody polygon","trout_source_public":"Compiled public recovery and lineage context; expert review recommended","public_notes":"Dead Doe Reservoir is shown as a named waterbody within watershed-level cutthroat lineage context. This is not a precise biological boundary."}},{"type":"Feature","geometry":{"type":"Polygon","coordinates":[[[-108.39526,37.93063],[-108.39571,37.93048],[-108.39595,37.93008],[-108.39585,37.92988],[-108.39529,37.92986],[-108.39498,37.93038],[-108.39526,37.93063]]]},"properties":{"waterbody_id":"co_waterbody_galloway_lake_14030003_001","water_id":"co_waterbody_galloway_lake_14030003_001","occurrence_id":"co_waterbody_galloway_lake_14030003_001","occurrence_number":"001","display_name":"Galloway Lake","normalized_name":"galloway lake","mapped_name":"Galloway Lake","source_name":"Galloway Lake","disambiguator":"San Miguel · lake","state":"CO","atlas_layer":"waterbody_object","object_role":"waterbody_object","atlas_class":"named_waterbody","waterbody_type":"lake","huc8":"14030003","huc8Name":"San Miguel","huc8States":"CO","lineageKey":"coloradoRiver","lineage":"coloradoRiver","historic":"coloradoRiver","current":"coloradoRiver","recovery":"recoveryWatch","lineageLabel":"Colorado River green lineage","lineageBasin":"San Miguel","lineageNote":"Dolores / San Miguel green-lineage context","atlas_context":"cutthroat_lineage_context","area_sq_km":0.006,"elevation":0,"FType":390,"FCode":39004,"source_id":"80676925","bounds":{"west":-108.39595,"south":37.92986,"east":-108.39498,"north":37.93063},"confidence_public":"Watershed-level lineage context; expert review recommended","geometry_status_public":"Named waterbody polygon from public hydrography","geometry_source_public":"Public hydrography waterbody polygon","trout_source_public":"Compiled public recovery and lineage context; expert review recommended","public_notes":"Galloway Lake is shown as a named waterbody within watershed-level cutthroat lineage context. This is not a precise biological boundary."}},{"type":"Feature","geometry":{"type":"Polygon","coordinates":[[[-108.26972,37.75089],[-108.2698,37.75075],[-108.26952,37.75075],[-108.26972,37.75089]]]},"properties":{"waterbody_id":"co_waterbody_saddle_reservoir_number_two_14030002_001","water_id":"co_waterbody_saddle_reservoir_number_two_14030002_001","occurrence_id":"co_waterbody_saddle_reservoir_number_two_14030002_001","occurrence_number":"001","display_name":"Saddle Reservoir Number Two","normalized_name":"saddle reservoir number two","mapped_name":"Saddle Reservoir Number Two","source_name":"Saddle Reservoir Number Two","disambiguator":"Upper Dolores · reservoir","state":"CO","atlas_layer":"waterbody_object","object_role":"waterbody_object","atlas_class":"named_waterbody","waterbody_type":"reservoir","huc8":"14030002","huc8Name":"Upper Dolores","huc8States":"CO,UT","lineageKey":"coloradoRiver","lineage":"coloradoRiver","historic":"coloradoRiver","current":"coloradoRiver","recovery":"recoveryWatch","lineageLabel":"Colorado River green lineage","lineageBasin":"Upper Dolores","lineageNote":"Dolores green-lineage context","atlas_context":"cutthroat_lineage_context","area_sq_km":0,"elevation":0,"FType":390,"FCode":39001,"source_id":"87433253","bounds":{"west":-108.2698,"south":37.75075,"east":-108.26952,"north":37.75089},"confidence_public":"Watershed-level lineage context; expert review recommended","geometry_status_public":"Named waterbody polygon from public hydrography","geometry_source_public":"Public hydrography waterbody polygon","trout_source_public":"Compiled public recovery and lineage context; expert review recommended","public_notes":"Saddle Reservoir Number Two is shown as a named waterbody within watershed-level cutthroat lineage context. This is not a precise biological boundary."}},{"type":"Feature","geometry":{"type":"Polygon","coordinates":[[[-108.43283,37.90827],[-108.43251,37.90832],[-108.43245,37.90849],[-108.43282,37.90852],[-108.43283,37.90827]]]},"properties":{"waterbody_id":"co_waterbody_spencer_lake_14030002_001","water_id":"co_waterbody_spencer_lake_14030002_001","occurrence_id":"co_waterbody_spencer_lake_14030002_001","occurrence_number":"001","display_name":"Spencer Lake","normalized_name":"spencer lake","mapped_name":"Spencer Lake","source_name":"Spencer Lake","disambiguator":"Upper Dolores · lake · occurrence 001","state":"CO","atlas_layer":"waterbody_object","object_role":"waterbody_object","atlas_class":"named_waterbody","waterbody_type":"lake","huc8":"14030002","huc8Name":"Upper Dolores","huc8States":"CO,UT","lineageKey":"coloradoRiver","lineage":"coloradoRiver","historic":"coloradoRiver","current":"coloradoRiver","recovery":"recoveryWatch","lineageLabel":"Colorado River green lineage","lineageBasin":"Upper Dolores","lineageNote":"Dolores green-lineage context","atlas_context":"cutthroat_lineage_context","area_sq_km":0.001,"elevation":0,"FType":390,"FCode":39001,"source_id":"87447393","bounds":{"west":-108.43283,"south":37.90827,"east":-108.43245,"north":37.90852},"confidence_public":"Watershed-level lineage context; expert review recommended","geometry_status_public":"Named waterbody polygon from public hydrography","geometry_source_public":"Public hydrography waterbody polygon","trout_source_public":"Compiled public recovery and lineage context; expert review recommended","public_notes":"Spencer Lake is shown as a named waterbody within watershed-level cutthroat lineage context. This is not a precise biological boundary."}},{"type":"Feature","geometry":{"type":"Polygon","coordinates":[[[-108.46671,37.76718],[-108.46654,37.76725],[-108.4666,37.76753],[-108.46671,37.76718]]]},"properties":{"waterbody_id":"co_waterbody_buck_reservoir_14030002_001","water_id":"co_waterbody_buck_reservoir_14030002_001","occurrence_id":"co_waterbody_buck_reservoir_14030002_001","occurrence_number":"001","display_name":"Buck Reservoir","normalized_name":"buck reservoir","mapped_name":"Buck Reservoir","source_name":"Buck Reservoir","disambiguator":"Upper Dolores · reservoir","state":"CO","atlas_layer":"waterbody_object","object_role":"waterbody_object","atlas_class":"named_waterbody","waterbody_type":"reservoir","huc8":"14030002","huc8Name":"Upper Dolores","huc8States":"CO,UT","lineageKey":"coloradoRiver","lineage":"coloradoRiver","historic":"coloradoRiver","current":"coloradoRiver","recovery":"recoveryWatch","lineageLabel":"Colorado River green lineage","lineageBasin":"Upper Dolores","lineageNote":"Dolores green-lineage context","atlas_context":"cutthroat_lineage_context","area_sq_km":0.001,"elevation":0,"FType":390,"FCode":39001,"source_id":"87455895","bounds":{"west":-108.46671,"south":37.76718,"east":-108.46654,"north":37.76753},"confidence_public":"Watershed-level lineage context; expert review recommended","geometry_status_public":"Named waterbody polygon from public hydrography","geometry_source_public":"Public hydrography waterbody polygon","trout_source_public":"Compiled public recovery and lineage context; expert review recommended","public_notes":"Buck Reservoir is shown as a named waterbody within watershed-level cutthroat lineage context. This is not a precise biological boundary."}},{"type":"Feature","geometry":{"type":"Polygon","coordinates":[[[-108.28292,37.87175],[-108.28172,37.87193],[-108.28198,37.87241],[-108.28246,37.87264],[-108.28292,37.87175]]]},"properties":{"waterbody_id":"co_waterbody_spruce_lake_14030003_001","water_id":"co_waterbody_spruce_lake_14030003_001","occurrence_id":"co_waterbody_spruce_lake_14030003_001","occurrence_number":"001","display_name":"Spruce Lake","normalized_name":"spruce lake","mapped_name":"Spruce Lake","source_name":"Spruce Lake","disambiguator":"San Miguel · lake · occurrence 001","state":"CO","atlas_layer":"waterbody_object","object_role":"waterbody_object","atlas_class":"named_waterbody","waterbody_type":"lake","huc8":"14030003","huc8Name":"San Miguel","huc8States":"CO","lineageKey":"coloradoRiver","lineage":"coloradoRiver","historic":"coloradoRiver","current":"coloradoRiver","recovery":"recoveryWatch","lineageLabel":"Colorado River green lineage","lineageBasin":"San Miguel","lineageNote":"Dolores / San Miguel green-lineage context","atlas_context":"cutthroat_lineage_context","area_sq_km":0.006,"elevation":0,"FType":390,"FCode":39004,"source_id":"80670819","bounds":{"west":-108.28292,"south":37.87175,"east":-108.28172,"north":37.87264},"confidence_public":"Watershed-level lineage context; expert review recommended","geometry_status_public":"Named waterbody polygon from public hydrography","geometry_source_public":"Public hydrography waterbody polygon","trout_source_public":"Compiled public recovery and lineage context; expert review recommended","public_notes":"Spruce Lake is shown as a named waterbody within watershed-level cutthroat lineage context. This is not a precise biological boundary."}}]}