{"type":"FeatureCollection","metadata":{"source":"C:\\ct-atlas-data\\processed\\geojson\\interpreted\\colorado_waterbody_objects_v1.geojson","type":"colorado-waterbody-object-v1-tile","tile_size_degrees":0.25,"x":-420,"y":148,"bounds":{"west":-105,"south":37,"east":-104.75,"north":37.25}},"features":[{"type":"Feature","geometry":{"type":"Polygon","coordinates":[[[-104.90666,37.00371],[-104.90663,37.00402],[-104.90682,37.00416],[-104.90697,37.00385],[-104.90666,37.00371]]]},"properties":{"waterbody_id":"co_waterbody_dead_horse_lake_11020010_001","water_id":"co_waterbody_dead_horse_lake_11020010_001","occurrence_id":"co_waterbody_dead_horse_lake_11020010_001","occurrence_number":"001","display_name":"Dead Horse Lake","normalized_name":"dead horse lake","mapped_name":"Dead Horse Lake","source_name":"Dead Horse Lake","disambiguator":"Purgatoire · lake","state":"CO","atlas_layer":"waterbody_object","object_role":"waterbody_object","atlas_class":"named_waterbody","waterbody_type":"lake","huc8":"11020010","huc8Name":"Purgatoire","huc8States":"CO,NM","lineageKey":"yellowfin","lineage":"yellowfin","historic":"yellowfin","current":"yellowfin","recovery":"recoveryWatch","lineageLabel":"Yellowfin / Arkansas headwaters historical form","lineageBasin":"Purgatoire","lineageNote":"Arkansas basin historical Yellowfin context; review needed","atlas_context":"cutthroat_lineage_context","area_sq_km":0.00130389,"elevation":0,"FType":390,"FCode":39001,"source_id":"131296854","bounds":{"west":-104.90697,"south":37.00371,"east":-104.90663,"north":37.00416},"confidence_public":"Watershed-level lineage context; expert review recommended","geometry_status_public":"Named waterbody polygon from public hydrography","geometry_source_public":"Public hydrography waterbody polygon","trout_source_public":"Compiled public recovery and lineage context; expert review recommended","public_notes":"Dead Horse Lake is shown as a named waterbody within watershed-level cutthroat lineage context. This is not a precise biological boundary."}},{"type":"Feature","geometry":{"type":"Polygon","coordinates":[[[-104.97379,37.10554],[-104.97359,37.10522],[-104.97246,37.10469],[-104.97187,37.10474],[-104.97162,37.10513],[-104.97188,37.10559],[-104.97256,37.1059],[-104.97379,37.10554]]]},"properties":{"waterbody_id":"co_waterbody_bingham_lake_11020010_001","water_id":"co_waterbody_bingham_lake_11020010_001","occurrence_id":"co_waterbody_bingham_lake_11020010_001","occurrence_number":"001","display_name":"Bingham Lake","normalized_name":"bingham lake","mapped_name":"Bingham Lake","source_name":"Bingham Lake","disambiguator":"Purgatoire · lake","state":"CO","atlas_layer":"waterbody_object","object_role":"waterbody_object","atlas_class":"named_waterbody","waterbody_type":"lake","huc8":"11020010","huc8Name":"Purgatoire","huc8States":"CO,NM","lineageKey":"yellowfin","lineage":"yellowfin","historic":"yellowfin","current":"yellowfin","recovery":"recoveryWatch","lineageLabel":"Yellowfin / Arkansas headwaters historical form","lineageBasin":"Purgatoire","lineageNote":"Arkansas basin historical Yellowfin context; review needed","atlas_context":"cutthroat_lineage_context","area_sq_km":0.0183328,"elevation":0,"FType":390,"FCode":39001,"source_id":"131295164","bounds":{"west":-104.97379,"south":37.10469,"east":-104.97162,"north":37.1059},"confidence_public":"Watershed-level lineage context; expert review recommended","geometry_status_public":"Named waterbody polygon from public hydrography","geometry_source_public":"Public hydrography waterbody polygon","trout_source_public":"Compiled public recovery and lineage context; expert review recommended","public_notes":"Bingham Lake is shown as a named waterbody within watershed-level cutthroat lineage context. This is not a precise biological boundary."}},{"type":"Feature","geometry":{"type":"Polygon","coordinates":[[[-104.83495,37.21412],[-104.83429,37.21448],[-104.83596,37.21556],[-104.83598,37.21504],[-104.83495,37.21412]]]},"properties":{"waterbody_id":"co_waterbody_mcdonald_reservoir_11020010_001","water_id":"co_waterbody_mcdonald_reservoir_11020010_001","occurrence_id":"co_waterbody_mcdonald_reservoir_11020010_001","occurrence_number":"001","display_name":"McDonald Reservoir","normalized_name":"mcdonald reservoir","mapped_name":"McDonald Reservoir","source_name":"McDonald Reservoir","disambiguator":"Purgatoire · reservoir · occurrence 001","state":"CO","atlas_layer":"waterbody_object","object_role":"waterbody_object","atlas_class":"named_waterbody","waterbody_type":"reservoir","huc8":"11020010","huc8Name":"Purgatoire","huc8States":"CO,NM","lineageKey":"yellowfin","lineage":"yellowfin","historic":"yellowfin","current":"yellowfin","recovery":"recoveryWatch","lineageLabel":"Yellowfin / Arkansas headwaters historical form","lineageBasin":"Purgatoire","lineageNote":"Arkansas basin historical Yellowfin context; review needed","atlas_context":"cutthroat_lineage_context","area_sq_km":0.01175754,"elevation":0,"FType":390,"FCode":39004,"source_id":"131293168","bounds":{"west":-104.83598,"south":37.21412,"east":-104.83429,"north":37.21556},"confidence_public":"Watershed-level lineage context; expert review recommended","geometry_status_public":"Named waterbody polygon from public hydrography","geometry_source_public":"Public hydrography waterbody polygon","trout_source_public":"Compiled public recovery and lineage context; expert review recommended","public_notes":"McDonald Reservoir is shown as a named waterbody within watershed-level cutthroat lineage context. This is not a precise biological boundary."}},{"type":"Feature","geometry":{"type":"Polygon","coordinates":[[[-104.83785,37.2176],[-104.83808,37.21737],[-104.83789,37.21717],[-104.83772,37.2174],[-104.83785,37.2176]]]},"properties":{"waterbody_id":"co_waterbody_ojo_verde_reservoir_11020010_001","water_id":"co_waterbody_ojo_verde_reservoir_11020010_001","occurrence_id":"co_waterbody_ojo_verde_reservoir_11020010_001","occurrence_number":"001","display_name":"Ojo Verde Reservoir","normalized_name":"ojo verde reservoir","mapped_name":"Ojo Verde Reservoir","source_name":"Ojo Verde Reservoir","disambiguator":"Purgatoire · reservoir","state":"CO","atlas_layer":"waterbody_object","object_role":"waterbody_object","atlas_class":"named_waterbody","waterbody_type":"reservoir","huc8":"11020010","huc8Name":"Purgatoire","huc8States":"CO,NM","lineageKey":"yellowfin","lineage":"yellowfin","historic":"yellowfin","current":"yellowfin","recovery":"recoveryWatch","lineageLabel":"Yellowfin / Arkansas headwaters historical form","lineageBasin":"Purgatoire","lineageNote":"Arkansas basin historical Yellowfin context; review needed","atlas_context":"cutthroat_lineage_context","area_sq_km":0.00118931,"elevation":0,"FType":390,"FCode":39004,"source_id":"131293085","bounds":{"west":-104.83808,"south":37.21717,"east":-104.83772,"north":37.2176},"confidence_public":"Watershed-level lineage context; expert review recommended","geometry_status_public":"Named waterbody polygon from public hydrography","geometry_source_public":"Public hydrography waterbody polygon","trout_source_public":"Compiled public recovery and lineage context; expert review recommended","public_notes":"Ojo Verde Reservoir is shown as a named waterbody within watershed-level cutthroat lineage context. This is not a precise biological boundary."}}]}