{"type":"FeatureCollection","metadata":{"source":"C:\\ct-atlas-data\\processed\\geojson\\interpreted\\colorado_named_natural_streams_complete_v1.geojson","type":"colorado-natural-stream-detail-tile-v2","tile_size_degrees":0.2,"x":-542,"y":201,"bounds":{"west":-108.4,"south":40.2,"east":-108.2,"north":40.4}},"features":[{"type":"Feature","geometry":{"type":"LineString","coordinates":[[-108.2581,40.3091],[-108.2575,40.3082],[-108.2588,40.3067],[-108.2575,40.3029]]},"properties":{"name":"Crooked Wash","display_name":"Crooked Wash","source_name":"Crooked Wash","state":"CO","atlas_class":"named_natural_stream_detail","huc8":"14050005","huc8Name":"Upper White","lineageKey":"greenRiverBlue","lineage":"greenRiverBlue","historic":"greenRiverBlue","current":"greenRiverBlue","recovery":"recoveryWatch","lineageLabel":"Green River / blue-lineage CT","atlas_context":"cutthroat_lineage_context"}},{"type":"Feature","geometry":{"type":"LineString","coordinates":[[-108.2578,40.2948],[-108.2594,40.2886],[-108.2628,40.285],[-108.2666,40.284],[-108.267,40.2832],[-108.2722,40.2827],[-108.2729,40.2835]]},"properties":{"name":"Crooked Wash","display_name":"Crooked Wash","source_name":"Crooked Wash","state":"CO","atlas_class":"named_natural_stream_detail","huc8":"14050005","huc8Name":"Upper White","lineageKey":"greenRiverBlue","lineage":"greenRiverBlue","historic":"greenRiverBlue","current":"greenRiverBlue","recovery":"recoveryWatch","lineageLabel":"Green River / blue-lineage CT","atlas_context":"cutthroat_lineage_context"}},{"type":"Feature","geometry":{"type":"LineString","coordinates":[[-108.2584,40.2989],[-108.2578,40.2948]]},"properties":{"name":"Crooked Wash","display_name":"Crooked Wash","source_name":"Crooked Wash","state":"CO","atlas_class":"named_natural_stream_detail","huc8":"14050005","huc8Name":"Upper White","lineageKey":"greenRiverBlue","lineage":"greenRiverBlue","historic":"greenRiverBlue","current":"greenRiverBlue","recovery":"recoveryWatch","lineageLabel":"Green River / blue-lineage CT","atlas_context":"cutthroat_lineage_context"}},{"type":"Feature","geometry":{"type":"LineString","coordinates":[[-108.2803,40.2793],[-108.2808,40.2786],[-108.28,40.2775],[-108.281,40.2766],[-108.2799,40.2751]]},"properties":{"name":"Crooked Wash","display_name":"Crooked Wash","source_name":"Crooked Wash","state":"CO","atlas_class":"named_natural_stream_detail","huc8":"14050005","huc8Name":"Upper White","lineageKey":"greenRiverBlue","lineage":"greenRiverBlue","historic":"greenRiverBlue","current":"greenRiverBlue","recovery":"recoveryWatch","lineageLabel":"Green River / blue-lineage CT","atlas_context":"cutthroat_lineage_context"}},{"type":"Feature","geometry":{"type":"LineString","coordinates":[[-108.2575,40.3029],[-108.2571,40.3008],[-108.2584,40.2989]]},"properties":{"name":"Crooked Wash","display_name":"Crooked Wash","source_name":"Crooked Wash","state":"CO","atlas_class":"named_natural_stream_detail","huc8":"14050005","huc8Name":"Upper White","lineageKey":"greenRiverBlue","lineage":"greenRiverBlue","historic":"greenRiverBlue","current":"greenRiverBlue","recovery":"recoveryWatch","lineageLabel":"Green River / blue-lineage CT","atlas_context":"cutthroat_lineage_context"}},{"type":"Feature","geometry":{"type":"LineString","coordinates":[[-108.3218,40.3696],[-108.3265,40.3673],[-108.3278,40.3622]]},"properties":{"name":"North Fork Sagebrush Creek","display_name":"North Fork Sagebrush Creek","source_name":"North Fork Sagebrush Creek","state":"CO","atlas_class":"named_natural_stream_detail","huc8":"14050005","huc8Name":"Upper White","lineageKey":"greenRiverBlue","lineage":"greenRiverBlue","historic":"greenRiverBlue","current":"greenRiverBlue","recovery":"recoveryWatch","lineageLabel":"Green River / blue-lineage CT","atlas_context":"cutthroat_lineage_context"}},{"type":"Feature","geometry":{"type":"LineString","coordinates":[[-108.3119,40.2703],[-108.3119,40.2695],[-108.3103,40.2693],[-108.3093,40.2667],[-108.3078,40.2659],[-108.3065,40.2665],[-108.3045,40.2644],[-108.3014,40.2633]]},"properties":{"name":"North Fork Sagebrush Creek","display_name":"North Fork Sagebrush Creek","source_name":"North Fork Sagebrush Creek","state":"CO","atlas_class":"named_natural_stream_detail","huc8":"14050005","huc8Name":"Upper White","lineageKey":"greenRiverBlue","lineage":"greenRiverBlue","historic":"greenRiverBlue","current":"greenRiverBlue","recovery":"recoveryWatch","lineageLabel":"Green River / blue-lineage CT","atlas_context":"cutthroat_lineage_context"}},{"type":"Feature","geometry":{"type":"LineString","coordinates":[[-108.3124,40.2788],[-108.313,40.277],[-108.314,40.2767],[-108.3135,40.2748]]},"properties":{"name":"North Fork Sagebrush Creek","display_name":"North Fork Sagebrush Creek","source_name":"North Fork Sagebrush Creek","state":"CO","atlas_class":"named_natural_stream_detail","huc8":"14050005","huc8Name":"Upper White","lineageKey":"greenRiverBlue","lineage":"greenRiverBlue","historic":"greenRiverBlue","current":"greenRiverBlue","recovery":"recoveryWatch","lineageLabel":"Green River / blue-lineage CT","atlas_context":"cutthroat_lineage_context"}},{"type":"Feature","geometry":{"type":"LineString","coordinates":[[-108.2955,40.2694],[-108.2965,40.2689],[-108.2969,40.2668],[-108.2978,40.2668],[-108.2969,40.2652],[-108.2989,40.2642],[-108.2982,40.2627],[-108.2993,40.2625],[-108.2979,40.2616],[-108.2985,40.2611]]},"properties":{"name":"Crooked Wash","display_name":"Crooked Wash","source_name":"Crooked Wash","state":"CO","atlas_class":"named_natural_stream_detail","huc8":"14050005","huc8Name":"Upper White","lineageKey":"greenRiverBlue","lineage":"greenRiverBlue","historic":"greenRiverBlue","current":"greenRiverBlue","recovery":"recoveryWatch","lineageLabel":"Green River / blue-lineage CT","atlas_context":"cutthroat_lineage_context"}},{"type":"Feature","geometry":{"type":"LineString","coordinates":[[-108.3159,40.3045],[-108.3145,40.3022],[-108.3128,40.3019],[-108.31,40.2995],[-108.3087,40.2938],[-108.3077,40.2945],[-108.3058,40.2934]]},"properties":{"name":"North Fork Sagebrush Creek","display_name":"North Fork Sagebrush Creek","source_name":"North Fork Sagebrush Creek","state":"CO","atlas_class":"named_natural_stream_detail","huc8":"14050005","huc8Name":"Upper White","lineageKey":"greenRiverBlue","lineage":"greenRiverBlue","historic":"greenRiverBlue","current":"greenRiverBlue","recovery":"recoveryWatch","lineageLabel":"Green River / blue-lineage CT","atlas_context":"cutthroat_lineage_context"}},{"type":"Feature","geometry":{"type":"LineString","coordinates":[[-108.307,40.2491],[-108.3061,40.2481],[-108.3076,40.2456]]},"properties":{"name":"Crooked Wash","display_name":"Crooked Wash","source_name":"Crooked Wash","state":"CO","atlas_class":"named_natural_stream_detail","huc8":"14050005","huc8Name":"Upper White","lineageKey":"greenRiverBlue","lineage":"greenRiverBlue","historic":"greenRiverBlue","current":"greenRiverBlue","recovery":"recoveryWatch","lineageLabel":"Green River / blue-lineage CT","atlas_context":"cutthroat_lineage_context"}},{"type":"Feature","geometry":{"type":"LineString","coordinates":[[-108.3058,40.2934],[-108.3046,40.2929],[-108.3052,40.2901],[-108.3032,40.2877]]},"properties":{"name":"North Fork Sagebrush Creek","display_name":"North Fork Sagebrush Creek","source_name":"North Fork Sagebrush Creek","state":"CO","atlas_class":"named_natural_stream_detail","huc8":"14050005","huc8Name":"Upper White","lineageKey":"greenRiverBlue","lineage":"greenRiverBlue","historic":"greenRiverBlue","current":"greenRiverBlue","recovery":"recoveryWatch","lineageLabel":"Green River / blue-lineage CT","atlas_context":"cutthroat_lineage_context"}},{"type":"Feature","geometry":{"type":"LineString","coordinates":[[-108.3014,40.2633],[-108.3008,40.2619],[-108.3017,40.2609],[-108.3004,40.2598]]},"properties":{"name":"North Fork Sagebrush Creek","display_name":"North Fork Sagebrush Creek","source_name":"North Fork Sagebrush Creek","state":"CO","atlas_class":"named_natural_stream_detail","huc8":"14050005","huc8Name":"Upper White","lineageKey":"greenRiverBlue","lineage":"greenRiverBlue","historic":"greenRiverBlue","current":"greenRiverBlue","recovery":"recoveryWatch","lineageLabel":"Green River / blue-lineage CT","atlas_context":"cutthroat_lineage_context"}},{"type":"Feature","geometry":{"type":"LineString","coordinates":[[-108.2881,40.2699],[-108.2892,40.2695],[-108.2902,40.2705],[-108.2913,40.2698],[-108.2925,40.2706],[-108.2943,40.2699]]},"properties":{"name":"Crooked Wash","display_name":"Crooked Wash","source_name":"Crooked Wash","state":"CO","atlas_class":"named_natural_stream_detail","huc8":"14050005","huc8Name":"Upper White","lineageKey":"greenRiverBlue","lineage":"greenRiverBlue","historic":"greenRiverBlue","current":"greenRiverBlue","recovery":"recoveryWatch","lineageLabel":"Green River / blue-lineage CT","atlas_context":"cutthroat_lineage_context"}},{"type":"Feature","geometry":{"type":"LineString","coordinates":[[-108.3024,40.2594],[-108.3032,40.2587],[-108.3031,40.2575],[-108.3045,40.2575],[-108.3032,40.2563],[-108.3048,40.2561],[-108.304,40.2549],[-108.305,40.2546],[-108.3049,40.2527],[-108.3064,40.2526],[-108.3059,40.2512],[-108.3073,40.2509],[-108.307,40.2491]]},"properties":{"name":"Crooked Wash","display_name":"Crooked Wash","source_name":"Crooked Wash","state":"CO","atlas_class":"named_natural_stream_detail","huc8":"14050005","huc8Name":"Upper White","lineageKey":"greenRiverBlue","lineage":"greenRiverBlue","historic":"greenRiverBlue","current":"greenRiverBlue","recovery":"recoveryWatch","lineageLabel":"Green River / blue-lineage CT","atlas_context":"cutthroat_lineage_context"}},{"type":"Feature","geometry":{"type":"LineString","coordinates":[[-108.284,40.2694],[-108.2844,40.269],[-108.285,40.2703],[-108.2859,40.2698],[-108.2869,40.271],[-108.2865,40.2699],[-108.2881,40.2699]]},"properties":{"name":"Crooked Wash","display_name":"Crooked Wash","source_name":"Crooked Wash","state":"CO","atlas_class":"named_natural_stream_detail","huc8":"14050005","huc8Name":"Upper White","lineageKey":"greenRiverBlue","lineage":"greenRiverBlue","historic":"greenRiverBlue","current":"greenRiverBlue","recovery":"recoveryWatch","lineageLabel":"Green River / blue-lineage CT","atlas_context":"cutthroat_lineage_context"}},{"type":"Feature","geometry":{"type":"LineString","coordinates":[[-108.261,40.2393],[-108.2624,40.2397],[-108.2624,40.2404],[-108.2638,40.2391],[-108.2666,40.2396]]},"properties":{"name":"Deep Channel Creek","display_name":"Deep Channel Creek","source_name":"Deep Channel Creek","state":"CO","atlas_class":"named_natural_stream_detail","huc8":"14050005","huc8Name":"Upper White","lineageKey":"greenRiverBlue","lineage":"greenRiverBlue","historic":"greenRiverBlue","current":"greenRiverBlue","recovery":"recoveryWatch","lineageLabel":"Green River / blue-lineage CT","atlas_context":"cutthroat_lineage_context"}},{"type":"Feature","geometry":{"type":"LineString","coordinates":[[-108.2443,40.2335],[-108.2469,40.2346]]},"properties":{"name":"Deep Channel Creek","display_name":"Deep Channel Creek","source_name":"Deep Channel Creek","state":"CO","atlas_class":"named_natural_stream_detail","huc8":"14050005","huc8Name":"Upper White","lineageKey":"greenRiverBlue","lineage":"greenRiverBlue","historic":"greenRiverBlue","current":"greenRiverBlue","recovery":"recoveryWatch","lineageLabel":"Green River / blue-lineage CT","atlas_context":"cutthroat_lineage_context"}},{"type":"Feature","geometry":{"type":"LineString","coordinates":[[-108.2019,40.2417],[-108.2025,40.24],[-108.2044,40.2392]]},"properties":{"name":"Deep Channel Creek","display_name":"Deep Channel Creek","source_name":"Deep Channel Creek","state":"CO","atlas_class":"named_natural_stream_detail","huc8":"14050005","huc8Name":"Upper White","lineageKey":"greenRiverBlue","lineage":"greenRiverBlue","historic":"greenRiverBlue","current":"greenRiverBlue","recovery":"recoveryWatch","lineageLabel":"Green River / blue-lineage CT","atlas_context":"cutthroat_lineage_context"}},{"type":"Feature","geometry":{"type":"LineString","coordinates":[[-108.2743,40.2376],[-108.2776,40.2367],[-108.2787,40.2346]]},"properties":{"name":"Deep Channel Creek","display_name":"Deep Channel Creek","source_name":"Deep Channel Creek","state":"CO","atlas_class":"named_natural_stream_detail","huc8":"14050005","huc8Name":"Upper White","lineageKey":"greenRiverBlue","lineage":"greenRiverBlue","historic":"greenRiverBlue","current":"greenRiverBlue","recovery":"recoveryWatch","lineageLabel":"Green River / blue-lineage CT","atlas_context":"cutthroat_lineage_context"}},{"type":"Feature","geometry":{"type":"LineString","coordinates":[[-108.2672,40.2393],[-108.2684,40.2396],[-108.2691,40.2388],[-108.27,40.2396],[-108.2721,40.2393],[-108.2726,40.238],[-108.2738,40.2381]]},"properties":{"name":"Deep Channel Creek","display_name":"Deep Channel Creek","source_name":"Deep Channel Creek","state":"CO","atlas_class":"named_natural_stream_detail","huc8":"14050005","huc8Name":"Upper White","lineageKey":"greenRiverBlue","lineage":"greenRiverBlue","historic":"greenRiverBlue","current":"greenRiverBlue","recovery":"recoveryWatch","lineageLabel":"Green River / blue-lineage CT","atlas_context":"cutthroat_lineage_context"}},{"type":"Feature","geometry":{"type":"LineString","coordinates":[[-108.1959,40.2422],[-108.1992,40.2412],[-108.2019,40.2417]]},"properties":{"name":"Deep Channel Creek","display_name":"Deep Channel Creek","source_name":"Deep Channel Creek","state":"CO","atlas_class":"named_natural_stream_detail","huc8":"14050005","huc8Name":"Upper White","lineageKey":"greenRiverBlue","lineage":"greenRiverBlue","historic":"greenRiverBlue","current":"greenRiverBlue","recovery":"recoveryWatch","lineageLabel":"Green River / blue-lineage CT","atlas_context":"cutthroat_lineage_context"}},{"type":"Feature","geometry":{"type":"LineString","coordinates":[[-108.2666,40.2396],[-108.2672,40.2393]]},"properties":{"name":"Deep Channel Creek","display_name":"Deep Channel Creek","source_name":"Deep Channel Creek","state":"CO","atlas_class":"named_natural_stream_detail","huc8":"14050005","huc8Name":"Upper White","lineageKey":"greenRiverBlue","lineage":"greenRiverBlue","historic":"greenRiverBlue","current":"greenRiverBlue","recovery":"recoveryWatch","lineageLabel":"Green River / blue-lineage CT","atlas_context":"cutthroat_lineage_context"}},{"type":"Feature","geometry":{"type":"LineString","coordinates":[[-108.3922,40.3202],[-108.3941,40.3182]]},"properties":{"name":"Coal Creek","display_name":"Coal Creek","source_name":"Coal Creek","state":"CO","atlas_class":"named_natural_stream_detail","huc8":"14050007","huc8Name":"Lower White","lineageKey":"greenRiverBlue","lineage":"greenRiverBlue","historic":"greenRiverBlue","current":"greenRiverBlue","recovery":"recoveryWatch","lineageLabel":"Green River / blue-lineage CT","atlas_context":"cutthroat_lineage_context"}},{"type":"Feature","geometry":{"type":"LineString","coordinates":[[-108.3922,40.3215],[-108.3922,40.3202]]},"properties":{"name":"Coal Creek","display_name":"Coal Creek","source_name":"Coal Creek","state":"CO","atlas_class":"named_natural_stream_detail","huc8":"14050007","huc8Name":"Lower White","lineageKey":"greenRiverBlue","lineage":"greenRiverBlue","historic":"greenRiverBlue","current":"greenRiverBlue","recovery":"recoveryWatch","lineageLabel":"Green River / blue-lineage CT","atlas_context":"cutthroat_lineage_context"}},{"type":"Feature","geometry":{"type":"LineString","coordinates":[[-108.3357,40.3284],[-108.3351,40.3258],[-108.3341,40.3257]]},"properties":{"name":"North Fork Sagebrush Creek","display_name":"North Fork Sagebrush Creek","source_name":"North Fork Sagebrush Creek","state":"CO","atlas_class":"named_natural_stream_detail","huc8":"14050005","huc8Name":"Upper White","lineageKey":"greenRiverBlue","lineage":"greenRiverBlue","historic":"greenRiverBlue","current":"greenRiverBlue","recovery":"recoveryWatch","lineageLabel":"Green River / blue-lineage CT","atlas_context":"cutthroat_lineage_context"}},{"type":"Feature","geometry":{"type":"LineString","coordinates":[[-108.3321,40.3209],[-108.331,40.3207],[-108.3302,40.3187],[-108.3278,40.3184],[-108.3259,40.3172]]},"properties":{"name":"North Fork Sagebrush Creek","display_name":"North Fork Sagebrush Creek","source_name":"North Fork Sagebrush Creek","state":"CO","atlas_class":"named_natural_stream_detail","huc8":"14050005","huc8Name":"Upper White","lineageKey":"greenRiverBlue","lineage":"greenRiverBlue","historic":"greenRiverBlue","current":"greenRiverBlue","recovery":"recoveryWatch","lineageLabel":"Green River / blue-lineage CT","atlas_context":"cutthroat_lineage_context"}},{"type":"Feature","geometry":{"type":"LineString","coordinates":[[-108.3341,40.3257],[-108.3321,40.3209]]},"properties":{"name":"North Fork Sagebrush Creek","display_name":"North Fork Sagebrush Creek","source_name":"North Fork Sagebrush Creek","state":"CO","atlas_class":"named_natural_stream_detail","huc8":"14050005","huc8Name":"Upper White","lineageKey":"greenRiverBlue","lineage":"greenRiverBlue","historic":"greenRiverBlue","current":"greenRiverBlue","recovery":"recoveryWatch","lineageLabel":"Green River / blue-lineage CT","atlas_context":"cutthroat_lineage_context"}},{"type":"Feature","geometry":{"type":"LineString","coordinates":[[-108.3204,40.3107],[-108.32,40.3107]]},"properties":{"name":"North Fork Sagebrush Creek","display_name":"North Fork Sagebrush Creek","source_name":"North Fork Sagebrush Creek","state":"CO","atlas_class":"named_natural_stream_detail","huc8":"14050005","huc8Name":"Upper White","lineageKey":"greenRiverBlue","lineage":"greenRiverBlue","historic":"greenRiverBlue","current":"greenRiverBlue","recovery":"recoveryWatch","lineageLabel":"Green River / blue-lineage CT","atlas_context":"cutthroat_lineage_context"}},{"type":"Feature","geometry":{"type":"LineString","coordinates":[[-108.3259,40.3172],[-108.3267,40.3161]]},"properties":{"name":"North Fork Sagebrush Creek","display_name":"North Fork Sagebrush Creek","source_name":"North Fork Sagebrush Creek","state":"CO","atlas_class":"named_natural_stream_detail","huc8":"14050005","huc8Name":"Upper White","lineageKey":"greenRiverBlue","lineage":"greenRiverBlue","historic":"greenRiverBlue","current":"greenRiverBlue","recovery":"recoveryWatch","lineageLabel":"Green River / blue-lineage CT","atlas_context":"cutthroat_lineage_context"}},{"type":"Feature","geometry":{"type":"LineString","coordinates":[[-108.3206,40.3107],[-108.3204,40.3107]]},"properties":{"name":"North Fork Sagebrush Creek","display_name":"North Fork Sagebrush Creek","source_name":"North Fork Sagebrush Creek","state":"CO","atlas_class":"named_natural_stream_detail","huc8":"14050005","huc8Name":"Upper White","lineageKey":"greenRiverBlue","lineage":"greenRiverBlue","historic":"greenRiverBlue","current":"greenRiverBlue","recovery":"recoveryWatch","lineageLabel":"Green River / blue-lineage CT","atlas_context":"cutthroat_lineage_context"}},{"type":"Feature","geometry":{"type":"LineString","coordinates":[[-108.3267,40.3161],[-108.3247,40.3147],[-108.3238,40.3128],[-108.3206,40.3107]]},"properties":{"name":"North Fork Sagebrush Creek","display_name":"North Fork Sagebrush Creek","source_name":"North Fork Sagebrush Creek","state":"CO","atlas_class":"named_natural_stream_detail","huc8":"14050005","huc8Name":"Upper White","lineageKey":"greenRiverBlue","lineage":"greenRiverBlue","historic":"greenRiverBlue","current":"greenRiverBlue","recovery":"recoveryWatch","lineageLabel":"Green River / blue-lineage CT","atlas_context":"cutthroat_lineage_context"}},{"type":"Feature","geometry":{"type":"LineString","coordinates":[[-108.32,40.3107],[-108.3164,40.3084],[-108.3159,40.3045]]},"properties":{"name":"North Fork Sagebrush Creek","display_name":"North Fork Sagebrush Creek","source_name":"North Fork Sagebrush Creek","state":"CO","atlas_class":"named_natural_stream_detail","huc8":"14050005","huc8Name":"Upper White","lineageKey":"greenRiverBlue","lineage":"greenRiverBlue","historic":"greenRiverBlue","current":"greenRiverBlue","recovery":"recoveryWatch","lineageLabel":"Green River / blue-lineage CT","atlas_context":"cutthroat_lineage_context"}},{"type":"Feature","geometry":{"type":"LineString","coordinates":[[-108.3696,40.3604],[-108.3688,40.3579],[-108.3696,40.3548],[-108.3746,40.3485]]},"properties":{"name":"Coal Creek","display_name":"Coal Creek","source_name":"Coal Creek","state":"CO","atlas_class":"named_natural_stream_detail","huc8":"14050007","huc8Name":"Lower White","lineageKey":"greenRiverBlue","lineage":"greenRiverBlue","historic":"greenRiverBlue","current":"greenRiverBlue","recovery":"recoveryWatch","lineageLabel":"Green River / blue-lineage CT","atlas_context":"cutthroat_lineage_context"}},{"type":"Feature","geometry":{"type":"LineString","coordinates":[[-108.3754,40.3466],[-108.3771,40.3428],[-108.3809,40.3396],[-108.3828,40.3396]]},"properties":{"name":"Coal Creek","display_name":"Coal Creek","source_name":"Coal Creek","state":"CO","atlas_class":"named_natural_stream_detail","huc8":"14050007","huc8Name":"Lower White","lineageKey":"greenRiverBlue","lineage":"greenRiverBlue","historic":"greenRiverBlue","current":"greenRiverBlue","recovery":"recoveryWatch","lineageLabel":"Green River / blue-lineage CT","atlas_context":"cutthroat_lineage_context"}},{"type":"Feature","geometry":{"type":"LineString","coordinates":[[-108.3883,40.3375],[-108.3902,40.3326],[-108.3922,40.3215]]},"properties":{"name":"Coal Creek","display_name":"Coal Creek","source_name":"Coal Creek","state":"CO","atlas_class":"named_natural_stream_detail","huc8":"14050007","huc8Name":"Lower White","lineageKey":"greenRiverBlue","lineage":"greenRiverBlue","historic":"greenRiverBlue","current":"greenRiverBlue","recovery":"recoveryWatch","lineageLabel":"Green River / blue-lineage CT","atlas_context":"cutthroat_lineage_context"}},{"type":"Feature","geometry":{"type":"LineString","coordinates":[[-108.3828,40.3396],[-108.3869,40.3387],[-108.3883,40.3375]]},"properties":{"name":"Coal Creek","display_name":"Coal Creek","source_name":"Coal Creek","state":"CO","atlas_class":"named_natural_stream_detail","huc8":"14050007","huc8Name":"Lower White","lineageKey":"greenRiverBlue","lineage":"greenRiverBlue","historic":"greenRiverBlue","current":"greenRiverBlue","recovery":"recoveryWatch","lineageLabel":"Green River / blue-lineage CT","atlas_context":"cutthroat_lineage_context"}},{"type":"Feature","geometry":{"type":"LineString","coordinates":[[-108.3746,40.3484],[-108.3754,40.3466]]},"properties":{"name":"Coal Creek","display_name":"Coal Creek","source_name":"Coal Creek","state":"CO","atlas_class":"named_natural_stream_detail","huc8":"14050007","huc8Name":"Lower White","lineageKey":"greenRiverBlue","lineage":"greenRiverBlue","historic":"greenRiverBlue","current":"greenRiverBlue","recovery":"recoveryWatch","lineageLabel":"Green River / blue-lineage CT","atlas_context":"cutthroat_lineage_context"}},{"type":"Feature","geometry":{"type":"LineString","coordinates":[[-108.3376,40.3346],[-108.3357,40.3284]]},"properties":{"name":"North Fork Sagebrush Creek","display_name":"North Fork Sagebrush Creek","source_name":"North Fork Sagebrush Creek","state":"CO","atlas_class":"named_natural_stream_detail","huc8":"14050005","huc8Name":"Upper White","lineageKey":"greenRiverBlue","lineage":"greenRiverBlue","historic":"greenRiverBlue","current":"greenRiverBlue","recovery":"recoveryWatch","lineageLabel":"Green River / blue-lineage CT","atlas_context":"cutthroat_lineage_context"}},{"type":"Feature","geometry":{"type":"LineString","coordinates":[[-108.3364,40.3482],[-108.3386,40.3446],[-108.3373,40.335]]},"properties":{"name":"North Fork Sagebrush Creek","display_name":"North Fork Sagebrush Creek","source_name":"North Fork Sagebrush Creek","state":"CO","atlas_class":"named_natural_stream_detail","huc8":"14050005","huc8Name":"Upper White","lineageKey":"greenRiverBlue","lineage":"greenRiverBlue","historic":"greenRiverBlue","current":"greenRiverBlue","recovery":"recoveryWatch","lineageLabel":"Green River / blue-lineage CT","atlas_context":"cutthroat_lineage_context"}},{"type":"Feature","geometry":{"type":"LineString","coordinates":[[-108.328,40.362],[-108.3294,40.3597],[-108.329,40.3574],[-108.3298,40.3544],[-108.3335,40.3502]]},"properties":{"name":"North Fork Sagebrush Creek","display_name":"North Fork Sagebrush Creek","source_name":"North Fork Sagebrush Creek","state":"CO","atlas_class":"named_natural_stream_detail","huc8":"14050005","huc8Name":"Upper White","lineageKey":"greenRiverBlue","lineage":"greenRiverBlue","historic":"greenRiverBlue","current":"greenRiverBlue","recovery":"recoveryWatch","lineageLabel":"Green River / blue-lineage CT","atlas_context":"cutthroat_lineage_context"}},{"type":"Feature","geometry":{"type":"LineString","coordinates":[[-108.3373,40.335],[-108.3376,40.3346]]},"properties":{"name":"North Fork Sagebrush Creek","display_name":"North Fork Sagebrush Creek","source_name":"North Fork Sagebrush Creek","state":"CO","atlas_class":"named_natural_stream_detail","huc8":"14050005","huc8Name":"Upper White","lineageKey":"greenRiverBlue","lineage":"greenRiverBlue","historic":"greenRiverBlue","current":"greenRiverBlue","recovery":"recoveryWatch","lineageLabel":"Green River / blue-lineage CT","atlas_context":"cutthroat_lineage_context"}},{"type":"Feature","geometry":{"type":"LineString","coordinates":[[-108.3335,40.3502],[-108.3364,40.3482]]},"properties":{"name":"North Fork Sagebrush Creek","display_name":"North Fork Sagebrush Creek","source_name":"North Fork Sagebrush Creek","state":"CO","atlas_class":"named_natural_stream_detail","huc8":"14050005","huc8Name":"Upper White","lineageKey":"greenRiverBlue","lineage":"greenRiverBlue","historic":"greenRiverBlue","current":"greenRiverBlue","recovery":"recoveryWatch","lineageLabel":"Green River / blue-lineage CT","atlas_context":"cutthroat_lineage_context"}},{"type":"Feature","geometry":{"type":"LineString","coordinates":[[-108.3941,40.3182],[-108.4016,40.3101]]},"properties":{"name":"Coal Creek","display_name":"Coal Creek","source_name":"Coal Creek","state":"CO","atlas_class":"named_natural_stream_detail","huc8":"14050007","huc8Name":"Lower White","lineageKey":"greenRiverBlue","lineage":"greenRiverBlue","historic":"greenRiverBlue","current":"greenRiverBlue","recovery":"recoveryWatch","lineageLabel":"Green River / blue-lineage CT","atlas_context":"cutthroat_lineage_context"}},{"type":"Feature","geometry":{"type":"LineString","coordinates":[[-108.2792,40.234],[-108.2796,40.234]]},"properties":{"name":"Deep Channel Creek","display_name":"Deep Channel Creek","source_name":"Deep Channel Creek","state":"CO","atlas_class":"named_natural_stream_detail","huc8":"14050005","huc8Name":"Upper White","lineageKey":"greenRiverBlue","lineage":"greenRiverBlue","historic":"greenRiverBlue","current":"greenRiverBlue","recovery":"recoveryWatch","lineageLabel":"Green River / blue-lineage CT","atlas_context":"cutthroat_lineage_context"}},{"type":"Feature","geometry":{"type":"LineString","coordinates":[[-108.2872,40.2298],[-108.2874,40.2291]]},"properties":{"name":"Deep Channel Creek","display_name":"Deep Channel Creek","source_name":"Deep Channel Creek","state":"CO","atlas_class":"named_natural_stream_detail","huc8":"14050005","huc8Name":"Upper White","lineageKey":"greenRiverBlue","lineage":"greenRiverBlue","historic":"greenRiverBlue","current":"greenRiverBlue","recovery":"recoveryWatch","lineageLabel":"Green River / blue-lineage CT","atlas_context":"cutthroat_lineage_context"}},{"type":"Feature","geometry":{"type":"LineString","coordinates":[[-108.2873,40.2288],[-108.2892,40.2279]]},"properties":{"name":"Deep Channel Creek","display_name":"Deep Channel Creek","source_name":"Deep Channel Creek","state":"CO","atlas_class":"named_natural_stream_detail","huc8":"14050005","huc8Name":"Upper White","lineageKey":"greenRiverBlue","lineage":"greenRiverBlue","historic":"greenRiverBlue","current":"greenRiverBlue","recovery":"recoveryWatch","lineageLabel":"Green River / blue-lineage CT","atlas_context":"cutthroat_lineage_context"}},{"type":"Feature","geometry":{"type":"LineString","coordinates":[[-108.2821,40.2323],[-108.2829,40.232]]},"properties":{"name":"Deep Channel Creek","display_name":"Deep Channel Creek","source_name":"Deep Channel Creek","state":"CO","atlas_class":"named_natural_stream_detail","huc8":"14050005","huc8Name":"Upper White","lineageKey":"greenRiverBlue","lineage":"greenRiverBlue","historic":"greenRiverBlue","current":"greenRiverBlue","recovery":"recoveryWatch","lineageLabel":"Green River / blue-lineage CT","atlas_context":"cutthroat_lineage_context"}},{"type":"Feature","geometry":{"type":"LineString","coordinates":[[-108.2729,40.2835],[-108.2803,40.2793]]},"properties":{"name":"Crooked Wash","display_name":"Crooked Wash","source_name":"Crooked Wash","state":"CO","atlas_class":"named_natural_stream_detail","huc8":"14050005","huc8Name":"Upper White","lineageKey":"greenRiverBlue","lineage":"greenRiverBlue","historic":"greenRiverBlue","current":"greenRiverBlue","recovery":"recoveryWatch","lineageLabel":"Green River / blue-lineage CT","atlas_context":"cutthroat_lineage_context"}},{"type":"Feature","geometry":{"type":"LineString","coordinates":[[-108.292,40.2264],[-108.2938,40.2256]]},"properties":{"name":"Deep Channel Creek","display_name":"Deep Channel Creek","source_name":"Deep Channel Creek","state":"CO","atlas_class":"named_natural_stream_detail","huc8":"14050005","huc8Name":"Upper White","lineageKey":"greenRiverBlue","lineage":"greenRiverBlue","historic":"greenRiverBlue","current":"greenRiverBlue","recovery":"recoveryWatch","lineageLabel":"Green River / blue-lineage CT","atlas_context":"cutthroat_lineage_context"}},{"type":"Feature","geometry":{"type":"LineString","coordinates":[[-108.2896,40.2265],[-108.29,40.2264]]},"properties":{"name":"Deep Channel Creek","display_name":"Deep Channel Creek","source_name":"Deep Channel Creek","state":"CO","atlas_class":"named_natural_stream_detail","huc8":"14050005","huc8Name":"Upper White","lineageKey":"greenRiverBlue","lineage":"greenRiverBlue","historic":"greenRiverBlue","current":"greenRiverBlue","recovery":"recoveryWatch","lineageLabel":"Green River / blue-lineage CT","atlas_context":"cutthroat_lineage_context"}},{"type":"Feature","geometry":{"type":"LineString","coordinates":[[-108.286,40.2303],[-108.2865,40.2294]]},"properties":{"name":"Deep Channel Creek","display_name":"Deep Channel Creek","source_name":"Deep Channel Creek","state":"CO","atlas_class":"named_natural_stream_detail","huc8":"14050005","huc8Name":"Upper White","lineageKey":"greenRiverBlue","lineage":"greenRiverBlue","historic":"greenRiverBlue","current":"greenRiverBlue","recovery":"recoveryWatch","lineageLabel":"Green River / blue-lineage CT","atlas_context":"cutthroat_lineage_context"}},{"type":"Feature","geometry":{"type":"LineString","coordinates":[[-108.283,40.2319],[-108.2848,40.2307]]},"properties":{"name":"Deep Channel Creek","display_name":"Deep Channel Creek","source_name":"Deep Channel Creek","state":"CO","atlas_class":"named_natural_stream_detail","huc8":"14050005","huc8Name":"Upper White","lineageKey":"greenRiverBlue","lineage":"greenRiverBlue","historic":"greenRiverBlue","current":"greenRiverBlue","recovery":"recoveryWatch","lineageLabel":"Green River / blue-lineage CT","atlas_context":"cutthroat_lineage_context"}},{"type":"Feature","geometry":{"type":"LineString","coordinates":[[-108.2799,40.2751],[-108.2807,40.2742],[-108.2801,40.2733],[-108.2814,40.2733],[-108.2808,40.2728],[-108.2815,40.2718],[-108.2836,40.2702],[-108.2841,40.2708],[-108.284,40.2694]]},"properties":{"name":"Crooked Wash","display_name":"Crooked Wash","source_name":"Crooked Wash","state":"CO","atlas_class":"named_natural_stream_detail","huc8":"14050005","huc8Name":"Upper White","lineageKey":"greenRiverBlue","lineage":"greenRiverBlue","historic":"greenRiverBlue","current":"greenRiverBlue","recovery":"recoveryWatch","lineageLabel":"Green River / blue-lineage CT","atlas_context":"cutthroat_lineage_context"}},{"type":"Feature","geometry":{"type":"LineString","coordinates":[[-108.2738,40.2381],[-108.2743,40.2376]]},"properties":{"name":"Deep Channel Creek","display_name":"Deep Channel Creek","source_name":"Deep Channel Creek","state":"CO","atlas_class":"named_natural_stream_detail","huc8":"14050005","huc8Name":"Upper White","lineageKey":"greenRiverBlue","lineage":"greenRiverBlue","historic":"greenRiverBlue","current":"greenRiverBlue","recovery":"recoveryWatch","lineageLabel":"Green River / blue-lineage CT","atlas_context":"cutthroat_lineage_context"}},{"type":"Feature","geometry":{"type":"LineString","coordinates":[[-108.2916,40.2261],[-108.292,40.2264]]},"properties":{"name":"Deep Channel Creek","display_name":"Deep Channel Creek","source_name":"Deep Channel Creek","state":"CO","atlas_class":"named_natural_stream_detail","huc8":"14050005","huc8Name":"Upper White","lineageKey":"greenRiverBlue","lineage":"greenRiverBlue","historic":"greenRiverBlue","current":"greenRiverBlue","recovery":"recoveryWatch","lineageLabel":"Green River / blue-lineage CT","atlas_context":"cutthroat_lineage_context"}},{"type":"Feature","geometry":{"type":"LineString","coordinates":[[-108.291,40.226],[-108.2904,40.2257]]},"properties":{"name":"Deep Channel Creek","display_name":"Deep Channel Creek","source_name":"Deep Channel Creek","state":"CO","atlas_class":"named_natural_stream_detail","huc8":"14050005","huc8Name":"Upper White","lineageKey":"greenRiverBlue","lineage":"greenRiverBlue","historic":"greenRiverBlue","current":"greenRiverBlue","recovery":"recoveryWatch","lineageLabel":"Green River / blue-lineage CT","atlas_context":"cutthroat_lineage_context"}},{"type":"Feature","geometry":{"type":"LineString","coordinates":[[-108.2809,40.2332],[-108.2815,40.2325]]},"properties":{"name":"Deep Channel Creek","display_name":"Deep Channel Creek","source_name":"Deep Channel Creek","state":"CO","atlas_class":"named_natural_stream_detail","huc8":"14050005","huc8Name":"Upper White","lineageKey":"greenRiverBlue","lineage":"greenRiverBlue","historic":"greenRiverBlue","current":"greenRiverBlue","recovery":"recoveryWatch","lineageLabel":"Green River / blue-lineage CT","atlas_context":"cutthroat_lineage_context"}},{"type":"Feature","geometry":{"type":"LineString","coordinates":[[-108.2938,40.2256],[-108.296,40.2258],[-108.296,40.2269],[-108.2972,40.2278],[-108.2991,40.2275]]},"properties":{"name":"Deep Channel Creek","display_name":"Deep Channel Creek","source_name":"Deep Channel Creek","state":"CO","atlas_class":"named_natural_stream_detail","huc8":"14050005","huc8Name":"Upper White","lineageKey":"greenRiverBlue","lineage":"greenRiverBlue","historic":"greenRiverBlue","current":"greenRiverBlue","recovery":"recoveryWatch","lineageLabel":"Green River / blue-lineage CT","atlas_context":"cutthroat_lineage_context"}},{"type":"Feature","geometry":{"type":"LineString","coordinates":[[-108.3137,40.2281],[-108.314,40.2279]]},"properties":{"name":"Crooked Wash","display_name":"Crooked Wash","source_name":"Crooked Wash","state":"CO","atlas_class":"named_natural_stream_detail","huc8":"14050005","huc8Name":"Upper White","lineageKey":"greenRiverBlue","lineage":"greenRiverBlue","historic":"greenRiverBlue","current":"greenRiverBlue","recovery":"recoveryWatch","lineageLabel":"Green River / blue-lineage CT","atlas_context":"cutthroat_lineage_context"}},{"type":"Feature","geometry":{"type":"LineString","coordinates":[[-108.3004,40.2598],[-108.3024,40.2594]]},"properties":{"name":"Crooked Wash","display_name":"Crooked Wash","source_name":"Crooked Wash","state":"CO","atlas_class":"named_natural_stream_detail","huc8":"14050005","huc8Name":"Upper White","lineageKey":"greenRiverBlue","lineage":"greenRiverBlue","historic":"greenRiverBlue","current":"greenRiverBlue","recovery":"recoveryWatch","lineageLabel":"Green River / blue-lineage CT","atlas_context":"cutthroat_lineage_context"}},{"type":"Feature","geometry":{"type":"LineString","coordinates":[[-108.2943,40.2699],[-108.2955,40.2694]]},"properties":{"name":"Crooked Wash","display_name":"Crooked Wash","source_name":"Crooked Wash","state":"CO","atlas_class":"named_natural_stream_detail","huc8":"14050005","huc8Name":"Upper White","lineageKey":"greenRiverBlue","lineage":"greenRiverBlue","historic":"greenRiverBlue","current":"greenRiverBlue","recovery":"recoveryWatch","lineageLabel":"Green River / blue-lineage CT","atlas_context":"cutthroat_lineage_context"}},{"type":"Feature","geometry":{"type":"LineString","coordinates":[[-108.2985,40.2611],[-108.299,40.2598],[-108.3004,40.2598]]},"properties":{"name":"Crooked Wash","display_name":"Crooked Wash","source_name":"Crooked Wash","state":"CO","atlas_class":"named_natural_stream_detail","huc8":"14050005","huc8Name":"Upper White","lineageKey":"greenRiverBlue","lineage":"greenRiverBlue","historic":"greenRiverBlue","current":"greenRiverBlue","recovery":"recoveryWatch","lineageLabel":"Green River / blue-lineage CT","atlas_context":"cutthroat_lineage_context"}},{"type":"Feature","geometry":{"type":"LineString","coordinates":[[-108.3032,40.2877],[-108.3033,40.2848]]},"properties":{"name":"North Fork Sagebrush Creek","display_name":"North Fork Sagebrush Creek","source_name":"North Fork Sagebrush Creek","state":"CO","atlas_class":"named_natural_stream_detail","huc8":"14050005","huc8Name":"Upper White","lineageKey":"greenRiverBlue","lineage":"greenRiverBlue","historic":"greenRiverBlue","current":"greenRiverBlue","recovery":"recoveryWatch","lineageLabel":"Green River / blue-lineage CT","atlas_context":"cutthroat_lineage_context"}},{"type":"Feature","geometry":{"type":"LineString","coordinates":[[-108.3047,40.2301],[-108.3048,40.2302]]},"properties":{"name":"Deep Channel Creek","display_name":"Deep Channel Creek","source_name":"Deep Channel Creek","state":"CO","atlas_class":"named_natural_stream_detail","huc8":"14050005","huc8Name":"Upper White","lineageKey":"greenRiverBlue","lineage":"greenRiverBlue","historic":"greenRiverBlue","current":"greenRiverBlue","recovery":"recoveryWatch","lineageLabel":"Green River / blue-lineage CT","atlas_context":"cutthroat_lineage_context"}},{"type":"Feature","geometry":{"type":"LineString","coordinates":[[-108.2043,40.2329],[-108.2122,40.2313]]},"properties":{"name":"Twin Wash","display_name":"Twin Wash","source_name":"Twin Wash","state":"CO","atlas_class":"named_natural_stream_detail","huc8":"14050005","huc8Name":"Upper White","lineageKey":"greenRiverBlue","lineage":"greenRiverBlue","historic":"greenRiverBlue","current":"greenRiverBlue","recovery":"recoveryWatch","lineageLabel":"Green River / blue-lineage CT","atlas_context":"cutthroat_lineage_context"}},{"type":"Feature","geometry":{"type":"LineString","coordinates":[[-108.2116,40.2347],[-108.2125,40.2329],[-108.2148,40.2312]]},"properties":{"name":"Deep Channel Creek","display_name":"Deep Channel Creek","source_name":"Deep Channel Creek","state":"CO","atlas_class":"named_natural_stream_detail","huc8":"14050005","huc8Name":"Upper White","lineageKey":"greenRiverBlue","lineage":"greenRiverBlue","historic":"greenRiverBlue","current":"greenRiverBlue","recovery":"recoveryWatch","lineageLabel":"Green River / blue-lineage CT","atlas_context":"cutthroat_lineage_context"}},{"type":"Feature","geometry":{"type":"LineString","coordinates":[[-108.2469,40.2346],[-108.2475,40.2361],[-108.2488,40.2358],[-108.2485,40.2367],[-108.25,40.2367]]},"properties":{"name":"Deep Channel Creek","display_name":"Deep Channel Creek","source_name":"Deep Channel Creek","state":"CO","atlas_class":"named_natural_stream_detail","huc8":"14050005","huc8Name":"Upper White","lineageKey":"greenRiverBlue","lineage":"greenRiverBlue","historic":"greenRiverBlue","current":"greenRiverBlue","recovery":"recoveryWatch","lineageLabel":"Green River / blue-lineage CT","atlas_context":"cutthroat_lineage_context"}},{"type":"Feature","geometry":{"type":"LineString","coordinates":[[-108.2285,40.2314],[-108.2295,40.2312]]},"properties":{"name":"Deep Channel Creek","display_name":"Deep Channel Creek","source_name":"Deep Channel Creek","state":"CO","atlas_class":"named_natural_stream_detail","huc8":"14050005","huc8Name":"Upper White","lineageKey":"greenRiverBlue","lineage":"greenRiverBlue","historic":"greenRiverBlue","current":"greenRiverBlue","recovery":"recoveryWatch","lineageLabel":"Green River / blue-lineage CT","atlas_context":"cutthroat_lineage_context"}},{"type":"Feature","geometry":{"type":"LineString","coordinates":[[-108.2295,40.2312],[-108.2345,40.2325],[-108.2356,40.2341],[-108.2443,40.2335]]},"properties":{"name":"Deep Channel Creek","display_name":"Deep Channel Creek","source_name":"Deep Channel Creek","state":"CO","atlas_class":"named_natural_stream_detail","huc8":"14050005","huc8Name":"Upper White","lineageKey":"greenRiverBlue","lineage":"greenRiverBlue","historic":"greenRiverBlue","current":"greenRiverBlue","recovery":"recoveryWatch","lineageLabel":"Green River / blue-lineage CT","atlas_context":"cutthroat_lineage_context"}},{"type":"Feature","geometry":{"type":"LineString","coordinates":[[-108.202,40.2323],[-108.2043,40.2329]]},"properties":{"name":"Twin Wash","display_name":"Twin Wash","source_name":"Twin Wash","state":"CO","atlas_class":"named_natural_stream_detail","huc8":"14050005","huc8Name":"Upper White","lineageKey":"greenRiverBlue","lineage":"greenRiverBlue","historic":"greenRiverBlue","current":"greenRiverBlue","recovery":"recoveryWatch","lineageLabel":"Green River / blue-lineage CT","atlas_context":"cutthroat_lineage_context"}},{"type":"Feature","geometry":{"type":"LineString","coordinates":[[-108.25,40.2367],[-108.2531,40.2385],[-108.2537,40.2373],[-108.2561,40.2388],[-108.2584,40.2383],[-108.2587,40.2395],[-108.261,40.2393]]},"properties":{"name":"Deep Channel Creek","display_name":"Deep Channel Creek","source_name":"Deep Channel Creek","state":"CO","atlas_class":"named_natural_stream_detail","huc8":"14050005","huc8Name":"Upper White","lineageKey":"greenRiverBlue","lineage":"greenRiverBlue","historic":"greenRiverBlue","current":"greenRiverBlue","recovery":"recoveryWatch","lineageLabel":"Green River / blue-lineage CT","atlas_context":"cutthroat_lineage_context"}},{"type":"Feature","geometry":{"type":"LineString","coordinates":[[-108.1991,40.2301],[-108.2001,40.2302],[-108.202,40.2323]]},"properties":{"name":"Twin Wash","display_name":"Twin Wash","source_name":"Twin Wash","state":"CO","atlas_class":"named_natural_stream_detail","huc8":"14050005","huc8Name":"Upper White","lineageKey":"greenRiverBlue","lineage":"greenRiverBlue","historic":"greenRiverBlue","current":"greenRiverBlue","recovery":"recoveryWatch","lineageLabel":"Green River / blue-lineage CT","atlas_context":"cutthroat_lineage_context"}},{"type":"Feature","geometry":{"type":"LineString","coordinates":[[-108.2148,40.2312],[-108.2256,40.23],[-108.2285,40.2314]]},"properties":{"name":"Deep Channel Creek","display_name":"Deep Channel Creek","source_name":"Deep Channel Creek","state":"CO","atlas_class":"named_natural_stream_detail","huc8":"14050005","huc8Name":"Upper White","lineageKey":"greenRiverBlue","lineage":"greenRiverBlue","historic":"greenRiverBlue","current":"greenRiverBlue","recovery":"recoveryWatch","lineageLabel":"Green River / blue-lineage CT","atlas_context":"cutthroat_lineage_context"}},{"type":"Feature","geometry":{"type":"LineString","coordinates":[[-108.2122,40.2313],[-108.2148,40.2312]]},"properties":{"name":"Twin Wash","display_name":"Twin Wash","source_name":"Twin Wash","state":"CO","atlas_class":"named_natural_stream_detail","huc8":"14050005","huc8Name":"Upper White","lineageKey":"greenRiverBlue","lineage":"greenRiverBlue","historic":"greenRiverBlue","current":"greenRiverBlue","recovery":"recoveryWatch","lineageLabel":"Green River / blue-lineage CT","atlas_context":"cutthroat_lineage_context"}},{"type":"Feature","geometry":{"type":"LineString","coordinates":[[-108.2085,40.2372],[-108.2098,40.2364],[-108.2101,40.235],[-108.2116,40.2347]]},"properties":{"name":"Deep Channel Creek","display_name":"Deep Channel Creek","source_name":"Deep Channel Creek","state":"CO","atlas_class":"named_natural_stream_detail","huc8":"14050005","huc8Name":"Upper White","lineageKey":"greenRiverBlue","lineage":"greenRiverBlue","historic":"greenRiverBlue","current":"greenRiverBlue","recovery":"recoveryWatch","lineageLabel":"Green River / blue-lineage CT","atlas_context":"cutthroat_lineage_context"}},{"type":"Feature","geometry":{"type":"LineString","coordinates":[[-108.2044,40.2392],[-108.2085,40.2372]]},"properties":{"name":"Deep Channel Creek","display_name":"Deep Channel Creek","source_name":"Deep Channel Creek","state":"CO","atlas_class":"named_natural_stream_detail","huc8":"14050005","huc8Name":"Upper White","lineageKey":"greenRiverBlue","lineage":"greenRiverBlue","historic":"greenRiverBlue","current":"greenRiverBlue","recovery":"recoveryWatch","lineageLabel":"Green River / blue-lineage CT","atlas_context":"cutthroat_lineage_context"}},{"type":"Feature","geometry":{"type":"LineString","coordinates":[[-108.3135,40.2748],[-108.3115,40.2721],[-108.3119,40.2703]]},"properties":{"name":"North Fork Sagebrush Creek","display_name":"North Fork Sagebrush Creek","source_name":"North Fork Sagebrush Creek","state":"CO","atlas_class":"named_natural_stream_detail","huc8":"14050005","huc8Name":"Upper White","lineageKey":"greenRiverBlue","lineage":"greenRiverBlue","historic":"greenRiverBlue","current":"greenRiverBlue","recovery":"recoveryWatch","lineageLabel":"Green River / blue-lineage CT","atlas_context":"cutthroat_lineage_context"}},{"type":"Feature","geometry":{"type":"LineString","coordinates":[[-108.3033,40.2848],[-108.3047,40.2834],[-108.3058,40.2836],[-108.3064,40.2821],[-108.3076,40.2823],[-108.3106,40.2791],[-108.3124,40.2788]]},"properties":{"name":"North Fork Sagebrush Creek","display_name":"North Fork Sagebrush Creek","source_name":"North Fork Sagebrush Creek","state":"CO","atlas_class":"named_natural_stream_detail","huc8":"14050005","huc8Name":"Upper White","lineageKey":"greenRiverBlue","lineage":"greenRiverBlue","historic":"greenRiverBlue","current":"greenRiverBlue","recovery":"recoveryWatch","lineageLabel":"Green River / blue-lineage CT","atlas_context":"cutthroat_lineage_context"}},{"type":"Feature","geometry":{"type":"LineString","coordinates":[[-108.3269,40.2028],[-108.3269,40.203]]},"properties":{"name":"Crooked Wash","display_name":"Crooked Wash","source_name":"Crooked Wash","state":"CO","atlas_class":"named_natural_stream_detail","huc8":"14050005","huc8Name":"Upper White","lineageKey":"greenRiverBlue","lineage":"greenRiverBlue","historic":"greenRiverBlue","current":"greenRiverBlue","recovery":"recoveryWatch","lineageLabel":"Green River / blue-lineage CT","atlas_context":"cutthroat_lineage_context"}},{"type":"Feature","geometry":{"type":"LineString","coordinates":[[-108.3298,40.2026],[-108.3302,40.2023]]},"properties":{"name":"Crooked Wash","display_name":"Crooked Wash","source_name":"Crooked Wash","state":"CO","atlas_class":"named_natural_stream_detail","huc8":"14050005","huc8Name":"Upper White","lineageKey":"greenRiverBlue","lineage":"greenRiverBlue","historic":"greenRiverBlue","current":"greenRiverBlue","recovery":"recoveryWatch","lineageLabel":"Green River / blue-lineage CT","atlas_context":"cutthroat_lineage_context"}},{"type":"Feature","geometry":{"type":"LineString","coordinates":[[-108.3128,40.2299],[-108.3132,40.2296]]},"properties":{"name":"Crooked Wash","display_name":"Crooked Wash","source_name":"Crooked Wash","state":"CO","atlas_class":"named_natural_stream_detail","huc8":"14050005","huc8Name":"Upper White","lineageKey":"greenRiverBlue","lineage":"greenRiverBlue","historic":"greenRiverBlue","current":"greenRiverBlue","recovery":"recoveryWatch","lineageLabel":"Green River / blue-lineage CT","atlas_context":"cutthroat_lineage_context"}},{"type":"Feature","geometry":{"type":"LineString","coordinates":[[-108.3125,40.2318],[-108.3128,40.2315]]},"properties":{"name":"Crooked Wash","display_name":"Crooked Wash","source_name":"Crooked Wash","state":"CO","atlas_class":"named_natural_stream_detail","huc8":"14050005","huc8Name":"Upper White","lineageKey":"greenRiverBlue","lineage":"greenRiverBlue","historic":"greenRiverBlue","current":"greenRiverBlue","recovery":"recoveryWatch","lineageLabel":"Green River / blue-lineage CT","atlas_context":"cutthroat_lineage_context"}},{"type":"Feature","geometry":{"type":"LineString","coordinates":[[-108.3232,40.2067],[-108.3237,40.2071]]},"properties":{"name":"Crooked Wash","display_name":"Crooked Wash","source_name":"Crooked Wash","state":"CO","atlas_class":"named_natural_stream_detail","huc8":"14050005","huc8Name":"Upper White","lineageKey":"greenRiverBlue","lineage":"greenRiverBlue","historic":"greenRiverBlue","current":"greenRiverBlue","recovery":"recoveryWatch","lineageLabel":"Green River / blue-lineage CT","atlas_context":"cutthroat_lineage_context"}},{"type":"Feature","geometry":{"type":"LineString","coordinates":[[-108.308,40.2444],[-108.3092,40.2434]]},"properties":{"name":"Crooked Wash","display_name":"Crooked Wash","source_name":"Crooked Wash","state":"CO","atlas_class":"named_natural_stream_detail","huc8":"14050005","huc8Name":"Upper White","lineageKey":"greenRiverBlue","lineage":"greenRiverBlue","historic":"greenRiverBlue","current":"greenRiverBlue","recovery":"recoveryWatch","lineageLabel":"Green River / blue-lineage CT","atlas_context":"cutthroat_lineage_context"}},{"type":"Feature","geometry":{"type":"LineString","coordinates":[[-108.3178,40.2095],[-108.3203,40.2094],[-108.3206,40.2086]]},"properties":{"name":"Crooked Wash","display_name":"Crooked Wash","source_name":"Crooked Wash","state":"CO","atlas_class":"named_natural_stream_detail","huc8":"14050005","huc8Name":"Upper White","lineageKey":"greenRiverBlue","lineage":"greenRiverBlue","historic":"greenRiverBlue","current":"greenRiverBlue","recovery":"recoveryWatch","lineageLabel":"Green River / blue-lineage CT","atlas_context":"cutthroat_lineage_context"}},{"type":"Feature","geometry":{"type":"LineString","coordinates":[[-108.3148,40.22],[-108.3139,40.2186]]},"properties":{"name":"Crooked Wash","display_name":"Crooked Wash","source_name":"Crooked Wash","state":"CO","atlas_class":"named_natural_stream_detail","huc8":"14050005","huc8Name":"Upper White","lineageKey":"greenRiverBlue","lineage":"greenRiverBlue","historic":"greenRiverBlue","current":"greenRiverBlue","recovery":"recoveryWatch","lineageLabel":"Green River / blue-lineage CT","atlas_context":"cutthroat_lineage_context"}},{"type":"Feature","geometry":{"type":"LineString","coordinates":[[-108.3269,40.203],[-108.3286,40.2028]]},"properties":{"name":"Crooked Wash","display_name":"Crooked Wash","source_name":"Crooked Wash","state":"CO","atlas_class":"named_natural_stream_detail","huc8":"14050005","huc8Name":"Upper White","lineageKey":"greenRiverBlue","lineage":"greenRiverBlue","historic":"greenRiverBlue","current":"greenRiverBlue","recovery":"recoveryWatch","lineageLabel":"Green River / blue-lineage CT","atlas_context":"cutthroat_lineage_context"}},{"type":"Feature","geometry":{"type":"LineString","coordinates":[[-108.3212,40.2075],[-108.3216,40.2073]]},"properties":{"name":"Crooked Wash","display_name":"Crooked Wash","source_name":"Crooked Wash","state":"CO","atlas_class":"named_natural_stream_detail","huc8":"14050005","huc8Name":"Upper White","lineageKey":"greenRiverBlue","lineage":"greenRiverBlue","historic":"greenRiverBlue","current":"greenRiverBlue","recovery":"recoveryWatch","lineageLabel":"Green River / blue-lineage CT","atlas_context":"cutthroat_lineage_context"}},{"type":"Feature","geometry":{"type":"LineString","coordinates":[[-108.3228,40.2065],[-108.3232,40.2067]]},"properties":{"name":"Crooked Wash","display_name":"Crooked Wash","source_name":"Crooked Wash","state":"CO","atlas_class":"named_natural_stream_detail","huc8":"14050005","huc8Name":"Upper White","lineageKey":"greenRiverBlue","lineage":"greenRiverBlue","historic":"greenRiverBlue","current":"greenRiverBlue","recovery":"recoveryWatch","lineageLabel":"Green River / blue-lineage CT","atlas_context":"cutthroat_lineage_context"}},{"type":"Feature","geometry":{"type":"LineString","coordinates":[[-108.3123,40.2402],[-108.3122,40.2401]]},"properties":{"name":"Crooked Wash","display_name":"Crooked Wash","source_name":"Crooked Wash","state":"CO","atlas_class":"named_natural_stream_detail","huc8":"14050005","huc8Name":"Upper White","lineageKey":"greenRiverBlue","lineage":"greenRiverBlue","historic":"greenRiverBlue","current":"greenRiverBlue","recovery":"recoveryWatch","lineageLabel":"Green River / blue-lineage CT","atlas_context":"cutthroat_lineage_context"}},{"type":"Feature","geometry":{"type":"LineString","coordinates":[[-108.3217,40.2072],[-108.3228,40.2065]]},"properties":{"name":"Crooked Wash","display_name":"Crooked Wash","source_name":"Crooked Wash","state":"CO","atlas_class":"named_natural_stream_detail","huc8":"14050005","huc8Name":"Upper White","lineageKey":"greenRiverBlue","lineage":"greenRiverBlue","historic":"greenRiverBlue","current":"greenRiverBlue","recovery":"recoveryWatch","lineageLabel":"Green River / blue-lineage CT","atlas_context":"cutthroat_lineage_context"}},{"type":"Feature","geometry":{"type":"LineString","coordinates":[[-108.3146,40.2217],[-108.3145,40.2216]]},"properties":{"name":"Crooked Wash","display_name":"Crooked Wash","source_name":"Crooked Wash","state":"CO","atlas_class":"named_natural_stream_detail","huc8":"14050005","huc8Name":"Upper White","lineageKey":"greenRiverBlue","lineage":"greenRiverBlue","historic":"greenRiverBlue","current":"greenRiverBlue","recovery":"recoveryWatch","lineageLabel":"Green River / blue-lineage CT","atlas_context":"cutthroat_lineage_context"}},{"type":"Feature","geometry":{"type":"LineString","coordinates":[[-108.3102,40.241],[-108.3123,40.2402]]},"properties":{"name":"Crooked Wash","display_name":"Crooked Wash","source_name":"Crooked Wash","state":"CO","atlas_class":"named_natural_stream_detail","huc8":"14050005","huc8Name":"Upper White","lineageKey":"greenRiverBlue","lineage":"greenRiverBlue","historic":"greenRiverBlue","current":"greenRiverBlue","recovery":"recoveryWatch","lineageLabel":"Green River / blue-lineage CT","atlas_context":"cutthroat_lineage_context"}},{"type":"Feature","geometry":{"type":"LineString","coordinates":[[-108.3139,40.218],[-108.3144,40.2172]]},"properties":{"name":"Crooked Wash","display_name":"Crooked Wash","source_name":"Crooked Wash","state":"CO","atlas_class":"named_natural_stream_detail","huc8":"14050005","huc8Name":"Upper White","lineageKey":"greenRiverBlue","lineage":"greenRiverBlue","historic":"greenRiverBlue","current":"greenRiverBlue","recovery":"recoveryWatch","lineageLabel":"Green River / blue-lineage CT","atlas_context":"cutthroat_lineage_context"}},{"type":"Feature","geometry":{"type":"LineString","coordinates":[[-108.3167,40.2221],[-108.3154,40.2217]]},"properties":{"name":"Crooked Wash","display_name":"Crooked Wash","source_name":"Crooked Wash","state":"CO","atlas_class":"named_natural_stream_detail","huc8":"14050005","huc8Name":"Upper White","lineageKey":"greenRiverBlue","lineage":"greenRiverBlue","historic":"greenRiverBlue","current":"greenRiverBlue","recovery":"recoveryWatch","lineageLabel":"Green River / blue-lineage CT","atlas_context":"cutthroat_lineage_context"}},{"type":"Feature","geometry":{"type":"LineString","coordinates":[[-108.3149,40.2167],[-108.3152,40.2145],[-108.3165,40.2139],[-108.3168,40.2099]]},"properties":{"name":"Crooked Wash","display_name":"Crooked Wash","source_name":"Crooked Wash","state":"CO","atlas_class":"named_natural_stream_detail","huc8":"14050005","huc8Name":"Upper White","lineageKey":"greenRiverBlue","lineage":"greenRiverBlue","historic":"greenRiverBlue","current":"greenRiverBlue","recovery":"recoveryWatch","lineageLabel":"Green River / blue-lineage CT","atlas_context":"cutthroat_lineage_context"}},{"type":"Feature","geometry":{"type":"LineString","coordinates":[[-108.3237,40.2071],[-108.3258,40.2057],[-108.3241,40.2048],[-108.3232,40.2022]]},"properties":{"name":"Crooked Wash","display_name":"Crooked Wash","source_name":"Crooked Wash","state":"CO","atlas_class":"named_natural_stream_detail","huc8":"14050005","huc8Name":"Upper White","lineageKey":"greenRiverBlue","lineage":"greenRiverBlue","historic":"greenRiverBlue","current":"greenRiverBlue","recovery":"recoveryWatch","lineageLabel":"Green River / blue-lineage CT","atlas_context":"cutthroat_lineage_context"}},{"type":"Feature","geometry":{"type":"LineString","coordinates":[[-108.314,40.2279],[-108.3159,40.2267]]},"properties":{"name":"Crooked Wash","display_name":"Crooked Wash","source_name":"Crooked Wash","state":"CO","atlas_class":"named_natural_stream_detail","huc8":"14050005","huc8Name":"Upper White","lineageKey":"greenRiverBlue","lineage":"greenRiverBlue","historic":"greenRiverBlue","current":"greenRiverBlue","recovery":"recoveryWatch","lineageLabel":"Green River / blue-lineage CT","atlas_context":"cutthroat_lineage_context"}},{"type":"Feature","geometry":{"type":"LineString","coordinates":[[-108.3306,40.2002],[-108.332,40.1984]]},"properties":{"name":"Crooked Wash","display_name":"Crooked Wash","source_name":"Crooked Wash","state":"CO","atlas_class":"named_natural_stream_detail","huc8":"14050005","huc8Name":"Upper White","lineageKey":"greenRiverBlue","lineage":"greenRiverBlue","historic":"greenRiverBlue","current":"greenRiverBlue","recovery":"recoveryWatch","lineageLabel":"Green River / blue-lineage CT","atlas_context":"cutthroat_lineage_context"}}]}