{"type":"FeatureCollection","metadata":{"source":"C:\\ct-atlas-data\\processed\\geojson\\interpreted\\colorado_named_natural_streams_complete_v1.geojson","type":"colorado-natural-stream-detail-tile-v2","tile_size_degrees":0.2,"x":-530,"y":194,"bounds":{"west":-106,"south":38.8,"east":-105.8,"north":39}},"features":[{"type":"Feature","geometry":{"type":"LineString","coordinates":[[-105.9472,38.9509],[-105.9434,38.9534]]},"properties":{"name":"Salt Creek","display_name":"Salt Creek","source_name":"Salt Creek","state":"CO","atlas_class":"named_natural_stream_detail","huc8":"10190001","huc8Name":"South Platte Headwaters","lineageKey":"greenback","lineage":"greenback","historic":"greenback","current":"greenback","recovery":"recoveryWatch","lineageLabel":"Greenback / South Platte lineage","atlas_context":"cutthroat_lineage_context"}},{"type":"Feature","geometry":{"type":"LineString","coordinates":[[-105.9434,38.9534],[-105.9432,38.9541]]},"properties":{"name":"Salt Creek","display_name":"Salt Creek","source_name":"Salt Creek","state":"CO","atlas_class":"named_natural_stream_detail","huc8":"10190001","huc8Name":"South Platte Headwaters","lineageKey":"greenback","lineage":"greenback","historic":"greenback","current":"greenback","recovery":"recoveryWatch","lineageLabel":"Greenback / South Platte lineage","atlas_context":"cutthroat_lineage_context"}},{"type":"Feature","geometry":{"type":"LineString","coordinates":[[-105.9993,38.9808],[-105.9966,38.9815],[-105.9945,38.9808]]},"properties":{"name":"Spring Creek","display_name":"Spring Creek","source_name":"Spring Creek","state":"CO","atlas_class":"named_natural_stream_detail","huc8":"10190001","huc8Name":"South Platte Headwaters","lineageKey":"greenback","lineage":"greenback","historic":"greenback","current":"greenback","recovery":"recoveryWatch","lineageLabel":"Greenback / South Platte lineage","atlas_context":"cutthroat_lineage_context"}},{"type":"Feature","geometry":{"type":"LineString","coordinates":[[-105.921,38.9671],[-105.9187,38.9694]]},"properties":{"name":"Salt Creek","display_name":"Salt Creek","source_name":"Salt Creek","state":"CO","atlas_class":"named_natural_stream_detail","huc8":"10190001","huc8Name":"South Platte Headwaters","lineageKey":"greenback","lineage":"greenback","historic":"greenback","current":"greenback","recovery":"recoveryWatch","lineageLabel":"Greenback / South Platte lineage","atlas_context":"cutthroat_lineage_context"}},{"type":"Feature","geometry":{"type":"LineString","coordinates":[[-105.9559,38.9883],[-105.95,38.993]]},"properties":{"name":"Buffalo Creek","display_name":"Buffalo Creek","source_name":"Buffalo Creek","state":"CO","atlas_class":"named_natural_stream_detail","huc8":"10190001","huc8Name":"South Platte Headwaters","lineageKey":"greenback","lineage":"greenback","historic":"greenback","current":"greenback","recovery":"recoveryWatch","lineageLabel":"Greenback / South Platte lineage","atlas_context":"cutthroat_lineage_context"}},{"type":"Feature","geometry":{"type":"LineString","coordinates":[[-105.8373,38.893],[-105.8364,38.8968],[-105.8389,38.8992],[-105.8385,38.9004]]},"properties":{"name":"Agate Creek","display_name":"Agate Creek","source_name":"Agate Creek","state":"CO","atlas_class":"named_natural_stream_detail","huc8":"10190001","huc8Name":"South Platte Headwaters","lineageKey":"greenback","lineage":"greenback","historic":"greenback","current":"greenback","recovery":"recoveryWatch","lineageLabel":"Greenback / South Platte lineage","atlas_context":"cutthroat_lineage_context"}},{"type":"Feature","geometry":{"type":"LineString","coordinates":[[-105.7794,38.8287],[-105.7878,38.8296],[-105.7922,38.8309],[-105.7961,38.8304],[-105.8001,38.8311]]},"properties":{"name":"Agate Creek","display_name":"Agate Creek","source_name":"Agate Creek","state":"CO","atlas_class":"named_natural_stream_detail","huc8":"10190001","huc8Name":"South Platte Headwaters","lineageKey":"greenback","lineage":"greenback","historic":"greenback","current":"greenback","recovery":"recoveryWatch","lineageLabel":"Greenback / South Platte lineage","atlas_context":"cutthroat_lineage_context"}},{"type":"Feature","geometry":{"type":"LineString","coordinates":[[-105.8303,38.8557],[-105.831,38.8569]]},"properties":{"name":"Agate Creek","display_name":"Agate Creek","source_name":"Agate Creek","state":"CO","atlas_class":"named_natural_stream_detail","huc8":"10190001","huc8Name":"South Platte Headwaters","lineageKey":"greenback","lineage":"greenback","historic":"greenback","current":"greenback","recovery":"recoveryWatch","lineageLabel":"Greenback / South Platte lineage","atlas_context":"cutthroat_lineage_context"}},{"type":"Feature","geometry":{"type":"LineString","coordinates":[[-105.9889,38.9787],[-105.987,38.9774],[-105.9832,38.9769]]},"properties":{"name":"Spring Creek","display_name":"Spring Creek","source_name":"Spring Creek","state":"CO","atlas_class":"named_natural_stream_detail","huc8":"10190001","huc8Name":"South Platte Headwaters","lineageKey":"greenback","lineage":"greenback","historic":"greenback","current":"greenback","recovery":"recoveryWatch","lineageLabel":"Greenback / South Platte lineage","atlas_context":"cutthroat_lineage_context"}},{"type":"Feature","geometry":{"type":"LineString","coordinates":[[-105.9969,38.9895],[-105.9908,38.9865]]},"properties":{"name":"Pony Creek","display_name":"Pony Creek","source_name":"Pony Creek","state":"CO","atlas_class":"named_natural_stream_detail","huc8":"10190001","huc8Name":"South Platte Headwaters","lineageKey":"greenback","lineage":"greenback","historic":"greenback","current":"greenback","recovery":"recoveryWatch","lineageLabel":"Greenback / South Platte lineage","atlas_context":"cutthroat_lineage_context"}},{"type":"Feature","geometry":{"type":"LineString","coordinates":[[-105.8459,38.9606],[-105.8474,38.9655],[-105.8468,38.969],[-105.8473,38.9716]]},"properties":{"name":"Agate Creek","display_name":"Agate Creek","source_name":"Agate Creek","state":"CO","atlas_class":"named_natural_stream_detail","huc8":"10190001","huc8Name":"South Platte Headwaters","lineageKey":"greenback","lineage":"greenback","historic":"greenback","current":"greenback","recovery":"recoveryWatch","lineageLabel":"Greenback / South Platte lineage","atlas_context":"cutthroat_lineage_context"}},{"type":"Feature","geometry":{"type":"LineString","coordinates":[[-105.8154,38.8389],[-105.8166,38.8398],[-105.8161,38.8403],[-105.8168,38.8405],[-105.8165,38.8424]]},"properties":{"name":"Agate Creek","display_name":"Agate Creek","source_name":"Agate Creek","state":"CO","atlas_class":"named_natural_stream_detail","huc8":"10190001","huc8Name":"South Platte Headwaters","lineageKey":"greenback","lineage":"greenback","historic":"greenback","current":"greenback","recovery":"recoveryWatch","lineageLabel":"Greenback / South Platte lineage","atlas_context":"cutthroat_lineage_context"}},{"type":"Feature","geometry":{"type":"LineString","coordinates":[[-105.9236,38.9646],[-105.9227,38.9657]]},"properties":{"name":"Salt Creek","display_name":"Salt Creek","source_name":"Salt Creek","state":"CO","atlas_class":"named_natural_stream_detail","huc8":"10190001","huc8Name":"South Platte Headwaters","lineageKey":"greenback","lineage":"greenback","historic":"greenback","current":"greenback","recovery":"recoveryWatch","lineageLabel":"Greenback / South Platte lineage","atlas_context":"cutthroat_lineage_context"}},{"type":"Feature","geometry":{"type":"LineString","coordinates":[[-105.8314,38.8579],[-105.833,38.8591]]},"properties":{"name":"Agate Creek","display_name":"Agate Creek","source_name":"Agate Creek","state":"CO","atlas_class":"named_natural_stream_detail","huc8":"10190001","huc8Name":"South Platte Headwaters","lineageKey":"greenback","lineage":"greenback","historic":"greenback","current":"greenback","recovery":"recoveryWatch","lineageLabel":"Greenback / South Platte lineage","atlas_context":"cutthroat_lineage_context"}},{"type":"Feature","geometry":{"type":"LineString","coordinates":[[-105.839,38.8762],[-105.8395,38.8776],[-105.8368,38.8814],[-105.8381,38.8859]]},"properties":{"name":"Agate Creek","display_name":"Agate Creek","source_name":"Agate Creek","state":"CO","atlas_class":"named_natural_stream_detail","huc8":"10190001","huc8Name":"South Platte Headwaters","lineageKey":"greenback","lineage":"greenback","historic":"greenback","current":"greenback","recovery":"recoveryWatch","lineageLabel":"Greenback / South Platte lineage","atlas_context":"cutthroat_lineage_context"}},{"type":"Feature","geometry":{"type":"LineString","coordinates":[[-105.833,38.8591],[-105.8341,38.8596]]},"properties":{"name":"Agate Creek","display_name":"Agate Creek","source_name":"Agate Creek","state":"CO","atlas_class":"named_natural_stream_detail","huc8":"10190001","huc8Name":"South Platte Headwaters","lineageKey":"greenback","lineage":"greenback","historic":"greenback","current":"greenback","recovery":"recoveryWatch","lineageLabel":"Greenback / South Platte lineage","atlas_context":"cutthroat_lineage_context"}},{"type":"Feature","geometry":{"type":"LineString","coordinates":[[-105.9908,38.9865],[-105.99,38.9856],[-105.9864,38.9853]]},"properties":{"name":"Buffalo Creek","display_name":"Buffalo Creek","source_name":"Buffalo Creek","state":"CO","atlas_class":"named_natural_stream_detail","huc8":"10190001","huc8Name":"South Platte Headwaters","lineageKey":"greenback","lineage":"greenback","historic":"greenback","current":"greenback","recovery":"recoveryWatch","lineageLabel":"Greenback / South Platte lineage","atlas_context":"cutthroat_lineage_context"}},{"type":"Feature","geometry":{"type":"LineString","coordinates":[[-105.9829,38.9769],[-105.9824,38.977]]},"properties":{"name":"Spring Creek","display_name":"Spring Creek","source_name":"Spring Creek","state":"CO","atlas_class":"named_natural_stream_detail","huc8":"10190001","huc8Name":"South Platte Headwaters","lineageKey":"greenback","lineage":"greenback","historic":"greenback","current":"greenback","recovery":"recoveryWatch","lineageLabel":"Greenback / South Platte lineage","atlas_context":"cutthroat_lineage_context"}},{"type":"Feature","geometry":{"type":"LineString","coordinates":[[-105.941,38.9562],[-105.9399,38.9562]]},"properties":{"name":"Salt Creek","display_name":"Salt Creek","source_name":"Salt Creek","state":"CO","atlas_class":"named_natural_stream_detail","huc8":"10190001","huc8Name":"South Platte Headwaters","lineageKey":"greenback","lineage":"greenback","historic":"greenback","current":"greenback","recovery":"recoveryWatch","lineageLabel":"Greenback / South Platte lineage","atlas_context":"cutthroat_lineage_context"}},{"type":"Feature","geometry":{"type":"LineString","coordinates":[[-105.8267,38.9406],[-105.8287,38.9427]]},"properties":{"name":"Agate Creek","display_name":"Agate Creek","source_name":"Agate Creek","state":"CO","atlas_class":"named_natural_stream_detail","huc8":"10190001","huc8Name":"South Platte Headwaters","lineageKey":"greenback","lineage":"greenback","historic":"greenback","current":"greenback","recovery":"recoveryWatch","lineageLabel":"Greenback / South Platte lineage","atlas_context":"cutthroat_lineage_context"}},{"type":"Feature","geometry":{"type":"LineString","coordinates":[[-105.8255,38.9246],[-105.8234,38.9261]]},"properties":{"name":"Agate Creek","display_name":"Agate Creek","source_name":"Agate Creek","state":"CO","atlas_class":"named_natural_stream_detail","huc8":"10190001","huc8Name":"South Platte Headwaters","lineageKey":"greenback","lineage":"greenback","historic":"greenback","current":"greenback","recovery":"recoveryWatch","lineageLabel":"Greenback / South Platte lineage","atlas_context":"cutthroat_lineage_context"}},{"type":"Feature","geometry":{"type":"LineString","coordinates":[[-105.8233,38.9278],[-105.8243,38.9284],[-105.824,38.9312],[-105.8258,38.9379],[-105.8251,38.9393],[-105.8267,38.9406]]},"properties":{"name":"Agate Creek","display_name":"Agate Creek","source_name":"Agate Creek","state":"CO","atlas_class":"named_natural_stream_detail","huc8":"10190001","huc8Name":"South Platte Headwaters","lineageKey":"greenback","lineage":"greenback","historic":"greenback","current":"greenback","recovery":"recoveryWatch","lineageLabel":"Greenback / South Platte lineage","atlas_context":"cutthroat_lineage_context"}},{"type":"Feature","geometry":{"type":"LineString","coordinates":[[-106.0025,38.9792],[-105.9993,38.9808]]},"properties":{"name":"Spring Creek","display_name":"Spring Creek","source_name":"Spring Creek","state":"CO","atlas_class":"named_natural_stream_detail","huc8":"10190001","huc8Name":"South Platte Headwaters","lineageKey":"greenback","lineage":"greenback","historic":"greenback","current":"greenback","recovery":"recoveryWatch","lineageLabel":"Greenback / South Platte lineage","atlas_context":"cutthroat_lineage_context"}},{"type":"Feature","geometry":{"type":"LineString","coordinates":[[-105.9945,38.9808],[-105.9936,38.9809]]},"properties":{"name":"Spring Creek","display_name":"Spring Creek","source_name":"Spring Creek","state":"CO","atlas_class":"named_natural_stream_detail","huc8":"10190001","huc8Name":"South Platte Headwaters","lineageKey":"greenback","lineage":"greenback","historic":"greenback","current":"greenback","recovery":"recoveryWatch","lineageLabel":"Greenback / South Platte lineage","atlas_context":"cutthroat_lineage_context"}},{"type":"Feature","geometry":{"type":"LineString","coordinates":[[-105.831,38.8569],[-105.8314,38.8579]]},"properties":{"name":"Agate Creek","display_name":"Agate Creek","source_name":"Agate Creek","state":"CO","atlas_class":"named_natural_stream_detail","huc8":"10190001","huc8Name":"South Platte Headwaters","lineageKey":"greenback","lineage":"greenback","historic":"greenback","current":"greenback","recovery":"recoveryWatch","lineageLabel":"Greenback / South Platte lineage","atlas_context":"cutthroat_lineage_context"}},{"type":"Feature","geometry":{"type":"LineString","coordinates":[[-106.0025,38.992],[-105.9969,38.9895]]},"properties":{"name":"Pony Creek","display_name":"Pony Creek","source_name":"Pony Creek","state":"CO","atlas_class":"named_natural_stream_detail","huc8":"10190001","huc8Name":"South Platte Headwaters","lineageKey":"greenback","lineage":"greenback","historic":"greenback","current":"greenback","recovery":"recoveryWatch","lineageLabel":"Greenback / South Platte lineage","atlas_context":"cutthroat_lineage_context"}},{"type":"Feature","geometry":{"type":"LineString","coordinates":[[-105.9571,38.9842],[-105.9562,38.9854]]},"properties":{"name":"Buffalo Creek","display_name":"Buffalo Creek","source_name":"Buffalo Creek","state":"CO","atlas_class":"named_natural_stream_detail","huc8":"10190001","huc8Name":"South Platte Headwaters","lineageKey":"greenback","lineage":"greenback","historic":"greenback","current":"greenback","recovery":"recoveryWatch","lineageLabel":"Greenback / South Platte lineage","atlas_context":"cutthroat_lineage_context"}},{"type":"Feature","geometry":{"type":"LineString","coordinates":[[-105.9499,38.9986],[-105.9492,38.9978]]},"properties":{"name":"South Fork South Platte River","display_name":"South Fork South Platte River","source_name":"South Fork South Platte River","state":"CO","atlas_class":"named_natural_stream_detail","huc8":"10190001","huc8Name":"South Platte Headwaters","lineageKey":"greenback","lineage":"greenback","historic":"greenback","current":"greenback","recovery":"recoveryWatch","lineageLabel":"Greenback / South Platte lineage","atlas_context":"cutthroat_lineage_context"}},{"type":"Feature","geometry":{"type":"LineString","coordinates":[[-105.9215,38.9669],[-105.921,38.9671]]},"properties":{"name":"Salt Creek","display_name":"Salt Creek","source_name":"Salt Creek","state":"CO","atlas_class":"named_natural_stream_detail","huc8":"10190001","huc8Name":"South Platte Headwaters","lineageKey":"greenback","lineage":"greenback","historic":"greenback","current":"greenback","recovery":"recoveryWatch","lineageLabel":"Greenback / South Platte lineage","atlas_context":"cutthroat_lineage_context"}},{"type":"Feature","geometry":{"type":"LineString","coordinates":[[-105.9824,38.977],[-105.9823,38.9769]]},"properties":{"name":"Spring Creek","display_name":"Spring Creek","source_name":"Spring Creek","state":"CO","atlas_class":"named_natural_stream_detail","huc8":"10190001","huc8Name":"South Platte Headwaters","lineageKey":"greenback","lineage":"greenback","historic":"greenback","current":"greenback","recovery":"recoveryWatch","lineageLabel":"Greenback / South Platte lineage","atlas_context":"cutthroat_lineage_context"}},{"type":"Feature","geometry":{"type":"LineString","coordinates":[[-105.9956,38.9925],[-105.9943,38.9908],[-105.9926,38.9904]]},"properties":{"name":"Buffalo Creek","display_name":"Buffalo Creek","source_name":"Buffalo Creek","state":"CO","atlas_class":"named_natural_stream_detail","huc8":"10190001","huc8Name":"South Platte Headwaters","lineageKey":"greenback","lineage":"greenback","historic":"greenback","current":"greenback","recovery":"recoveryWatch","lineageLabel":"Greenback / South Platte lineage","atlas_context":"cutthroat_lineage_context"}},{"type":"Feature","geometry":{"type":"LineString","coordinates":[[-105.9926,38.9904],[-105.9915,38.9895]]},"properties":{"name":"Buffalo Creek","display_name":"Buffalo Creek","source_name":"Buffalo Creek","state":"CO","atlas_class":"named_natural_stream_detail","huc8":"10190001","huc8Name":"South Platte Headwaters","lineageKey":"greenback","lineage":"greenback","historic":"greenback","current":"greenback","recovery":"recoveryWatch","lineageLabel":"Greenback / South Platte lineage","atlas_context":"cutthroat_lineage_context"}},{"type":"Feature","geometry":{"type":"LineString","coordinates":[[-105.8372,38.8709],[-105.8385,38.8718],[-105.838,38.8735],[-105.839,38.8762]]},"properties":{"name":"Agate Creek","display_name":"Agate Creek","source_name":"Agate Creek","state":"CO","atlas_class":"named_natural_stream_detail","huc8":"10190001","huc8Name":"South Platte Headwaters","lineageKey":"greenback","lineage":"greenback","historic":"greenback","current":"greenback","recovery":"recoveryWatch","lineageLabel":"Greenback / South Platte lineage","atlas_context":"cutthroat_lineage_context"}},{"type":"Feature","geometry":{"type":"LineString","coordinates":[[-105.8364,38.8641],[-105.8353,38.8666],[-105.8372,38.8709]]},"properties":{"name":"Agate Creek","display_name":"Agate Creek","source_name":"Agate Creek","state":"CO","atlas_class":"named_natural_stream_detail","huc8":"10190001","huc8Name":"South Platte Headwaters","lineageKey":"greenback","lineage":"greenback","historic":"greenback","current":"greenback","recovery":"recoveryWatch","lineageLabel":"Greenback / South Platte lineage","atlas_context":"cutthroat_lineage_context"}},{"type":"Feature","geometry":{"type":"LineString","coordinates":[[-105.8383,38.9053],[-105.8388,38.9058]]},"properties":{"name":"Agate Creek","display_name":"Agate Creek","source_name":"Agate Creek","state":"CO","atlas_class":"named_natural_stream_detail","huc8":"10190001","huc8Name":"South Platte Headwaters","lineageKey":"greenback","lineage":"greenback","historic":"greenback","current":"greenback","recovery":"recoveryWatch","lineageLabel":"Greenback / South Platte lineage","atlas_context":"cutthroat_lineage_context"}},{"type":"Feature","geometry":{"type":"LineString","coordinates":[[-105.8408,38.9509],[-105.8457,38.9602]]},"properties":{"name":"Agate Creek","display_name":"Agate Creek","source_name":"Agate Creek","state":"CO","atlas_class":"named_natural_stream_detail","huc8":"10190001","huc8Name":"South Platte Headwaters","lineageKey":"greenback","lineage":"greenback","historic":"greenback","current":"greenback","recovery":"recoveryWatch","lineageLabel":"Greenback / South Platte lineage","atlas_context":"cutthroat_lineage_context"}},{"type":"Feature","geometry":{"type":"LineString","coordinates":[[-105.8369,38.9454],[-105.8388,38.9478]]},"properties":{"name":"Agate Creek","display_name":"Agate Creek","source_name":"Agate Creek","state":"CO","atlas_class":"named_natural_stream_detail","huc8":"10190001","huc8Name":"South Platte Headwaters","lineageKey":"greenback","lineage":"greenback","historic":"greenback","current":"greenback","recovery":"recoveryWatch","lineageLabel":"Greenback / South Platte lineage","atlas_context":"cutthroat_lineage_context"}},{"type":"Feature","geometry":{"type":"LineString","coordinates":[[-105.9662,38.9776],[-105.9639,38.978]]},"properties":{"name":"Spring Creek","display_name":"Spring Creek","source_name":"Spring Creek","state":"CO","atlas_class":"named_natural_stream_detail","huc8":"10190001","huc8Name":"South Platte Headwaters","lineageKey":"greenback","lineage":"greenback","historic":"greenback","current":"greenback","recovery":"recoveryWatch","lineageLabel":"Greenback / South Platte lineage","atlas_context":"cutthroat_lineage_context"}},{"type":"Feature","geometry":{"type":"LineString","coordinates":[[-105.8015,38.8318],[-105.8042,38.8338]]},"properties":{"name":"Agate Creek","display_name":"Agate Creek","source_name":"Agate Creek","state":"CO","atlas_class":"named_natural_stream_detail","huc8":"10190001","huc8Name":"South Platte Headwaters","lineageKey":"greenback","lineage":"greenback","historic":"greenback","current":"greenback","recovery":"recoveryWatch","lineageLabel":"Greenback / South Platte lineage","atlas_context":"cutthroat_lineage_context"}},{"type":"Feature","geometry":{"type":"LineString","coordinates":[[-105.8001,38.8311],[-105.8015,38.8318]]},"properties":{"name":"Agate Creek","display_name":"Agate Creek","source_name":"Agate Creek","state":"CO","atlas_class":"named_natural_stream_detail","huc8":"10190001","huc8Name":"South Platte Headwaters","lineageKey":"greenback","lineage":"greenback","historic":"greenback","current":"greenback","recovery":"recoveryWatch","lineageLabel":"Greenback / South Platte lineage","atlas_context":"cutthroat_lineage_context"}},{"type":"Feature","geometry":{"type":"LineString","coordinates":[[-105.9432,38.9541],[-105.941,38.9562]]},"properties":{"name":"Salt Creek","display_name":"Salt Creek","source_name":"Salt Creek","state":"CO","atlas_class":"named_natural_stream_detail","huc8":"10190001","huc8Name":"South Platte Headwaters","lineageKey":"greenback","lineage":"greenback","historic":"greenback","current":"greenback","recovery":"recoveryWatch","lineageLabel":"Greenback / South Platte lineage","atlas_context":"cutthroat_lineage_context"}},{"type":"Feature","geometry":{"type":"LineString","coordinates":[[-105.9399,38.9562],[-105.9349,38.9576]]},"properties":{"name":"Salt Creek","display_name":"Salt Creek","source_name":"Salt Creek","state":"CO","atlas_class":"named_natural_stream_detail","huc8":"10190001","huc8Name":"South Platte Headwaters","lineageKey":"greenback","lineage":"greenback","historic":"greenback","current":"greenback","recovery":"recoveryWatch","lineageLabel":"Greenback / South Platte lineage","atlas_context":"cutthroat_lineage_context"}},{"type":"Feature","geometry":{"type":"LineString","coordinates":[[-106.0071,38.9576],[-106.0003,38.9583],[-105.9963,38.9573]]},"properties":{"name":"Salt Creek","display_name":"Salt Creek","source_name":"Salt Creek","state":"CO","atlas_class":"named_natural_stream_detail","huc8":"10190001","huc8Name":"South Platte Headwaters","lineageKey":"greenback","lineage":"greenback","historic":"greenback","current":"greenback","recovery":"recoveryWatch","lineageLabel":"Greenback / South Platte lineage","atlas_context":"cutthroat_lineage_context"}},{"type":"Feature","geometry":{"type":"LineString","coordinates":[[-105.9562,38.9854],[-105.955,38.9866],[-105.9559,38.9883]]},"properties":{"name":"Buffalo Creek","display_name":"Buffalo Creek","source_name":"Buffalo Creek","state":"CO","atlas_class":"named_natural_stream_detail","huc8":"10190001","huc8Name":"South Platte Headwaters","lineageKey":"greenback","lineage":"greenback","historic":"greenback","current":"greenback","recovery":"recoveryWatch","lineageLabel":"Greenback / South Platte lineage","atlas_context":"cutthroat_lineage_context"}},{"type":"Feature","geometry":{"type":"LineString","coordinates":[[-105.8165,38.8424],[-105.8197,38.8431],[-105.8206,38.8447]]},"properties":{"name":"Agate Creek","display_name":"Agate Creek","source_name":"Agate Creek","state":"CO","atlas_class":"named_natural_stream_detail","huc8":"10190001","huc8Name":"South Platte Headwaters","lineageKey":"greenback","lineage":"greenback","historic":"greenback","current":"greenback","recovery":"recoveryWatch","lineageLabel":"Greenback / South Platte lineage","atlas_context":"cutthroat_lineage_context"}},{"type":"Feature","geometry":{"type":"LineString","coordinates":[[-105.9708,38.9762],[-105.9677,38.9765],[-105.9662,38.9776]]},"properties":{"name":"Spring Creek","display_name":"Spring Creek","source_name":"Spring Creek","state":"CO","atlas_class":"named_natural_stream_detail","huc8":"10190001","huc8Name":"South Platte Headwaters","lineageKey":"greenback","lineage":"greenback","historic":"greenback","current":"greenback","recovery":"recoveryWatch","lineageLabel":"Greenback / South Platte lineage","atlas_context":"cutthroat_lineage_context"}},{"type":"Feature","geometry":{"type":"LineString","coordinates":[[-105.9591,39.0006],[-105.9582,38.9996],[-105.9555,39.0009],[-105.9538,38.9996],[-105.952,38.9997]]},"properties":{"name":"South Fork South Platte River","display_name":"South Fork South Platte River","source_name":"South Fork South Platte River","state":"CO","atlas_class":"named_natural_stream_detail","huc8":"10190001","huc8Name":"South Platte Headwaters","lineageKey":"greenback","lineage":"greenback","historic":"greenback","current":"greenback","recovery":"recoveryWatch","lineageLabel":"Greenback / South Platte lineage","atlas_context":"cutthroat_lineage_context"}},{"type":"Feature","geometry":{"type":"LineString","coordinates":[[-105.95,38.993],[-105.948,38.9919],[-105.9379,38.9905]]},"properties":{"name":"Buffalo Creek","display_name":"Buffalo Creek","source_name":"Buffalo Creek","state":"CO","atlas_class":"named_natural_stream_detail","huc8":"10190001","huc8Name":"South Platte Headwaters","lineageKey":"greenback","lineage":"greenback","historic":"greenback","current":"greenback","recovery":"recoveryWatch","lineageLabel":"Greenback / South Platte lineage","atlas_context":"cutthroat_lineage_context"}},{"type":"Feature","geometry":{"type":"LineString","coordinates":[[-105.9694,38.9536],[-105.9639,38.9505]]},"properties":{"name":"Salt Creek","display_name":"Salt Creek","source_name":"Salt Creek","state":"CO","atlas_class":"named_natural_stream_detail","huc8":"10190001","huc8Name":"South Platte Headwaters","lineageKey":"greenback","lineage":"greenback","historic":"greenback","current":"greenback","recovery":"recoveryWatch","lineageLabel":"Greenback / South Platte lineage","atlas_context":"cutthroat_lineage_context"}},{"type":"Feature","geometry":{"type":"LineString","coordinates":[[-105.9639,38.9505],[-105.9575,38.9492],[-105.9472,38.9509]]},"properties":{"name":"Salt Creek","display_name":"Salt Creek","source_name":"Salt Creek","state":"CO","atlas_class":"named_natural_stream_detail","huc8":"10190001","huc8Name":"South Platte Headwaters","lineageKey":"greenback","lineage":"greenback","historic":"greenback","current":"greenback","recovery":"recoveryWatch","lineageLabel":"Greenback / South Platte lineage","atlas_context":"cutthroat_lineage_context"}},{"type":"Feature","geometry":{"type":"LineString","coordinates":[[-105.8265,38.848],[-105.8283,38.8506],[-105.8284,38.8528],[-105.8294,38.8534],[-105.8289,38.8542]]},"properties":{"name":"Agate Creek","display_name":"Agate Creek","source_name":"Agate Creek","state":"CO","atlas_class":"named_natural_stream_detail","huc8":"10190001","huc8Name":"South Platte Headwaters","lineageKey":"greenback","lineage":"greenback","historic":"greenback","current":"greenback","recovery":"recoveryWatch","lineageLabel":"Greenback / South Platte lineage","atlas_context":"cutthroat_lineage_context"}},{"type":"Feature","geometry":{"type":"LineString","coordinates":[[-105.9823,38.9769],[-105.9782,38.9757]]},"properties":{"name":"Spring Creek","display_name":"Spring Creek","source_name":"Spring Creek","state":"CO","atlas_class":"named_natural_stream_detail","huc8":"10190001","huc8Name":"South Platte Headwaters","lineageKey":"greenback","lineage":"greenback","historic":"greenback","current":"greenback","recovery":"recoveryWatch","lineageLabel":"Greenback / South Platte lineage","atlas_context":"cutthroat_lineage_context"}},{"type":"Feature","geometry":{"type":"LineString","coordinates":[[-105.9915,38.9895],[-105.9908,38.9865]]},"properties":{"name":"Buffalo Creek","display_name":"Buffalo Creek","source_name":"Buffalo Creek","state":"CO","atlas_class":"named_natural_stream_detail","huc8":"10190001","huc8Name":"South Platte Headwaters","lineageKey":"greenback","lineage":"greenback","historic":"greenback","current":"greenback","recovery":"recoveryWatch","lineageLabel":"Greenback / South Platte lineage","atlas_context":"cutthroat_lineage_context"}},{"type":"Feature","geometry":{"type":"LineString","coordinates":[[-105.8381,38.8859],[-105.8373,38.893]]},"properties":{"name":"Agate Creek","display_name":"Agate Creek","source_name":"Agate Creek","state":"CO","atlas_class":"named_natural_stream_detail","huc8":"10190001","huc8Name":"South Platte Headwaters","lineageKey":"greenback","lineage":"greenback","historic":"greenback","current":"greenback","recovery":"recoveryWatch","lineageLabel":"Greenback / South Platte lineage","atlas_context":"cutthroat_lineage_context"}},{"type":"Feature","geometry":{"type":"LineString","coordinates":[[-105.9832,38.9769],[-105.9829,38.9769]]},"properties":{"name":"Spring Creek","display_name":"Spring Creek","source_name":"Spring Creek","state":"CO","atlas_class":"named_natural_stream_detail","huc8":"10190001","huc8Name":"South Platte Headwaters","lineageKey":"greenback","lineage":"greenback","historic":"greenback","current":"greenback","recovery":"recoveryWatch","lineageLabel":"Greenback / South Platte lineage","atlas_context":"cutthroat_lineage_context"}},{"type":"Feature","geometry":{"type":"LineString","coordinates":[[-105.9349,38.9576],[-105.9304,38.9592],[-105.9279,38.9626],[-105.9236,38.9646]]},"properties":{"name":"Salt Creek","display_name":"Salt Creek","source_name":"Salt Creek","state":"CO","atlas_class":"named_natural_stream_detail","huc8":"10190001","huc8Name":"South Platte Headwaters","lineageKey":"greenback","lineage":"greenback","historic":"greenback","current":"greenback","recovery":"recoveryWatch","lineageLabel":"Greenback / South Platte lineage","atlas_context":"cutthroat_lineage_context"}},{"type":"Feature","geometry":{"type":"LineString","coordinates":[[-106.0189,39.0048],[-106.0054,39.0011],[-106.0003,38.9963],[-105.997,38.9949],[-105.997,38.9936],[-105.9956,38.9925]]},"properties":{"name":"Buffalo Creek","display_name":"Buffalo Creek","source_name":"Buffalo Creek","state":"CO","atlas_class":"named_natural_stream_detail","huc8":"10190001","huc8Name":"South Platte Headwaters","lineageKey":"greenback","lineage":"greenback","historic":"greenback","current":"greenback","recovery":"recoveryWatch","lineageLabel":"Greenback / South Platte lineage","atlas_context":"cutthroat_lineage_context"}},{"type":"Feature","geometry":{"type":"LineString","coordinates":[[-105.8956,38.9935],[-105.8951,38.9935]]},"properties":{"name":"South Fork South Platte River","display_name":"South Fork South Platte River","source_name":"South Fork South Platte River","state":"CO","atlas_class":"named_natural_stream_detail","huc8":"10190001","huc8Name":"South Platte Headwaters","lineageKey":"greenback","lineage":"greenback","historic":"greenback","current":"greenback","recovery":"recoveryWatch","lineageLabel":"Greenback / South Platte lineage","atlas_context":"cutthroat_lineage_context"}},{"type":"Feature","geometry":{"type":"LineString","coordinates":[[-105.8347,38.9458],[-105.8369,38.9454]]},"properties":{"name":"Agate Creek","display_name":"Agate Creek","source_name":"Agate Creek","state":"CO","atlas_class":"named_natural_stream_detail","huc8":"10190001","huc8Name":"South Platte Headwaters","lineageKey":"greenback","lineage":"greenback","historic":"greenback","current":"greenback","recovery":"recoveryWatch","lineageLabel":"Greenback / South Platte lineage","atlas_context":"cutthroat_lineage_context"}},{"type":"Feature","geometry":{"type":"LineString","coordinates":[[-105.8292,38.9433],[-105.8295,38.945],[-105.8309,38.9464],[-105.8331,38.946]]},"properties":{"name":"Agate Creek","display_name":"Agate Creek","source_name":"Agate Creek","state":"CO","atlas_class":"named_natural_stream_detail","huc8":"10190001","huc8Name":"South Platte Headwaters","lineageKey":"greenback","lineage":"greenback","historic":"greenback","current":"greenback","recovery":"recoveryWatch","lineageLabel":"Greenback / South Platte lineage","atlas_context":"cutthroat_lineage_context"}},{"type":"Feature","geometry":{"type":"LineString","coordinates":[[-105.8473,38.9716],[-105.8493,38.9765],[-105.8486,38.9825],[-105.8496,38.9838]]},"properties":{"name":"Agate Creek","display_name":"Agate Creek","source_name":"Agate Creek","state":"CO","atlas_class":"named_natural_stream_detail","huc8":"10190001","huc8Name":"South Platte Headwaters","lineageKey":"greenback","lineage":"greenback","historic":"greenback","current":"greenback","recovery":"recoveryWatch","lineageLabel":"Greenback / South Platte lineage","atlas_context":"cutthroat_lineage_context"}},{"type":"Feature","geometry":{"type":"LineString","coordinates":[[-105.8388,38.9058],[-105.8382,38.9083],[-105.8265,38.9214]]},"properties":{"name":"Agate Creek","display_name":"Agate Creek","source_name":"Agate Creek","state":"CO","atlas_class":"named_natural_stream_detail","huc8":"10190001","huc8Name":"South Platte Headwaters","lineageKey":"greenback","lineage":"greenback","historic":"greenback","current":"greenback","recovery":"recoveryWatch","lineageLabel":"Greenback / South Platte lineage","atlas_context":"cutthroat_lineage_context"}},{"type":"Feature","geometry":{"type":"LineString","coordinates":[[-105.8492,38.9841],[-105.8503,38.987]]},"properties":{"name":"Agate Creek","display_name":"Agate Creek","source_name":"Agate Creek","state":"CO","atlas_class":"named_natural_stream_detail","huc8":"10190001","huc8Name":"South Platte Headwaters","lineageKey":"greenback","lineage":"greenback","historic":"greenback","current":"greenback","recovery":"recoveryWatch","lineageLabel":"Greenback / South Platte lineage","atlas_context":"cutthroat_lineage_context"}},{"type":"Feature","geometry":{"type":"LineString","coordinates":[[-105.974,38.955],[-105.973,38.9554],[-105.9702,38.9533],[-105.9694,38.9536]]},"properties":{"name":"Salt Creek","display_name":"Salt Creek","source_name":"Salt Creek","state":"CO","atlas_class":"named_natural_stream_detail","huc8":"10190001","huc8Name":"South Platte Headwaters","lineageKey":"greenback","lineage":"greenback","historic":"greenback","current":"greenback","recovery":"recoveryWatch","lineageLabel":"Greenback / South Platte lineage","atlas_context":"cutthroat_lineage_context"}},{"type":"Feature","geometry":{"type":"LineString","coordinates":[[-105.9639,38.978],[-105.9636,38.978]]},"properties":{"name":"Spring Creek","display_name":"Spring Creek","source_name":"Spring Creek","state":"CO","atlas_class":"named_natural_stream_detail","huc8":"10190001","huc8Name":"South Platte Headwaters","lineageKey":"greenback","lineage":"greenback","historic":"greenback","current":"greenback","recovery":"recoveryWatch","lineageLabel":"Greenback / South Platte lineage","atlas_context":"cutthroat_lineage_context"}},{"type":"Feature","geometry":{"type":"LineString","coordinates":[[-105.967,38.9835],[-105.9626,38.9837]]},"properties":{"name":"Buffalo Creek","display_name":"Buffalo Creek","source_name":"Buffalo Creek","state":"CO","atlas_class":"named_natural_stream_detail","huc8":"10190001","huc8Name":"South Platte Headwaters","lineageKey":"greenback","lineage":"greenback","historic":"greenback","current":"greenback","recovery":"recoveryWatch","lineageLabel":"Greenback / South Platte lineage","atlas_context":"cutthroat_lineage_context"}},{"type":"Feature","geometry":{"type":"LineString","coordinates":[[-105.9931,38.9573],[-105.9852,38.9558],[-105.9748,38.9557],[-105.974,38.955]]},"properties":{"name":"Salt Creek","display_name":"Salt Creek","source_name":"Salt Creek","state":"CO","atlas_class":"named_natural_stream_detail","huc8":"10190001","huc8Name":"South Platte Headwaters","lineageKey":"greenback","lineage":"greenback","historic":"greenback","current":"greenback","recovery":"recoveryWatch","lineageLabel":"Greenback / South Platte lineage","atlas_context":"cutthroat_lineage_context"}},{"type":"Feature","geometry":{"type":"LineString","coordinates":[[-105.9598,38.9831],[-105.9571,38.9842]]},"properties":{"name":"Buffalo Creek","display_name":"Buffalo Creek","source_name":"Buffalo Creek","state":"CO","atlas_class":"named_natural_stream_detail","huc8":"10190001","huc8Name":"South Platte Headwaters","lineageKey":"greenback","lineage":"greenback","historic":"greenback","current":"greenback","recovery":"recoveryWatch","lineageLabel":"Greenback / South Platte lineage","atlas_context":"cutthroat_lineage_context"}},{"type":"Feature","geometry":{"type":"LineString","coordinates":[[-105.8362,38.8623],[-105.8364,38.8641]]},"properties":{"name":"Agate Creek","display_name":"Agate Creek","source_name":"Agate Creek","state":"CO","atlas_class":"named_natural_stream_detail","huc8":"10190001","huc8Name":"South Platte Headwaters","lineageKey":"greenback","lineage":"greenback","historic":"greenback","current":"greenback","recovery":"recoveryWatch","lineageLabel":"Greenback / South Platte lineage","atlas_context":"cutthroat_lineage_context"}},{"type":"Feature","geometry":{"type":"LineString","coordinates":[[-105.9636,38.978],[-105.9563,38.9788],[-105.9553,38.9811],[-105.9571,38.9842]]},"properties":{"name":"Spring Creek","display_name":"Spring Creek","source_name":"Spring Creek","state":"CO","atlas_class":"named_natural_stream_detail","huc8":"10190001","huc8Name":"South Platte Headwaters","lineageKey":"greenback","lineage":"greenback","historic":"greenback","current":"greenback","recovery":"recoveryWatch","lineageLabel":"Greenback / South Platte lineage","atlas_context":"cutthroat_lineage_context"}},{"type":"Feature","geometry":{"type":"LineString","coordinates":[[-105.9187,38.9694],[-105.9173,38.9719],[-105.9178,38.9736],[-105.9167,38.9757],[-105.9175,38.9775]]},"properties":{"name":"Salt Creek","display_name":"Salt Creek","source_name":"Salt Creek","state":"CO","atlas_class":"named_natural_stream_detail","huc8":"10190001","huc8Name":"South Platte Headwaters","lineageKey":"greenback","lineage":"greenback","historic":"greenback","current":"greenback","recovery":"recoveryWatch","lineageLabel":"Greenback / South Platte lineage","atlas_context":"cutthroat_lineage_context"}},{"type":"Feature","geometry":{"type":"LineString","coordinates":[[-105.8503,38.987],[-105.8558,38.9924],[-105.8618,38.9934],[-105.8634,38.9944],[-105.8642,38.9954],[-105.8641,38.9991]]},"properties":{"name":"Agate Creek","display_name":"Agate Creek","source_name":"Agate Creek","state":"CO","atlas_class":"named_natural_stream_detail","huc8":"10190001","huc8Name":"South Platte Headwaters","lineageKey":"greenback","lineage":"greenback","historic":"greenback","current":"greenback","recovery":"recoveryWatch","lineageLabel":"Greenback / South Platte lineage","atlas_context":"cutthroat_lineage_context"}},{"type":"Feature","geometry":{"type":"LineString","coordinates":[[-105.8265,38.9214],[-105.8255,38.9246]]},"properties":{"name":"Agate Creek","display_name":"Agate Creek","source_name":"Agate Creek","state":"CO","atlas_class":"named_natural_stream_detail","huc8":"10190001","huc8Name":"South Platte Headwaters","lineageKey":"greenback","lineage":"greenback","historic":"greenback","current":"greenback","recovery":"recoveryWatch","lineageLabel":"Greenback / South Platte lineage","atlas_context":"cutthroat_lineage_context"}},{"type":"Feature","geometry":{"type":"LineString","coordinates":[[-105.8234,38.9261],[-105.8233,38.9278]]},"properties":{"name":"Agate Creek","display_name":"Agate Creek","source_name":"Agate Creek","state":"CO","atlas_class":"named_natural_stream_detail","huc8":"10190001","huc8Name":"South Platte Headwaters","lineageKey":"greenback","lineage":"greenback","historic":"greenback","current":"greenback","recovery":"recoveryWatch","lineageLabel":"Greenback / South Platte lineage","atlas_context":"cutthroat_lineage_context"}},{"type":"Feature","geometry":{"type":"LineString","coordinates":[[-105.9782,38.9757],[-105.9747,38.9751],[-105.9708,38.9762]]},"properties":{"name":"Spring Creek","display_name":"Spring Creek","source_name":"Spring Creek","state":"CO","atlas_class":"named_natural_stream_detail","huc8":"10190001","huc8Name":"South Platte Headwaters","lineageKey":"greenback","lineage":"greenback","historic":"greenback","current":"greenback","recovery":"recoveryWatch","lineageLabel":"Greenback / South Platte lineage","atlas_context":"cutthroat_lineage_context"}},{"type":"Feature","geometry":{"type":"LineString","coordinates":[[-105.9756,38.9843],[-105.9697,38.9846],[-105.967,38.9835]]},"properties":{"name":"Buffalo Creek","display_name":"Buffalo Creek","source_name":"Buffalo Creek","state":"CO","atlas_class":"named_natural_stream_detail","huc8":"10190001","huc8Name":"South Platte Headwaters","lineageKey":"greenback","lineage":"greenback","historic":"greenback","current":"greenback","recovery":"recoveryWatch","lineageLabel":"Greenback / South Platte lineage","atlas_context":"cutthroat_lineage_context"}},{"type":"Feature","geometry":{"type":"LineString","coordinates":[[-105.9963,38.9573],[-105.9943,38.9574]]},"properties":{"name":"Salt Creek","display_name":"Salt Creek","source_name":"Salt Creek","state":"CO","atlas_class":"named_natural_stream_detail","huc8":"10190001","huc8Name":"South Platte Headwaters","lineageKey":"greenback","lineage":"greenback","historic":"greenback","current":"greenback","recovery":"recoveryWatch","lineageLabel":"Greenback / South Platte lineage","atlas_context":"cutthroat_lineage_context"}},{"type":"Feature","geometry":{"type":"LineString","coordinates":[[-105.8388,38.9478],[-105.8391,38.9486]]},"properties":{"name":"Agate Creek","display_name":"Agate Creek","source_name":"Agate Creek","state":"CO","atlas_class":"named_natural_stream_detail","huc8":"10190001","huc8Name":"South Platte Headwaters","lineageKey":"greenback","lineage":"greenback","historic":"greenback","current":"greenback","recovery":"recoveryWatch","lineageLabel":"Greenback / South Platte lineage","atlas_context":"cutthroat_lineage_context"}},{"type":"Feature","geometry":{"type":"LineString","coordinates":[[-105.952,38.9997],[-105.9499,38.9986]]},"properties":{"name":"South Fork South Platte River","display_name":"South Fork South Platte River","source_name":"South Fork South Platte River","state":"CO","atlas_class":"named_natural_stream_detail","huc8":"10190001","huc8Name":"South Platte Headwaters","lineageKey":"greenback","lineage":"greenback","historic":"greenback","current":"greenback","recovery":"recoveryWatch","lineageLabel":"Greenback / South Platte lineage","atlas_context":"cutthroat_lineage_context"}},{"type":"Feature","geometry":{"type":"LineString","coordinates":[[-105.9492,38.9978],[-105.9452,38.996]]},"properties":{"name":"South Fork South Platte River","display_name":"South Fork South Platte River","source_name":"South Fork South Platte River","state":"CO","atlas_class":"named_natural_stream_detail","huc8":"10190001","huc8Name":"South Platte Headwaters","lineageKey":"greenback","lineage":"greenback","historic":"greenback","current":"greenback","recovery":"recoveryWatch","lineageLabel":"Greenback / South Platte lineage","atlas_context":"cutthroat_lineage_context"}},{"type":"Feature","geometry":{"type":"LineString","coordinates":[[-105.8341,38.8596],[-105.8362,38.8623]]},"properties":{"name":"Agate Creek","display_name":"Agate Creek","source_name":"Agate Creek","state":"CO","atlas_class":"named_natural_stream_detail","huc8":"10190001","huc8Name":"South Platte Headwaters","lineageKey":"greenback","lineage":"greenback","historic":"greenback","current":"greenback","recovery":"recoveryWatch","lineageLabel":"Greenback / South Platte lineage","atlas_context":"cutthroat_lineage_context"}},{"type":"Feature","geometry":{"type":"LineString","coordinates":[[-105.8381,38.9047],[-105.8383,38.9053]]},"properties":{"name":"Agate Creek","display_name":"Agate Creek","source_name":"Agate Creek","state":"CO","atlas_class":"named_natural_stream_detail","huc8":"10190001","huc8Name":"South Platte Headwaters","lineageKey":"greenback","lineage":"greenback","historic":"greenback","current":"greenback","recovery":"recoveryWatch","lineageLabel":"Greenback / South Platte lineage","atlas_context":"cutthroat_lineage_context"}},{"type":"Feature","geometry":{"type":"LineString","coordinates":[[-105.7969,38.8272],[-105.7982,38.8298],[-105.8001,38.8311]]},"properties":{"name":"Little Agate Creek","display_name":"Little Agate Creek","source_name":"Little Agate Creek","state":"CO","atlas_class":"named_natural_stream_detail","huc8":"10190001","huc8Name":"South Platte Headwaters","lineageKey":"greenback","lineage":"greenback","historic":"greenback","current":"greenback","recovery":"recoveryWatch","lineageLabel":"Greenback / South Platte lineage","atlas_context":"cutthroat_lineage_context"}},{"type":"Feature","geometry":{"type":"LineString","coordinates":[[-105.9943,38.9574],[-105.9931,38.9573]]},"properties":{"name":"Salt Creek","display_name":"Salt Creek","source_name":"Salt Creek","state":"CO","atlas_class":"named_natural_stream_detail","huc8":"10190001","huc8Name":"South Platte Headwaters","lineageKey":"greenback","lineage":"greenback","historic":"greenback","current":"greenback","recovery":"recoveryWatch","lineageLabel":"Greenback / South Platte lineage","atlas_context":"cutthroat_lineage_context"}},{"type":"Feature","geometry":{"type":"LineString","coordinates":[[-105.9936,38.9809],[-105.9904,38.9791]]},"properties":{"name":"Spring Creek","display_name":"Spring Creek","source_name":"Spring Creek","state":"CO","atlas_class":"named_natural_stream_detail","huc8":"10190001","huc8Name":"South Platte Headwaters","lineageKey":"greenback","lineage":"greenback","historic":"greenback","current":"greenback","recovery":"recoveryWatch","lineageLabel":"Greenback / South Platte lineage","atlas_context":"cutthroat_lineage_context"}},{"type":"Feature","geometry":{"type":"LineString","coordinates":[[-105.9904,38.9791],[-105.9889,38.9787]]},"properties":{"name":"Spring Creek","display_name":"Spring Creek","source_name":"Spring Creek","state":"CO","atlas_class":"named_natural_stream_detail","huc8":"10190001","huc8Name":"South Platte Headwaters","lineageKey":"greenback","lineage":"greenback","historic":"greenback","current":"greenback","recovery":"recoveryWatch","lineageLabel":"Greenback / South Platte lineage","atlas_context":"cutthroat_lineage_context"}},{"type":"Feature","geometry":{"type":"LineString","coordinates":[[-105.9835,38.9843],[-105.9798,38.9849],[-105.9756,38.9843]]},"properties":{"name":"Buffalo Creek","display_name":"Buffalo Creek","source_name":"Buffalo Creek","state":"CO","atlas_class":"named_natural_stream_detail","huc8":"10190001","huc8Name":"South Platte Headwaters","lineageKey":"greenback","lineage":"greenback","historic":"greenback","current":"greenback","recovery":"recoveryWatch","lineageLabel":"Greenback / South Platte lineage","atlas_context":"cutthroat_lineage_context"}},{"type":"Feature","geometry":{"type":"LineString","coordinates":[[-105.8289,38.8542],[-105.8303,38.8557]]},"properties":{"name":"Agate Creek","display_name":"Agate Creek","source_name":"Agate Creek","state":"CO","atlas_class":"named_natural_stream_detail","huc8":"10190001","huc8Name":"South Platte Headwaters","lineageKey":"greenback","lineage":"greenback","historic":"greenback","current":"greenback","recovery":"recoveryWatch","lineageLabel":"Greenback / South Platte lineage","atlas_context":"cutthroat_lineage_context"}},{"type":"Feature","geometry":{"type":"LineString","coordinates":[[-105.8206,38.8447],[-105.8214,38.8463],[-105.8238,38.8475]]},"properties":{"name":"Agate Creek","display_name":"Agate Creek","source_name":"Agate Creek","state":"CO","atlas_class":"named_natural_stream_detail","huc8":"10190001","huc8Name":"South Platte Headwaters","lineageKey":"greenback","lineage":"greenback","historic":"greenback","current":"greenback","recovery":"recoveryWatch","lineageLabel":"Greenback / South Platte lineage","atlas_context":"cutthroat_lineage_context"}},{"type":"Feature","geometry":{"type":"LineString","coordinates":[[-105.9227,38.9657],[-105.9215,38.9669]]},"properties":{"name":"Salt Creek","display_name":"Salt Creek","source_name":"Salt Creek","state":"CO","atlas_class":"named_natural_stream_detail","huc8":"10190001","huc8Name":"South Platte Headwaters","lineageKey":"greenback","lineage":"greenback","historic":"greenback","current":"greenback","recovery":"recoveryWatch","lineageLabel":"Greenback / South Platte lineage","atlas_context":"cutthroat_lineage_context"}},{"type":"Feature","geometry":{"type":"LineString","coordinates":[[-105.8042,38.8338],[-105.8109,38.8352],[-105.8108,38.8345],[-105.813,38.8345],[-105.8161,38.8372],[-105.8152,38.8376],[-105.8154,38.8389]]},"properties":{"name":"Agate Creek","display_name":"Agate Creek","source_name":"Agate Creek","state":"CO","atlas_class":"named_natural_stream_detail","huc8":"10190001","huc8Name":"South Platte Headwaters","lineageKey":"greenback","lineage":"greenback","historic":"greenback","current":"greenback","recovery":"recoveryWatch","lineageLabel":"Greenback / South Platte lineage","atlas_context":"cutthroat_lineage_context"}},{"type":"Feature","geometry":{"type":"LineString","coordinates":[[-105.8238,38.8475],[-105.8265,38.848]]},"properties":{"name":"Agate Creek","display_name":"Agate Creek","source_name":"Agate Creek","state":"CO","atlas_class":"named_natural_stream_detail","huc8":"10190001","huc8Name":"South Platte Headwaters","lineageKey":"greenback","lineage":"greenback","historic":"greenback","current":"greenback","recovery":"recoveryWatch","lineageLabel":"Greenback / South Platte lineage","atlas_context":"cutthroat_lineage_context"}},{"type":"Feature","geometry":{"type":"LineString","coordinates":[[-105.9864,38.9853],[-105.9835,38.9843]]},"properties":{"name":"Buffalo Creek","display_name":"Buffalo Creek","source_name":"Buffalo Creek","state":"CO","atlas_class":"named_natural_stream_detail","huc8":"10190001","huc8Name":"South Platte Headwaters","lineageKey":"greenback","lineage":"greenback","historic":"greenback","current":"greenback","recovery":"recoveryWatch","lineageLabel":"Greenback / South Platte lineage","atlas_context":"cutthroat_lineage_context"}},{"type":"Feature","geometry":{"type":"LineString","coordinates":[[-105.9891,38.839],[-105.9914,38.8389]]},"properties":{"name":"Trout Creek","display_name":"Trout Creek","source_name":"Trout Creek","state":"CO","atlas_class":"named_natural_stream_detail","huc8":"11020001","huc8Name":"Arkansas Headwaters","lineageKey":"yellowfin","lineage":"yellowfin","historic":"yellowfin","current":"yellowfin","recovery":"recoveryWatch","lineageLabel":"Yellowfin / Arkansas headwaters historical form","atlas_context":"cutthroat_lineage_context"}},{"type":"Feature","geometry":{"type":"LineString","coordinates":[[-105.9866,38.8594],[-105.9853,38.8561],[-105.9829,38.8539]]},"properties":{"name":"Trout Creek","display_name":"Trout Creek","source_name":"Trout Creek","state":"CO","atlas_class":"named_natural_stream_detail","huc8":"11020001","huc8Name":"Arkansas Headwaters","lineageKey":"yellowfin","lineage":"yellowfin","historic":"yellowfin","current":"yellowfin","recovery":"recoveryWatch","lineageLabel":"Yellowfin / Arkansas headwaters historical form","atlas_context":"cutthroat_lineage_context"}},{"type":"Feature","geometry":{"type":"LineString","coordinates":[[-105.9909,38.8759],[-105.9906,38.8756]]},"properties":{"name":"Trout Creek","display_name":"Trout Creek","source_name":"Trout Creek","state":"CO","atlas_class":"named_natural_stream_detail","huc8":"11020001","huc8Name":"Arkansas Headwaters","lineageKey":"yellowfin","lineage":"yellowfin","historic":"yellowfin","current":"yellowfin","recovery":"recoveryWatch","lineageLabel":"Yellowfin / Arkansas headwaters historical form","atlas_context":"cutthroat_lineage_context"}},{"type":"Feature","geometry":{"type":"LineString","coordinates":[[-105.9983,38.8375],[-105.9993,38.8376]]},"properties":{"name":"Trout Creek","display_name":"Trout Creek","source_name":"Trout Creek","state":"CO","atlas_class":"named_natural_stream_detail","huc8":"11020001","huc8Name":"Arkansas Headwaters","lineageKey":"yellowfin","lineage":"yellowfin","historic":"yellowfin","current":"yellowfin","recovery":"recoveryWatch","lineageLabel":"Yellowfin / Arkansas headwaters historical form","atlas_context":"cutthroat_lineage_context"}},{"type":"Feature","geometry":{"type":"LineString","coordinates":[[-105.988,38.8393],[-105.9891,38.839]]},"properties":{"name":"Trout Creek","display_name":"Trout Creek","source_name":"Trout Creek","state":"CO","atlas_class":"named_natural_stream_detail","huc8":"11020001","huc8Name":"Arkansas Headwaters","lineageKey":"yellowfin","lineage":"yellowfin","historic":"yellowfin","current":"yellowfin","recovery":"recoveryWatch","lineageLabel":"Yellowfin / Arkansas headwaters historical form","atlas_context":"cutthroat_lineage_context"}},{"type":"Feature","geometry":{"type":"LineString","coordinates":[[-105.987,38.8438],[-105.9876,38.8425],[-105.987,38.8411],[-105.988,38.8393]]},"properties":{"name":"Trout Creek","display_name":"Trout Creek","source_name":"Trout Creek","state":"CO","atlas_class":"named_natural_stream_detail","huc8":"11020001","huc8Name":"Arkansas Headwaters","lineageKey":"yellowfin","lineage":"yellowfin","historic":"yellowfin","current":"yellowfin","recovery":"recoveryWatch","lineageLabel":"Yellowfin / Arkansas headwaters historical form","atlas_context":"cutthroat_lineage_context"}},{"type":"Feature","geometry":{"type":"LineString","coordinates":[[-106.0011,38.9006],[-106.0001,38.8989],[-105.9983,38.8982]]},"properties":{"name":"Trout Creek","display_name":"Trout Creek","source_name":"Trout Creek","state":"CO","atlas_class":"named_natural_stream_detail","huc8":"11020001","huc8Name":"Arkansas Headwaters","lineageKey":"yellowfin","lineage":"yellowfin","historic":"yellowfin","current":"yellowfin","recovery":"recoveryWatch","lineageLabel":"Yellowfin / Arkansas headwaters historical form","atlas_context":"cutthroat_lineage_context"}},{"type":"Feature","geometry":{"type":"LineString","coordinates":[[-105.8581,38.8068],[-105.8485,38.8041]]},"properties":{"name":"Badger Creek","display_name":"Badger Creek","source_name":"Badger Creek","state":"CO","atlas_class":"named_natural_stream_detail","huc8":"11020001","huc8Name":"Arkansas Headwaters","lineageKey":"yellowfin","lineage":"yellowfin","historic":"yellowfin","current":"yellowfin","recovery":"recoveryWatch","lineageLabel":"Yellowfin / Arkansas headwaters historical form","atlas_context":"cutthroat_lineage_context"}},{"type":"Feature","geometry":{"type":"LineString","coordinates":[[-105.9914,38.8389],[-105.9915,38.8389]]},"properties":{"name":"Trout Creek","display_name":"Trout Creek","source_name":"Trout Creek","state":"CO","atlas_class":"named_natural_stream_detail","huc8":"11020001","huc8Name":"Arkansas Headwaters","lineageKey":"yellowfin","lineage":"yellowfin","historic":"yellowfin","current":"yellowfin","recovery":"recoveryWatch","lineageLabel":"Yellowfin / Arkansas headwaters historical form","atlas_context":"cutthroat_lineage_context"}},{"type":"Feature","geometry":{"type":"LineString","coordinates":[[-105.9906,38.8722],[-105.9908,38.8714]]},"properties":{"name":"Trout Creek","display_name":"Trout Creek","source_name":"Trout Creek","state":"CO","atlas_class":"named_natural_stream_detail","huc8":"11020001","huc8Name":"Arkansas Headwaters","lineageKey":"yellowfin","lineage":"yellowfin","historic":"yellowfin","current":"yellowfin","recovery":"recoveryWatch","lineageLabel":"Yellowfin / Arkansas headwaters historical form","atlas_context":"cutthroat_lineage_context"}},{"type":"Feature","geometry":{"type":"LineString","coordinates":[[-105.9999,38.8908],[-105.9993,38.8902]]},"properties":{"name":"Chubb Creek","display_name":"Chubb Creek","source_name":"Chubb Creek","state":"CO","atlas_class":"named_natural_stream_detail","huc8":"11020001","huc8Name":"Arkansas Headwaters","lineageKey":"yellowfin","lineage":"yellowfin","historic":"yellowfin","current":"yellowfin","recovery":"recoveryWatch","lineageLabel":"Yellowfin / Arkansas headwaters historical form","atlas_context":"cutthroat_lineage_context"}},{"type":"Feature","geometry":{"type":"LineString","coordinates":[[-105.9993,38.8902],[-105.9989,38.8902]]},"properties":{"name":"Chubb Creek","display_name":"Chubb Creek","source_name":"Chubb Creek","state":"CO","atlas_class":"named_natural_stream_detail","huc8":"11020001","huc8Name":"Arkansas Headwaters","lineageKey":"yellowfin","lineage":"yellowfin","historic":"yellowfin","current":"yellowfin","recovery":"recoveryWatch","lineageLabel":"Yellowfin / Arkansas headwaters historical form","atlas_context":"cutthroat_lineage_context"}},{"type":"Feature","geometry":{"type":"LineString","coordinates":[[-105.9042,38.8075],[-105.9038,38.8068],[-105.8971,38.8057],[-105.8932,38.808],[-105.8875,38.8093]]},"properties":{"name":"Badger Creek","display_name":"Badger Creek","source_name":"Badger Creek","state":"CO","atlas_class":"named_natural_stream_detail","huc8":"11020001","huc8Name":"Arkansas Headwaters","lineageKey":"yellowfin","lineage":"yellowfin","historic":"yellowfin","current":"yellowfin","recovery":"recoveryWatch","lineageLabel":"Yellowfin / Arkansas headwaters historical form","atlas_context":"cutthroat_lineage_context"}},{"type":"Feature","geometry":{"type":"LineString","coordinates":[[-105.9955,38.8925],[-105.9952,38.8917],[-105.9968,38.8907]]},"properties":{"name":"Trout Creek","display_name":"Trout Creek","source_name":"Trout Creek","state":"CO","atlas_class":"named_natural_stream_detail","huc8":"11020001","huc8Name":"Arkansas Headwaters","lineageKey":"yellowfin","lineage":"yellowfin","historic":"yellowfin","current":"yellowfin","recovery":"recoveryWatch","lineageLabel":"Yellowfin / Arkansas headwaters historical form","atlas_context":"cutthroat_lineage_context"}},{"type":"Feature","geometry":{"type":"LineString","coordinates":[[-105.9823,38.8521],[-105.9828,38.8491]]},"properties":{"name":"Trout Creek","display_name":"Trout Creek","source_name":"Trout Creek","state":"CO","atlas_class":"named_natural_stream_detail","huc8":"11020001","huc8Name":"Arkansas Headwaters","lineageKey":"yellowfin","lineage":"yellowfin","historic":"yellowfin","current":"yellowfin","recovery":"recoveryWatch","lineageLabel":"Yellowfin / Arkansas headwaters historical form","atlas_context":"cutthroat_lineage_context"}},{"type":"Feature","geometry":{"type":"LineString","coordinates":[[-105.9908,38.8714],[-105.9901,38.8694]]},"properties":{"name":"Trout Creek","display_name":"Trout Creek","source_name":"Trout Creek","state":"CO","atlas_class":"named_natural_stream_detail","huc8":"11020001","huc8Name":"Arkansas Headwaters","lineageKey":"yellowfin","lineage":"yellowfin","historic":"yellowfin","current":"yellowfin","recovery":"recoveryWatch","lineageLabel":"Yellowfin / Arkansas headwaters historical form","atlas_context":"cutthroat_lineage_context"}},{"type":"Feature","geometry":{"type":"LineString","coordinates":[[-105.8738,38.8033],[-105.8698,38.8032],[-105.8659,38.8066],[-105.8581,38.8068]]},"properties":{"name":"Badger Creek","display_name":"Badger Creek","source_name":"Badger Creek","state":"CO","atlas_class":"named_natural_stream_detail","huc8":"11020001","huc8Name":"Arkansas Headwaters","lineageKey":"yellowfin","lineage":"yellowfin","historic":"yellowfin","current":"yellowfin","recovery":"recoveryWatch","lineageLabel":"Yellowfin / Arkansas headwaters historical form","atlas_context":"cutthroat_lineage_context"}},{"type":"Feature","geometry":{"type":"LineString","coordinates":[[-105.8432,38.801],[-105.8408,38.798]]},"properties":{"name":"Badger Creek","display_name":"Badger Creek","source_name":"Badger Creek","state":"CO","atlas_class":"named_natural_stream_detail","huc8":"11020001","huc8Name":"Arkansas Headwaters","lineageKey":"yellowfin","lineage":"yellowfin","historic":"yellowfin","current":"yellowfin","recovery":"recoveryWatch","lineageLabel":"Yellowfin / Arkansas headwaters historical form","atlas_context":"cutthroat_lineage_context"}},{"type":"Feature","geometry":{"type":"LineString","coordinates":[[-105.9939,38.8801],[-105.9921,38.8776]]},"properties":{"name":"Trout Creek","display_name":"Trout Creek","source_name":"Trout Creek","state":"CO","atlas_class":"named_natural_stream_detail","huc8":"11020001","huc8Name":"Arkansas Headwaters","lineageKey":"yellowfin","lineage":"yellowfin","historic":"yellowfin","current":"yellowfin","recovery":"recoveryWatch","lineageLabel":"Yellowfin / Arkansas headwaters historical form","atlas_context":"cutthroat_lineage_context"}},{"type":"Feature","geometry":{"type":"LineString","coordinates":[[-105.9906,38.8756],[-105.9902,38.8741]]},"properties":{"name":"Trout Creek","display_name":"Trout Creek","source_name":"Trout Creek","state":"CO","atlas_class":"named_natural_stream_detail","huc8":"11020001","huc8Name":"Arkansas Headwaters","lineageKey":"yellowfin","lineage":"yellowfin","historic":"yellowfin","current":"yellowfin","recovery":"recoveryWatch","lineageLabel":"Yellowfin / Arkansas headwaters historical form","atlas_context":"cutthroat_lineage_context"}},{"type":"Feature","geometry":{"type":"LineString","coordinates":[[-105.9971,38.8973],[-105.9969,38.8961]]},"properties":{"name":"Trout Creek","display_name":"Trout Creek","source_name":"Trout Creek","state":"CO","atlas_class":"named_natural_stream_detail","huc8":"11020001","huc8Name":"Arkansas Headwaters","lineageKey":"yellowfin","lineage":"yellowfin","historic":"yellowfin","current":"yellowfin","recovery":"recoveryWatch","lineageLabel":"Yellowfin / Arkansas headwaters historical form","atlas_context":"cutthroat_lineage_context"}},{"type":"Feature","geometry":{"type":"LineString","coordinates":[[-105.9987,38.8893],[-105.9984,38.8883]]},"properties":{"name":"Trout Creek","display_name":"Trout Creek","source_name":"Trout Creek","state":"CO","atlas_class":"named_natural_stream_detail","huc8":"11020001","huc8Name":"Arkansas Headwaters","lineageKey":"yellowfin","lineage":"yellowfin","historic":"yellowfin","current":"yellowfin","recovery":"recoveryWatch","lineageLabel":"Yellowfin / Arkansas headwaters historical form","atlas_context":"cutthroat_lineage_context"}},{"type":"Feature","geometry":{"type":"LineString","coordinates":[[-105.9944,38.8811],[-105.9939,38.8801]]},"properties":{"name":"Trout Creek","display_name":"Trout Creek","source_name":"Trout Creek","state":"CO","atlas_class":"named_natural_stream_detail","huc8":"11020001","huc8Name":"Arkansas Headwaters","lineageKey":"yellowfin","lineage":"yellowfin","historic":"yellowfin","current":"yellowfin","recovery":"recoveryWatch","lineageLabel":"Yellowfin / Arkansas headwaters historical form","atlas_context":"cutthroat_lineage_context"}},{"type":"Feature","geometry":{"type":"LineString","coordinates":[[-105.995,38.8379],[-105.9981,38.8375]]},"properties":{"name":"Trout Creek","display_name":"Trout Creek","source_name":"Trout Creek","state":"CO","atlas_class":"named_natural_stream_detail","huc8":"11020001","huc8Name":"Arkansas Headwaters","lineageKey":"yellowfin","lineage":"yellowfin","historic":"yellowfin","current":"yellowfin","recovery":"recoveryWatch","lineageLabel":"Yellowfin / Arkansas headwaters historical form","atlas_context":"cutthroat_lineage_context"}},{"type":"Feature","geometry":{"type":"LineString","coordinates":[[-105.9829,38.8539],[-105.9823,38.8521]]},"properties":{"name":"Trout Creek","display_name":"Trout Creek","source_name":"Trout Creek","state":"CO","atlas_class":"named_natural_stream_detail","huc8":"11020001","huc8Name":"Arkansas Headwaters","lineageKey":"yellowfin","lineage":"yellowfin","historic":"yellowfin","current":"yellowfin","recovery":"recoveryWatch","lineageLabel":"Yellowfin / Arkansas headwaters historical form","atlas_context":"cutthroat_lineage_context"}},{"type":"Feature","geometry":{"type":"LineString","coordinates":[[-105.9902,38.8741],[-105.9906,38.8722]]},"properties":{"name":"Trout Creek","display_name":"Trout Creek","source_name":"Trout Creek","state":"CO","atlas_class":"named_natural_stream_detail","huc8":"11020001","huc8Name":"Arkansas Headwaters","lineageKey":"yellowfin","lineage":"yellowfin","historic":"yellowfin","current":"yellowfin","recovery":"recoveryWatch","lineageLabel":"Yellowfin / Arkansas headwaters historical form","atlas_context":"cutthroat_lineage_context"}},{"type":"Feature","geometry":{"type":"LineString","coordinates":[[-105.9873,38.866],[-105.986,38.8647]]},"properties":{"name":"Trout Creek","display_name":"Trout Creek","source_name":"Trout Creek","state":"CO","atlas_class":"named_natural_stream_detail","huc8":"11020001","huc8Name":"Arkansas Headwaters","lineageKey":"yellowfin","lineage":"yellowfin","historic":"yellowfin","current":"yellowfin","recovery":"recoveryWatch","lineageLabel":"Yellowfin / Arkansas headwaters historical form","atlas_context":"cutthroat_lineage_context"}},{"type":"Feature","geometry":{"type":"LineString","coordinates":[[-105.8476,38.8038],[-105.8434,38.8023]]},"properties":{"name":"Badger Creek","display_name":"Badger Creek","source_name":"Badger Creek","state":"CO","atlas_class":"named_natural_stream_detail","huc8":"11020001","huc8Name":"Arkansas Headwaters","lineageKey":"yellowfin","lineage":"yellowfin","historic":"yellowfin","current":"yellowfin","recovery":"recoveryWatch","lineageLabel":"Yellowfin / Arkansas headwaters historical form","atlas_context":"cutthroat_lineage_context"}},{"type":"Feature","geometry":{"type":"LineString","coordinates":[[-105.8875,38.8093],[-105.8844,38.8076]]},"properties":{"name":"Badger Creek","display_name":"Badger Creek","source_name":"Badger Creek","state":"CO","atlas_class":"named_natural_stream_detail","huc8":"11020001","huc8Name":"Arkansas Headwaters","lineageKey":"yellowfin","lineage":"yellowfin","historic":"yellowfin","current":"yellowfin","recovery":"recoveryWatch","lineageLabel":"Yellowfin / Arkansas headwaters historical form","atlas_context":"cutthroat_lineage_context"}},{"type":"Feature","geometry":{"type":"LineString","coordinates":[[-105.8844,38.8076],[-105.8838,38.8068]]},"properties":{"name":"Badger Creek","display_name":"Badger Creek","source_name":"Badger Creek","state":"CO","atlas_class":"named_natural_stream_detail","huc8":"11020001","huc8Name":"Arkansas Headwaters","lineageKey":"yellowfin","lineage":"yellowfin","historic":"yellowfin","current":"yellowfin","recovery":"recoveryWatch","lineageLabel":"Yellowfin / Arkansas headwaters historical form","atlas_context":"cutthroat_lineage_context"}},{"type":"Feature","geometry":{"type":"LineString","coordinates":[[-105.9901,38.8694],[-105.9878,38.8666]]},"properties":{"name":"Trout Creek","display_name":"Trout Creek","source_name":"Trout Creek","state":"CO","atlas_class":"named_natural_stream_detail","huc8":"11020001","huc8Name":"Arkansas Headwaters","lineageKey":"yellowfin","lineage":"yellowfin","historic":"yellowfin","current":"yellowfin","recovery":"recoveryWatch","lineageLabel":"Yellowfin / Arkansas headwaters historical form","atlas_context":"cutthroat_lineage_context"}},{"type":"Feature","geometry":{"type":"LineString","coordinates":[[-106.006,38.8975],[-106.0016,38.8946],[-105.9998,38.8912]]},"properties":{"name":"Chubb Creek","display_name":"Chubb Creek","source_name":"Chubb Creek","state":"CO","atlas_class":"named_natural_stream_detail","huc8":"11020001","huc8Name":"Arkansas Headwaters","lineageKey":"yellowfin","lineage":"yellowfin","historic":"yellowfin","current":"yellowfin","recovery":"recoveryWatch","lineageLabel":"Yellowfin / Arkansas headwaters historical form","atlas_context":"cutthroat_lineage_context"}},{"type":"Feature","geometry":{"type":"LineString","coordinates":[[-105.9089,38.8009],[-105.9086,38.7999]]},"properties":{"name":"Dry Lakes Creek","display_name":"Dry Lakes Creek","source_name":"Dry Lakes Creek","state":"CO","atlas_class":"named_natural_stream_detail","huc8":"11020001","huc8Name":"Arkansas Headwaters","lineageKey":"yellowfin","lineage":"yellowfin","historic":"yellowfin","current":"yellowfin","recovery":"recoveryWatch","lineageLabel":"Yellowfin / Arkansas headwaters historical form","atlas_context":"cutthroat_lineage_context"}},{"type":"Feature","geometry":{"type":"LineString","coordinates":[[-105.9966,38.8852],[-105.996,38.8843]]},"properties":{"name":"Trout Creek","display_name":"Trout Creek","source_name":"Trout Creek","state":"CO","atlas_class":"named_natural_stream_detail","huc8":"11020001","huc8Name":"Arkansas Headwaters","lineageKey":"yellowfin","lineage":"yellowfin","historic":"yellowfin","current":"yellowfin","recovery":"recoveryWatch","lineageLabel":"Yellowfin / Arkansas headwaters historical form","atlas_context":"cutthroat_lineage_context"}},{"type":"Feature","geometry":{"type":"LineString","coordinates":[[-105.9936,38.8387],[-105.995,38.8379]]},"properties":{"name":"Trout Creek","display_name":"Trout Creek","source_name":"Trout Creek","state":"CO","atlas_class":"named_natural_stream_detail","huc8":"11020001","huc8Name":"Arkansas Headwaters","lineageKey":"yellowfin","lineage":"yellowfin","historic":"yellowfin","current":"yellowfin","recovery":"recoveryWatch","lineageLabel":"Yellowfin / Arkansas headwaters historical form","atlas_context":"cutthroat_lineage_context"}},{"type":"Feature","geometry":{"type":"LineString","coordinates":[[-105.8434,38.8023],[-105.8432,38.801]]},"properties":{"name":"Badger Creek","display_name":"Badger Creek","source_name":"Badger Creek","state":"CO","atlas_class":"named_natural_stream_detail","huc8":"11020001","huc8Name":"Arkansas Headwaters","lineageKey":"yellowfin","lineage":"yellowfin","historic":"yellowfin","current":"yellowfin","recovery":"recoveryWatch","lineageLabel":"Yellowfin / Arkansas headwaters historical form","atlas_context":"cutthroat_lineage_context"}},{"type":"Feature","geometry":{"type":"LineString","coordinates":[[-105.9981,38.8375],[-105.9983,38.8375]]},"properties":{"name":"Trout Creek","display_name":"Trout Creek","source_name":"Trout Creek","state":"CO","atlas_class":"named_natural_stream_detail","huc8":"11020001","huc8Name":"Arkansas Headwaters","lineageKey":"yellowfin","lineage":"yellowfin","historic":"yellowfin","current":"yellowfin","recovery":"recoveryWatch","lineageLabel":"Yellowfin / Arkansas headwaters historical form","atlas_context":"cutthroat_lineage_context"}},{"type":"Feature","geometry":{"type":"LineString","coordinates":[[-105.9861,38.8452],[-105.987,38.8438]]},"properties":{"name":"Trout Creek","display_name":"Trout Creek","source_name":"Trout Creek","state":"CO","atlas_class":"named_natural_stream_detail","huc8":"11020001","huc8Name":"Arkansas Headwaters","lineageKey":"yellowfin","lineage":"yellowfin","historic":"yellowfin","current":"yellowfin","recovery":"recoveryWatch","lineageLabel":"Yellowfin / Arkansas headwaters historical form","atlas_context":"cutthroat_lineage_context"}},{"type":"Feature","geometry":{"type":"LineString","coordinates":[[-105.9983,38.8982],[-105.9971,38.8973]]},"properties":{"name":"Trout Creek","display_name":"Trout Creek","source_name":"Trout Creek","state":"CO","atlas_class":"named_natural_stream_detail","huc8":"11020001","huc8Name":"Arkansas Headwaters","lineageKey":"yellowfin","lineage":"yellowfin","historic":"yellowfin","current":"yellowfin","recovery":"recoveryWatch","lineageLabel":"Yellowfin / Arkansas headwaters historical form","atlas_context":"cutthroat_lineage_context"}},{"type":"Feature","geometry":{"type":"LineString","coordinates":[[-105.9984,38.8883],[-105.9966,38.8852]]},"properties":{"name":"Trout Creek","display_name":"Trout Creek","source_name":"Trout Creek","state":"CO","atlas_class":"named_natural_stream_detail","huc8":"11020001","huc8Name":"Arkansas Headwaters","lineageKey":"yellowfin","lineage":"yellowfin","historic":"yellowfin","current":"yellowfin","recovery":"recoveryWatch","lineageLabel":"Yellowfin / Arkansas headwaters historical form","atlas_context":"cutthroat_lineage_context"}},{"type":"Feature","geometry":{"type":"LineString","coordinates":[[-105.9993,38.8376],[-106.0012,38.8376]]},"properties":{"name":"Trout Creek","display_name":"Trout Creek","source_name":"Trout Creek","state":"CO","atlas_class":"named_natural_stream_detail","huc8":"11020001","huc8Name":"Arkansas Headwaters","lineageKey":"yellowfin","lineage":"yellowfin","historic":"yellowfin","current":"yellowfin","recovery":"recoveryWatch","lineageLabel":"Yellowfin / Arkansas headwaters historical form","atlas_context":"cutthroat_lineage_context"}},{"type":"Feature","geometry":{"type":"LineString","coordinates":[[-105.8838,38.8068],[-105.8798,38.8055],[-105.8768,38.8055],[-105.8738,38.8033]]},"properties":{"name":"Badger Creek","display_name":"Badger Creek","source_name":"Badger Creek","state":"CO","atlas_class":"named_natural_stream_detail","huc8":"11020001","huc8Name":"Arkansas Headwaters","lineageKey":"yellowfin","lineage":"yellowfin","historic":"yellowfin","current":"yellowfin","recovery":"recoveryWatch","lineageLabel":"Yellowfin / Arkansas headwaters historical form","atlas_context":"cutthroat_lineage_context"}},{"type":"Feature","geometry":{"type":"LineString","coordinates":[[-105.9915,38.8389],[-105.9936,38.8387]]},"properties":{"name":"Trout Creek","display_name":"Trout Creek","source_name":"Trout Creek","state":"CO","atlas_class":"named_natural_stream_detail","huc8":"11020001","huc8Name":"Arkansas Headwaters","lineageKey":"yellowfin","lineage":"yellowfin","historic":"yellowfin","current":"yellowfin","recovery":"recoveryWatch","lineageLabel":"Yellowfin / Arkansas headwaters historical form","atlas_context":"cutthroat_lineage_context"}},{"type":"Feature","geometry":{"type":"LineString","coordinates":[[-105.9828,38.8491],[-105.9861,38.8452]]},"properties":{"name":"Trout Creek","display_name":"Trout Creek","source_name":"Trout Creek","state":"CO","atlas_class":"named_natural_stream_detail","huc8":"11020001","huc8Name":"Arkansas Headwaters","lineageKey":"yellowfin","lineage":"yellowfin","historic":"yellowfin","current":"yellowfin","recovery":"recoveryWatch","lineageLabel":"Yellowfin / Arkansas headwaters historical form","atlas_context":"cutthroat_lineage_context"}},{"type":"Feature","geometry":{"type":"LineString","coordinates":[[-105.9921,38.8776],[-105.9909,38.8759]]},"properties":{"name":"Trout Creek","display_name":"Trout Creek","source_name":"Trout Creek","state":"CO","atlas_class":"named_natural_stream_detail","huc8":"11020001","huc8Name":"Arkansas Headwaters","lineageKey":"yellowfin","lineage":"yellowfin","historic":"yellowfin","current":"yellowfin","recovery":"recoveryWatch","lineageLabel":"Yellowfin / Arkansas headwaters historical form","atlas_context":"cutthroat_lineage_context"}},{"type":"Feature","geometry":{"type":"LineString","coordinates":[[-105.9878,38.8666],[-105.9873,38.866]]},"properties":{"name":"Trout Creek","display_name":"Trout Creek","source_name":"Trout Creek","state":"CO","atlas_class":"named_natural_stream_detail","huc8":"11020001","huc8Name":"Arkansas Headwaters","lineageKey":"yellowfin","lineage":"yellowfin","historic":"yellowfin","current":"yellowfin","recovery":"recoveryWatch","lineageLabel":"Yellowfin / Arkansas headwaters historical form","atlas_context":"cutthroat_lineage_context"}},{"type":"Feature","geometry":{"type":"LineString","coordinates":[[-105.9092,38.8018],[-105.9089,38.8009]]},"properties":{"name":"Dry Lakes Creek","display_name":"Dry Lakes Creek","source_name":"Dry Lakes Creek","state":"CO","atlas_class":"named_natural_stream_detail","huc8":"11020001","huc8Name":"Arkansas Headwaters","lineageKey":"yellowfin","lineage":"yellowfin","historic":"yellowfin","current":"yellowfin","recovery":"recoveryWatch","lineageLabel":"Yellowfin / Arkansas headwaters historical form","atlas_context":"cutthroat_lineage_context"}},{"type":"Feature","geometry":{"type":"LineString","coordinates":[[-105.986,38.8647],[-105.9866,38.8594]]},"properties":{"name":"Trout Creek","display_name":"Trout Creek","source_name":"Trout Creek","state":"CO","atlas_class":"named_natural_stream_detail","huc8":"11020001","huc8Name":"Arkansas Headwaters","lineageKey":"yellowfin","lineage":"yellowfin","historic":"yellowfin","current":"yellowfin","recovery":"recoveryWatch","lineageLabel":"Yellowfin / Arkansas headwaters historical form","atlas_context":"cutthroat_lineage_context"}},{"type":"Feature","geometry":{"type":"LineString","coordinates":[[-105.9967,38.8946],[-105.9955,38.8925]]},"properties":{"name":"Trout Creek","display_name":"Trout Creek","source_name":"Trout Creek","state":"CO","atlas_class":"named_natural_stream_detail","huc8":"11020001","huc8Name":"Arkansas Headwaters","lineageKey":"yellowfin","lineage":"yellowfin","historic":"yellowfin","current":"yellowfin","recovery":"recoveryWatch","lineageLabel":"Yellowfin / Arkansas headwaters historical form","atlas_context":"cutthroat_lineage_context"}}]}