{"type":"FeatureCollection","metadata":{"source":"C:\\ct-atlas-data\\processed\\geojson\\interpreted\\colorado_named_natural_streams_complete_v1.geojson","type":"colorado-natural-stream-detail-tile-v2","tile_size_degrees":0.2,"x":-526,"y":200,"bounds":{"west":-105.2,"south":40,"east":-105,"north":40.2}},"features":[{"type":"Feature","geometry":{"type":"LineString","coordinates":[[-105.1118,40.1272],[-105.1101,40.1273],[-105.1102,40.1292],[-105.107,40.1315],[-105.1031,40.1325],[-105.1005,40.1323],[-105.1002,40.1337],[-105.099,40.1336],[-105.099,40.1325],[-105.0955,40.1332],[-105.0892,40.137],[-105.0872,40.1393],[-105.0842,40.1385],[-105.0816,40.1392],[-105.0794,40.1425],[-105.0763,40.1416],[-105.0729,40.1422],[-105.0723,40.1434],[-105.07,40.1441],[-105.0695,40.1436],[-105.0655,40.1456],[-105.0589,40.1437],[-105.0536,40.1456],[-105.0511,40.1456],[-105.0495,40.1472],[-105.0477,40.1475],[-105.0484,40.1492],[-105.0464,40.1492],[-105.0455,40.1503]]},"properties":{"name":"Dry Creek","display_name":"Dry Creek","source_name":"Dry Creek","state":"CO","atlas_class":"named_natural_stream_detail","huc8":"10190005","huc8Name":"St. Vrain","lineageKey":"greenback","lineage":"greenback","historic":"greenback","current":"greenback","recovery":"recoveryWatch","lineageLabel":"Greenback / South Platte lineage","atlas_context":"cutthroat_lineage_context"}},{"type":"Feature","geometry":{"type":"LineString","coordinates":[[-105.201,40.0797],[-105.1966,40.0792],[-105.1953,40.0809],[-105.1918,40.08],[-105.1897,40.0812],[-105.1865,40.0814],[-105.1851,40.0846],[-105.1836,40.0842],[-105.1835,40.0854],[-105.1824,40.0846],[-105.1808,40.0853],[-105.1806,40.0874],[-105.1764,40.0874],[-105.1741,40.0886]]},"properties":{"name":"Dry Creek","display_name":"Dry Creek","source_name":"Dry Creek","state":"CO","atlas_class":"named_natural_stream_detail","huc8":"10190005","huc8Name":"St. Vrain","lineageKey":"greenback","lineage":"greenback","historic":"greenback","current":"greenback","recovery":"recoveryWatch","lineageLabel":"Greenback / South Platte lineage","atlas_context":"cutthroat_lineage_context"}},{"type":"Feature","geometry":{"type":"LineString","coordinates":[[-105.1741,40.0886],[-105.1731,40.09],[-105.1737,40.091],[-105.1726,40.0916],[-105.1725,40.0933],[-105.1732,40.0935],[-105.1726,40.0947],[-105.1684,40.0972]]},"properties":{"name":"Dry Creek","display_name":"Dry Creek","source_name":"Dry Creek","state":"CO","atlas_class":"named_natural_stream_detail","huc8":"10190005","huc8Name":"St. Vrain","lineageKey":"greenback","lineage":"greenback","historic":"greenback","current":"greenback","recovery":"recoveryWatch","lineageLabel":"Greenback / South Platte lineage","atlas_context":"cutthroat_lineage_context"}},{"type":"Feature","geometry":{"type":"LineString","coordinates":[[-105.1122,40.1271],[-105.1118,40.1272]]},"properties":{"name":"Dry Creek","display_name":"Dry Creek","source_name":"Dry Creek","state":"CO","atlas_class":"named_natural_stream_detail","huc8":"10190005","huc8Name":"St. Vrain","lineageKey":"greenback","lineage":"greenback","historic":"greenback","current":"greenback","recovery":"recoveryWatch","lineageLabel":"Greenback / South Platte lineage","atlas_context":"cutthroat_lineage_context"}},{"type":"Feature","geometry":{"type":"LineString","coordinates":[[-105.1406,40.1103],[-105.1367,40.1123],[-105.1369,40.1135],[-105.1357,40.1144],[-105.1317,40.1152],[-105.1298,40.1178],[-105.1291,40.1208],[-105.1257,40.1253],[-105.1167,40.1274],[-105.1125,40.1272]]},"properties":{"name":"Dry Creek","display_name":"Dry Creek","source_name":"Dry Creek","state":"CO","atlas_class":"named_natural_stream_detail","huc8":"10190005","huc8Name":"St. Vrain","lineageKey":"greenback","lineage":"greenback","historic":"greenback","current":"greenback","recovery":"recoveryWatch","lineageLabel":"Greenback / South Platte lineage","atlas_context":"cutthroat_lineage_context"}},{"type":"Feature","geometry":{"type":"LineString","coordinates":[[-105.0147,40.127],[-105.0122,40.1275]]},"properties":{"name":"Idaho Creek","display_name":"Idaho Creek","source_name":"Idaho Creek","state":"CO","atlas_class":"named_natural_stream_detail","huc8":"10190005","huc8Name":"St. Vrain","lineageKey":"greenback","lineage":"greenback","historic":"greenback","current":"greenback","recovery":"recoveryWatch","lineageLabel":"Greenback / South Platte lineage","atlas_context":"cutthroat_lineage_context"}},{"type":"Feature","geometry":{"type":"LineString","coordinates":[[-105.1125,40.1272],[-105.1122,40.1271]]},"properties":{"name":"Dry Creek","display_name":"Dry Creek","source_name":"Dry Creek","state":"CO","atlas_class":"named_natural_stream_detail","huc8":"10190005","huc8Name":"St. Vrain","lineageKey":"greenback","lineage":"greenback","historic":"greenback","current":"greenback","recovery":"recoveryWatch","lineageLabel":"Greenback / South Platte lineage","atlas_context":"cutthroat_lineage_context"}},{"type":"Feature","geometry":{"type":"LineString","coordinates":[[-105.0492,40.0195],[-105.0459,40.0205]]},"properties":{"name":"Coal Creek","display_name":"Coal Creek","source_name":"Coal Creek","state":"CO","atlas_class":"named_natural_stream_detail","huc8":"10190005","huc8Name":"St. Vrain","lineageKey":"greenback","lineage":"greenback","historic":"greenback","current":"greenback","recovery":"recoveryWatch","lineageLabel":"Greenback / South Platte lineage","atlas_context":"cutthroat_lineage_context"}},{"type":"Feature","geometry":{"type":"LineString","coordinates":[[-105.0519,40.0083],[-105.051,40.0094],[-105.0524,40.0098],[-105.0523,40.0115],[-105.0513,40.012],[-105.0515,40.0132],[-105.0506,40.0141],[-105.0508,40.0156],[-105.0526,40.0171],[-105.0501,40.0181],[-105.0492,40.0195]]},"properties":{"name":"Coal Creek","display_name":"Coal Creek","source_name":"Coal Creek","state":"CO","atlas_class":"named_natural_stream_detail","huc8":"10190005","huc8Name":"St. Vrain","lineageKey":"greenback","lineage":"greenback","historic":"greenback","current":"greenback","recovery":"recoveryWatch","lineageLabel":"Greenback / South Platte lineage","atlas_context":"cutthroat_lineage_context"}},{"type":"Feature","geometry":{"type":"LineString","coordinates":[[-105.0148,40.1236],[-105.0156,40.1249],[-105.0182,40.1248],[-105.0164,40.1257],[-105.0166,40.1265],[-105.0152,40.1266]]},"properties":{"name":"Idaho Creek","display_name":"Idaho Creek","source_name":"Idaho Creek","state":"CO","atlas_class":"named_natural_stream_detail","huc8":"10190005","huc8Name":"St. Vrain","lineageKey":"greenback","lineage":"greenback","historic":"greenback","current":"greenback","recovery":"recoveryWatch","lineageLabel":"Greenback / South Platte lineage","atlas_context":"cutthroat_lineage_context"}},{"type":"Feature","geometry":{"type":"LineString","coordinates":[[-105.2001,40.1425],[-105.1988,40.1424],[-105.1973,40.1434],[-105.1971,40.1451],[-105.1889,40.145],[-105.1873,40.144],[-105.1786,40.1422],[-105.1762,40.1427]]},"properties":{"name":"Silver Creek","display_name":"Silver Creek","source_name":"Silver Creek","state":"CO","atlas_class":"named_natural_stream_detail","huc8":"10190005","huc8Name":"St. Vrain","lineageKey":"greenback","lineage":"greenback","historic":"greenback","current":"greenback","recovery":"recoveryWatch","lineageLabel":"Greenback / South Platte lineage","atlas_context":"cutthroat_lineage_context"}},{"type":"Feature","geometry":{"type":"LineString","coordinates":[[-105.094,40.1619],[-105.0948,40.1593],[-105.0923,40.1556]]},"properties":{"name":"The Slough","display_name":"The Slough","source_name":"The Slough","state":"CO","atlas_class":"named_natural_stream_detail","huc8":"10190005","huc8Name":"St. Vrain","lineageKey":"greenback","lineage":"greenback","historic":"greenback","current":"greenback","recovery":"recoveryWatch","lineageLabel":"Greenback / South Platte lineage","atlas_context":"cutthroat_lineage_context"}},{"type":"Feature","geometry":{"type":"LineString","coordinates":[[-105.0459,40.0205],[-105.0465,40.0248],[-105.043,40.0263],[-105.043,40.0273],[-105.0443,40.0267],[-105.0443,40.0278],[-105.0429,40.0289],[-105.0431,40.03],[-105.0415,40.0296]]},"properties":{"name":"Coal Creek","display_name":"Coal Creek","source_name":"Coal Creek","state":"CO","atlas_class":"named_natural_stream_detail","huc8":"10190005","huc8Name":"St. Vrain","lineageKey":"greenback","lineage":"greenback","historic":"greenback","current":"greenback","recovery":"recoveryWatch","lineageLabel":"Greenback / South Platte lineage","atlas_context":"cutthroat_lineage_context"}},{"type":"Feature","geometry":{"type":"LineString","coordinates":[[-105.1634,40.0307],[-105.1623,40.0323],[-105.158,40.0326],[-105.1567,40.0342],[-105.1523,40.0355],[-105.1507,40.0375],[-105.1483,40.0377],[-105.1479,40.0392],[-105.1461,40.0399],[-105.1437,40.043],[-105.1441,40.0478],[-105.1427,40.0492]]},"properties":{"name":"Dry Creek","display_name":"Dry Creek","source_name":"Dry Creek","state":"CO","atlas_class":"named_natural_stream_detail","huc8":"10190005","huc8Name":"St. Vrain","lineageKey":"greenback","lineage":"greenback","historic":"greenback","current":"greenback","recovery":"recoveryWatch","lineageLabel":"Greenback / South Platte lineage","atlas_context":"cutthroat_lineage_context"}},{"type":"Feature","geometry":{"type":"LineString","coordinates":[[-105.1762,40.1427],[-105.1721,40.1432],[-105.1703,40.1455],[-105.171,40.1456],[-105.1708,40.1468]]},"properties":{"name":"Dry Creek","display_name":"Dry Creek","source_name":"Dry Creek","state":"CO","atlas_class":"named_natural_stream_detail","huc8":"10190005","huc8Name":"St. Vrain","lineageKey":"greenback","lineage":"greenback","historic":"greenback","current":"greenback","recovery":"recoveryWatch","lineageLabel":"Greenback / South Platte lineage","atlas_context":"cutthroat_lineage_context"}},{"type":"Feature","geometry":{"type":"LineString","coordinates":[[-105.0369,40.1093],[-105.0295,40.1124],[-105.027,40.112],[-105.026,40.1133],[-105.0225,40.1144],[-105.0222,40.1153]]},"properties":{"name":"Idaho Creek","display_name":"Idaho Creek","source_name":"Idaho Creek","state":"CO","atlas_class":"named_natural_stream_detail","huc8":"10190005","huc8Name":"St. Vrain","lineageKey":"greenback","lineage":"greenback","historic":"greenback","current":"greenback","recovery":"recoveryWatch","lineageLabel":"Greenback / South Platte lineage","atlas_context":"cutthroat_lineage_context"}},{"type":"Feature","geometry":{"type":"LineString","coordinates":[[-105.0401,40.0321],[-105.0403,40.0314],[-105.0419,40.0317],[-105.0411,40.0329],[-105.044,40.0349],[-105.0434,40.0356],[-105.0444,40.0374],[-105.0433,40.0386],[-105.044,40.0405],[-105.0432,40.0413],[-105.0434,40.0443]]},"properties":{"name":"Coal Creek","display_name":"Coal Creek","source_name":"Coal Creek","state":"CO","atlas_class":"named_natural_stream_detail","huc8":"10190005","huc8Name":"St. Vrain","lineageKey":"greenback","lineage":"greenback","historic":"greenback","current":"greenback","recovery":"recoveryWatch","lineageLabel":"Greenback / South Platte lineage","atlas_context":"cutthroat_lineage_context"}},{"type":"Feature","geometry":{"type":"LineString","coordinates":[[-105.0415,40.0296],[-105.0397,40.0298],[-105.0393,40.0314],[-105.0401,40.0321]]},"properties":{"name":"Coal Creek","display_name":"Coal Creek","source_name":"Coal Creek","state":"CO","atlas_class":"named_natural_stream_detail","huc8":"10190005","huc8Name":"St. Vrain","lineageKey":"greenback","lineage":"greenback","historic":"greenback","current":"greenback","recovery":"recoveryWatch","lineageLabel":"Greenback / South Platte lineage","atlas_context":"cutthroat_lineage_context"}},{"type":"Feature","geometry":{"type":"LineString","coordinates":[[-105.037,40.1094],[-105.0369,40.1095]]},"properties":{"name":"Boulder Creek","display_name":"Boulder Creek","source_name":"Boulder Creek","state":"CO","atlas_class":"named_natural_stream_detail","huc8":"10190005","huc8Name":"St. Vrain","lineageKey":"greenback","lineage":"greenback","historic":"greenback","current":"greenback","recovery":"recoveryWatch","lineageLabel":"Greenback / South Platte lineage","atlas_context":"cutthroat_lineage_context"}},{"type":"Feature","geometry":{"type":"LineString","coordinates":[[-105.0152,40.1266],[-105.0147,40.127]]},"properties":{"name":"Idaho Creek","display_name":"Idaho Creek","source_name":"Idaho Creek","state":"CO","atlas_class":"named_natural_stream_detail","huc8":"10190005","huc8Name":"St. Vrain","lineageKey":"greenback","lineage":"greenback","historic":"greenback","current":"greenback","recovery":"recoveryWatch","lineageLabel":"Greenback / South Platte lineage","atlas_context":"cutthroat_lineage_context"}},{"type":"Feature","geometry":{"type":"LineString","coordinates":[[-105.0434,40.0443],[-105.0456,40.0466],[-105.044,40.0517],[-105.0492,40.0573],[-105.055,40.0614],[-105.0541,40.0623],[-105.057,40.0651],[-105.056,40.0659],[-105.0562,40.0667],[-105.0598,40.0671],[-105.0589,40.0684],[-105.0592,40.0699],[-105.0573,40.0713],[-105.0589,40.0747],[-105.0575,40.0783],[-105.059,40.0789],[-105.0597,40.0821]]},"properties":{"name":"Coal Creek","display_name":"Coal Creek","source_name":"Coal Creek","state":"CO","atlas_class":"named_natural_stream_detail","huc8":"10190005","huc8Name":"St. Vrain","lineageKey":"greenback","lineage":"greenback","historic":"greenback","current":"greenback","recovery":"recoveryWatch","lineageLabel":"Greenback / South Platte lineage","atlas_context":"cutthroat_lineage_context"}},{"type":"Feature","geometry":{"type":"LineString","coordinates":[[-105.0009,40.1347],[-105.0007,40.135]]},"properties":{"name":"Idaho Creek","display_name":"Idaho Creek","source_name":"Idaho Creek","state":"CO","atlas_class":"named_natural_stream_detail","huc8":"10190005","huc8Name":"St. Vrain","lineageKey":"greenback","lineage":"greenback","historic":"greenback","current":"greenback","recovery":"recoveryWatch","lineageLabel":"Greenback / South Platte lineage","atlas_context":"cutthroat_lineage_context"}},{"type":"Feature","geometry":{"type":"LineString","coordinates":[[-105.1261,40.1489],[-105.1259,40.15],[-105.1245,40.1504],[-105.1181,40.1496],[-105.1139,40.1513],[-105.1027,40.1521],[-105.1002,40.1545]]},"properties":{"name":"Dry Creek","display_name":"Dry Creek","source_name":"Dry Creek","state":"CO","atlas_class":"named_natural_stream_detail","huc8":"10190005","huc8Name":"St. Vrain","lineageKey":"greenback","lineage":"greenback","historic":"greenback","current":"greenback","recovery":"recoveryWatch","lineageLabel":"Greenback / South Platte lineage","atlas_context":"cutthroat_lineage_context"}},{"type":"Feature","geometry":{"type":"LineString","coordinates":[[-105.1684,40.0972],[-105.1654,40.098],[-105.1647,40.1002],[-105.1607,40.1023],[-105.1608,40.1036],[-105.1564,40.1061],[-105.1528,40.1068],[-105.1532,40.1075],[-105.1521,40.1078],[-105.152,40.109],[-105.1507,40.1086],[-105.15,40.1098],[-105.149,40.1097]]},"properties":{"name":"Dry Creek","display_name":"Dry Creek","source_name":"Dry Creek","state":"CO","atlas_class":"named_natural_stream_detail","huc8":"10190005","huc8Name":"St. Vrain","lineageKey":"greenback","lineage":"greenback","historic":"greenback","current":"greenback","recovery":"recoveryWatch","lineageLabel":"Greenback / South Platte lineage","atlas_context":"cutthroat_lineage_context"}},{"type":"Feature","geometry":{"type":"LineString","coordinates":[[-105.19,40.1289],[-105.1858,40.1288],[-105.1846,40.1299],[-105.1849,40.1316],[-105.1808,40.1325],[-105.1776,40.1343],[-105.177,40.1389],[-105.1776,40.1399],[-105.1762,40.1427]]},"properties":{"name":"Dry Creek","display_name":"Dry Creek","source_name":"Dry Creek","state":"CO","atlas_class":"named_natural_stream_detail","huc8":"10190005","huc8Name":"St. Vrain","lineageKey":"greenback","lineage":"greenback","historic":"greenback","current":"greenback","recovery":"recoveryWatch","lineageLabel":"Greenback / South Platte lineage","atlas_context":"cutthroat_lineage_context"}},{"type":"Feature","geometry":{"type":"LineString","coordinates":[[-105.2014,40.1292],[-105.19,40.1289]]},"properties":{"name":"Dry Creek","display_name":"Dry Creek","source_name":"Dry Creek","state":"CO","atlas_class":"named_natural_stream_detail","huc8":"10190005","huc8Name":"St. Vrain","lineageKey":"greenback","lineage":"greenback","historic":"greenback","current":"greenback","recovery":"recoveryWatch","lineageLabel":"Greenback / South Platte lineage","atlas_context":"cutthroat_lineage_context"}},{"type":"Feature","geometry":{"type":"LineString","coordinates":[[-105.1657,40.0223],[-105.1658,40.0245],[-105.1638,40.0262],[-105.1624,40.0296],[-105.1634,40.0307]]},"properties":{"name":"Dry Creek","display_name":"Dry Creek","source_name":"Dry Creek","state":"CO","atlas_class":"named_natural_stream_detail","huc8":"10190005","huc8Name":"St. Vrain","lineageKey":"greenback","lineage":"greenback","historic":"greenback","current":"greenback","recovery":"recoveryWatch","lineageLabel":"Greenback / South Platte lineage","atlas_context":"cutthroat_lineage_context"}},{"type":"Feature","geometry":{"type":"LineString","coordinates":[[-105.1404,40.1279],[-105.1348,40.1304],[-105.1347,40.1316],[-105.1334,40.1314],[-105.1322,40.134],[-105.1248,40.1353],[-105.121,40.135],[-105.1195,40.1368],[-105.1084,40.1442],[-105.1037,40.1458],[-105.0986,40.1496],[-105.0922,40.1509],[-105.0874,40.1551]]},"properties":{"name":"Left Hand Creek","display_name":"Left Hand Creek","source_name":"Left Hand Creek","state":"CO","atlas_class":"named_natural_stream_detail","huc8":"10190005","huc8Name":"St. Vrain","lineageKey":"greenback","lineage":"greenback","historic":"greenback","current":"greenback","recovery":"recoveryWatch","lineageLabel":"Greenback / South Platte lineage","atlas_context":"cutthroat_lineage_context"}},{"type":"Feature","geometry":{"type":"LineString","coordinates":[[-105.2098,40.1053],[-105.2068,40.1077],[-105.1977,40.1107],[-105.1889,40.116]]},"properties":{"name":"Left Hand Creek","display_name":"Left Hand Creek","source_name":"Left Hand Creek","state":"CO","atlas_class":"named_natural_stream_detail","huc8":"10190005","huc8Name":"St. Vrain","lineageKey":"greenback","lineage":"greenback","historic":"greenback","current":"greenback","recovery":"recoveryWatch","lineageLabel":"Greenback / South Platte lineage","atlas_context":"cutthroat_lineage_context"}},{"type":"Feature","geometry":{"type":"LineString","coordinates":[[-105.1882,40.1159],[-105.1858,40.1156],[-105.1783,40.1184],[-105.1742,40.1177],[-105.1715,40.1164],[-105.1698,40.1166],[-105.1677,40.1185],[-105.1648,40.1184],[-105.1581,40.1211],[-105.1546,40.1209],[-105.1536,40.1227],[-105.1506,40.1233],[-105.148,40.1263],[-105.1426,40.1268],[-105.1404,40.1279]]},"properties":{"name":"Left Hand Creek","display_name":"Left Hand Creek","source_name":"Left Hand Creek","state":"CO","atlas_class":"named_natural_stream_detail","huc8":"10190005","huc8Name":"St. Vrain","lineageKey":"greenback","lineage":"greenback","historic":"greenback","current":"greenback","recovery":"recoveryWatch","lineageLabel":"Greenback / South Platte lineage","atlas_context":"cutthroat_lineage_context"}},{"type":"Feature","geometry":{"type":"LineString","coordinates":[[-105.006,40.1345],[-105.0049,40.135],[-105.0045,40.1338],[-105.0035,40.1356],[-105.0017,40.1341],[-105.0009,40.1347]]},"properties":{"name":"Idaho Creek","display_name":"Idaho Creek","source_name":"Idaho Creek","state":"CO","atlas_class":"named_natural_stream_detail","huc8":"10190005","huc8Name":"St. Vrain","lineageKey":"greenback","lineage":"greenback","historic":"greenback","current":"greenback","recovery":"recoveryWatch","lineageLabel":"Greenback / South Platte lineage","atlas_context":"cutthroat_lineage_context"}},{"type":"Feature","geometry":{"type":"LineString","coordinates":[[-105.0923,40.1556],[-105.0921,40.1551]]},"properties":{"name":"The Slough","display_name":"The Slough","source_name":"The Slough","state":"CO","atlas_class":"named_natural_stream_detail","huc8":"10190005","huc8Name":"St. Vrain","lineageKey":"greenback","lineage":"greenback","historic":"greenback","current":"greenback","recovery":"recoveryWatch","lineageLabel":"Greenback / South Platte lineage","atlas_context":"cutthroat_lineage_context"}},{"type":"Feature","geometry":{"type":"LineString","coordinates":[[-105.0912,40.1707],[-105.09,40.1658],[-105.0905,40.1647],[-105.0923,40.1644]]},"properties":{"name":"The Slough","display_name":"The Slough","source_name":"The Slough","state":"CO","atlas_class":"named_natural_stream_detail","huc8":"10190005","huc8Name":"St. Vrain","lineageKey":"greenback","lineage":"greenback","historic":"greenback","current":"greenback","recovery":"recoveryWatch","lineageLabel":"Greenback / South Platte lineage","atlas_context":"cutthroat_lineage_context"}},{"type":"Feature","geometry":{"type":"LineString","coordinates":[[-105.0007,40.135],[-105.0009,40.1359],[-105.0029,40.1361],[-105.0042,40.1408],[-105.0035,40.143],[-104.9997,40.1433]]},"properties":{"name":"Idaho Creek","display_name":"Idaho Creek","source_name":"Idaho Creek","state":"CO","atlas_class":"named_natural_stream_detail","huc8":"10190005","huc8Name":"St. Vrain","lineageKey":"greenback","lineage":"greenback","historic":"greenback","current":"greenback","recovery":"recoveryWatch","lineageLabel":"Greenback / South Platte lineage","atlas_context":"cutthroat_lineage_context"}},{"type":"Feature","geometry":{"type":"LineString","coordinates":[[-105.149,40.1097],[-105.1435,40.1091],[-105.1431,40.1102],[-105.1406,40.1103]]},"properties":{"name":"Dry Creek","display_name":"Dry Creek","source_name":"Dry Creek","state":"CO","atlas_class":"named_natural_stream_detail","huc8":"10190005","huc8Name":"St. Vrain","lineageKey":"greenback","lineage":"greenback","historic":"greenback","current":"greenback","recovery":"recoveryWatch","lineageLabel":"Greenback / South Platte lineage","atlas_context":"cutthroat_lineage_context"}},{"type":"Feature","geometry":{"type":"LineString","coordinates":[[-105.0587,39.9939],[-105.0581,39.9951],[-105.0603,39.996],[-105.0602,39.9972],[-105.0587,39.9977],[-105.0593,39.9983],[-105.0586,39.9986],[-105.0588,40.0019],[-105.057,40.0024]]},"properties":{"name":"Coal Creek","display_name":"Coal Creek","source_name":"Coal Creek","state":"CO","atlas_class":"named_natural_stream_detail","huc8":"10190005","huc8Name":"St. Vrain","lineageKey":"greenback","lineage":"greenback","historic":"greenback","current":"greenback","recovery":"recoveryWatch","lineageLabel":"Greenback / South Platte lineage","atlas_context":"cutthroat_lineage_context"}},{"type":"Feature","geometry":{"type":"LineString","coordinates":[[-105.057,40.0024],[-105.0576,40.0042],[-105.0564,40.0058],[-105.0551,40.0056],[-105.0542,40.0076],[-105.0533,40.0072],[-105.0527,40.0085],[-105.0519,40.0083]]},"properties":{"name":"Coal Creek","display_name":"Coal Creek","source_name":"Coal Creek","state":"CO","atlas_class":"named_natural_stream_detail","huc8":"10190005","huc8Name":"St. Vrain","lineageKey":"greenback","lineage":"greenback","historic":"greenback","current":"greenback","recovery":"recoveryWatch","lineageLabel":"Greenback / South Platte lineage","atlas_context":"cutthroat_lineage_context"}},{"type":"Feature","geometry":{"type":"LineString","coordinates":[[-105.0956,40.1852],[-105.0949,40.1825],[-105.0959,40.1795],[-105.093,40.1759],[-105.0897,40.1738],[-105.0904,40.171]]},"properties":{"name":"The Slough","display_name":"The Slough","source_name":"The Slough","state":"CO","atlas_class":"named_natural_stream_detail","huc8":"10190005","huc8Name":"St. Vrain","lineageKey":"greenback","lineage":"greenback","historic":"greenback","current":"greenback","recovery":"recoveryWatch","lineageLabel":"Greenback / South Platte lineage","atlas_context":"cutthroat_lineage_context"}},{"type":"Feature","geometry":{"type":"LineString","coordinates":[[-105.0222,40.1153],[-105.0239,40.1156],[-105.0251,40.1175],[-105.0208,40.1165],[-105.0205,40.1173],[-105.0223,40.1181],[-105.0211,40.1201],[-105.0178,40.1201],[-105.0148,40.1236]]},"properties":{"name":"Idaho Creek","display_name":"Idaho Creek","source_name":"Idaho Creek","state":"CO","atlas_class":"named_natural_stream_detail","huc8":"10190005","huc8Name":"St. Vrain","lineageKey":"greenback","lineage":"greenback","historic":"greenback","current":"greenback","recovery":"recoveryWatch","lineageLabel":"Greenback / South Platte lineage","atlas_context":"cutthroat_lineage_context"}},{"type":"Feature","geometry":{"type":"LineString","coordinates":[[-105.0023,40.0204],[-104.9983,40.0227]]},"properties":{"name":"Little Dry Creek","display_name":"Little Dry Creek","source_name":"Little Dry Creek","state":"CO","atlas_class":"named_natural_stream_detail","huc8":"10190003","huc8Name":"Middle South Platte-Cherry Creek","lineageKey":"statewideContext","lineage":"statewideContext","historic":"statewideContext","current":"statewideContext","recovery":"statewideContext","lineageLabel":"Statewide Colorado hydrography context","atlas_context":"statewide_hydrography_context"}},{"type":"Feature","geometry":{"type":"LineString","coordinates":[[-105.1305,40.149],[-105.1261,40.1489]]},"properties":{"name":"Dry Creek","display_name":"Dry Creek","source_name":"Dry Creek","state":"CO","atlas_class":"named_natural_stream_detail","huc8":"10190005","huc8Name":"St. Vrain","lineageKey":"greenback","lineage":"greenback","historic":"greenback","current":"greenback","recovery":"recoveryWatch","lineageLabel":"Greenback / South Platte lineage","atlas_context":"cutthroat_lineage_context"}},{"type":"Feature","geometry":{"type":"LineString","coordinates":[[-105.1708,40.1468],[-105.1693,40.1466],[-105.1693,40.1473],[-105.1586,40.1465],[-105.1542,40.1471],[-105.1522,40.1484],[-105.1452,40.1479],[-105.1438,40.1486],[-105.1421,40.1476],[-105.14,40.1485],[-105.1368,40.1479],[-105.1305,40.149]]},"properties":{"name":"Dry Creek","display_name":"Dry Creek","source_name":"Dry Creek","state":"CO","atlas_class":"named_natural_stream_detail","huc8":"10190005","huc8Name":"St. Vrain","lineageKey":"greenback","lineage":"greenback","historic":"greenback","current":"greenback","recovery":"recoveryWatch","lineageLabel":"Greenback / South Platte lineage","atlas_context":"cutthroat_lineage_context"}},{"type":"Feature","geometry":{"type":"LineString","coordinates":[[-105.0122,40.1275],[-105.0094,40.1284],[-105.0098,40.1292],[-105.0087,40.1294],[-105.0088,40.1301],[-105.0105,40.1302],[-105.0108,40.1312],[-105.009,40.132],[-105.0088,40.1329],[-105.008,40.1326],[-105.0083,40.1318],[-105.0075,40.1321],[-105.008,40.1337],[-105.0056,40.1339],[-105.006,40.1345]]},"properties":{"name":"Idaho Creek","display_name":"Idaho Creek","source_name":"Idaho Creek","state":"CO","atlas_class":"named_natural_stream_detail","huc8":"10190005","huc8Name":"St. Vrain","lineageKey":"greenback","lineage":"greenback","historic":"greenback","current":"greenback","recovery":"recoveryWatch","lineageLabel":"Greenback / South Platte lineage","atlas_context":"cutthroat_lineage_context"}}]}