{"type":"FeatureCollection","metadata":{"source":"C:\\ct-atlas-data\\processed\\geojson\\interpreted\\colorado_named_natural_streams_complete_v1.geojson","type":"colorado-natural-stream-detail-tile-v2","tile_size_degrees":0.2,"x":-531,"y":190,"bounds":{"west":-106.2,"south":38,"east":-106,"north":38.2}},"features":[{"type":"Feature","geometry":{"type":"LineString","coordinates":[[-106.1041,38.1912],[-106.1006,38.1922],[-106.0955,38.1954]]},"properties":{"name":"Little Kerber Creek","display_name":"Little Kerber Creek","source_name":"Little Kerber Creek","state":"CO","atlas_class":"named_natural_stream_detail","huc8":"13010003","huc8Name":"San Luis","lineageKey":"rioGrande","lineage":"rioGrande","historic":"rioGrande","current":"rioGrande","recovery":"recoveryWatch","lineageLabel":"Rio Grande lineage","atlas_context":"cutthroat_lineage_context"}},{"type":"Feature","geometry":{"type":"LineString","coordinates":[[-106.0869,38.0551],[-106.085,38.0545],[-106.0842,38.0523],[-106.0813,38.0509],[-106.0755,38.0498]]},"properties":{"name":"Ball Arroyo","display_name":"Ball Arroyo","source_name":"Ball Arroyo","state":"CO","atlas_class":"named_natural_stream_detail","huc8":"13010004","huc8Name":"Saguache","lineageKey":"rioGrande","lineage":"rioGrande","historic":"rioGrande","current":"rioGrande","recovery":"recoveryWatch","lineageLabel":"Rio Grande lineage","atlas_context":"cutthroat_lineage_context"}},{"type":"Feature","geometry":{"type":"LineString","coordinates":[[-106.0969,38.1879],[-106.0968,38.1895],[-106.0951,38.1912],[-106.0962,38.1941],[-106.0955,38.1954]]},"properties":{"name":"Studhorse Creek","display_name":"Studhorse Creek","source_name":"Studhorse Creek","state":"CO","atlas_class":"named_natural_stream_detail","huc8":"13010003","huc8Name":"San Luis","lineageKey":"rioGrande","lineage":"rioGrande","historic":"rioGrande","current":"rioGrande","recovery":"recoveryWatch","lineageLabel":"Rio Grande lineage","atlas_context":"cutthroat_lineage_context"}},{"type":"Feature","geometry":{"type":"LineString","coordinates":[[-106.1023,38.1644],[-106.1035,38.1673]]},"properties":{"name":"Studhorse Creek","display_name":"Studhorse Creek","source_name":"Studhorse Creek","state":"CO","atlas_class":"named_natural_stream_detail","huc8":"13010003","huc8Name":"San Luis","lineageKey":"rioGrande","lineage":"rioGrande","historic":"rioGrande","current":"rioGrande","recovery":"recoveryWatch","lineageLabel":"Rio Grande lineage","atlas_context":"cutthroat_lineage_context"}},{"type":"Feature","geometry":{"type":"LineString","coordinates":[[-106.0632,38.0427],[-106.0608,38.0406],[-106.0588,38.0405],[-106.0568,38.0385],[-106.0565,38.0367],[-106.0507,38.0335],[-106.0505,38.032],[-106.0469,38.0311],[-106.0415,38.0215]]},"properties":{"name":"Ball Arroyo","display_name":"Ball Arroyo","source_name":"Ball Arroyo","state":"CO","atlas_class":"named_natural_stream_detail","huc8":"13010004","huc8Name":"Saguache","lineageKey":"rioGrande","lineage":"rioGrande","historic":"rioGrande","current":"rioGrande","recovery":"recoveryWatch","lineageLabel":"Rio Grande lineage","atlas_context":"cutthroat_lineage_context"}},{"type":"Feature","geometry":{"type":"LineString","coordinates":[[-106.0948,38.1962],[-106.0947,38.1965]]},"properties":{"name":"Little Kerber Creek","display_name":"Little Kerber Creek","source_name":"Little Kerber Creek","state":"CO","atlas_class":"named_natural_stream_detail","huc8":"13010003","huc8Name":"San Luis","lineageKey":"rioGrande","lineage":"rioGrande","historic":"rioGrande","current":"rioGrande","recovery":"recoveryWatch","lineageLabel":"Rio Grande lineage","atlas_context":"cutthroat_lineage_context"}},{"type":"Feature","geometry":{"type":"LineString","coordinates":[[-106.1244,38.0692],[-106.1217,38.0694],[-106.1197,38.0682],[-106.1169,38.0685],[-106.1151,38.0677]]},"properties":{"name":"Saguache Creek","display_name":"Saguache Creek","source_name":"Saguache Creek","state":"CO","atlas_class":"named_natural_stream_detail","huc8":"13010004","huc8Name":"Saguache","lineageKey":"rioGrande","lineage":"rioGrande","historic":"rioGrande","current":"rioGrande","recovery":"recoveryWatch","lineageLabel":"Rio Grande lineage","atlas_context":"cutthroat_lineage_context"}},{"type":"Feature","geometry":{"type":"LineString","coordinates":[[-106.1044,38.1585],[-106.103,38.163]]},"properties":{"name":"Studhorse Creek","display_name":"Studhorse Creek","source_name":"Studhorse Creek","state":"CO","atlas_class":"named_natural_stream_detail","huc8":"13010003","huc8Name":"San Luis","lineageKey":"rioGrande","lineage":"rioGrande","historic":"rioGrande","current":"rioGrande","recovery":"recoveryWatch","lineageLabel":"Rio Grande lineage","atlas_context":"cutthroat_lineage_context"}},{"type":"Feature","geometry":{"type":"LineString","coordinates":[[-106.1317,38.1932],[-106.1307,38.1927]]},"properties":{"name":"Little Kerber Creek","display_name":"Little Kerber Creek","source_name":"Little Kerber Creek","state":"CO","atlas_class":"named_natural_stream_detail","huc8":"13010003","huc8Name":"San Luis","lineageKey":"rioGrande","lineage":"rioGrande","historic":"rioGrande","current":"rioGrande","recovery":"recoveryWatch","lineageLabel":"Rio Grande lineage","atlas_context":"cutthroat_lineage_context"}},{"type":"Feature","geometry":{"type":"LineString","coordinates":[[-106.1086,38.0754],[-106.1069,38.0749],[-106.1036,38.0761]]},"properties":{"name":"North Branch Saguache Creek","display_name":"North Branch Saguache Creek","source_name":"North Branch Saguache Creek","state":"CO","atlas_class":"named_natural_stream_detail","huc8":"13010004","huc8Name":"Saguache","lineageKey":"rioGrande","lineage":"rioGrande","historic":"rioGrande","current":"rioGrande","recovery":"recoveryWatch","lineageLabel":"Rio Grande lineage","atlas_context":"cutthroat_lineage_context"}},{"type":"Feature","geometry":{"type":"LineString","coordinates":[[-106.01,38.0276],[-106.0075,38.026],[-106.0058,38.026],[-106.004,38.0244],[-106.0027,38.0246],[-106.0018,38.0233],[-105.9981,38.0224],[-105.9988,38.0213],[-105.9983,38.02],[-105.9955,38.0208],[-105.9923,38.019]]},"properties":{"name":"Saguache Creek","display_name":"Saguache Creek","source_name":"Saguache Creek","state":"CO","atlas_class":"named_natural_stream_detail","huc8":"13010004","huc8Name":"Saguache","lineageKey":"rioGrande","lineage":"rioGrande","historic":"rioGrande","current":"rioGrande","recovery":"recoveryWatch","lineageLabel":"Rio Grande lineage","atlas_context":"cutthroat_lineage_context"}},{"type":"Feature","geometry":{"type":"LineString","coordinates":[[-106.1917,38.0949],[-106.1916,38.094],[-106.189,38.0935],[-106.1889,38.0924],[-106.1873,38.0916]]},"properties":{"name":"Saguache Creek","display_name":"Saguache Creek","source_name":"Saguache Creek","state":"CO","atlas_class":"named_natural_stream_detail","huc8":"13010004","huc8Name":"Saguache","lineageKey":"rioGrande","lineage":"rioGrande","historic":"rioGrande","current":"rioGrande","recovery":"recoveryWatch","lineageLabel":"Rio Grande lineage","atlas_context":"cutthroat_lineage_context"}},{"type":"Feature","geometry":{"type":"LineString","coordinates":[[-106.1,38.0763],[-106.0971,38.0784],[-106.0948,38.0783],[-106.0946,38.079],[-106.0923,38.0775],[-106.0913,38.0782],[-106.0905,38.0771],[-106.0899,38.0786],[-106.0882,38.0783],[-106.0881,38.0799],[-106.0858,38.0792],[-106.0829,38.0804],[-106.0821,38.0794],[-106.0812,38.08],[-106.0787,38.0794],[-106.077,38.0804],[-106.0755,38.0791],[-106.0749,38.0802],[-106.0727,38.0799],[-106.0718,38.0805],[-106.0713,38.0798],[-106.0708,38.0808],[-106.0699,38.0795],[-106.065,38.081]]},"properties":{"name":"North Branch Saguache Creek","display_name":"North Branch Saguache Creek","source_name":"North Branch Saguache Creek","state":"CO","atlas_class":"named_natural_stream_detail","huc8":"13010004","huc8Name":"Saguache","lineageKey":"rioGrande","lineage":"rioGrande","historic":"rioGrande","current":"rioGrande","recovery":"recoveryWatch","lineageLabel":"Rio Grande lineage","atlas_context":"cutthroat_lineage_context"}},{"type":"Feature","geometry":{"type":"LineString","coordinates":[[-106.0923,38.0686],[-106.0915,38.0671],[-106.0888,38.0681],[-106.0878,38.0673],[-106.0852,38.0674],[-106.0852,38.0666],[-106.0834,38.066],[-106.0825,38.0667]]},"properties":{"name":"Saguache Creek","display_name":"Saguache Creek","source_name":"Saguache Creek","state":"CO","atlas_class":"named_natural_stream_detail","huc8":"13010004","huc8Name":"Saguache","lineageKey":"rioGrande","lineage":"rioGrande","historic":"rioGrande","current":"rioGrande","recovery":"recoveryWatch","lineageLabel":"Rio Grande lineage","atlas_context":"cutthroat_lineage_context"}},{"type":"Feature","geometry":{"type":"LineString","coordinates":[[-106.1004,38.1805],[-106.1002,38.1841],[-106.0972,38.1865],[-106.0969,38.1879]]},"properties":{"name":"Studhorse Creek","display_name":"Studhorse Creek","source_name":"Studhorse Creek","state":"CO","atlas_class":"named_natural_stream_detail","huc8":"13010003","huc8Name":"San Luis","lineageKey":"rioGrande","lineage":"rioGrande","historic":"rioGrande","current":"rioGrande","recovery":"recoveryWatch","lineageLabel":"Rio Grande lineage","atlas_context":"cutthroat_lineage_context"}},{"type":"Feature","geometry":{"type":"LineString","coordinates":[[-106.0607,38.0645],[-106.0547,38.0622],[-106.0527,38.0595],[-106.0515,38.0601],[-106.0506,38.0595]]},"properties":{"name":"Saguache Creek","display_name":"Saguache Creek","source_name":"Saguache Creek","state":"CO","atlas_class":"named_natural_stream_detail","huc8":"13010004","huc8Name":"Saguache","lineageKey":"rioGrande","lineage":"rioGrande","historic":"rioGrande","current":"rioGrande","recovery":"recoveryWatch","lineageLabel":"Rio Grande lineage","atlas_context":"cutthroat_lineage_context"}},{"type":"Feature","geometry":{"type":"LineString","coordinates":[[-106.1358,38.1952],[-106.134,38.1935],[-106.1317,38.1932]]},"properties":{"name":"Little Kerber Creek","display_name":"Little Kerber Creek","source_name":"Little Kerber Creek","state":"CO","atlas_class":"named_natural_stream_detail","huc8":"13010003","huc8Name":"San Luis","lineageKey":"rioGrande","lineage":"rioGrande","historic":"rioGrande","current":"rioGrande","recovery":"recoveryWatch","lineageLabel":"Rio Grande lineage","atlas_context":"cutthroat_lineage_context"}},{"type":"Feature","geometry":{"type":"LineString","coordinates":[[-106.1393,38.1994],[-106.1391,38.1988]]},"properties":{"name":"Little Kerber Creek","display_name":"Little Kerber Creek","source_name":"Little Kerber Creek","state":"CO","atlas_class":"named_natural_stream_detail","huc8":"13010003","huc8Name":"San Luis","lineageKey":"rioGrande","lineage":"rioGrande","historic":"rioGrande","current":"rioGrande","recovery":"recoveryWatch","lineageLabel":"Rio Grande lineage","atlas_context":"cutthroat_lineage_context"}},{"type":"Feature","geometry":{"type":"LineString","coordinates":[[-106.1391,38.1988],[-106.1376,38.1971]]},"properties":{"name":"Little Kerber Creek","display_name":"Little Kerber Creek","source_name":"Little Kerber Creek","state":"CO","atlas_class":"named_natural_stream_detail","huc8":"13010003","huc8Name":"San Luis","lineageKey":"rioGrande","lineage":"rioGrande","historic":"rioGrande","current":"rioGrande","recovery":"recoveryWatch","lineageLabel":"Rio Grande lineage","atlas_context":"cutthroat_lineage_context"}},{"type":"Feature","geometry":{"type":"LineString","coordinates":[[-106.0755,38.0498],[-106.0738,38.0471],[-106.0703,38.0466],[-106.0698,38.0448],[-106.0685,38.0451],[-106.0674,38.0447],[-106.0673,38.0437],[-106.0632,38.0427]]},"properties":{"name":"Ball Arroyo","display_name":"Ball Arroyo","source_name":"Ball Arroyo","state":"CO","atlas_class":"named_natural_stream_detail","huc8":"13010004","huc8Name":"Saguache","lineageKey":"rioGrande","lineage":"rioGrande","historic":"rioGrande","current":"rioGrande","recovery":"recoveryWatch","lineageLabel":"Rio Grande lineage","atlas_context":"cutthroat_lineage_context"}},{"type":"Feature","geometry":{"type":"LineString","coordinates":[[-106.152,38.0742],[-106.1476,38.0714],[-106.1436,38.0714],[-106.1393,38.0692],[-106.1351,38.0698],[-106.1344,38.0708],[-106.1336,38.0703],[-106.133,38.0709]]},"properties":{"name":"Saguache Creek","display_name":"Saguache Creek","source_name":"Saguache Creek","state":"CO","atlas_class":"named_natural_stream_detail","huc8":"13010004","huc8Name":"Saguache","lineageKey":"rioGrande","lineage":"rioGrande","historic":"rioGrande","current":"rioGrande","recovery":"recoveryWatch","lineageLabel":"Rio Grande lineage","atlas_context":"cutthroat_lineage_context"}},{"type":"Feature","geometry":{"type":"LineString","coordinates":[[-106.1309,38.0704],[-106.1244,38.0692]]},"properties":{"name":"Saguache Creek","display_name":"Saguache Creek","source_name":"Saguache Creek","state":"CO","atlas_class":"named_natural_stream_detail","huc8":"13010004","huc8Name":"Saguache","lineageKey":"rioGrande","lineage":"rioGrande","historic":"rioGrande","current":"rioGrande","recovery":"recoveryWatch","lineageLabel":"Rio Grande lineage","atlas_context":"cutthroat_lineage_context"}},{"type":"Feature","geometry":{"type":"LineString","coordinates":[[-106.1405,38.2014],[-106.1393,38.1994]]},"properties":{"name":"Little Kerber Creek","display_name":"Little Kerber Creek","source_name":"Little Kerber Creek","state":"CO","atlas_class":"named_natural_stream_detail","huc8":"13010003","huc8Name":"San Luis","lineageKey":"rioGrande","lineage":"rioGrande","historic":"rioGrande","current":"rioGrande","recovery":"recoveryWatch","lineageLabel":"Rio Grande lineage","atlas_context":"cutthroat_lineage_context"}},{"type":"Feature","geometry":{"type":"LineString","coordinates":[[-106.0328,38.0434],[-106.0237,38.0361]]},"properties":{"name":"Saguache Creek","display_name":"Saguache Creek","source_name":"Saguache Creek","state":"CO","atlas_class":"named_natural_stream_detail","huc8":"13010004","huc8Name":"Saguache","lineageKey":"rioGrande","lineage":"rioGrande","historic":"rioGrande","current":"rioGrande","recovery":"recoveryWatch","lineageLabel":"Rio Grande lineage","atlas_context":"cutthroat_lineage_context"}},{"type":"Feature","geometry":{"type":"LineString","coordinates":[[-106.1013,38.1779],[-106.1004,38.1805]]},"properties":{"name":"Studhorse Creek","display_name":"Studhorse Creek","source_name":"Studhorse Creek","state":"CO","atlas_class":"named_natural_stream_detail","huc8":"13010003","huc8Name":"San Luis","lineageKey":"rioGrande","lineage":"rioGrande","historic":"rioGrande","current":"rioGrande","recovery":"recoveryWatch","lineageLabel":"Rio Grande lineage","atlas_context":"cutthroat_lineage_context"}},{"type":"Feature","geometry":{"type":"LineString","coordinates":[[-106.0063,38.0506],[-106.0071,38.0503],[-106.0063,38.0498],[-106.0069,38.0492],[-106.0058,38.049],[-106.0071,38.0482],[-106.0064,38.0469],[-106.0096,38.0458],[-106.0086,38.0452],[-106.009,38.0446],[-106.0074,38.0441],[-106.008,38.0435],[-106.0076,38.0426],[-106.0083,38.0425],[-106.0071,38.042],[-106.0084,38.041],[-106.0094,38.0416],[-106.0091,38.0408],[-106.0098,38.0409],[-106.0095,38.0399],[-106.0106,38.0389],[-106.0089,38.0361],[-106.0092,38.035],[-106.007,38.0336],[-106.0059,38.0334],[-106.0052,38.0343],[-106.0046,38.0331],[-106.0022,38.0324]]},"properties":{"name":"North Branch Saguache Creek","display_name":"North Branch Saguache Creek","source_name":"North Branch Saguache Creek","state":"CO","atlas_class":"named_natural_stream_detail","huc8":"13010004","huc8Name":"Saguache","lineageKey":"rioGrande","lineage":"rioGrande","historic":"rioGrande","current":"rioGrande","recovery":"recoveryWatch","lineageLabel":"Rio Grande lineage","atlas_context":"cutthroat_lineage_context"}},{"type":"Feature","geometry":{"type":"LineString","coordinates":[[-106.065,38.081],[-106.059,38.0799],[-106.0586,38.0786],[-106.0565,38.0783],[-106.0555,38.0772],[-106.0544,38.0777],[-106.0542,38.0769],[-106.0536,38.0778],[-106.0491,38.0785],[-106.0473,38.0781],[-106.0477,38.0771],[-106.0469,38.077],[-106.0465,38.0781],[-106.0463,38.077],[-106.0445,38.0769],[-106.0447,38.0759],[-106.0428,38.0753],[-106.0418,38.0763],[-106.0421,38.0757],[-106.0407,38.0756],[-106.0409,38.0748],[-106.0382,38.0742],[-106.0376,38.0733],[-106.0324,38.0737],[-106.0324,38.0728],[-106.0319,38.0735],[-106.0287,38.0726],[-106.0282,38.0735]]},"properties":{"name":"North Branch Saguache Creek","display_name":"North Branch Saguache Creek","source_name":"North Branch Saguache Creek","state":"CO","atlas_class":"named_natural_stream_detail","huc8":"13010004","huc8Name":"Saguache","lineageKey":"rioGrande","lineage":"rioGrande","historic":"rioGrande","current":"rioGrande","recovery":"recoveryWatch","lineageLabel":"Rio Grande lineage","atlas_context":"cutthroat_lineage_context"}},{"type":"Feature","geometry":{"type":"LineString","coordinates":[[-106.189,38.0713],[-106.1825,38.072],[-106.1805,38.0711],[-106.1784,38.0726],[-106.1728,38.0721],[-106.172,38.0727],[-106.1695,38.0711],[-106.1647,38.0699],[-106.1506,38.0695],[-106.1487,38.0687],[-106.1486,38.0679],[-106.146,38.0676],[-106.1445,38.0665],[-106.1444,38.0651],[-106.1412,38.0627],[-106.1337,38.0599],[-106.1326,38.0581],[-106.1277,38.0548]]},"properties":{"name":"Werner Arroyo","display_name":"Werner Arroyo","source_name":"Werner Arroyo","state":"CO","atlas_class":"named_natural_stream_detail","huc8":"13010004","huc8Name":"Saguache","lineageKey":"rioGrande","lineage":"rioGrande","historic":"rioGrande","current":"rioGrande","recovery":"recoveryWatch","lineageLabel":"Rio Grande lineage","atlas_context":"cutthroat_lineage_context"}},{"type":"Feature","geometry":{"type":"LineString","coordinates":[[-106.1841,38.0901],[-106.1831,38.09]]},"properties":{"name":"Saguache Creek","display_name":"Saguache Creek","source_name":"Saguache Creek","state":"CO","atlas_class":"named_natural_stream_detail","huc8":"13010004","huc8Name":"Saguache","lineageKey":"rioGrande","lineage":"rioGrande","historic":"rioGrande","current":"rioGrande","recovery":"recoveryWatch","lineageLabel":"Rio Grande lineage","atlas_context":"cutthroat_lineage_context"}},{"type":"Feature","geometry":{"type":"LineString","coordinates":[[-106.0972,38.0603],[-106.0956,38.0592],[-106.0916,38.0587],[-106.0884,38.0552],[-106.0869,38.0551]]},"properties":{"name":"Ball Arroyo","display_name":"Ball Arroyo","source_name":"Ball Arroyo","state":"CO","atlas_class":"named_natural_stream_detail","huc8":"13010004","huc8Name":"Saguache","lineageKey":"rioGrande","lineage":"rioGrande","historic":"rioGrande","current":"rioGrande","recovery":"recoveryWatch","lineageLabel":"Rio Grande lineage","atlas_context":"cutthroat_lineage_context"}},{"type":"Feature","geometry":{"type":"LineString","coordinates":[[-106.1311,38.0706],[-106.1309,38.0704]]},"properties":{"name":"Saguache Creek","display_name":"Saguache Creek","source_name":"Saguache Creek","state":"CO","atlas_class":"named_natural_stream_detail","huc8":"13010004","huc8Name":"Saguache","lineageKey":"rioGrande","lineage":"rioGrande","historic":"rioGrande","current":"rioGrande","recovery":"recoveryWatch","lineageLabel":"Rio Grande lineage","atlas_context":"cutthroat_lineage_context"}},{"type":"Feature","geometry":{"type":"LineString","coordinates":[[-106.1376,38.1971],[-106.1371,38.1963]]},"properties":{"name":"Little Kerber Creek","display_name":"Little Kerber Creek","source_name":"Little Kerber Creek","state":"CO","atlas_class":"named_natural_stream_detail","huc8":"13010003","huc8Name":"San Luis","lineageKey":"rioGrande","lineage":"rioGrande","historic":"rioGrande","current":"rioGrande","recovery":"recoveryWatch","lineageLabel":"Rio Grande lineage","atlas_context":"cutthroat_lineage_context"}},{"type":"Feature","geometry":{"type":"LineString","coordinates":[[-106.092,38.1995],[-106.0918,38.2002]]},"properties":{"name":"Little Kerber Creek","display_name":"Little Kerber Creek","source_name":"Little Kerber Creek","state":"CO","atlas_class":"named_natural_stream_detail","huc8":"13010003","huc8Name":"San Luis","lineageKey":"rioGrande","lineage":"rioGrande","historic":"rioGrande","current":"rioGrande","recovery":"recoveryWatch","lineageLabel":"Rio Grande lineage","atlas_context":"cutthroat_lineage_context"}},{"type":"Feature","geometry":{"type":"LineString","coordinates":[[-106.1128,38.1872],[-106.1109,38.1876]]},"properties":{"name":"Little Kerber Creek","display_name":"Little Kerber Creek","source_name":"Little Kerber Creek","state":"CO","atlas_class":"named_natural_stream_detail","huc8":"13010003","huc8Name":"San Luis","lineageKey":"rioGrande","lineage":"rioGrande","historic":"rioGrande","current":"rioGrande","recovery":"recoveryWatch","lineageLabel":"Rio Grande lineage","atlas_context":"cutthroat_lineage_context"}},{"type":"Feature","geometry":{"type":"LineString","coordinates":[[-106.133,38.0709],[-106.1311,38.0706]]},"properties":{"name":"Saguache Creek","display_name":"Saguache Creek","source_name":"Saguache Creek","state":"CO","atlas_class":"named_natural_stream_detail","huc8":"13010004","huc8Name":"Saguache","lineageKey":"rioGrande","lineage":"rioGrande","historic":"rioGrande","current":"rioGrande","recovery":"recoveryWatch","lineageLabel":"Rio Grande lineage","atlas_context":"cutthroat_lineage_context"}},{"type":"Feature","geometry":{"type":"LineString","coordinates":[[-106.1151,38.0677],[-106.1103,38.0683],[-106.1073,38.0672],[-106.1064,38.0655],[-106.1046,38.066]]},"properties":{"name":"Saguache Creek","display_name":"Saguache Creek","source_name":"Saguache Creek","state":"CO","atlas_class":"named_natural_stream_detail","huc8":"13010004","huc8Name":"Saguache","lineageKey":"rioGrande","lineage":"rioGrande","historic":"rioGrande","current":"rioGrande","recovery":"recoveryWatch","lineageLabel":"Rio Grande lineage","atlas_context":"cutthroat_lineage_context"}},{"type":"Feature","geometry":{"type":"LineString","coordinates":[[-106.1035,38.1673],[-106.1032,38.1722],[-106.1013,38.1779]]},"properties":{"name":"Studhorse Creek","display_name":"Studhorse Creek","source_name":"Studhorse Creek","state":"CO","atlas_class":"named_natural_stream_detail","huc8":"13010003","huc8Name":"San Luis","lineageKey":"rioGrande","lineage":"rioGrande","historic":"rioGrande","current":"rioGrande","recovery":"recoveryWatch","lineageLabel":"Rio Grande lineage","atlas_context":"cutthroat_lineage_context"}},{"type":"Feature","geometry":{"type":"LineString","coordinates":[[-106.0947,38.1965],[-106.0926,38.1977],[-106.092,38.1995]]},"properties":{"name":"Little Kerber Creek","display_name":"Little Kerber Creek","source_name":"Little Kerber Creek","state":"CO","atlas_class":"named_natural_stream_detail","huc8":"13010003","huc8Name":"San Luis","lineageKey":"rioGrande","lineage":"rioGrande","historic":"rioGrande","current":"rioGrande","recovery":"recoveryWatch","lineageLabel":"Rio Grande lineage","atlas_context":"cutthroat_lineage_context"}},{"type":"Feature","geometry":{"type":"LineString","coordinates":[[-106.1067,38.1903],[-106.106,38.1907]]},"properties":{"name":"Little Kerber Creek","display_name":"Little Kerber Creek","source_name":"Little Kerber Creek","state":"CO","atlas_class":"named_natural_stream_detail","huc8":"13010003","huc8Name":"San Luis","lineageKey":"rioGrande","lineage":"rioGrande","historic":"rioGrande","current":"rioGrande","recovery":"recoveryWatch","lineageLabel":"Rio Grande lineage","atlas_context":"cutthroat_lineage_context"}},{"type":"Feature","geometry":{"type":"LineString","coordinates":[[-106.0399,38.0188],[-106.0366,38.0173],[-106.0319,38.0169],[-106.0303,38.0155],[-106.0307,38.0134],[-106.0272,38.0117],[-106.0247,38.0119],[-106.0186,38.0091],[-106.0173,38.0094]]},"properties":{"name":"Ball Arroyo","display_name":"Ball Arroyo","source_name":"Ball Arroyo","state":"CO","atlas_class":"named_natural_stream_detail","huc8":"13010004","huc8Name":"Saguache","lineageKey":"rioGrande","lineage":"rioGrande","historic":"rioGrande","current":"rioGrande","recovery":"recoveryWatch","lineageLabel":"Rio Grande lineage","atlas_context":"cutthroat_lineage_context"}},{"type":"Feature","geometry":{"type":"LineString","coordinates":[[-106.0173,38.0094],[-106.0152,38.0088],[-106.0146,38.0074],[-106.0102,38.0042],[-106.0097,38.0019],[-106.0088,38.0022],[-106.0075,37.9999],[-106.0043,37.9982]]},"properties":{"name":"Ball Arroyo","display_name":"Ball Arroyo","source_name":"Ball Arroyo","state":"CO","atlas_class":"named_natural_stream_detail","huc8":"13010004","huc8Name":"Saguache","lineageKey":"rioGrande","lineage":"rioGrande","historic":"rioGrande","current":"rioGrande","recovery":"recoveryWatch","lineageLabel":"Rio Grande lineage","atlas_context":"cutthroat_lineage_context"}},{"type":"Feature","geometry":{"type":"LineString","coordinates":[[-106.0176,38.0279],[-106.0127,38.026],[-106.0111,38.0278],[-106.01,38.0276]]},"properties":{"name":"Saguache Creek","display_name":"Saguache Creek","source_name":"Saguache Creek","state":"CO","atlas_class":"named_natural_stream_detail","huc8":"13010004","huc8Name":"Saguache","lineageKey":"rioGrande","lineage":"rioGrande","historic":"rioGrande","current":"rioGrande","recovery":"recoveryWatch","lineageLabel":"Rio Grande lineage","atlas_context":"cutthroat_lineage_context"}},{"type":"Feature","geometry":{"type":"LineString","coordinates":[[-106.1679,38.0802],[-106.1605,38.0788]]},"properties":{"name":"Saguache Creek","display_name":"Saguache Creek","source_name":"Saguache Creek","state":"CO","atlas_class":"named_natural_stream_detail","huc8":"13010004","huc8Name":"Saguache","lineageKey":"rioGrande","lineage":"rioGrande","historic":"rioGrande","current":"rioGrande","recovery":"recoveryWatch","lineageLabel":"Rio Grande lineage","atlas_context":"cutthroat_lineage_context"}},{"type":"Feature","geometry":{"type":"LineString","coordinates":[[-106.1831,38.09],[-106.1787,38.087]]},"properties":{"name":"Saguache Creek","display_name":"Saguache Creek","source_name":"Saguache Creek","state":"CO","atlas_class":"named_natural_stream_detail","huc8":"13010004","huc8Name":"Saguache","lineageKey":"rioGrande","lineage":"rioGrande","historic":"rioGrande","current":"rioGrande","recovery":"recoveryWatch","lineageLabel":"Rio Grande lineage","atlas_context":"cutthroat_lineage_context"}},{"type":"Feature","geometry":{"type":"LineString","coordinates":[[-106.1249,38.1904],[-106.1182,38.1891]]},"properties":{"name":"Little Kerber Creek","display_name":"Little Kerber Creek","source_name":"Little Kerber Creek","state":"CO","atlas_class":"named_natural_stream_detail","huc8":"13010003","huc8Name":"San Luis","lineageKey":"rioGrande","lineage":"rioGrande","historic":"rioGrande","current":"rioGrande","recovery":"recoveryWatch","lineageLabel":"Rio Grande lineage","atlas_context":"cutthroat_lineage_context"}},{"type":"Feature","geometry":{"type":"LineString","coordinates":[[-106.1046,38.066],[-106.1031,38.0654]]},"properties":{"name":"Saguache Creek","display_name":"Saguache Creek","source_name":"Saguache Creek","state":"CO","atlas_class":"named_natural_stream_detail","huc8":"13010004","huc8Name":"Saguache","lineageKey":"rioGrande","lineage":"rioGrande","historic":"rioGrande","current":"rioGrande","recovery":"recoveryWatch","lineageLabel":"Rio Grande lineage","atlas_context":"cutthroat_lineage_context"}},{"type":"Feature","geometry":{"type":"LineString","coordinates":[[-106.0506,38.0595],[-106.0459,38.0571],[-106.0437,38.0526],[-106.0396,38.0518],[-106.0397,38.0485],[-106.0379,38.0449],[-106.0328,38.0434]]},"properties":{"name":"Saguache Creek","display_name":"Saguache Creek","source_name":"Saguache Creek","state":"CO","atlas_class":"named_natural_stream_detail","huc8":"13010004","huc8Name":"Saguache","lineageKey":"rioGrande","lineage":"rioGrande","historic":"rioGrande","current":"rioGrande","recovery":"recoveryWatch","lineageLabel":"Rio Grande lineage","atlas_context":"cutthroat_lineage_context"}},{"type":"Feature","geometry":{"type":"LineString","coordinates":[[-106.0237,38.0361],[-106.0213,38.0346],[-106.0205,38.0324],[-106.0184,38.0309],[-106.0176,38.0279]]},"properties":{"name":"Saguache Creek","display_name":"Saguache Creek","source_name":"Saguache Creek","state":"CO","atlas_class":"named_natural_stream_detail","huc8":"13010004","huc8Name":"Saguache","lineageKey":"rioGrande","lineage":"rioGrande","historic":"rioGrande","current":"rioGrande","recovery":"recoveryWatch","lineageLabel":"Rio Grande lineage","atlas_context":"cutthroat_lineage_context"}},{"type":"Feature","geometry":{"type":"LineString","coordinates":[[-106.1605,38.0788],[-106.1585,38.0783],[-106.156,38.0759],[-106.1541,38.0758],[-106.1537,38.0742],[-106.152,38.0742]]},"properties":{"name":"Saguache Creek","display_name":"Saguache Creek","source_name":"Saguache Creek","state":"CO","atlas_class":"named_natural_stream_detail","huc8":"13010004","huc8Name":"Saguache","lineageKey":"rioGrande","lineage":"rioGrande","historic":"rioGrande","current":"rioGrande","recovery":"recoveryWatch","lineageLabel":"Rio Grande lineage","atlas_context":"cutthroat_lineage_context"}},{"type":"Feature","geometry":{"type":"LineString","coordinates":[[-106.1278,38.1917],[-106.1249,38.1904]]},"properties":{"name":"Little Kerber Creek","display_name":"Little Kerber Creek","source_name":"Little Kerber Creek","state":"CO","atlas_class":"named_natural_stream_detail","huc8":"13010003","huc8Name":"San Luis","lineageKey":"rioGrande","lineage":"rioGrande","historic":"rioGrande","current":"rioGrande","recovery":"recoveryWatch","lineageLabel":"Rio Grande lineage","atlas_context":"cutthroat_lineage_context"}},{"type":"Feature","geometry":{"type":"LineString","coordinates":[[-106.106,38.1907],[-106.1041,38.1912]]},"properties":{"name":"Little Kerber Creek","display_name":"Little Kerber Creek","source_name":"Little Kerber Creek","state":"CO","atlas_class":"named_natural_stream_detail","huc8":"13010003","huc8Name":"San Luis","lineageKey":"rioGrande","lineage":"rioGrande","historic":"rioGrande","current":"rioGrande","recovery":"recoveryWatch","lineageLabel":"Rio Grande lineage","atlas_context":"cutthroat_lineage_context"}},{"type":"Feature","geometry":{"type":"LineString","coordinates":[[-106.1298,38.1926],[-106.1292,38.1924]]},"properties":{"name":"Little Kerber Creek","display_name":"Little Kerber Creek","source_name":"Little Kerber Creek","state":"CO","atlas_class":"named_natural_stream_detail","huc8":"13010003","huc8Name":"San Luis","lineageKey":"rioGrande","lineage":"rioGrande","historic":"rioGrande","current":"rioGrande","recovery":"recoveryWatch","lineageLabel":"Rio Grande lineage","atlas_context":"cutthroat_lineage_context"}},{"type":"Feature","geometry":{"type":"LineString","coordinates":[[-106.1362,38.1954],[-106.1358,38.1952]]},"properties":{"name":"Little Kerber Creek","display_name":"Little Kerber Creek","source_name":"Little Kerber Creek","state":"CO","atlas_class":"named_natural_stream_detail","huc8":"13010003","huc8Name":"San Luis","lineageKey":"rioGrande","lineage":"rioGrande","historic":"rioGrande","current":"rioGrande","recovery":"recoveryWatch","lineageLabel":"Rio Grande lineage","atlas_context":"cutthroat_lineage_context"}},{"type":"Feature","geometry":{"type":"LineString","coordinates":[[-106.1307,38.1927],[-106.1298,38.1926]]},"properties":{"name":"Little Kerber Creek","display_name":"Little Kerber Creek","source_name":"Little Kerber Creek","state":"CO","atlas_class":"named_natural_stream_detail","huc8":"13010003","huc8Name":"San Luis","lineageKey":"rioGrande","lineage":"rioGrande","historic":"rioGrande","current":"rioGrande","recovery":"recoveryWatch","lineageLabel":"Rio Grande lineage","atlas_context":"cutthroat_lineage_context"}},{"type":"Feature","geometry":{"type":"LineString","coordinates":[[-106.1193,38.1724],[-106.1111,38.1813],[-106.1086,38.1813],[-106.1064,38.183],[-106.1054,38.1872],[-106.1067,38.1903]]},"properties":{"name":"Ute Creek","display_name":"Ute Creek","source_name":"Ute Creek","state":"CO","atlas_class":"named_natural_stream_detail","huc8":"13010003","huc8Name":"San Luis","lineageKey":"rioGrande","lineage":"rioGrande","historic":"rioGrande","current":"rioGrande","recovery":"recoveryWatch","lineageLabel":"Rio Grande lineage","atlas_context":"cutthroat_lineage_context"}},{"type":"Feature","geometry":{"type":"LineString","coordinates":[[-106.0282,38.0735],[-106.0265,38.0722],[-106.0252,38.067]]},"properties":{"name":"North Branch Saguache Creek","display_name":"North Branch Saguache Creek","source_name":"North Branch Saguache Creek","state":"CO","atlas_class":"named_natural_stream_detail","huc8":"13010004","huc8Name":"Saguache","lineageKey":"rioGrande","lineage":"rioGrande","historic":"rioGrande","current":"rioGrande","recovery":"recoveryWatch","lineageLabel":"Rio Grande lineage","atlas_context":"cutthroat_lineage_context"}},{"type":"Feature","geometry":{"type":"LineString","coordinates":[[-106.1732,38.0856],[-106.1721,38.085],[-106.1722,38.0834],[-106.1705,38.0814],[-106.1679,38.0802]]},"properties":{"name":"Saguache Creek","display_name":"Saguache Creek","source_name":"Saguache Creek","state":"CO","atlas_class":"named_natural_stream_detail","huc8":"13010004","huc8Name":"Saguache","lineageKey":"rioGrande","lineage":"rioGrande","historic":"rioGrande","current":"rioGrande","recovery":"recoveryWatch","lineageLabel":"Rio Grande lineage","atlas_context":"cutthroat_lineage_context"}},{"type":"Feature","geometry":{"type":"LineString","coordinates":[[-106.1017,38.065],[-106.1004,38.0653]]},"properties":{"name":"Saguache Creek","display_name":"Saguache Creek","source_name":"Saguache Creek","state":"CO","atlas_class":"named_natural_stream_detail","huc8":"13010004","huc8Name":"Saguache","lineageKey":"rioGrande","lineage":"rioGrande","historic":"rioGrande","current":"rioGrande","recovery":"recoveryWatch","lineageLabel":"Rio Grande lineage","atlas_context":"cutthroat_lineage_context"}},{"type":"Feature","geometry":{"type":"LineString","coordinates":[[-106.103,38.163],[-106.1023,38.1644]]},"properties":{"name":"Studhorse Creek","display_name":"Studhorse Creek","source_name":"Studhorse Creek","state":"CO","atlas_class":"named_natural_stream_detail","huc8":"13010003","huc8Name":"San Luis","lineageKey":"rioGrande","lineage":"rioGrande","historic":"rioGrande","current":"rioGrande","recovery":"recoveryWatch","lineageLabel":"Rio Grande lineage","atlas_context":"cutthroat_lineage_context"}},{"type":"Feature","geometry":{"type":"LineString","coordinates":[[-106.0243,38.0661],[-106.0238,38.0674],[-106.0232,38.0666],[-106.0231,38.0676],[-106.0222,38.0677],[-106.0219,38.0666],[-106.0202,38.0681],[-106.0197,38.0671],[-106.0171,38.0674],[-106.0178,38.0664],[-106.0166,38.0655],[-106.0163,38.0668],[-106.0142,38.0673],[-106.0136,38.0654],[-106.0151,38.0652],[-106.0128,38.0638],[-106.0138,38.063]]},"properties":{"name":"North Branch Saguache Creek","display_name":"North Branch Saguache Creek","source_name":"North Branch Saguache Creek","state":"CO","atlas_class":"named_natural_stream_detail","huc8":"13010004","huc8Name":"Saguache","lineageKey":"rioGrande","lineage":"rioGrande","historic":"rioGrande","current":"rioGrande","recovery":"recoveryWatch","lineageLabel":"Rio Grande lineage","atlas_context":"cutthroat_lineage_context"}},{"type":"Feature","geometry":{"type":"LineString","coordinates":[[-106.1363,38.1954],[-106.1362,38.1954]]},"properties":{"name":"Little Kerber Creek","display_name":"Little Kerber Creek","source_name":"Little Kerber Creek","state":"CO","atlas_class":"named_natural_stream_detail","huc8":"13010003","huc8Name":"San Luis","lineageKey":"rioGrande","lineage":"rioGrande","historic":"rioGrande","current":"rioGrande","recovery":"recoveryWatch","lineageLabel":"Rio Grande lineage","atlas_context":"cutthroat_lineage_context"}},{"type":"Feature","geometry":{"type":"LineString","coordinates":[[-106.1004,38.0653],[-106.0923,38.0686]]},"properties":{"name":"Saguache Creek","display_name":"Saguache Creek","source_name":"Saguache Creek","state":"CO","atlas_class":"named_natural_stream_detail","huc8":"13010004","huc8Name":"Saguache","lineageKey":"rioGrande","lineage":"rioGrande","historic":"rioGrande","current":"rioGrande","recovery":"recoveryWatch","lineageLabel":"Rio Grande lineage","atlas_context":"cutthroat_lineage_context"}},{"type":"Feature","geometry":{"type":"LineString","coordinates":[[-106.0955,38.1954],[-106.0948,38.1962]]},"properties":{"name":"Little Kerber Creek","display_name":"Little Kerber Creek","source_name":"Little Kerber Creek","state":"CO","atlas_class":"named_natural_stream_detail","huc8":"13010003","huc8Name":"San Luis","lineageKey":"rioGrande","lineage":"rioGrande","historic":"rioGrande","current":"rioGrande","recovery":"recoveryWatch","lineageLabel":"Rio Grande lineage","atlas_context":"cutthroat_lineage_context"}},{"type":"Feature","geometry":{"type":"LineString","coordinates":[[-106.0252,38.067],[-106.0243,38.0661]]},"properties":{"name":"North Branch Saguache Creek","display_name":"North Branch Saguache Creek","source_name":"North Branch Saguache Creek","state":"CO","atlas_class":"named_natural_stream_detail","huc8":"13010004","huc8Name":"Saguache","lineageKey":"rioGrande","lineage":"rioGrande","historic":"rioGrande","current":"rioGrande","recovery":"recoveryWatch","lineageLabel":"Rio Grande lineage","atlas_context":"cutthroat_lineage_context"}},{"type":"Feature","geometry":{"type":"LineString","coordinates":[[-106.1234,38.167],[-106.123,38.1698],[-106.1193,38.1724]]},"properties":{"name":"Ute Creek","display_name":"Ute Creek","source_name":"Ute Creek","state":"CO","atlas_class":"named_natural_stream_detail","huc8":"13010003","huc8Name":"San Luis","lineageKey":"rioGrande","lineage":"rioGrande","historic":"rioGrande","current":"rioGrande","recovery":"recoveryWatch","lineageLabel":"Rio Grande lineage","atlas_context":"cutthroat_lineage_context"}},{"type":"Feature","geometry":{"type":"LineString","coordinates":[[-106.0825,38.0667],[-106.0812,38.0655],[-106.0787,38.0669],[-106.0744,38.0663],[-106.0742,38.0669],[-106.0712,38.0662],[-106.0693,38.0646],[-106.0607,38.0645]]},"properties":{"name":"Saguache Creek","display_name":"Saguache Creek","source_name":"Saguache Creek","state":"CO","atlas_class":"named_natural_stream_detail","huc8":"13010004","huc8Name":"Saguache","lineageKey":"rioGrande","lineage":"rioGrande","historic":"rioGrande","current":"rioGrande","recovery":"recoveryWatch","lineageLabel":"Rio Grande lineage","atlas_context":"cutthroat_lineage_context"}},{"type":"Feature","geometry":{"type":"LineString","coordinates":[[-106.1873,38.0916],[-106.1846,38.0912],[-106.1849,38.0902],[-106.1841,38.0901]]},"properties":{"name":"Saguache Creek","display_name":"Saguache Creek","source_name":"Saguache Creek","state":"CO","atlas_class":"named_natural_stream_detail","huc8":"13010004","huc8Name":"Saguache","lineageKey":"rioGrande","lineage":"rioGrande","historic":"rioGrande","current":"rioGrande","recovery":"recoveryWatch","lineageLabel":"Rio Grande lineage","atlas_context":"cutthroat_lineage_context"}},{"type":"Feature","geometry":{"type":"LineString","coordinates":[[-106.1787,38.087],[-106.1732,38.0856]]},"properties":{"name":"Saguache Creek","display_name":"Saguache Creek","source_name":"Saguache Creek","state":"CO","atlas_class":"named_natural_stream_detail","huc8":"13010004","huc8Name":"Saguache","lineageKey":"rioGrande","lineage":"rioGrande","historic":"rioGrande","current":"rioGrande","recovery":"recoveryWatch","lineageLabel":"Rio Grande lineage","atlas_context":"cutthroat_lineage_context"}},{"type":"Feature","geometry":{"type":"LineString","coordinates":[[-106.0816,38.0007],[-106.0789,37.9996],[-106.0785,37.9975],[-106.0766,37.9977],[-106.0749,37.9964],[-106.0746,37.9948],[-106.0709,37.9917],[-106.07,37.9878],[-106.0664,37.9839],[-106.0666,37.9822],[-106.0687,37.9801],[-106.0677,37.9755],[-106.0662,37.973],[-106.0635,37.9718],[-106.0619,37.9694],[-106.0561,37.9683],[-106.0562,37.9659],[-106.0528,37.9627],[-106.0544,37.9594],[-106.0519,37.9591],[-106.0531,37.9556],[-106.0523,37.955]]},"properties":{"name":"Werner Arroyo","display_name":"Werner Arroyo","source_name":"Werner Arroyo","state":"CO","atlas_class":"named_natural_stream_detail","huc8":"13010004","huc8Name":"Saguache","lineageKey":"rioGrande","lineage":"rioGrande","historic":"rioGrande","current":"rioGrande","recovery":"recoveryWatch","lineageLabel":"Rio Grande lineage","atlas_context":"cutthroat_lineage_context"}},{"type":"Feature","geometry":{"type":"LineString","coordinates":[[-106.1182,38.1891],[-106.1148,38.1887],[-106.1128,38.1872]]},"properties":{"name":"Little Kerber Creek","display_name":"Little Kerber Creek","source_name":"Little Kerber Creek","state":"CO","atlas_class":"named_natural_stream_detail","huc8":"13010003","huc8Name":"San Luis","lineageKey":"rioGrande","lineage":"rioGrande","historic":"rioGrande","current":"rioGrande","recovery":"recoveryWatch","lineageLabel":"Rio Grande lineage","atlas_context":"cutthroat_lineage_context"}},{"type":"Feature","geometry":{"type":"LineString","coordinates":[[-106.2041,38.0739],[-106.1986,38.072],[-106.1963,38.0724],[-106.189,38.0713]]},"properties":{"name":"Werner Arroyo","display_name":"Werner Arroyo","source_name":"Werner Arroyo","state":"CO","atlas_class":"named_natural_stream_detail","huc8":"13010004","huc8Name":"Saguache","lineageKey":"rioGrande","lineage":"rioGrande","historic":"rioGrande","current":"rioGrande","recovery":"recoveryWatch","lineageLabel":"Rio Grande lineage","atlas_context":"cutthroat_lineage_context"}},{"type":"Feature","geometry":{"type":"LineString","coordinates":[[-106.0993,38.0161],[-106.0986,38.0134],[-106.0959,38.0136],[-106.0939,38.0128],[-106.0944,38.0123],[-106.093,38.0119],[-106.0931,38.011],[-106.0915,38.0099],[-106.0853,38.007],[-106.0848,38.0041],[-106.0816,38.0007]]},"properties":{"name":"Werner Arroyo","display_name":"Werner Arroyo","source_name":"Werner Arroyo","state":"CO","atlas_class":"named_natural_stream_detail","huc8":"13010004","huc8Name":"Saguache","lineageKey":"rioGrande","lineage":"rioGrande","historic":"rioGrande","current":"rioGrande","recovery":"recoveryWatch","lineageLabel":"Rio Grande lineage","atlas_context":"cutthroat_lineage_context"}},{"type":"Feature","geometry":{"type":"LineString","coordinates":[[-106.1292,38.1924],[-106.1288,38.1923]]},"properties":{"name":"Little Kerber Creek","display_name":"Little Kerber Creek","source_name":"Little Kerber Creek","state":"CO","atlas_class":"named_natural_stream_detail","huc8":"13010003","huc8Name":"San Luis","lineageKey":"rioGrande","lineage":"rioGrande","historic":"rioGrande","current":"rioGrande","recovery":"recoveryWatch","lineageLabel":"Rio Grande lineage","atlas_context":"cutthroat_lineage_context"}},{"type":"Feature","geometry":{"type":"LineString","coordinates":[[-106.2056,38.1027],[-106.2026,38.1027],[-106.2011,38.0999],[-106.1993,38.1003],[-106.1986,38.0986],[-106.1961,38.0975],[-106.1961,38.0968],[-106.1953,38.0971],[-106.1917,38.0949]]},"properties":{"name":"Saguache Creek","display_name":"Saguache Creek","source_name":"Saguache Creek","state":"CO","atlas_class":"named_natural_stream_detail","huc8":"13010004","huc8Name":"Saguache","lineageKey":"rioGrande","lineage":"rioGrande","historic":"rioGrande","current":"rioGrande","recovery":"recoveryWatch","lineageLabel":"Rio Grande lineage","atlas_context":"cutthroat_lineage_context"}},{"type":"Feature","geometry":{"type":"LineString","coordinates":[[-106.1109,38.1876],[-106.108,38.1884],[-106.1067,38.1903]]},"properties":{"name":"Little Kerber Creek","display_name":"Little Kerber Creek","source_name":"Little Kerber Creek","state":"CO","atlas_class":"named_natural_stream_detail","huc8":"13010003","huc8Name":"San Luis","lineageKey":"rioGrande","lineage":"rioGrande","historic":"rioGrande","current":"rioGrande","recovery":"recoveryWatch","lineageLabel":"Rio Grande lineage","atlas_context":"cutthroat_lineage_context"}},{"type":"Feature","geometry":{"type":"LineString","coordinates":[[-106.1036,38.0761],[-106.1014,38.0769],[-106.1,38.0763]]},"properties":{"name":"North Branch Saguache Creek","display_name":"North Branch Saguache Creek","source_name":"North Branch Saguache Creek","state":"CO","atlas_class":"named_natural_stream_detail","huc8":"13010004","huc8Name":"Saguache","lineageKey":"rioGrande","lineage":"rioGrande","historic":"rioGrande","current":"rioGrande","recovery":"recoveryWatch","lineageLabel":"Rio Grande lineage","atlas_context":"cutthroat_lineage_context"}},{"type":"Feature","geometry":{"type":"LineString","coordinates":[[-106.1288,38.1923],[-106.1278,38.1917]]},"properties":{"name":"Little Kerber Creek","display_name":"Little Kerber Creek","source_name":"Little Kerber Creek","state":"CO","atlas_class":"named_natural_stream_detail","huc8":"13010003","huc8Name":"San Luis","lineageKey":"rioGrande","lineage":"rioGrande","historic":"rioGrande","current":"rioGrande","recovery":"recoveryWatch","lineageLabel":"Rio Grande lineage","atlas_context":"cutthroat_lineage_context"}},{"type":"Feature","geometry":{"type":"LineString","coordinates":[[-106.1371,38.1963],[-106.1363,38.1954]]},"properties":{"name":"Little Kerber Creek","display_name":"Little Kerber Creek","source_name":"Little Kerber Creek","state":"CO","atlas_class":"named_natural_stream_detail","huc8":"13010003","huc8Name":"San Luis","lineageKey":"rioGrande","lineage":"rioGrande","historic":"rioGrande","current":"rioGrande","recovery":"recoveryWatch","lineageLabel":"Rio Grande lineage","atlas_context":"cutthroat_lineage_context"}},{"type":"Feature","geometry":{"type":"LineString","coordinates":[[-106.1031,38.0654],[-106.1017,38.065]]},"properties":{"name":"Saguache Creek","display_name":"Saguache Creek","source_name":"Saguache Creek","state":"CO","atlas_class":"named_natural_stream_detail","huc8":"13010004","huc8Name":"Saguache","lineageKey":"rioGrande","lineage":"rioGrande","historic":"rioGrande","current":"rioGrande","recovery":"recoveryWatch","lineageLabel":"Rio Grande lineage","atlas_context":"cutthroat_lineage_context"}},{"type":"Feature","geometry":{"type":"LineString","coordinates":[[-106.0022,38.0324],[-105.9975,38.0294],[-105.9971,38.0279],[-105.9981,38.0276],[-105.9984,38.0252],[-105.9969,38.0243],[-105.9957,38.0221],[-105.9942,38.0217]]},"properties":{"name":"North Branch Saguache Creek","display_name":"North Branch Saguache Creek","source_name":"North Branch Saguache Creek","state":"CO","atlas_class":"named_natural_stream_detail","huc8":"13010004","huc8Name":"Saguache","lineageKey":"rioGrande","lineage":"rioGrande","historic":"rioGrande","current":"rioGrande","recovery":"recoveryWatch","lineageLabel":"Rio Grande lineage","atlas_context":"cutthroat_lineage_context"}}]}