{"type":"FeatureCollection","metadata":{"source":"C:\\ct-atlas-data\\processed\\geojson\\interpreted\\colorado_named_natural_streams_complete_v1.geojson","type":"colorado-natural-stream-detail-tile-v2","tile_size_degrees":0.2,"x":-512,"y":193,"bounds":{"west":-102.4,"south":38.6,"east":-102.2,"north":38.8}},"features":[{"type":"Feature","geometry":{"type":"LineString","coordinates":[[-102.378,38.7594],[-102.3762,38.759],[-102.3749,38.7599],[-102.3752,38.7628],[-102.3741,38.7638],[-102.3694,38.7656]]},"properties":{"name":"Ladder Creek","display_name":"Ladder Creek","source_name":"Ladder Creek","state":"CO","atlas_class":"named_natural_stream_detail","huc8":"10260004","huc8Name":"Ladder","lineageKey":"statewideContext","lineage":"statewideContext","historic":"statewideContext","current":"statewideContext","recovery":"statewideContext","lineageLabel":"Statewide Colorado hydrography context","atlas_context":"statewide_hydrography_context"}},{"type":"Feature","geometry":{"type":"LineString","coordinates":[[-102.2942,38.7845],[-102.2934,38.785]]},"properties":{"name":"Ladder Creek","display_name":"Ladder Creek","source_name":"Ladder Creek","state":"CO","atlas_class":"named_natural_stream_detail","huc8":"10260004","huc8Name":"Ladder","lineageKey":"statewideContext","lineage":"statewideContext","historic":"statewideContext","current":"statewideContext","recovery":"statewideContext","lineageLabel":"Statewide Colorado hydrography context","atlas_context":"statewide_hydrography_context"}},{"type":"Feature","geometry":{"type":"LineString","coordinates":[[-102.2479,38.7787],[-102.2445,38.7798],[-102.244,38.7786],[-102.2407,38.778],[-102.2386,38.7764],[-102.2365,38.7771],[-102.237,38.7779],[-102.2364,38.7806],[-102.2396,38.7854],[-102.2358,38.7874],[-102.2333,38.7899]]},"properties":{"name":"Ladder Creek","display_name":"Ladder Creek","source_name":"Ladder Creek","state":"CO","atlas_class":"named_natural_stream_detail","huc8":"10260004","huc8Name":"Ladder","lineageKey":"statewideContext","lineage":"statewideContext","historic":"statewideContext","current":"statewideContext","recovery":"statewideContext","lineageLabel":"Statewide Colorado hydrography context","atlas_context":"statewide_hydrography_context"}},{"type":"Feature","geometry":{"type":"LineString","coordinates":[[-102.398,38.7608],[-102.3912,38.7621],[-102.3897,38.7613]]},"properties":{"name":"Ladder Creek","display_name":"Ladder Creek","source_name":"Ladder Creek","state":"CO","atlas_class":"named_natural_stream_detail","huc8":"10260004","huc8Name":"Ladder","lineageKey":"statewideContext","lineage":"statewideContext","historic":"statewideContext","current":"statewideContext","recovery":"statewideContext","lineageLabel":"Statewide Colorado hydrography context","atlas_context":"statewide_hydrography_context"}},{"type":"Feature","geometry":{"type":"LineString","coordinates":[[-102.3466,38.7624],[-102.3463,38.7641],[-102.3436,38.7646],[-102.3383,38.7678],[-102.3351,38.7661],[-102.3333,38.7662],[-102.3323,38.7643],[-102.331,38.7642],[-102.3235,38.7696],[-102.3198,38.7688],[-102.318,38.7713],[-102.316,38.7721],[-102.3054,38.7731],[-102.3044,38.7754]]},"properties":{"name":"Ladder Creek","display_name":"Ladder Creek","source_name":"Ladder Creek","state":"CO","atlas_class":"named_natural_stream_detail","huc8":"10260004","huc8Name":"Ladder","lineageKey":"statewideContext","lineage":"statewideContext","historic":"statewideContext","current":"statewideContext","recovery":"statewideContext","lineageLabel":"Statewide Colorado hydrography context","atlas_context":"statewide_hydrography_context"}},{"type":"Feature","geometry":{"type":"LineString","coordinates":[[-102.2769,38.7835],[-102.2714,38.7825],[-102.2702,38.7812],[-102.2661,38.7824],[-102.265,38.7819]]},"properties":{"name":"Ladder Creek","display_name":"Ladder Creek","source_name":"Ladder Creek","state":"CO","atlas_class":"named_natural_stream_detail","huc8":"10260004","huc8Name":"Ladder","lineageKey":"statewideContext","lineage":"statewideContext","historic":"statewideContext","current":"statewideContext","recovery":"statewideContext","lineageLabel":"Statewide Colorado hydrography context","atlas_context":"statewide_hydrography_context"}},{"type":"Feature","geometry":{"type":"LineString","coordinates":[[-102.2954,38.783],[-102.2942,38.7845]]},"properties":{"name":"Ladder Creek","display_name":"Ladder Creek","source_name":"Ladder Creek","state":"CO","atlas_class":"named_natural_stream_detail","huc8":"10260004","huc8Name":"Ladder","lineageKey":"statewideContext","lineage":"statewideContext","historic":"statewideContext","current":"statewideContext","recovery":"statewideContext","lineageLabel":"Statewide Colorado hydrography context","atlas_context":"statewide_hydrography_context"}},{"type":"Feature","geometry":{"type":"LineString","coordinates":[[-102.3012,38.7781],[-102.3009,38.7802]]},"properties":{"name":"Ladder Creek","display_name":"Ladder Creek","source_name":"Ladder Creek","state":"CO","atlas_class":"named_natural_stream_detail","huc8":"10260004","huc8Name":"Ladder","lineageKey":"statewideContext","lineage":"statewideContext","historic":"statewideContext","current":"statewideContext","recovery":"statewideContext","lineageLabel":"Statewide Colorado hydrography context","atlas_context":"statewide_hydrography_context"}},{"type":"Feature","geometry":{"type":"LineString","coordinates":[[-102.3044,38.7754],[-102.3012,38.7781]]},"properties":{"name":"Ladder Creek","display_name":"Ladder Creek","source_name":"Ladder Creek","state":"CO","atlas_class":"named_natural_stream_detail","huc8":"10260004","huc8Name":"Ladder","lineageKey":"statewideContext","lineage":"statewideContext","historic":"statewideContext","current":"statewideContext","recovery":"statewideContext","lineageLabel":"Statewide Colorado hydrography context","atlas_context":"statewide_hydrography_context"}},{"type":"Feature","geometry":{"type":"LineString","coordinates":[[-102.4115,38.7289],[-102.409,38.73],[-102.4054,38.727],[-102.4026,38.7281],[-102.4009,38.7265],[-102.3985,38.7264]]},"properties":{"name":"South Ladder Creek","display_name":"South Ladder Creek","source_name":"South Ladder Creek","state":"CO","atlas_class":"named_natural_stream_detail","huc8":"10260004","huc8Name":"Ladder","lineageKey":"statewideContext","lineage":"statewideContext","historic":"statewideContext","current":"statewideContext","recovery":"statewideContext","lineageLabel":"Statewide Colorado hydrography context","atlas_context":"statewide_hydrography_context"}},{"type":"Feature","geometry":{"type":"LineString","coordinates":[[-102.2791,38.7851],[-102.2775,38.7838]]},"properties":{"name":"Ladder Creek","display_name":"Ladder Creek","source_name":"Ladder Creek","state":"CO","atlas_class":"named_natural_stream_detail","huc8":"10260004","huc8Name":"Ladder","lineageKey":"statewideContext","lineage":"statewideContext","historic":"statewideContext","current":"statewideContext","recovery":"statewideContext","lineageLabel":"Statewide Colorado hydrography context","atlas_context":"statewide_hydrography_context"}},{"type":"Feature","geometry":{"type":"LineString","coordinates":[[-102.4001,38.7604],[-102.398,38.7608]]},"properties":{"name":"Ladder Creek","display_name":"Ladder Creek","source_name":"Ladder Creek","state":"CO","atlas_class":"named_natural_stream_detail","huc8":"10260004","huc8Name":"Ladder","lineageKey":"statewideContext","lineage":"statewideContext","historic":"statewideContext","current":"statewideContext","recovery":"statewideContext","lineageLabel":"Statewide Colorado hydrography context","atlas_context":"statewide_hydrography_context"}},{"type":"Feature","geometry":{"type":"LineString","coordinates":[[-102.2153,38.7972],[-102.2119,38.7971],[-102.2124,38.7993],[-102.2092,38.7983],[-102.2082,38.8001],[-102.2066,38.8004]]},"properties":{"name":"Ladder Creek","display_name":"Ladder Creek","source_name":"Ladder Creek","state":"CO","atlas_class":"named_natural_stream_detail","huc8":"10260004","huc8Name":"Ladder","lineageKey":"statewideContext","lineage":"statewideContext","historic":"statewideContext","current":"statewideContext","recovery":"statewideContext","lineageLabel":"Statewide Colorado hydrography context","atlas_context":"statewide_hydrography_context"}},{"type":"Feature","geometry":{"type":"LineString","coordinates":[[-102.2917,38.7441],[-102.2897,38.745],[-102.2871,38.7438],[-102.2866,38.7425],[-102.2878,38.7405],[-102.2861,38.7406],[-102.2831,38.7389],[-102.2815,38.7343],[-102.2798,38.7345],[-102.2761,38.732],[-102.2731,38.7338],[-102.2695,38.7327],[-102.2679,38.7285],[-102.2686,38.7272],[-102.2676,38.7265],[-102.2645,38.727],[-102.2634,38.7287],[-102.2605,38.7291],[-102.2578,38.7275],[-102.2555,38.7248],[-102.2557,38.7233],[-102.2547,38.7226],[-102.2471,38.7261],[-102.2453,38.725],[-102.2462,38.7236],[-102.2441,38.7224],[-102.2441,38.7213],[-102.241,38.7206],[-102.2375,38.7243],[-102.2316,38.7218],[-102.2299,38.7252],[-102.2282,38.7254],[-102.227,38.7247],[-102.2273,38.7234],[-102.2257,38.7216],[-102.2238,38.7218],[-102.2231,38.7208],[-102.2209,38.7212],[-102.2213,38.7201],[-102.2197,38.7188],[-102.2211,38.7178],[-102.2207,38.7173],[-102.2177,38.7175],[-102.2163,38.719],[-102.2137,38.7193],[-102.213,38.7177],[-102.2099,38.7166],[-102.2099,38.7155],[-102.207,38.7145],[-102.2071,38.7097],[-102.2055,38.7077],[-102.2061,38.7066],[-102.2056,38.7045],[-102.2027,38.7002],[-102.2021,38.6969],[-102.1993,38.6958]]},"properties":{"name":"South Ladder Creek","display_name":"South Ladder Creek","source_name":"South Ladder Creek","state":"CO","atlas_class":"named_natural_stream_detail","huc8":"10260004","huc8Name":"Ladder","lineageKey":"statewideContext","lineage":"statewideContext","historic":"statewideContext","current":"statewideContext","recovery":"statewideContext","lineageLabel":"Statewide Colorado hydrography context","atlas_context":"statewide_hydrography_context"}},{"type":"Feature","geometry":{"type":"LineString","coordinates":[[-102.2536,38.7793],[-102.2511,38.7784],[-102.2479,38.7787]]},"properties":{"name":"Ladder Creek","display_name":"Ladder Creek","source_name":"Ladder Creek","state":"CO","atlas_class":"named_natural_stream_detail","huc8":"10260004","huc8Name":"Ladder","lineageKey":"statewideContext","lineage":"statewideContext","historic":"statewideContext","current":"statewideContext","recovery":"statewideContext","lineageLabel":"Statewide Colorado hydrography context","atlas_context":"statewide_hydrography_context"}},{"type":"Feature","geometry":{"type":"LineString","coordinates":[[-102.2265,38.7927],[-102.2225,38.7912]]},"properties":{"name":"Ladder Creek","display_name":"Ladder Creek","source_name":"Ladder Creek","state":"CO","atlas_class":"named_natural_stream_detail","huc8":"10260004","huc8Name":"Ladder","lineageKey":"statewideContext","lineage":"statewideContext","historic":"statewideContext","current":"statewideContext","recovery":"statewideContext","lineageLabel":"Statewide Colorado hydrography context","atlas_context":"statewide_hydrography_context"}},{"type":"Feature","geometry":{"type":"LineString","coordinates":[[-102.3277,38.7965],[-102.3265,38.7981],[-102.3246,38.7975],[-102.3228,38.7981],[-102.3173,38.8083],[-102.3156,38.81],[-102.3048,38.8158],[-102.301,38.8157],[-102.2978,38.8172]]},"properties":{"name":"North Fork Ladder Creek","display_name":"North Fork Ladder Creek","source_name":"North Fork Ladder Creek","state":"CO","atlas_class":"named_natural_stream_detail","huc8":"10260004","huc8Name":"Ladder","lineageKey":"statewideContext","lineage":"statewideContext","historic":"statewideContext","current":"statewideContext","recovery":"statewideContext","lineageLabel":"Statewide Colorado hydrography context","atlas_context":"statewide_hydrography_context"}},{"type":"Feature","geometry":{"type":"LineString","coordinates":[[-102.3394,38.8085],[-102.3385,38.8068],[-102.3344,38.8043],[-102.3326,38.8018],[-102.3279,38.8001],[-102.3283,38.7968],[-102.3277,38.7965]]},"properties":{"name":"North Fork Ladder Creek","display_name":"North Fork Ladder Creek","source_name":"North Fork Ladder Creek","state":"CO","atlas_class":"named_natural_stream_detail","huc8":"10260004","huc8Name":"Ladder","lineageKey":"statewideContext","lineage":"statewideContext","historic":"statewideContext","current":"statewideContext","recovery":"statewideContext","lineageLabel":"Statewide Colorado hydrography context","atlas_context":"statewide_hydrography_context"}},{"type":"Feature","geometry":{"type":"LineString","coordinates":[[-102.3009,38.7802],[-102.3004,38.7811],[-102.2973,38.7813],[-102.2954,38.783]]},"properties":{"name":"Ladder Creek","display_name":"Ladder Creek","source_name":"Ladder Creek","state":"CO","atlas_class":"named_natural_stream_detail","huc8":"10260004","huc8Name":"Ladder","lineageKey":"statewideContext","lineage":"statewideContext","historic":"statewideContext","current":"statewideContext","recovery":"statewideContext","lineageLabel":"Statewide Colorado hydrography context","atlas_context":"statewide_hydrography_context"}},{"type":"Feature","geometry":{"type":"LineString","coordinates":[[-102.2816,38.7854],[-102.2803,38.7852]]},"properties":{"name":"Ladder Creek","display_name":"Ladder Creek","source_name":"Ladder Creek","state":"CO","atlas_class":"named_natural_stream_detail","huc8":"10260004","huc8Name":"Ladder","lineageKey":"statewideContext","lineage":"statewideContext","historic":"statewideContext","current":"statewideContext","recovery":"statewideContext","lineageLabel":"Statewide Colorado hydrography context","atlas_context":"statewide_hydrography_context"}},{"type":"Feature","geometry":{"type":"LineString","coordinates":[[-102.3694,38.7656],[-102.3646,38.7656]]},"properties":{"name":"Ladder Creek","display_name":"Ladder Creek","source_name":"Ladder Creek","state":"CO","atlas_class":"named_natural_stream_detail","huc8":"10260004","huc8Name":"Ladder","lineageKey":"statewideContext","lineage":"statewideContext","historic":"statewideContext","current":"statewideContext","recovery":"statewideContext","lineageLabel":"Statewide Colorado hydrography context","atlas_context":"statewide_hydrography_context"}},{"type":"Feature","geometry":{"type":"LineString","coordinates":[[-102.2907,38.7845],[-102.2852,38.7837]]},"properties":{"name":"Ladder Creek","display_name":"Ladder Creek","source_name":"Ladder Creek","state":"CO","atlas_class":"named_natural_stream_detail","huc8":"10260004","huc8Name":"Ladder","lineageKey":"statewideContext","lineage":"statewideContext","historic":"statewideContext","current":"statewideContext","recovery":"statewideContext","lineageLabel":"Statewide Colorado hydrography context","atlas_context":"statewide_hydrography_context"}},{"type":"Feature","geometry":{"type":"LineString","coordinates":[[-102.2333,38.7899],[-102.2315,38.7939],[-102.2265,38.7927]]},"properties":{"name":"Ladder Creek","display_name":"Ladder Creek","source_name":"Ladder Creek","state":"CO","atlas_class":"named_natural_stream_detail","huc8":"10260004","huc8Name":"Ladder","lineageKey":"statewideContext","lineage":"statewideContext","historic":"statewideContext","current":"statewideContext","recovery":"statewideContext","lineageLabel":"Statewide Colorado hydrography context","atlas_context":"statewide_hydrography_context"}},{"type":"Feature","geometry":{"type":"LineString","coordinates":[[-102.2066,38.8004],[-102.2047,38.7985],[-102.2047,38.7947]]},"properties":{"name":"Ladder Creek","display_name":"Ladder Creek","source_name":"Ladder Creek","state":"CO","atlas_class":"named_natural_stream_detail","huc8":"10260004","huc8Name":"Ladder","lineageKey":"statewideContext","lineage":"statewideContext","historic":"statewideContext","current":"statewideContext","recovery":"statewideContext","lineageLabel":"Statewide Colorado hydrography context","atlas_context":"statewide_hydrography_context"}},{"type":"Feature","geometry":{"type":"LineString","coordinates":[[-102.2047,38.7947],[-102.2017,38.7935],[-102.2005,38.7962],[-102.1967,38.7981],[-102.1936,38.7979],[-102.1921,38.7966],[-102.1886,38.7986],[-102.1864,38.7963],[-102.1843,38.799],[-102.1801,38.7962]]},"properties":{"name":"Ladder Creek","display_name":"Ladder Creek","source_name":"Ladder Creek","state":"CO","atlas_class":"named_natural_stream_detail","huc8":"10260004","huc8Name":"Ladder","lineageKey":"statewideContext","lineage":"statewideContext","historic":"statewideContext","current":"statewideContext","recovery":"statewideContext","lineageLabel":"Statewide Colorado hydrography context","atlas_context":"statewide_hydrography_context"}},{"type":"Feature","geometry":{"type":"LineString","coordinates":[[-102.3897,38.7613],[-102.3843,38.7617],[-102.3841,38.7594],[-102.3822,38.7582],[-102.3799,38.7587],[-102.3811,38.761],[-102.3805,38.7613],[-102.3792,38.7615],[-102.378,38.7594]]},"properties":{"name":"Ladder Creek","display_name":"Ladder Creek","source_name":"Ladder Creek","state":"CO","atlas_class":"named_natural_stream_detail","huc8":"10260004","huc8Name":"Ladder","lineageKey":"statewideContext","lineage":"statewideContext","historic":"statewideContext","current":"statewideContext","recovery":"statewideContext","lineageLabel":"Statewide Colorado hydrography context","atlas_context":"statewide_hydrography_context"}},{"type":"Feature","geometry":{"type":"LineString","coordinates":[[-102.2625,38.7797],[-102.2585,38.7793],[-102.2564,38.7801],[-102.2536,38.7793]]},"properties":{"name":"Ladder Creek","display_name":"Ladder Creek","source_name":"Ladder Creek","state":"CO","atlas_class":"named_natural_stream_detail","huc8":"10260004","huc8Name":"Ladder","lineageKey":"statewideContext","lineage":"statewideContext","historic":"statewideContext","current":"statewideContext","recovery":"statewideContext","lineageLabel":"Statewide Colorado hydrography context","atlas_context":"statewide_hydrography_context"}},{"type":"Feature","geometry":{"type":"LineString","coordinates":[[-102.3646,38.7656],[-102.3635,38.767],[-102.3662,38.7685],[-102.3669,38.7705],[-102.3627,38.7702],[-102.359,38.7686],[-102.3559,38.7642],[-102.355,38.7642],[-102.3546,38.7655],[-102.3526,38.7633],[-102.3495,38.7646],[-102.3483,38.7625],[-102.3466,38.7624]]},"properties":{"name":"Ladder Creek","display_name":"Ladder Creek","source_name":"Ladder Creek","state":"CO","atlas_class":"named_natural_stream_detail","huc8":"10260004","huc8Name":"Ladder","lineageKey":"statewideContext","lineage":"statewideContext","historic":"statewideContext","current":"statewideContext","recovery":"statewideContext","lineageLabel":"Statewide Colorado hydrography context","atlas_context":"statewide_hydrography_context"}},{"type":"Feature","geometry":{"type":"LineString","coordinates":[[-102.3985,38.7264],[-102.3958,38.7266],[-102.3947,38.7287],[-102.3896,38.73],[-102.3879,38.7316],[-102.3844,38.7327],[-102.382,38.733],[-102.3758,38.7309],[-102.3758,38.7348],[-102.3741,38.7363],[-102.3729,38.7361],[-102.3733,38.7351],[-102.3724,38.7343],[-102.3705,38.7349],[-102.3694,38.7321],[-102.3674,38.7325],[-102.3658,38.7308],[-102.364,38.7305],[-102.3627,38.7321],[-102.3555,38.7358],[-102.354,38.7347],[-102.3459,38.7343],[-102.3436,38.733],[-102.341,38.7343],[-102.339,38.7341],[-102.3378,38.7366],[-102.3336,38.735],[-102.3272,38.737],[-102.3255,38.7357],[-102.3209,38.7361],[-102.3173,38.7376],[-102.3166,38.7385],[-102.3172,38.7393],[-102.3146,38.7416],[-102.3115,38.7404],[-102.3097,38.7382],[-102.3071,38.7375],[-102.2998,38.7418],[-102.2917,38.7441]]},"properties":{"name":"South Ladder Creek","display_name":"South Ladder Creek","source_name":"South Ladder Creek","state":"CO","atlas_class":"named_natural_stream_detail","huc8":"10260004","huc8Name":"Ladder","lineageKey":"statewideContext","lineage":"statewideContext","historic":"statewideContext","current":"statewideContext","recovery":"statewideContext","lineageLabel":"Statewide Colorado hydrography context","atlas_context":"statewide_hydrography_context"}},{"type":"Feature","geometry":{"type":"LineString","coordinates":[[-102.2852,38.7837],[-102.2831,38.7849]]},"properties":{"name":"Ladder Creek","display_name":"Ladder Creek","source_name":"Ladder Creek","state":"CO","atlas_class":"named_natural_stream_detail","huc8":"10260004","huc8Name":"Ladder","lineageKey":"statewideContext","lineage":"statewideContext","historic":"statewideContext","current":"statewideContext","recovery":"statewideContext","lineageLabel":"Statewide Colorado hydrography context","atlas_context":"statewide_hydrography_context"}},{"type":"Feature","geometry":{"type":"LineString","coordinates":[[-102.2225,38.7912],[-102.2216,38.791],[-102.2202,38.7928],[-102.2202,38.7951],[-102.2185,38.7979],[-102.2163,38.7983],[-102.2153,38.7972]]},"properties":{"name":"Ladder Creek","display_name":"Ladder Creek","source_name":"Ladder Creek","state":"CO","atlas_class":"named_natural_stream_detail","huc8":"10260004","huc8Name":"Ladder","lineageKey":"statewideContext","lineage":"statewideContext","historic":"statewideContext","current":"statewideContext","recovery":"statewideContext","lineageLabel":"Statewide Colorado hydrography context","atlas_context":"statewide_hydrography_context"}},{"type":"Feature","geometry":{"type":"LineString","coordinates":[[-102.3006,38.696],[-102.2975,38.6953],[-102.2945,38.6978],[-102.2892,38.6975]]},"properties":{"name":"White Woman Creek","display_name":"White Woman Creek","source_name":"White Woman Creek","state":"CO","atlas_class":"named_natural_stream_detail","huc8":"11030002","huc8Name":"Whitewoman","lineageKey":"statewideContext","lineage":"statewideContext","historic":"statewideContext","current":"statewideContext","recovery":"statewideContext","lineageLabel":"Statewide Colorado hydrography context","atlas_context":"statewide_hydrography_context"}},{"type":"Feature","geometry":{"type":"LineString","coordinates":[[-102.2891,38.6964],[-102.2878,38.6934],[-102.2826,38.689]]},"properties":{"name":"White Woman Creek","display_name":"White Woman Creek","source_name":"White Woman Creek","state":"CO","atlas_class":"named_natural_stream_detail","huc8":"11030002","huc8Name":"Whitewoman","lineageKey":"statewideContext","lineage":"statewideContext","historic":"statewideContext","current":"statewideContext","recovery":"statewideContext","lineageLabel":"Statewide Colorado hydrography context","atlas_context":"statewide_hydrography_context"}},{"type":"Feature","geometry":{"type":"LineString","coordinates":[[-102.206,38.671],[-102.2041,38.6698],[-102.202,38.6698]]},"properties":{"name":"White Woman Creek","display_name":"White Woman Creek","source_name":"White Woman Creek","state":"CO","atlas_class":"named_natural_stream_detail","huc8":"11030002","huc8Name":"Whitewoman","lineageKey":"statewideContext","lineage":"statewideContext","historic":"statewideContext","current":"statewideContext","recovery":"statewideContext","lineageLabel":"Statewide Colorado hydrography context","atlas_context":"statewide_hydrography_context"}},{"type":"Feature","geometry":{"type":"LineString","coordinates":[[-102.202,38.6698],[-102.1999,38.6655],[-102.1967,38.6647],[-102.1983,38.6629],[-102.1977,38.6624]]},"properties":{"name":"White Woman Creek","display_name":"White Woman Creek","source_name":"White Woman Creek","state":"CO","atlas_class":"named_natural_stream_detail","huc8":"11030002","huc8Name":"Whitewoman","lineageKey":"statewideContext","lineage":"statewideContext","historic":"statewideContext","current":"statewideContext","recovery":"statewideContext","lineageLabel":"Statewide Colorado hydrography context","atlas_context":"statewide_hydrography_context"}},{"type":"Feature","geometry":{"type":"LineString","coordinates":[[-102.2826,38.689],[-102.2811,38.6897],[-102.2789,38.6871],[-102.2764,38.6862],[-102.273,38.6864],[-102.2701,38.6839]]},"properties":{"name":"White Woman Creek","display_name":"White Woman Creek","source_name":"White Woman Creek","state":"CO","atlas_class":"named_natural_stream_detail","huc8":"11030002","huc8Name":"Whitewoman","lineageKey":"statewideContext","lineage":"statewideContext","historic":"statewideContext","current":"statewideContext","recovery":"statewideContext","lineageLabel":"Statewide Colorado hydrography context","atlas_context":"statewide_hydrography_context"}},{"type":"Feature","geometry":{"type":"LineString","coordinates":[[-102.2313,38.6828],[-102.2268,38.6829],[-102.2255,38.6843],[-102.2233,38.6848],[-102.2226,38.684],[-102.2231,38.6826],[-102.2207,38.6799],[-102.2216,38.6784],[-102.2168,38.6796],[-102.2144,38.6746],[-102.2119,38.6728],[-102.2091,38.6727],[-102.206,38.671]]},"properties":{"name":"White Woman Creek","display_name":"White Woman Creek","source_name":"White Woman Creek","state":"CO","atlas_class":"named_natural_stream_detail","huc8":"11030002","huc8Name":"Whitewoman","lineageKey":"statewideContext","lineage":"statewideContext","historic":"statewideContext","current":"statewideContext","recovery":"statewideContext","lineageLabel":"Statewide Colorado hydrography context","atlas_context":"statewide_hydrography_context"}},{"type":"Feature","geometry":{"type":"LineString","coordinates":[[-102.3548,38.711],[-102.3543,38.7135],[-102.3504,38.7145],[-102.3493,38.7172],[-102.346,38.7174],[-102.3437,38.7192],[-102.34,38.7194],[-102.3367,38.7146],[-102.3316,38.715],[-102.3236,38.713],[-102.3212,38.7135],[-102.3182,38.7085],[-102.3116,38.7077],[-102.3098,38.7049],[-102.3064,38.7031],[-102.3069,38.7013],[-102.3059,38.6993],[-102.3048,38.6985],[-102.3024,38.6987],[-102.3006,38.696]]},"properties":{"name":"White Woman Creek","display_name":"White Woman Creek","source_name":"White Woman Creek","state":"CO","atlas_class":"named_natural_stream_detail","huc8":"11030002","huc8Name":"Whitewoman","lineageKey":"statewideContext","lineage":"statewideContext","historic":"statewideContext","current":"statewideContext","recovery":"statewideContext","lineageLabel":"Statewide Colorado hydrography context","atlas_context":"statewide_hydrography_context"}},{"type":"Feature","geometry":{"type":"LineString","coordinates":[[-102.2701,38.6839],[-102.2686,38.6846],[-102.2693,38.6857],[-102.2672,38.6847],[-102.2639,38.6786],[-102.2629,38.6788],[-102.2631,38.6797],[-102.2599,38.68],[-102.2587,38.6779],[-102.2501,38.6766],[-102.2469,38.674],[-102.246,38.6746],[-102.2467,38.6754],[-102.2445,38.6754],[-102.2437,38.6744]]},"properties":{"name":"White Woman Creek","display_name":"White Woman Creek","source_name":"White Woman Creek","state":"CO","atlas_class":"named_natural_stream_detail","huc8":"11030002","huc8Name":"Whitewoman","lineageKey":"statewideContext","lineage":"statewideContext","historic":"statewideContext","current":"statewideContext","recovery":"statewideContext","lineageLabel":"Statewide Colorado hydrography context","atlas_context":"statewide_hydrography_context"}},{"type":"Feature","geometry":{"type":"LineString","coordinates":[[-102.2441,38.6734],[-102.2425,38.6707],[-102.24,38.6716],[-102.2401,38.6731],[-102.242,38.675],[-102.2404,38.6748],[-102.2413,38.6764],[-102.2393,38.6768],[-102.2389,38.6778],[-102.2334,38.6753],[-102.2322,38.6773],[-102.2339,38.6784],[-102.2336,38.6804],[-102.2313,38.6828]]},"properties":{"name":"White Woman Creek","display_name":"White Woman Creek","source_name":"White Woman Creek","state":"CO","atlas_class":"named_natural_stream_detail","huc8":"11030002","huc8Name":"Whitewoman","lineageKey":"statewideContext","lineage":"statewideContext","historic":"statewideContext","current":"statewideContext","recovery":"statewideContext","lineageLabel":"Statewide Colorado hydrography context","atlas_context":"statewide_hydrography_context"}},{"type":"Feature","geometry":{"type":"LineString","coordinates":[[-102.2136,38.6231],[-102.2088,38.6197],[-102.197,38.6137],[-102.1861,38.6049],[-102.1725,38.6002],[-102.1671,38.6005],[-102.1645,38.5978]]},"properties":{"name":"South Fork White Woman Creek","display_name":"South Fork White Woman Creek","source_name":"South Fork White Woman Creek","state":"CO","atlas_class":"named_natural_stream_detail","huc8":"11030002","huc8Name":"Whitewoman","lineageKey":"statewideContext","lineage":"statewideContext","historic":"statewideContext","current":"statewideContext","recovery":"statewideContext","lineageLabel":"Statewide Colorado hydrography context","atlas_context":"statewide_hydrography_context"}},{"type":"Feature","geometry":{"type":"LineString","coordinates":[[-102.3641,38.7095],[-102.3623,38.7091],[-102.3597,38.7106],[-102.3548,38.7099],[-102.3547,38.7108]]},"properties":{"name":"White Woman Creek","display_name":"White Woman Creek","source_name":"White Woman Creek","state":"CO","atlas_class":"named_natural_stream_detail","huc8":"11030002","huc8Name":"Whitewoman","lineageKey":"statewideContext","lineage":"statewideContext","historic":"statewideContext","current":"statewideContext","recovery":"statewideContext","lineageLabel":"Statewide Colorado hydrography context","atlas_context":"statewide_hydrography_context"}}]}