{"type":"FeatureCollection","metadata":{"source":"C:\\ct-atlas-data\\processed\\geojson\\interpreted\\colorado_named_natural_streams_complete_v1.geojson","type":"colorado-natural-stream-detail-tile-v2","tile_size_degrees":0.2,"x":-519,"y":192,"bounds":{"west":-103.8,"south":38.4,"east":-103.6,"north":38.6}},"features":[{"type":"Feature","geometry":{"type":"LineString","coordinates":[[-103.6694,38.5357],[-103.67,38.5341],[-103.6724,38.5329]]},"properties":{"name":"Horse Creek","display_name":"Horse Creek","source_name":"Horse Creek","state":"CO","atlas_class":"named_natural_stream_detail","huc8":"11020008","huc8Name":"Horse","lineageKey":"statewideContext","lineage":"statewideContext","historic":"statewideContext","current":"statewideContext","recovery":"statewideContext","lineageLabel":"Statewide Colorado hydrography context","atlas_context":"statewide_hydrography_context"}},{"type":"Feature","geometry":{"type":"LineString","coordinates":[[-103.6921,38.4472],[-103.6864,38.4442],[-103.6865,38.4428],[-103.6887,38.4423],[-103.6883,38.4391],[-103.6807,38.4311],[-103.6823,38.428],[-103.6867,38.4274],[-103.6871,38.4264],[-103.6861,38.4232],[-103.684,38.4236],[-103.6832,38.4229],[-103.6826,38.419],[-103.6839,38.4175],[-103.6832,38.415],[-103.6814,38.4145],[-103.6793,38.4159]]},"properties":{"name":"Horse Creek","display_name":"Horse Creek","source_name":"Horse Creek","state":"CO","atlas_class":"named_natural_stream_detail","huc8":"11020008","huc8Name":"Horse","lineageKey":"statewideContext","lineage":"statewideContext","historic":"statewideContext","current":"statewideContext","recovery":"statewideContext","lineageLabel":"Statewide Colorado hydrography context","atlas_context":"statewide_hydrography_context"}},{"type":"Feature","geometry":{"type":"LineString","coordinates":[[-103.7627,38.4023],[-103.7611,38.3974],[-103.759,38.3956],[-103.7585,38.3927],[-103.7568,38.3923],[-103.7563,38.3912]]},"properties":{"name":"Lone Tree Creek","display_name":"Lone Tree Creek","source_name":"Lone Tree Creek","state":"CO","atlas_class":"named_natural_stream_detail","huc8":"11020008","huc8Name":"Horse","lineageKey":"statewideContext","lineage":"statewideContext","historic":"statewideContext","current":"statewideContext","recovery":"statewideContext","lineageLabel":"Statewide Colorado hydrography context","atlas_context":"statewide_hydrography_context"}},{"type":"Feature","geometry":{"type":"LineString","coordinates":[[-103.6724,38.5329],[-103.6757,38.5323],[-103.6777,38.5303],[-103.6753,38.5263],[-103.6752,38.5246],[-103.6779,38.5227],[-103.678,38.5187],[-103.6801,38.5173],[-103.6851,38.5161],[-103.6847,38.5149],[-103.6837,38.5146]]},"properties":{"name":"Horse Creek","display_name":"Horse Creek","source_name":"Horse Creek","state":"CO","atlas_class":"named_natural_stream_detail","huc8":"11020008","huc8Name":"Horse","lineageKey":"statewideContext","lineage":"statewideContext","historic":"statewideContext","current":"statewideContext","recovery":"statewideContext","lineageLabel":"Statewide Colorado hydrography context","atlas_context":"statewide_hydrography_context"}},{"type":"Feature","geometry":{"type":"LineString","coordinates":[[-103.6726,38.5557],[-103.674,38.5546]]},"properties":{"name":"Horse Creek","display_name":"Horse Creek","source_name":"Horse Creek","state":"CO","atlas_class":"named_natural_stream_detail","huc8":"11020008","huc8Name":"Horse","lineageKey":"statewideContext","lineage":"statewideContext","historic":"statewideContext","current":"statewideContext","recovery":"statewideContext","lineageLabel":"Statewide Colorado hydrography context","atlas_context":"statewide_hydrography_context"}},{"type":"Feature","geometry":{"type":"LineString","coordinates":[[-103.7816,38.5423],[-103.7803,38.5383],[-103.7782,38.5383]]},"properties":{"name":"Dead Horse Creek","display_name":"Dead Horse Creek","source_name":"Dead Horse Creek","state":"CO","atlas_class":"named_natural_stream_detail","huc8":"11020008","huc8Name":"Horse","lineageKey":"statewideContext","lineage":"statewideContext","historic":"statewideContext","current":"statewideContext","recovery":"statewideContext","lineageLabel":"Statewide Colorado hydrography context","atlas_context":"statewide_hydrography_context"}},{"type":"Feature","geometry":{"type":"LineString","coordinates":[[-103.7782,38.5383],[-103.7771,38.5368]]},"properties":{"name":"Dead Horse Creek","display_name":"Dead Horse Creek","source_name":"Dead Horse Creek","state":"CO","atlas_class":"named_natural_stream_detail","huc8":"11020008","huc8Name":"Horse","lineageKey":"statewideContext","lineage":"statewideContext","historic":"statewideContext","current":"statewideContext","recovery":"statewideContext","lineageLabel":"Statewide Colorado hydrography context","atlas_context":"statewide_hydrography_context"}},{"type":"Feature","geometry":{"type":"LineString","coordinates":[[-103.6025,38.5718],[-103.604,38.5625],[-103.6024,38.5591]]},"properties":{"name":"Sand Arroyo","display_name":"Sand Arroyo","source_name":"Sand Arroyo","state":"CO","atlas_class":"named_natural_stream_detail","huc8":"11020009","huc8Name":"Upper Arkansas-John Martin Reservoir","lineageKey":"statewideContext","lineage":"statewideContext","historic":"statewideContext","current":"statewideContext","recovery":"statewideContext","lineageLabel":"Statewide Colorado hydrography context","atlas_context":"statewide_hydrography_context"}},{"type":"Feature","geometry":{"type":"LineString","coordinates":[[-103.6734,38.5924],[-103.6709,38.5901],[-103.6689,38.5907],[-103.6689,38.589]]},"properties":{"name":"Horse Creek","display_name":"Horse Creek","source_name":"Horse Creek","state":"CO","atlas_class":"named_natural_stream_detail","huc8":"11020008","huc8Name":"Horse","lineageKey":"statewideContext","lineage":"statewideContext","historic":"statewideContext","current":"statewideContext","recovery":"statewideContext","lineageLabel":"Statewide Colorado hydrography context","atlas_context":"statewide_hydrography_context"}},{"type":"Feature","geometry":{"type":"LineString","coordinates":[[-103.7292,38.4979],[-103.7301,38.4963],[-103.7282,38.4938],[-103.729,38.4931],[-103.7284,38.4925],[-103.7289,38.4909],[-103.7303,38.4904],[-103.7302,38.4875],[-103.7323,38.4867],[-103.7312,38.4849],[-103.7329,38.4827],[-103.7338,38.4828],[-103.7341,38.4819],[-103.7332,38.4808],[-103.7352,38.48],[-103.7351,38.4793],[-103.736,38.4795],[-103.7363,38.478],[-103.7354,38.4778],[-103.7388,38.474],[-103.7381,38.4714],[-103.7391,38.4704],[-103.7384,38.4698],[-103.7397,38.4692],[-103.7371,38.4648],[-103.7383,38.4647],[-103.7391,38.463]]},"properties":{"name":"Pond Creek","display_name":"Pond Creek","source_name":"Pond Creek","state":"CO","atlas_class":"named_natural_stream_detail","huc8":"11020008","huc8Name":"Horse","lineageKey":"statewideContext","lineage":"statewideContext","historic":"statewideContext","current":"statewideContext","recovery":"statewideContext","lineageLabel":"Statewide Colorado hydrography context","atlas_context":"statewide_hydrography_context"}},{"type":"Feature","geometry":{"type":"LineString","coordinates":[[-103.7278,38.5499],[-103.7274,38.5491]]},"properties":{"name":"Pond Creek","display_name":"Pond Creek","source_name":"Pond Creek","state":"CO","atlas_class":"named_natural_stream_detail","huc8":"11020008","huc8Name":"Horse","lineageKey":"statewideContext","lineage":"statewideContext","historic":"statewideContext","current":"statewideContext","recovery":"statewideContext","lineageLabel":"Statewide Colorado hydrography context","atlas_context":"statewide_hydrography_context"}},{"type":"Feature","geometry":{"type":"LineString","coordinates":[[-103.7294,38.5018],[-103.7302,38.5009],[-103.7288,38.5],[-103.7297,38.4994],[-103.7286,38.4985],[-103.7292,38.4979]]},"properties":{"name":"Pond Creek","display_name":"Pond Creek","source_name":"Pond Creek","state":"CO","atlas_class":"named_natural_stream_detail","huc8":"11020008","huc8Name":"Horse","lineageKey":"statewideContext","lineage":"statewideContext","historic":"statewideContext","current":"statewideContext","recovery":"statewideContext","lineageLabel":"Statewide Colorado hydrography context","atlas_context":"statewide_hydrography_context"}},{"type":"Feature","geometry":{"type":"LineString","coordinates":[[-103.699,38.4723],[-103.6972,38.4695],[-103.6982,38.4625],[-103.6958,38.4572],[-103.6976,38.4528],[-103.6922,38.4475]]},"properties":{"name":"Horse Creek","display_name":"Horse Creek","source_name":"Horse Creek","state":"CO","atlas_class":"named_natural_stream_detail","huc8":"11020008","huc8Name":"Horse","lineageKey":"statewideContext","lineage":"statewideContext","historic":"statewideContext","current":"statewideContext","recovery":"statewideContext","lineageLabel":"Statewide Colorado hydrography context","atlas_context":"statewide_hydrography_context"}},{"type":"Feature","geometry":{"type":"LineString","coordinates":[[-103.7695,38.4646],[-103.7681,38.4613],[-103.765,38.4598],[-103.7631,38.4576],[-103.7591,38.456],[-103.7588,38.4532],[-103.7573,38.4519],[-103.7579,38.4515]]},"properties":{"name":"Dead Horse Creek","display_name":"Dead Horse Creek","source_name":"Dead Horse Creek","state":"CO","atlas_class":"named_natural_stream_detail","huc8":"11020008","huc8Name":"Horse","lineageKey":"statewideContext","lineage":"statewideContext","historic":"statewideContext","current":"statewideContext","recovery":"statewideContext","lineageLabel":"Statewide Colorado hydrography context","atlas_context":"statewide_hydrography_context"}},{"type":"Feature","geometry":{"type":"LineString","coordinates":[[-103.6749,38.5722],[-103.6739,38.5698],[-103.6755,38.5669],[-103.6722,38.5655]]},"properties":{"name":"Little Horse Creek","display_name":"Little Horse Creek","source_name":"Little Horse Creek","state":"CO","atlas_class":"named_natural_stream_detail","huc8":"11020008","huc8Name":"Horse","lineageKey":"statewideContext","lineage":"statewideContext","historic":"statewideContext","current":"statewideContext","recovery":"statewideContext","lineageLabel":"Statewide Colorado hydrography context","atlas_context":"statewide_hydrography_context"}},{"type":"Feature","geometry":{"type":"LineString","coordinates":[[-103.6703,38.5957],[-103.6708,38.5945],[-103.674,38.5937],[-103.6741,38.5925]]},"properties":{"name":"Horse Creek","display_name":"Horse Creek","source_name":"Horse Creek","state":"CO","atlas_class":"named_natural_stream_detail","huc8":"11020008","huc8Name":"Horse","lineageKey":"statewideContext","lineage":"statewideContext","historic":"statewideContext","current":"statewideContext","recovery":"statewideContext","lineageLabel":"Statewide Colorado hydrography context","atlas_context":"statewide_hydrography_context"}},{"type":"Feature","geometry":{"type":"LineString","coordinates":[[-103.729,38.5514],[-103.7278,38.5499]]},"properties":{"name":"Pond Creek","display_name":"Pond Creek","source_name":"Pond Creek","state":"CO","atlas_class":"named_natural_stream_detail","huc8":"11020008","huc8Name":"Horse","lineageKey":"statewideContext","lineage":"statewideContext","historic":"statewideContext","current":"statewideContext","recovery":"statewideContext","lineageLabel":"Statewide Colorado hydrography context","atlas_context":"statewide_hydrography_context"}},{"type":"Feature","geometry":{"type":"LineString","coordinates":[[-103.674,38.5546],[-103.6732,38.5521],[-103.6762,38.5486]]},"properties":{"name":"Horse Creek","display_name":"Horse Creek","source_name":"Horse Creek","state":"CO","atlas_class":"named_natural_stream_detail","huc8":"11020008","huc8Name":"Horse","lineageKey":"statewideContext","lineage":"statewideContext","historic":"statewideContext","current":"statewideContext","recovery":"statewideContext","lineageLabel":"Statewide Colorado hydrography context","atlas_context":"statewide_hydrography_context"}},{"type":"Feature","geometry":{"type":"LineString","coordinates":[[-103.7138,38.5338],[-103.7127,38.5318],[-103.7127,38.5295],[-103.7138,38.5252],[-103.7154,38.5235]]},"properties":{"name":"Pond Creek","display_name":"Pond Creek","source_name":"Pond Creek","state":"CO","atlas_class":"named_natural_stream_detail","huc8":"11020008","huc8Name":"Horse","lineageKey":"statewideContext","lineage":"statewideContext","historic":"statewideContext","current":"statewideContext","recovery":"statewideContext","lineageLabel":"Statewide Colorado hydrography context","atlas_context":"statewide_hydrography_context"}},{"type":"Feature","geometry":{"type":"LineString","coordinates":[[-103.6866,38.6371],[-103.6859,38.6356],[-103.6874,38.6332],[-103.6849,38.6315],[-103.687,38.6284],[-103.6863,38.6277],[-103.6848,38.6286],[-103.6833,38.6271],[-103.6842,38.6261],[-103.6839,38.6238],[-103.6851,38.6225],[-103.6848,38.6212],[-103.6808,38.6176],[-103.6821,38.6129],[-103.6782,38.612],[-103.6773,38.6102],[-103.6772,38.6062],[-103.6746,38.6077],[-103.6718,38.6072],[-103.6763,38.6014],[-103.6751,38.6008],[-103.6731,38.6024],[-103.6717,38.6022],[-103.6713,38.6008],[-103.674,38.5978],[-103.6703,38.5957]]},"properties":{"name":"Horse Creek","display_name":"Horse Creek","source_name":"Horse Creek","state":"CO","atlas_class":"named_natural_stream_detail","huc8":"11020008","huc8Name":"Horse","lineageKey":"statewideContext","lineage":"statewideContext","historic":"statewideContext","current":"statewideContext","recovery":"statewideContext","lineageLabel":"Statewide Colorado hydrography context","atlas_context":"statewide_hydrography_context"}},{"type":"Feature","geometry":{"type":"LineString","coordinates":[[-103.8052,38.5554],[-103.8021,38.5543],[-103.8015,38.5519],[-103.7989,38.5491],[-103.7939,38.5491],[-103.7915,38.5503],[-103.7909,38.5496],[-103.7913,38.5473],[-103.7899,38.5454],[-103.7874,38.546],[-103.7867,38.5474],[-103.7842,38.546],[-103.7837,38.544],[-103.7845,38.542],[-103.7816,38.5423]]},"properties":{"name":"Dead Horse Creek","display_name":"Dead Horse Creek","source_name":"Dead Horse Creek","state":"CO","atlas_class":"named_natural_stream_detail","huc8":"11020008","huc8Name":"Horse","lineageKey":"statewideContext","lineage":"statewideContext","historic":"statewideContext","current":"statewideContext","recovery":"statewideContext","lineageLabel":"Statewide Colorado hydrography context","atlas_context":"statewide_hydrography_context"}},{"type":"Feature","geometry":{"type":"LineString","coordinates":[[-103.7399,38.5626],[-103.7377,38.561],[-103.7343,38.5606],[-103.7317,38.5588],[-103.7296,38.5553],[-103.7291,38.5517]]},"properties":{"name":"Pond Creek","display_name":"Pond Creek","source_name":"Pond Creek","state":"CO","atlas_class":"named_natural_stream_detail","huc8":"11020008","huc8Name":"Horse","lineageKey":"statewideContext","lineage":"statewideContext","historic":"statewideContext","current":"statewideContext","recovery":"statewideContext","lineageLabel":"Statewide Colorado hydrography context","atlas_context":"statewide_hydrography_context"}},{"type":"Feature","geometry":{"type":"LineString","coordinates":[[-103.7578,38.4508],[-103.7573,38.4488],[-103.7553,38.4475],[-103.7559,38.4411],[-103.7542,38.4391],[-103.7512,38.4378],[-103.7489,38.4335],[-103.7492,38.4276],[-103.7483,38.4239],[-103.7471,38.4225],[-103.7486,38.4169],[-103.7475,38.415],[-103.7483,38.4138],[-103.7467,38.4129],[-103.7461,38.411],[-103.7468,38.41],[-103.7467,38.407],[-103.7443,38.4058],[-103.745,38.4041],[-103.744,38.4041],[-103.7427,38.4029],[-103.7432,38.4025],[-103.741,38.4017],[-103.7412,38.401],[-103.7382,38.3989],[-103.7386,38.3974],[-103.7369,38.3954],[-103.737,38.3934]]},"properties":{"name":"Dead Horse Creek","display_name":"Dead Horse Creek","source_name":"Dead Horse Creek","state":"CO","atlas_class":"named_natural_stream_detail","huc8":"11020008","huc8Name":"Horse","lineageKey":"statewideContext","lineage":"statewideContext","historic":"statewideContext","current":"statewideContext","recovery":"statewideContext","lineageLabel":"Statewide Colorado hydrography context","atlas_context":"statewide_hydrography_context"}},{"type":"Feature","geometry":{"type":"LineString","coordinates":[[-103.68,38.5796],[-103.681,38.5781],[-103.6803,38.576],[-103.6813,38.5749],[-103.6749,38.5722]]},"properties":{"name":"Little Horse Creek","display_name":"Little Horse Creek","source_name":"Little Horse Creek","state":"CO","atlas_class":"named_natural_stream_detail","huc8":"11020008","huc8Name":"Horse","lineageKey":"statewideContext","lineage":"statewideContext","historic":"statewideContext","current":"statewideContext","recovery":"statewideContext","lineageLabel":"Statewide Colorado hydrography context","atlas_context":"statewide_hydrography_context"}},{"type":"Feature","geometry":{"type":"LineString","coordinates":[[-103.7695,38.5014],[-103.7697,38.498],[-103.7674,38.4937],[-103.7728,38.4907],[-103.7728,38.4881],[-103.7754,38.4842],[-103.7727,38.476],[-103.7704,38.4738],[-103.7701,38.4697],[-103.7685,38.4689],[-103.7695,38.4646]]},"properties":{"name":"Dead Horse Creek","display_name":"Dead Horse Creek","source_name":"Dead Horse Creek","state":"CO","atlas_class":"named_natural_stream_detail","huc8":"11020008","huc8Name":"Horse","lineageKey":"statewideContext","lineage":"statewideContext","historic":"statewideContext","current":"statewideContext","recovery":"statewideContext","lineageLabel":"Statewide Colorado hydrography context","atlas_context":"statewide_hydrography_context"}},{"type":"Feature","geometry":{"type":"LineString","coordinates":[[-103.6837,38.5146],[-103.6828,38.5142],[-103.6826,38.5117],[-103.6847,38.5111],[-103.6859,38.5092],[-103.683,38.5071],[-103.6826,38.5056],[-103.6851,38.5043],[-103.6916,38.498],[-103.6914,38.4942],[-103.6952,38.4924],[-103.6957,38.4877]]},"properties":{"name":"Horse Creek","display_name":"Horse Creek","source_name":"Horse Creek","state":"CO","atlas_class":"named_natural_stream_detail","huc8":"11020008","huc8Name":"Horse","lineageKey":"statewideContext","lineage":"statewideContext","historic":"statewideContext","current":"statewideContext","recovery":"statewideContext","lineageLabel":"Statewide Colorado hydrography context","atlas_context":"statewide_hydrography_context"}},{"type":"Feature","geometry":{"type":"LineString","coordinates":[[-103.7722,38.6238],[-103.764,38.623],[-103.7591,38.62],[-103.7593,38.6185],[-103.7622,38.6161],[-103.7611,38.6124],[-103.7538,38.6141],[-103.7535,38.6116],[-103.7555,38.6116],[-103.7559,38.6107],[-103.7536,38.6076],[-103.7484,38.6093],[-103.7428,38.6082],[-103.74,38.6065],[-103.7388,38.6041],[-103.7397,38.6023],[-103.7387,38.6007],[-103.7361,38.6002],[-103.7341,38.5985],[-103.734,38.5966],[-103.7313,38.5942],[-103.7304,38.5918],[-103.7274,38.5886],[-103.7217,38.585],[-103.7191,38.5793],[-103.7157,38.5762],[-103.7004,38.566],[-103.6927,38.5628]]},"properties":{"name":"Steels Fork","display_name":"Steels Fork","source_name":"Steels Fork","state":"CO","atlas_class":"named_natural_stream_detail","huc8":"11020008","huc8Name":"Horse","lineageKey":"statewideContext","lineage":"statewideContext","historic":"statewideContext","current":"statewideContext","recovery":"statewideContext","lineageLabel":"Statewide Colorado hydrography context","atlas_context":"statewide_hydrography_context"}},{"type":"Feature","geometry":{"type":"LineString","coordinates":[[-103.7771,38.5368],[-103.7775,38.5357],[-103.7807,38.5351],[-103.781,38.5331],[-103.7782,38.5321],[-103.7784,38.5303],[-103.7762,38.5253],[-103.777,38.5248],[-103.7783,38.526],[-103.7796,38.5249],[-103.7776,38.524],[-103.7772,38.5213],[-103.773,38.5184],[-103.7757,38.5157],[-103.7749,38.5098],[-103.7724,38.5086],[-103.7717,38.5064],[-103.7724,38.5043],[-103.7695,38.5014]]},"properties":{"name":"Dead Horse Creek","display_name":"Dead Horse Creek","source_name":"Dead Horse Creek","state":"CO","atlas_class":"named_natural_stream_detail","huc8":"11020008","huc8Name":"Horse","lineageKey":"statewideContext","lineage":"statewideContext","historic":"statewideContext","current":"statewideContext","recovery":"statewideContext","lineageLabel":"Statewide Colorado hydrography context","atlas_context":"statewide_hydrography_context"}},{"type":"Feature","geometry":{"type":"LineString","coordinates":[[-103.6691,38.5889],[-103.6708,38.5878],[-103.6701,38.5837],[-103.6722,38.5817],[-103.6703,38.5786],[-103.6729,38.5754],[-103.6732,38.5681],[-103.672,38.5667],[-103.6722,38.5655]]},"properties":{"name":"Horse Creek","display_name":"Horse Creek","source_name":"Horse Creek","state":"CO","atlas_class":"named_natural_stream_detail","huc8":"11020008","huc8Name":"Horse","lineageKey":"statewideContext","lineage":"statewideContext","historic":"statewideContext","current":"statewideContext","recovery":"statewideContext","lineageLabel":"Statewide Colorado hydrography context","atlas_context":"statewide_hydrography_context"}},{"type":"Feature","geometry":{"type":"LineString","coordinates":[[-103.8051,38.4446],[-103.8035,38.4416],[-103.8,38.4404],[-103.7993,38.439],[-103.7978,38.4392],[-103.7972,38.4378],[-103.7949,38.4364],[-103.796,38.4345],[-103.7952,38.4328],[-103.7937,38.4331],[-103.7941,38.4307],[-103.7927,38.4304],[-103.7924,38.4293],[-103.79,38.4293],[-103.789,38.4279],[-103.7845,38.4292],[-103.7815,38.4285],[-103.7808,38.426],[-103.7775,38.4251],[-103.7768,38.4224],[-103.7735,38.4197],[-103.7738,38.4173],[-103.7718,38.4167],[-103.7723,38.4156],[-103.7715,38.4126],[-103.7682,38.4099],[-103.768,38.4082],[-103.764,38.4057],[-103.7627,38.4023]]},"properties":{"name":"Lone Tree Creek","display_name":"Lone Tree Creek","source_name":"Lone Tree Creek","state":"CO","atlas_class":"named_natural_stream_detail","huc8":"11020008","huc8Name":"Horse","lineageKey":"statewideContext","lineage":"statewideContext","historic":"statewideContext","current":"statewideContext","recovery":"statewideContext","lineageLabel":"Statewide Colorado hydrography context","atlas_context":"statewide_hydrography_context"}},{"type":"Feature","geometry":{"type":"LineString","coordinates":[[-103.7391,38.463],[-103.7388,38.4619],[-103.7371,38.4617],[-103.7357,38.4589],[-103.7337,38.4583],[-103.7347,38.456],[-103.7339,38.4532],[-103.7309,38.4514],[-103.7294,38.4481],[-103.7293,38.4443],[-103.7284,38.4439],[-103.7294,38.4426],[-103.7289,38.441],[-103.7298,38.4406],[-103.7287,38.4395],[-103.7294,38.4383],[-103.7286,38.4381],[-103.7306,38.4343],[-103.7305,38.4327],[-103.7315,38.4329],[-103.7311,38.4319],[-103.7319,38.4317],[-103.7312,38.4302],[-103.7318,38.427],[-103.7334,38.4259],[-103.7321,38.4251],[-103.7332,38.4233],[-103.7329,38.4198],[-103.7345,38.418],[-103.7333,38.4173],[-103.7339,38.4165],[-103.7332,38.4157],[-103.734,38.4154],[-103.7337,38.4118],[-103.7359,38.4102],[-103.7349,38.406],[-103.7372,38.4026],[-103.7364,38.4003],[-103.7368,38.3988],[-103.7353,38.3974],[-103.7366,38.3955],[-103.7361,38.3939],[-103.737,38.3934]]},"properties":{"name":"Pond Creek","display_name":"Pond Creek","source_name":"Pond Creek","state":"CO","atlas_class":"named_natural_stream_detail","huc8":"11020008","huc8Name":"Horse","lineageKey":"statewideContext","lineage":"statewideContext","historic":"statewideContext","current":"statewideContext","recovery":"statewideContext","lineageLabel":"Statewide Colorado hydrography context","atlas_context":"statewide_hydrography_context"}},{"type":"Feature","geometry":{"type":"LineString","coordinates":[[-103.6762,38.5486],[-103.6755,38.5468],[-103.6733,38.5458],[-103.6724,38.5426],[-103.6726,38.5412],[-103.675,38.5401],[-103.6752,38.537],[-103.673,38.5355],[-103.6707,38.5365],[-103.6694,38.5357]]},"properties":{"name":"Horse Creek","display_name":"Horse Creek","source_name":"Horse Creek","state":"CO","atlas_class":"named_natural_stream_detail","huc8":"11020008","huc8Name":"Horse","lineageKey":"statewideContext","lineage":"statewideContext","historic":"statewideContext","current":"statewideContext","recovery":"statewideContext","lineageLabel":"Statewide Colorado hydrography context","atlas_context":"statewide_hydrography_context"}},{"type":"Feature","geometry":{"type":"LineString","coordinates":[[-103.6024,38.5585],[-103.6072,38.5512],[-103.6077,38.548],[-103.6066,38.5419]]},"properties":{"name":"Sand Arroyo","display_name":"Sand Arroyo","source_name":"Sand Arroyo","state":"CO","atlas_class":"named_natural_stream_detail","huc8":"11020009","huc8Name":"Upper Arkansas-John Martin Reservoir","lineageKey":"statewideContext","lineage":"statewideContext","historic":"statewideContext","current":"statewideContext","recovery":"statewideContext","lineageLabel":"Statewide Colorado hydrography context","atlas_context":"statewide_hydrography_context"}},{"type":"Feature","geometry":{"type":"LineString","coordinates":[[-103.6986,38.475],[-103.699,38.4723]]},"properties":{"name":"Horse Creek","display_name":"Horse Creek","source_name":"Horse Creek","state":"CO","atlas_class":"named_natural_stream_detail","huc8":"11020008","huc8Name":"Horse","lineageKey":"statewideContext","lineage":"statewideContext","historic":"statewideContext","current":"statewideContext","recovery":"statewideContext","lineageLabel":"Statewide Colorado hydrography context","atlas_context":"statewide_hydrography_context"}},{"type":"Feature","geometry":{"type":"LineString","coordinates":[[-103.6957,38.4877],[-103.6991,38.4823],[-103.6979,38.4766],[-103.6986,38.475]]},"properties":{"name":"Horse Creek","display_name":"Horse Creek","source_name":"Horse Creek","state":"CO","atlas_class":"named_natural_stream_detail","huc8":"11020008","huc8Name":"Horse","lineageKey":"statewideContext","lineage":"statewideContext","historic":"statewideContext","current":"statewideContext","recovery":"statewideContext","lineageLabel":"Statewide Colorado hydrography context","atlas_context":"statewide_hydrography_context"}},{"type":"Feature","geometry":{"type":"LineString","coordinates":[[-103.696,38.6097],[-103.6961,38.6086],[-103.6912,38.6066],[-103.6896,38.6035],[-103.6881,38.6033],[-103.6888,38.6012],[-103.6876,38.6],[-103.6886,38.5992],[-103.6886,38.5976],[-103.6879,38.5967],[-103.6849,38.5963],[-103.6854,38.5932],[-103.6834,38.5902]]},"properties":{"name":"Little Horse Creek","display_name":"Little Horse Creek","source_name":"Little Horse Creek","state":"CO","atlas_class":"named_natural_stream_detail","huc8":"11020008","huc8Name":"Horse","lineageKey":"statewideContext","lineage":"statewideContext","historic":"statewideContext","current":"statewideContext","recovery":"statewideContext","lineageLabel":"Statewide Colorado hydrography context","atlas_context":"statewide_hydrography_context"}},{"type":"Feature","geometry":{"type":"LineString","coordinates":[[-103.6927,38.5628],[-103.6895,38.5592],[-103.6888,38.5559],[-103.6847,38.5545],[-103.6834,38.5514],[-103.6813,38.5522],[-103.6767,38.5512],[-103.6759,38.5502],[-103.6762,38.5486]]},"properties":{"name":"Steels Fork","display_name":"Steels Fork","source_name":"Steels Fork","state":"CO","atlas_class":"named_natural_stream_detail","huc8":"11020008","huc8Name":"Horse","lineageKey":"statewideContext","lineage":"statewideContext","historic":"statewideContext","current":"statewideContext","recovery":"statewideContext","lineageLabel":"Statewide Colorado hydrography context","atlas_context":"statewide_hydrography_context"}},{"type":"Feature","geometry":{"type":"LineString","coordinates":[[-103.6029,38.5749],[-103.6027,38.5732]]},"properties":{"name":"Sand Arroyo","display_name":"Sand Arroyo","source_name":"Sand Arroyo","state":"CO","atlas_class":"named_natural_stream_detail","huc8":"11020009","huc8Name":"Upper Arkansas-John Martin Reservoir","lineageKey":"statewideContext","lineage":"statewideContext","historic":"statewideContext","current":"statewideContext","recovery":"statewideContext","lineageLabel":"Statewide Colorado hydrography context","atlas_context":"statewide_hydrography_context"}},{"type":"Feature","geometry":{"type":"LineString","coordinates":[[-103.5988,38.6169],[-103.5987,38.6155],[-103.5961,38.6124],[-103.5968,38.6103],[-103.598,38.6096],[-103.5968,38.6083],[-103.597,38.607],[-103.5995,38.6041],[-103.5984,38.6018],[-103.598,38.5972],[-103.5993,38.5965],[-103.6,38.5933],[-103.602,38.591],[-103.601,38.5881],[-103.6026,38.5837],[-103.603,38.5752]]},"properties":{"name":"Sand Arroyo","display_name":"Sand Arroyo","source_name":"Sand Arroyo","state":"CO","atlas_class":"named_natural_stream_detail","huc8":"11020009","huc8Name":"Upper Arkansas-John Martin Reservoir","lineageKey":"statewideContext","lineage":"statewideContext","historic":"statewideContext","current":"statewideContext","recovery":"statewideContext","lineageLabel":"Statewide Colorado hydrography context","atlas_context":"statewide_hydrography_context"}},{"type":"Feature","geometry":{"type":"LineString","coordinates":[[-103.6066,38.5407],[-103.609,38.5351],[-103.608,38.5292],[-103.6049,38.5245],[-103.6023,38.5231],[-103.6008,38.5208],[-103.5972,38.5181]]},"properties":{"name":"Sand Arroyo","display_name":"Sand Arroyo","source_name":"Sand Arroyo","state":"CO","atlas_class":"named_natural_stream_detail","huc8":"11020009","huc8Name":"Upper Arkansas-John Martin Reservoir","lineageKey":"statewideContext","lineage":"statewideContext","historic":"statewideContext","current":"statewideContext","recovery":"statewideContext","lineageLabel":"Statewide Colorado hydrography context","atlas_context":"statewide_hydrography_context"}},{"type":"Feature","geometry":{"type":"LineString","coordinates":[[-103.6793,38.4159],[-103.6733,38.4138],[-103.6712,38.411],[-103.6721,38.4094],[-103.6754,38.4077],[-103.6786,38.4043],[-103.6783,38.4016],[-103.6741,38.3998],[-103.6748,38.3986],[-103.6774,38.399],[-103.6794,38.3984],[-103.6785,38.395],[-103.6768,38.3937],[-103.6729,38.3932],[-103.6716,38.3918],[-103.6677,38.3902]]},"properties":{"name":"Horse Creek","display_name":"Horse Creek","source_name":"Horse Creek","state":"CO","atlas_class":"named_natural_stream_detail","huc8":"11020008","huc8Name":"Horse","lineageKey":"statewideContext","lineage":"statewideContext","historic":"statewideContext","current":"statewideContext","recovery":"statewideContext","lineageLabel":"Statewide Colorado hydrography context","atlas_context":"statewide_hydrography_context"}},{"type":"Feature","geometry":{"type":"LineString","coordinates":[[-103.6722,38.5655],[-103.6722,38.5638],[-103.6747,38.5635],[-103.6765,38.5612],[-103.6759,38.5584],[-103.6739,38.558],[-103.6737,38.5564],[-103.6726,38.5557]]},"properties":{"name":"Horse Creek","display_name":"Horse Creek","source_name":"Horse Creek","state":"CO","atlas_class":"named_natural_stream_detail","huc8":"11020008","huc8Name":"Horse","lineageKey":"statewideContext","lineage":"statewideContext","historic":"statewideContext","current":"statewideContext","recovery":"statewideContext","lineageLabel":"Statewide Colorado hydrography context","atlas_context":"statewide_hydrography_context"}},{"type":"Feature","geometry":{"type":"LineString","coordinates":[[-103.6689,38.589],[-103.6691,38.5889]]},"properties":{"name":"Horse Creek","display_name":"Horse Creek","source_name":"Horse Creek","state":"CO","atlas_class":"named_natural_stream_detail","huc8":"11020008","huc8Name":"Horse","lineageKey":"statewideContext","lineage":"statewideContext","historic":"statewideContext","current":"statewideContext","recovery":"statewideContext","lineageLabel":"Statewide Colorado hydrography context","atlas_context":"statewide_hydrography_context"}},{"type":"Feature","geometry":{"type":"LineString","coordinates":[[-103.7154,38.5235],[-103.7144,38.5203],[-103.7171,38.5171],[-103.7169,38.5147],[-103.7185,38.5121],[-103.7234,38.5103],[-103.7294,38.5018]]},"properties":{"name":"Pond Creek","display_name":"Pond Creek","source_name":"Pond Creek","state":"CO","atlas_class":"named_natural_stream_detail","huc8":"11020008","huc8Name":"Horse","lineageKey":"statewideContext","lineage":"statewideContext","historic":"statewideContext","current":"statewideContext","recovery":"statewideContext","lineageLabel":"Statewide Colorado hydrography context","atlas_context":"statewide_hydrography_context"}},{"type":"Feature","geometry":{"type":"LineString","coordinates":[[-103.7272,38.5487],[-103.7256,38.5471],[-103.724,38.5471],[-103.7191,38.544],[-103.7172,38.539],[-103.7138,38.5338]]},"properties":{"name":"Pond Creek","display_name":"Pond Creek","source_name":"Pond Creek","state":"CO","atlas_class":"named_natural_stream_detail","huc8":"11020008","huc8Name":"Horse","lineageKey":"statewideContext","lineage":"statewideContext","historic":"statewideContext","current":"statewideContext","recovery":"statewideContext","lineageLabel":"Statewide Colorado hydrography context","atlas_context":"statewide_hydrography_context"}},{"type":"Feature","geometry":{"type":"LineString","coordinates":[[-103.8516,38.4305],[-103.8488,38.4306],[-103.8433,38.429],[-103.8396,38.4259],[-103.836,38.4248],[-103.8325,38.4267],[-103.825,38.4224],[-103.819,38.4173],[-103.8183,38.4146],[-103.8163,38.4123],[-103.812,38.4108],[-103.8123,38.4089],[-103.811,38.4075],[-103.8082,38.4057],[-103.8047,38.4056],[-103.8041,38.4045],[-103.8047,38.4035],[-103.8034,38.4019],[-103.8008,38.4016],[-103.8015,38.4005],[-103.8,38.3999],[-103.8008,38.3991]]},"properties":{"name":"Breckenridge Creek","display_name":"Breckenridge Creek","source_name":"Breckenridge Creek","state":"CO","atlas_class":"named_natural_stream_detail","huc8":"11020008","huc8Name":"Horse","lineageKey":"statewideContext","lineage":"statewideContext","historic":"statewideContext","current":"statewideContext","recovery":"statewideContext","lineageLabel":"Statewide Colorado hydrography context","atlas_context":"statewide_hydrography_context"}},{"type":"Feature","geometry":{"type":"LineString","coordinates":[[-103.683,38.5902],[-103.6812,38.5874],[-103.682,38.5827],[-103.6797,38.5805]]},"properties":{"name":"Little Horse Creek","display_name":"Little Horse Creek","source_name":"Little Horse Creek","state":"CO","atlas_class":"named_natural_stream_detail","huc8":"11020008","huc8Name":"Horse","lineageKey":"statewideContext","lineage":"statewideContext","historic":"statewideContext","current":"statewideContext","recovery":"statewideContext","lineageLabel":"Statewide Colorado hydrography context","atlas_context":"statewide_hydrography_context"}}]}