{"type":"FeatureCollection","metadata":{"source":"C:\\ct-atlas-data\\processed\\geojson\\interpreted\\colorado_named_natural_streams_complete_v1.geojson","type":"colorado-natural-stream-detail-tile-v2","tile_size_degrees":0.2,"x":-518,"y":187,"bounds":{"west":-103.6,"south":37.4,"east":-103.4,"north":37.6}},"features":[{"type":"Feature","geometry":{"type":"LineString","coordinates":[[-103.5922,37.4591],[-103.5945,37.4615]]},"properties":{"name":"Plum Creek","display_name":"Plum Creek","source_name":"Plum Creek","state":"CO","atlas_class":"named_natural_stream_detail","huc8":"11020010","huc8Name":"Purgatoire","lineageKey":"yellowfin","lineage":"yellowfin","historic":"yellowfin","current":"yellowfin","recovery":"recoveryWatch","lineageLabel":"Yellowfin / Arkansas headwaters historical form","atlas_context":"cutthroat_lineage_context"}},{"type":"Feature","geometry":{"type":"LineString","coordinates":[[-103.5911,37.4587],[-103.5917,37.4587]]},"properties":{"name":"Plum Creek","display_name":"Plum Creek","source_name":"Plum Creek","state":"CO","atlas_class":"named_natural_stream_detail","huc8":"11020010","huc8Name":"Purgatoire","lineageKey":"yellowfin","lineage":"yellowfin","historic":"yellowfin","current":"yellowfin","recovery":"recoveryWatch","lineageLabel":"Yellowfin / Arkansas headwaters historical form","atlas_context":"cutthroat_lineage_context"}},{"type":"Feature","geometry":{"type":"LineString","coordinates":[[-103.5688,37.4289],[-103.5698,37.4295],[-103.5718,37.428]]},"properties":{"name":"Plum Creek","display_name":"Plum Creek","source_name":"Plum Creek","state":"CO","atlas_class":"named_natural_stream_detail","huc8":"11020010","huc8Name":"Purgatoire","lineageKey":"yellowfin","lineage":"yellowfin","historic":"yellowfin","current":"yellowfin","recovery":"recoveryWatch","lineageLabel":"Yellowfin / Arkansas headwaters historical form","atlas_context":"cutthroat_lineage_context"}},{"type":"Feature","geometry":{"type":"LineString","coordinates":[[-103.5659,37.4222],[-103.5659,37.4235]]},"properties":{"name":"Plum Creek","display_name":"Plum Creek","source_name":"Plum Creek","state":"CO","atlas_class":"named_natural_stream_detail","huc8":"11020010","huc8Name":"Purgatoire","lineageKey":"yellowfin","lineage":"yellowfin","historic":"yellowfin","current":"yellowfin","recovery":"recoveryWatch","lineageLabel":"Yellowfin / Arkansas headwaters historical form","atlas_context":"cutthroat_lineage_context"}},{"type":"Feature","geometry":{"type":"LineString","coordinates":[[-103.5837,37.4558],[-103.5851,37.457]]},"properties":{"name":"Plum Creek","display_name":"Plum Creek","source_name":"Plum Creek","state":"CO","atlas_class":"named_natural_stream_detail","huc8":"11020010","huc8Name":"Purgatoire","lineageKey":"yellowfin","lineage":"yellowfin","historic":"yellowfin","current":"yellowfin","recovery":"recoveryWatch","lineageLabel":"Yellowfin / Arkansas headwaters historical form","atlas_context":"cutthroat_lineage_context"}},{"type":"Feature","geometry":{"type":"LineString","coordinates":[[-103.5807,37.4518],[-103.5801,37.4541],[-103.5808,37.4548]]},"properties":{"name":"Plum Creek","display_name":"Plum Creek","source_name":"Plum Creek","state":"CO","atlas_class":"named_natural_stream_detail","huc8":"11020010","huc8Name":"Purgatoire","lineageKey":"yellowfin","lineage":"yellowfin","historic":"yellowfin","current":"yellowfin","recovery":"recoveryWatch","lineageLabel":"Yellowfin / Arkansas headwaters historical form","atlas_context":"cutthroat_lineage_context"}},{"type":"Feature","geometry":{"type":"LineString","coordinates":[[-103.5781,37.4443],[-103.5793,37.4439]]},"properties":{"name":"Plum Creek","display_name":"Plum Creek","source_name":"Plum Creek","state":"CO","atlas_class":"named_natural_stream_detail","huc8":"11020010","huc8Name":"Purgatoire","lineageKey":"yellowfin","lineage":"yellowfin","historic":"yellowfin","current":"yellowfin","recovery":"recoveryWatch","lineageLabel":"Yellowfin / Arkansas headwaters historical form","atlas_context":"cutthroat_lineage_context"}},{"type":"Feature","geometry":{"type":"LineString","coordinates":[[-103.5716,37.4403],[-103.5749,37.4414],[-103.5752,37.443],[-103.5771,37.4432],[-103.5781,37.4443]]},"properties":{"name":"Plum Creek","display_name":"Plum Creek","source_name":"Plum Creek","state":"CO","atlas_class":"named_natural_stream_detail","huc8":"11020010","huc8Name":"Purgatoire","lineageKey":"yellowfin","lineage":"yellowfin","historic":"yellowfin","current":"yellowfin","recovery":"recoveryWatch","lineageLabel":"Yellowfin / Arkansas headwaters historical form","atlas_context":"cutthroat_lineage_context"}},{"type":"Feature","geometry":{"type":"LineString","coordinates":[[-103.5689,37.41],[-103.5672,37.4113],[-103.5653,37.4151],[-103.5661,37.4161],[-103.5681,37.4165],[-103.569,37.4181],[-103.5675,37.4193],[-103.5683,37.4204],[-103.5659,37.4222]]},"properties":{"name":"Plum Creek","display_name":"Plum Creek","source_name":"Plum Creek","state":"CO","atlas_class":"named_natural_stream_detail","huc8":"11020010","huc8Name":"Purgatoire","lineageKey":"yellowfin","lineage":"yellowfin","historic":"yellowfin","current":"yellowfin","recovery":"recoveryWatch","lineageLabel":"Yellowfin / Arkansas headwaters historical form","atlas_context":"cutthroat_lineage_context"}},{"type":"Feature","geometry":{"type":"LineString","coordinates":[[-103.5793,37.4439],[-103.5809,37.4463],[-103.582,37.4508],[-103.5807,37.4518]]},"properties":{"name":"Plum Creek","display_name":"Plum Creek","source_name":"Plum Creek","state":"CO","atlas_class":"named_natural_stream_detail","huc8":"11020010","huc8Name":"Purgatoire","lineageKey":"yellowfin","lineage":"yellowfin","historic":"yellowfin","current":"yellowfin","recovery":"recoveryWatch","lineageLabel":"Yellowfin / Arkansas headwaters historical form","atlas_context":"cutthroat_lineage_context"}},{"type":"Feature","geometry":{"type":"LineString","coordinates":[[-103.5808,37.4548],[-103.5818,37.4543],[-103.5837,37.4558]]},"properties":{"name":"Plum Creek","display_name":"Plum Creek","source_name":"Plum Creek","state":"CO","atlas_class":"named_natural_stream_detail","huc8":"11020010","huc8Name":"Purgatoire","lineageKey":"yellowfin","lineage":"yellowfin","historic":"yellowfin","current":"yellowfin","recovery":"recoveryWatch","lineageLabel":"Yellowfin / Arkansas headwaters historical form","atlas_context":"cutthroat_lineage_context"}},{"type":"Feature","geometry":{"type":"LineString","coordinates":[[-103.5643,37.3999],[-103.5663,37.4042],[-103.5653,37.4087],[-103.569,37.4093],[-103.5689,37.41]]},"properties":{"name":"Plum Creek","display_name":"Plum Creek","source_name":"Plum Creek","state":"CO","atlas_class":"named_natural_stream_detail","huc8":"11020010","huc8Name":"Purgatoire","lineageKey":"yellowfin","lineage":"yellowfin","historic":"yellowfin","current":"yellowfin","recovery":"recoveryWatch","lineageLabel":"Yellowfin / Arkansas headwaters historical form","atlas_context":"cutthroat_lineage_context"}},{"type":"Feature","geometry":{"type":"LineString","coordinates":[[-103.5733,37.4371],[-103.5716,37.4403]]},"properties":{"name":"Plum Creek","display_name":"Plum Creek","source_name":"Plum Creek","state":"CO","atlas_class":"named_natural_stream_detail","huc8":"11020010","huc8Name":"Purgatoire","lineageKey":"yellowfin","lineage":"yellowfin","historic":"yellowfin","current":"yellowfin","recovery":"recoveryWatch","lineageLabel":"Yellowfin / Arkansas headwaters historical form","atlas_context":"cutthroat_lineage_context"}},{"type":"Feature","geometry":{"type":"LineString","coordinates":[[-103.5662,37.4273],[-103.5688,37.4289]]},"properties":{"name":"Plum Creek","display_name":"Plum Creek","source_name":"Plum Creek","state":"CO","atlas_class":"named_natural_stream_detail","huc8":"11020010","huc8Name":"Purgatoire","lineageKey":"yellowfin","lineage":"yellowfin","historic":"yellowfin","current":"yellowfin","recovery":"recoveryWatch","lineageLabel":"Yellowfin / Arkansas headwaters historical form","atlas_context":"cutthroat_lineage_context"}},{"type":"Feature","geometry":{"type":"LineString","coordinates":[[-103.5718,37.428],[-103.5734,37.4285],[-103.5732,37.4314],[-103.5747,37.4333],[-103.5729,37.4345],[-103.5733,37.4371]]},"properties":{"name":"Plum Creek","display_name":"Plum Creek","source_name":"Plum Creek","state":"CO","atlas_class":"named_natural_stream_detail","huc8":"11020010","huc8Name":"Purgatoire","lineageKey":"yellowfin","lineage":"yellowfin","historic":"yellowfin","current":"yellowfin","recovery":"recoveryWatch","lineageLabel":"Yellowfin / Arkansas headwaters historical form","atlas_context":"cutthroat_lineage_context"}},{"type":"Feature","geometry":{"type":"LineString","coordinates":[[-103.5659,37.4235],[-103.568,37.4246],[-103.5662,37.4273]]},"properties":{"name":"Plum Creek","display_name":"Plum Creek","source_name":"Plum Creek","state":"CO","atlas_class":"named_natural_stream_detail","huc8":"11020010","huc8Name":"Purgatoire","lineageKey":"yellowfin","lineage":"yellowfin","historic":"yellowfin","current":"yellowfin","recovery":"recoveryWatch","lineageLabel":"Yellowfin / Arkansas headwaters historical form","atlas_context":"cutthroat_lineage_context"}},{"type":"Feature","geometry":{"type":"LineString","coordinates":[[-103.5981,37.4662],[-103.5987,37.4679],[-103.6005,37.4686],[-103.6006,37.4706]]},"properties":{"name":"Plum Creek","display_name":"Plum Creek","source_name":"Plum Creek","state":"CO","atlas_class":"named_natural_stream_detail","huc8":"11020010","huc8Name":"Purgatoire","lineageKey":"yellowfin","lineage":"yellowfin","historic":"yellowfin","current":"yellowfin","recovery":"recoveryWatch","lineageLabel":"Yellowfin / Arkansas headwaters historical form","atlas_context":"cutthroat_lineage_context"}},{"type":"Feature","geometry":{"type":"LineString","coordinates":[[-103.5973,37.4649],[-103.5981,37.4662]]},"properties":{"name":"Plum Creek","display_name":"Plum Creek","source_name":"Plum Creek","state":"CO","atlas_class":"named_natural_stream_detail","huc8":"11020010","huc8Name":"Purgatoire","lineageKey":"yellowfin","lineage":"yellowfin","historic":"yellowfin","current":"yellowfin","recovery":"recoveryWatch","lineageLabel":"Yellowfin / Arkansas headwaters historical form","atlas_context":"cutthroat_lineage_context"}},{"type":"Feature","geometry":{"type":"LineString","coordinates":[[-103.5851,37.457],[-103.588,37.4568],[-103.5911,37.4587]]},"properties":{"name":"Plum Creek","display_name":"Plum Creek","source_name":"Plum Creek","state":"CO","atlas_class":"named_natural_stream_detail","huc8":"11020010","huc8Name":"Purgatoire","lineageKey":"yellowfin","lineage":"yellowfin","historic":"yellowfin","current":"yellowfin","recovery":"recoveryWatch","lineageLabel":"Yellowfin / Arkansas headwaters historical form","atlas_context":"cutthroat_lineage_context"}},{"type":"Feature","geometry":{"type":"LineString","coordinates":[[-103.5945,37.4615],[-103.5944,37.4631],[-103.5973,37.4649]]},"properties":{"name":"Plum Creek","display_name":"Plum Creek","source_name":"Plum Creek","state":"CO","atlas_class":"named_natural_stream_detail","huc8":"11020010","huc8Name":"Purgatoire","lineageKey":"yellowfin","lineage":"yellowfin","historic":"yellowfin","current":"yellowfin","recovery":"recoveryWatch","lineageLabel":"Yellowfin / Arkansas headwaters historical form","atlas_context":"cutthroat_lineage_context"}},{"type":"Feature","geometry":{"type":"LineString","coordinates":[[-103.5917,37.4587],[-103.5922,37.4591]]},"properties":{"name":"Plum Creek","display_name":"Plum Creek","source_name":"Plum Creek","state":"CO","atlas_class":"named_natural_stream_detail","huc8":"11020010","huc8Name":"Purgatoire","lineageKey":"yellowfin","lineage":"yellowfin","historic":"yellowfin","current":"yellowfin","recovery":"recoveryWatch","lineageLabel":"Yellowfin / Arkansas headwaters historical form","atlas_context":"cutthroat_lineage_context"}}]}