{"type":"FeatureCollection","metadata":{"source":"C:\\ct-atlas-data\\processed\\geojson\\interpreted\\colorado_named_natural_streams_complete_v1.geojson","type":"colorado-natural-stream-detail-tile-v2","tile_size_degrees":0.2,"x":-544,"y":200,"bounds":{"west":-108.8,"south":40,"east":-108.6,"north":40.2}},"features":[{"type":"Feature","geometry":{"type":"LineString","coordinates":[[-108.5932,40.0205],[-108.6009,40.0253]]},"properties":{"name":"East Fork Spring Creek","display_name":"East Fork Spring Creek","source_name":"East Fork Spring Creek","state":"CO","atlas_class":"named_natural_stream_detail","huc8":"14050007","huc8Name":"Lower White","lineageKey":"greenRiverBlue","lineage":"greenRiverBlue","historic":"greenRiverBlue","current":"greenRiverBlue","recovery":"recoveryWatch","lineageLabel":"Green River / blue-lineage CT","atlas_context":"cutthroat_lineage_context"}},{"type":"Feature","geometry":{"type":"LineString","coordinates":[[-108.6162,40.0286],[-108.6195,40.0288]]},"properties":{"name":"East Fork Spring Creek","display_name":"East Fork Spring Creek","source_name":"East Fork Spring Creek","state":"CO","atlas_class":"named_natural_stream_detail","huc8":"14050007","huc8Name":"Lower White","lineageKey":"greenRiverBlue","lineage":"greenRiverBlue","historic":"greenRiverBlue","current":"greenRiverBlue","recovery":"recoveryWatch","lineageLabel":"Green River / blue-lineage CT","atlas_context":"cutthroat_lineage_context"}},{"type":"Feature","geometry":{"type":"LineString","coordinates":[[-108.6012,40.0254],[-108.6056,40.026]]},"properties":{"name":"East Fork Spring Creek","display_name":"East Fork Spring Creek","source_name":"East Fork Spring Creek","state":"CO","atlas_class":"named_natural_stream_detail","huc8":"14050007","huc8Name":"Lower White","lineageKey":"greenRiverBlue","lineage":"greenRiverBlue","historic":"greenRiverBlue","current":"greenRiverBlue","recovery":"recoveryWatch","lineageLabel":"Green River / blue-lineage CT","atlas_context":"cutthroat_lineage_context"}},{"type":"Feature","geometry":{"type":"LineString","coordinates":[[-108.6009,40.0253],[-108.6012,40.0254]]},"properties":{"name":"East Fork Spring Creek","display_name":"East Fork Spring Creek","source_name":"East Fork Spring Creek","state":"CO","atlas_class":"named_natural_stream_detail","huc8":"14050007","huc8Name":"Lower White","lineageKey":"greenRiverBlue","lineage":"greenRiverBlue","historic":"greenRiverBlue","current":"greenRiverBlue","recovery":"recoveryWatch","lineageLabel":"Green River / blue-lineage CT","atlas_context":"cutthroat_lineage_context"}},{"type":"Feature","geometry":{"type":"LineString","coordinates":[[-108.6112,40.0269],[-108.6157,40.0286]]},"properties":{"name":"East Fork Spring Creek","display_name":"East Fork Spring Creek","source_name":"East Fork Spring Creek","state":"CO","atlas_class":"named_natural_stream_detail","huc8":"14050007","huc8Name":"Lower White","lineageKey":"greenRiverBlue","lineage":"greenRiverBlue","historic":"greenRiverBlue","current":"greenRiverBlue","recovery":"recoveryWatch","lineageLabel":"Green River / blue-lineage CT","atlas_context":"cutthroat_lineage_context"}},{"type":"Feature","geometry":{"type":"LineString","coordinates":[[-108.608,40.0267],[-108.6112,40.0269]]},"properties":{"name":"East Fork Spring Creek","display_name":"East Fork Spring Creek","source_name":"East Fork Spring Creek","state":"CO","atlas_class":"named_natural_stream_detail","huc8":"14050007","huc8Name":"Lower White","lineageKey":"greenRiverBlue","lineage":"greenRiverBlue","historic":"greenRiverBlue","current":"greenRiverBlue","recovery":"recoveryWatch","lineageLabel":"Green River / blue-lineage CT","atlas_context":"cutthroat_lineage_context"}},{"type":"Feature","geometry":{"type":"LineString","coordinates":[[-108.6157,40.0286],[-108.6162,40.0286]]},"properties":{"name":"East Fork Spring Creek","display_name":"East Fork Spring Creek","source_name":"East Fork Spring Creek","state":"CO","atlas_class":"named_natural_stream_detail","huc8":"14050007","huc8Name":"Lower White","lineageKey":"greenRiverBlue","lineage":"greenRiverBlue","historic":"greenRiverBlue","current":"greenRiverBlue","recovery":"recoveryWatch","lineageLabel":"Green River / blue-lineage CT","atlas_context":"cutthroat_lineage_context"}},{"type":"Feature","geometry":{"type":"LineString","coordinates":[[-108.6056,40.026],[-108.608,40.0267]]},"properties":{"name":"East Fork Spring Creek","display_name":"East Fork Spring Creek","source_name":"East Fork Spring Creek","state":"CO","atlas_class":"named_natural_stream_detail","huc8":"14050007","huc8Name":"Lower White","lineageKey":"greenRiverBlue","lineage":"greenRiverBlue","historic":"greenRiverBlue","current":"greenRiverBlue","recovery":"recoveryWatch","lineageLabel":"Green River / blue-lineage CT","atlas_context":"cutthroat_lineage_context"}},{"type":"Feature","geometry":{"type":"LineString","coordinates":[[-108.7739,40.0775],[-108.7748,40.0787]]},"properties":{"name":"Douglas Creek","display_name":"Douglas Creek","source_name":"Douglas Creek","state":"CO","atlas_class":"named_natural_stream_detail","huc8":"14050007","huc8Name":"Lower White","lineageKey":"greenRiverBlue","lineage":"greenRiverBlue","historic":"greenRiverBlue","current":"greenRiverBlue","recovery":"recoveryWatch","lineageLabel":"Green River / blue-lineage CT","atlas_context":"cutthroat_lineage_context"}},{"type":"Feature","geometry":{"type":"LineString","coordinates":[[-108.7687,40.0688],[-108.77,40.07],[-108.7698,40.0713]]},"properties":{"name":"Douglas Creek","display_name":"Douglas Creek","source_name":"Douglas Creek","state":"CO","atlas_class":"named_natural_stream_detail","huc8":"14050007","huc8Name":"Lower White","lineageKey":"greenRiverBlue","lineage":"greenRiverBlue","historic":"greenRiverBlue","current":"greenRiverBlue","recovery":"recoveryWatch","lineageLabel":"Green River / blue-lineage CT","atlas_context":"cutthroat_lineage_context"}},{"type":"Feature","geometry":{"type":"LineString","coordinates":[[-108.7681,40.0651],[-108.77,40.0671],[-108.7687,40.0688]]},"properties":{"name":"Douglas Creek","display_name":"Douglas Creek","source_name":"Douglas Creek","state":"CO","atlas_class":"named_natural_stream_detail","huc8":"14050007","huc8Name":"Lower White","lineageKey":"greenRiverBlue","lineage":"greenRiverBlue","historic":"greenRiverBlue","current":"greenRiverBlue","recovery":"recoveryWatch","lineageLabel":"Green River / blue-lineage CT","atlas_context":"cutthroat_lineage_context"}},{"type":"Feature","geometry":{"type":"LineString","coordinates":[[-108.7706,40.0719],[-108.7714,40.0736],[-108.773,40.0735],[-108.7739,40.0775]]},"properties":{"name":"Douglas Creek","display_name":"Douglas Creek","source_name":"Douglas Creek","state":"CO","atlas_class":"named_natural_stream_detail","huc8":"14050007","huc8Name":"Lower White","lineageKey":"greenRiverBlue","lineage":"greenRiverBlue","historic":"greenRiverBlue","current":"greenRiverBlue","recovery":"recoveryWatch","lineageLabel":"Green River / blue-lineage CT","atlas_context":"cutthroat_lineage_context"}},{"type":"Feature","geometry":{"type":"LineString","coordinates":[[-108.7743,40.0832],[-108.7752,40.0834]]},"properties":{"name":"Douglas Creek","display_name":"Douglas Creek","source_name":"Douglas Creek","state":"CO","atlas_class":"named_natural_stream_detail","huc8":"14050007","huc8Name":"Lower White","lineageKey":"greenRiverBlue","lineage":"greenRiverBlue","historic":"greenRiverBlue","current":"greenRiverBlue","recovery":"recoveryWatch","lineageLabel":"Green River / blue-lineage CT","atlas_context":"cutthroat_lineage_context"}},{"type":"Feature","geometry":{"type":"LineString","coordinates":[[-108.7703,40.0594],[-108.7691,40.0602],[-108.768,40.0634],[-108.766,40.0636]]},"properties":{"name":"Douglas Creek","display_name":"Douglas Creek","source_name":"Douglas Creek","state":"CO","atlas_class":"named_natural_stream_detail","huc8":"14050007","huc8Name":"Lower White","lineageKey":"greenRiverBlue","lineage":"greenRiverBlue","historic":"greenRiverBlue","current":"greenRiverBlue","recovery":"recoveryWatch","lineageLabel":"Green River / blue-lineage CT","atlas_context":"cutthroat_lineage_context"}},{"type":"Feature","geometry":{"type":"LineString","coordinates":[[-108.766,40.0636],[-108.7667,40.0654],[-108.7681,40.0651]]},"properties":{"name":"Douglas Creek","display_name":"Douglas Creek","source_name":"Douglas Creek","state":"CO","atlas_class":"named_natural_stream_detail","huc8":"14050007","huc8Name":"Lower White","lineageKey":"greenRiverBlue","lineage":"greenRiverBlue","historic":"greenRiverBlue","current":"greenRiverBlue","recovery":"recoveryWatch","lineageLabel":"Green River / blue-lineage CT","atlas_context":"cutthroat_lineage_context"}},{"type":"Feature","geometry":{"type":"LineString","coordinates":[[-108.7698,40.0713],[-108.7706,40.0719]]},"properties":{"name":"Douglas Creek","display_name":"Douglas Creek","source_name":"Douglas Creek","state":"CO","atlas_class":"named_natural_stream_detail","huc8":"14050007","huc8Name":"Lower White","lineageKey":"greenRiverBlue","lineage":"greenRiverBlue","historic":"greenRiverBlue","current":"greenRiverBlue","recovery":"recoveryWatch","lineageLabel":"Green River / blue-lineage CT","atlas_context":"cutthroat_lineage_context"}},{"type":"Feature","geometry":{"type":"LineString","coordinates":[[-108.6495,40.0008],[-108.646,40.0032]]},"properties":{"name":"West Fork Spring Creek","display_name":"West Fork Spring Creek","source_name":"West Fork Spring Creek","state":"CO","atlas_class":"named_natural_stream_detail","huc8":"14050007","huc8Name":"Lower White","lineageKey":"greenRiverBlue","lineage":"greenRiverBlue","historic":"greenRiverBlue","current":"greenRiverBlue","recovery":"recoveryWatch","lineageLabel":"Green River / blue-lineage CT","atlas_context":"cutthroat_lineage_context"}},{"type":"Feature","geometry":{"type":"LineString","coordinates":[[-108.6552,40.0765],[-108.6564,40.0783],[-108.6563,40.0803]]},"properties":{"name":"Spring Creek","display_name":"Spring Creek","source_name":"Spring Creek","state":"CO","atlas_class":"named_natural_stream_detail","huc8":"14050007","huc8Name":"Lower White","lineageKey":"greenRiverBlue","lineage":"greenRiverBlue","historic":"greenRiverBlue","current":"greenRiverBlue","recovery":"recoveryWatch","lineageLabel":"Green River / blue-lineage CT","atlas_context":"cutthroat_lineage_context"}},{"type":"Feature","geometry":{"type":"LineString","coordinates":[[-108.6411,40.0204],[-108.6416,40.0252],[-108.6408,40.0289],[-108.6382,40.0327],[-108.6354,40.0346],[-108.6347,40.0366]]},"properties":{"name":"West Fork Spring Creek","display_name":"West Fork Spring Creek","source_name":"West Fork Spring Creek","state":"CO","atlas_class":"named_natural_stream_detail","huc8":"14050007","huc8Name":"Lower White","lineageKey":"greenRiverBlue","lineage":"greenRiverBlue","historic":"greenRiverBlue","current":"greenRiverBlue","recovery":"recoveryWatch","lineageLabel":"Green River / blue-lineage CT","atlas_context":"cutthroat_lineage_context"}},{"type":"Feature","geometry":{"type":"LineString","coordinates":[[-108.6443,40.0139],[-108.6427,40.0161]]},"properties":{"name":"West Fork Spring Creek","display_name":"West Fork Spring Creek","source_name":"West Fork Spring Creek","state":"CO","atlas_class":"named_natural_stream_detail","huc8":"14050007","huc8Name":"Lower White","lineageKey":"greenRiverBlue","lineage":"greenRiverBlue","historic":"greenRiverBlue","current":"greenRiverBlue","recovery":"recoveryWatch","lineageLabel":"Green River / blue-lineage CT","atlas_context":"cutthroat_lineage_context"}},{"type":"Feature","geometry":{"type":"LineString","coordinates":[[-108.646,40.0032],[-108.6445,40.0074],[-108.6443,40.0139]]},"properties":{"name":"West Fork Spring Creek","display_name":"West Fork Spring Creek","source_name":"West Fork Spring Creek","state":"CO","atlas_class":"named_natural_stream_detail","huc8":"14050007","huc8Name":"Lower White","lineageKey":"greenRiverBlue","lineage":"greenRiverBlue","historic":"greenRiverBlue","current":"greenRiverBlue","recovery":"recoveryWatch","lineageLabel":"Green River / blue-lineage CT","atlas_context":"cutthroat_lineage_context"}},{"type":"Feature","geometry":{"type":"LineString","coordinates":[[-108.6509,39.9976],[-108.6508,39.9998],[-108.6495,40.0008]]},"properties":{"name":"West Fork Spring Creek","display_name":"West Fork Spring Creek","source_name":"West Fork Spring Creek","state":"CO","atlas_class":"named_natural_stream_detail","huc8":"14050007","huc8Name":"Lower White","lineageKey":"greenRiverBlue","lineage":"greenRiverBlue","historic":"greenRiverBlue","current":"greenRiverBlue","recovery":"recoveryWatch","lineageLabel":"Green River / blue-lineage CT","atlas_context":"cutthroat_lineage_context"}},{"type":"Feature","geometry":{"type":"LineString","coordinates":[[-108.6437,40.0564],[-108.6451,40.0584],[-108.6478,40.0596]]},"properties":{"name":"Spring Creek","display_name":"Spring Creek","source_name":"Spring Creek","state":"CO","atlas_class":"named_natural_stream_detail","huc8":"14050007","huc8Name":"Lower White","lineageKey":"greenRiverBlue","lineage":"greenRiverBlue","historic":"greenRiverBlue","current":"greenRiverBlue","recovery":"recoveryWatch","lineageLabel":"Green River / blue-lineage CT","atlas_context":"cutthroat_lineage_context"}},{"type":"Feature","geometry":{"type":"LineString","coordinates":[[-108.6346,40.0367],[-108.6346,40.0383]]},"properties":{"name":"Spring Creek","display_name":"Spring Creek","source_name":"Spring Creek","state":"CO","atlas_class":"named_natural_stream_detail","huc8":"14050007","huc8Name":"Lower White","lineageKey":"greenRiverBlue","lineage":"greenRiverBlue","historic":"greenRiverBlue","current":"greenRiverBlue","recovery":"recoveryWatch","lineageLabel":"Green River / blue-lineage CT","atlas_context":"cutthroat_lineage_context"}},{"type":"Feature","geometry":{"type":"LineString","coordinates":[[-108.6195,40.0288],[-108.6273,40.0321]]},"properties":{"name":"East Fork Spring Creek","display_name":"East Fork Spring Creek","source_name":"East Fork Spring Creek","state":"CO","atlas_class":"named_natural_stream_detail","huc8":"14050007","huc8Name":"Lower White","lineageKey":"greenRiverBlue","lineage":"greenRiverBlue","historic":"greenRiverBlue","current":"greenRiverBlue","recovery":"recoveryWatch","lineageLabel":"Green River / blue-lineage CT","atlas_context":"cutthroat_lineage_context"}},{"type":"Feature","geometry":{"type":"LineString","coordinates":[[-108.6405,40.0521],[-108.6428,40.0534],[-108.6437,40.0564]]},"properties":{"name":"Spring Creek","display_name":"Spring Creek","source_name":"Spring Creek","state":"CO","atlas_class":"named_natural_stream_detail","huc8":"14050007","huc8Name":"Lower White","lineageKey":"greenRiverBlue","lineage":"greenRiverBlue","historic":"greenRiverBlue","current":"greenRiverBlue","recovery":"recoveryWatch","lineageLabel":"Green River / blue-lineage CT","atlas_context":"cutthroat_lineage_context"}},{"type":"Feature","geometry":{"type":"LineString","coordinates":[[-108.6569,40.0855],[-108.6574,40.0864]]},"properties":{"name":"Spring Creek","display_name":"Spring Creek","source_name":"Spring Creek","state":"CO","atlas_class":"named_natural_stream_detail","huc8":"14050007","huc8Name":"Lower White","lineageKey":"greenRiverBlue","lineage":"greenRiverBlue","historic":"greenRiverBlue","current":"greenRiverBlue","recovery":"recoveryWatch","lineageLabel":"Green River / blue-lineage CT","atlas_context":"cutthroat_lineage_context"}},{"type":"Feature","geometry":{"type":"LineString","coordinates":[[-108.6427,40.0161],[-108.6411,40.0204]]},"properties":{"name":"West Fork Spring Creek","display_name":"West Fork Spring Creek","source_name":"West Fork Spring Creek","state":"CO","atlas_class":"named_natural_stream_detail","huc8":"14050007","huc8Name":"Lower White","lineageKey":"greenRiverBlue","lineage":"greenRiverBlue","historic":"greenRiverBlue","current":"greenRiverBlue","recovery":"recoveryWatch","lineageLabel":"Green River / blue-lineage CT","atlas_context":"cutthroat_lineage_context"}},{"type":"Feature","geometry":{"type":"LineString","coordinates":[[-108.6548,40.0727],[-108.6565,40.0748],[-108.6552,40.0765]]},"properties":{"name":"Spring Creek","display_name":"Spring Creek","source_name":"Spring Creek","state":"CO","atlas_class":"named_natural_stream_detail","huc8":"14050007","huc8Name":"Lower White","lineageKey":"greenRiverBlue","lineage":"greenRiverBlue","historic":"greenRiverBlue","current":"greenRiverBlue","recovery":"recoveryWatch","lineageLabel":"Green River / blue-lineage CT","atlas_context":"cutthroat_lineage_context"}},{"type":"Feature","geometry":{"type":"LineString","coordinates":[[-108.6378,40.0462],[-108.638,40.0467]]},"properties":{"name":"Spring Creek","display_name":"Spring Creek","source_name":"Spring Creek","state":"CO","atlas_class":"named_natural_stream_detail","huc8":"14050007","huc8Name":"Lower White","lineageKey":"greenRiverBlue","lineage":"greenRiverBlue","historic":"greenRiverBlue","current":"greenRiverBlue","recovery":"recoveryWatch","lineageLabel":"Green River / blue-lineage CT","atlas_context":"cutthroat_lineage_context"}},{"type":"Feature","geometry":{"type":"LineString","coordinates":[[-108.6273,40.0321],[-108.6278,40.0327]]},"properties":{"name":"East Fork Spring Creek","display_name":"East Fork Spring Creek","source_name":"East Fork Spring Creek","state":"CO","atlas_class":"named_natural_stream_detail","huc8":"14050007","huc8Name":"Lower White","lineageKey":"greenRiverBlue","lineage":"greenRiverBlue","historic":"greenRiverBlue","current":"greenRiverBlue","recovery":"recoveryWatch","lineageLabel":"Green River / blue-lineage CT","atlas_context":"cutthroat_lineage_context"}},{"type":"Feature","geometry":{"type":"LineString","coordinates":[[-108.6478,40.0596],[-108.6504,40.0611],[-108.6503,40.0624],[-108.6531,40.066],[-108.6528,40.07],[-108.6548,40.0727]]},"properties":{"name":"Spring Creek","display_name":"Spring Creek","source_name":"Spring Creek","state":"CO","atlas_class":"named_natural_stream_detail","huc8":"14050007","huc8Name":"Lower White","lineageKey":"greenRiverBlue","lineage":"greenRiverBlue","historic":"greenRiverBlue","current":"greenRiverBlue","recovery":"recoveryWatch","lineageLabel":"Green River / blue-lineage CT","atlas_context":"cutthroat_lineage_context"}},{"type":"Feature","geometry":{"type":"LineString","coordinates":[[-108.638,40.0467],[-108.6398,40.0492],[-108.6389,40.0506],[-108.6405,40.0521]]},"properties":{"name":"Spring Creek","display_name":"Spring Creek","source_name":"Spring Creek","state":"CO","atlas_class":"named_natural_stream_detail","huc8":"14050007","huc8Name":"Lower White","lineageKey":"greenRiverBlue","lineage":"greenRiverBlue","historic":"greenRiverBlue","current":"greenRiverBlue","recovery":"recoveryWatch","lineageLabel":"Green River / blue-lineage CT","atlas_context":"cutthroat_lineage_context"}},{"type":"Feature","geometry":{"type":"LineString","coordinates":[[-108.6346,40.0383],[-108.6364,40.041],[-108.6378,40.0462]]},"properties":{"name":"Spring Creek","display_name":"Spring Creek","source_name":"Spring Creek","state":"CO","atlas_class":"named_natural_stream_detail","huc8":"14050007","huc8Name":"Lower White","lineageKey":"greenRiverBlue","lineage":"greenRiverBlue","historic":"greenRiverBlue","current":"greenRiverBlue","recovery":"recoveryWatch","lineageLabel":"Green River / blue-lineage CT","atlas_context":"cutthroat_lineage_context"}},{"type":"Feature","geometry":{"type":"LineString","coordinates":[[-108.6278,40.0327],[-108.6338,40.0356],[-108.6346,40.0367]]},"properties":{"name":"East Fork Spring Creek","display_name":"East Fork Spring Creek","source_name":"East Fork Spring Creek","state":"CO","atlas_class":"named_natural_stream_detail","huc8":"14050007","huc8Name":"Lower White","lineageKey":"greenRiverBlue","lineage":"greenRiverBlue","historic":"greenRiverBlue","current":"greenRiverBlue","recovery":"recoveryWatch","lineageLabel":"Green River / blue-lineage CT","atlas_context":"cutthroat_lineage_context"}},{"type":"Feature","geometry":{"type":"LineString","coordinates":[[-108.6347,40.0366],[-108.6346,40.0367]]},"properties":{"name":"West Fork Spring Creek","display_name":"West Fork Spring Creek","source_name":"West Fork Spring Creek","state":"CO","atlas_class":"named_natural_stream_detail","huc8":"14050007","huc8Name":"Lower White","lineageKey":"greenRiverBlue","lineage":"greenRiverBlue","historic":"greenRiverBlue","current":"greenRiverBlue","recovery":"recoveryWatch","lineageLabel":"Green River / blue-lineage CT","atlas_context":"cutthroat_lineage_context"}},{"type":"Feature","geometry":{"type":"LineString","coordinates":[[-108.7802,40.001],[-108.7792,40.0022],[-108.7807,40.0039],[-108.7818,40.0033],[-108.7819,40.0045],[-108.7793,40.0068],[-108.7796,40.0086],[-108.7774,40.0089]]},"properties":{"name":"Douglas Creek","display_name":"Douglas Creek","source_name":"Douglas Creek","state":"CO","atlas_class":"named_natural_stream_detail","huc8":"14050007","huc8Name":"Lower White","lineageKey":"greenRiverBlue","lineage":"greenRiverBlue","historic":"greenRiverBlue","current":"greenRiverBlue","recovery":"recoveryWatch","lineageLabel":"Green River / blue-lineage CT","atlas_context":"cutthroat_lineage_context"}},{"type":"Feature","geometry":{"type":"LineString","coordinates":[[-108.7706,40.0344],[-108.7699,40.0356],[-108.7707,40.0359],[-108.7701,40.0367],[-108.7712,40.0376],[-108.7699,40.0392],[-108.7687,40.0388],[-108.7701,40.0406],[-108.7691,40.0416]]},"properties":{"name":"Douglas Creek","display_name":"Douglas Creek","source_name":"Douglas Creek","state":"CO","atlas_class":"named_natural_stream_detail","huc8":"14050007","huc8Name":"Lower White","lineageKey":"greenRiverBlue","lineage":"greenRiverBlue","historic":"greenRiverBlue","current":"greenRiverBlue","recovery":"recoveryWatch","lineageLabel":"Green River / blue-lineage CT","atlas_context":"cutthroat_lineage_context"}},{"type":"Feature","geometry":{"type":"LineString","coordinates":[[-108.7686,40.0263],[-108.7671,40.0268],[-108.7689,40.0277],[-108.7684,40.0288],[-108.7696,40.0298],[-108.7678,40.03],[-108.7714,40.032],[-108.7701,40.0333],[-108.7708,40.0341]]},"properties":{"name":"Douglas Creek","display_name":"Douglas Creek","source_name":"Douglas Creek","state":"CO","atlas_class":"named_natural_stream_detail","huc8":"14050007","huc8Name":"Lower White","lineageKey":"greenRiverBlue","lineage":"greenRiverBlue","historic":"greenRiverBlue","current":"greenRiverBlue","recovery":"recoveryWatch","lineageLabel":"Green River / blue-lineage CT","atlas_context":"cutthroat_lineage_context"}},{"type":"Feature","geometry":{"type":"LineString","coordinates":[[-108.7687,40.0245],[-108.7686,40.0263]]},"properties":{"name":"Douglas Creek","display_name":"Douglas Creek","source_name":"Douglas Creek","state":"CO","atlas_class":"named_natural_stream_detail","huc8":"14050007","huc8Name":"Lower White","lineageKey":"greenRiverBlue","lineage":"greenRiverBlue","historic":"greenRiverBlue","current":"greenRiverBlue","recovery":"recoveryWatch","lineageLabel":"Green River / blue-lineage CT","atlas_context":"cutthroat_lineage_context"}},{"type":"Feature","geometry":{"type":"LineString","coordinates":[[-108.7681,40.0221],[-108.7698,40.023],[-108.7687,40.0245]]},"properties":{"name":"Douglas Creek","display_name":"Douglas Creek","source_name":"Douglas Creek","state":"CO","atlas_class":"named_natural_stream_detail","huc8":"14050007","huc8Name":"Lower White","lineageKey":"greenRiverBlue","lineage":"greenRiverBlue","historic":"greenRiverBlue","current":"greenRiverBlue","recovery":"recoveryWatch","lineageLabel":"Green River / blue-lineage CT","atlas_context":"cutthroat_lineage_context"}},{"type":"Feature","geometry":{"type":"LineString","coordinates":[[-108.7774,40.0089],[-108.7758,40.0086],[-108.7736,40.0118]]},"properties":{"name":"Douglas Creek","display_name":"Douglas Creek","source_name":"Douglas Creek","state":"CO","atlas_class":"named_natural_stream_detail","huc8":"14050007","huc8Name":"Lower White","lineageKey":"greenRiverBlue","lineage":"greenRiverBlue","historic":"greenRiverBlue","current":"greenRiverBlue","recovery":"recoveryWatch","lineageLabel":"Green River / blue-lineage CT","atlas_context":"cutthroat_lineage_context"}},{"type":"Feature","geometry":{"type":"LineString","coordinates":[[-108.7722,40.0434],[-108.7717,40.0445]]},"properties":{"name":"Douglas Creek","display_name":"Douglas Creek","source_name":"Douglas Creek","state":"CO","atlas_class":"named_natural_stream_detail","huc8":"14050007","huc8Name":"Lower White","lineageKey":"greenRiverBlue","lineage":"greenRiverBlue","historic":"greenRiverBlue","current":"greenRiverBlue","recovery":"recoveryWatch","lineageLabel":"Green River / blue-lineage CT","atlas_context":"cutthroat_lineage_context"}},{"type":"Feature","geometry":{"type":"LineString","coordinates":[[-108.7685,40.0531],[-108.7684,40.054]]},"properties":{"name":"Douglas Creek","display_name":"Douglas Creek","source_name":"Douglas Creek","state":"CO","atlas_class":"named_natural_stream_detail","huc8":"14050007","huc8Name":"Lower White","lineageKey":"greenRiverBlue","lineage":"greenRiverBlue","historic":"greenRiverBlue","current":"greenRiverBlue","recovery":"recoveryWatch","lineageLabel":"Green River / blue-lineage CT","atlas_context":"cutthroat_lineage_context"}},{"type":"Feature","geometry":{"type":"LineString","coordinates":[[-108.7684,40.054],[-108.7693,40.0544],[-108.768,40.0562]]},"properties":{"name":"Douglas Creek","display_name":"Douglas Creek","source_name":"Douglas Creek","state":"CO","atlas_class":"named_natural_stream_detail","huc8":"14050007","huc8Name":"Lower White","lineageKey":"greenRiverBlue","lineage":"greenRiverBlue","historic":"greenRiverBlue","current":"greenRiverBlue","recovery":"recoveryWatch","lineageLabel":"Green River / blue-lineage CT","atlas_context":"cutthroat_lineage_context"}},{"type":"Feature","geometry":{"type":"LineString","coordinates":[[-108.7729,40.0158],[-108.7717,40.0164],[-108.7705,40.015],[-108.7711,40.0189],[-108.7694,40.0183]]},"properties":{"name":"Douglas Creek","display_name":"Douglas Creek","source_name":"Douglas Creek","state":"CO","atlas_class":"named_natural_stream_detail","huc8":"14050007","huc8Name":"Lower White","lineageKey":"greenRiverBlue","lineage":"greenRiverBlue","historic":"greenRiverBlue","current":"greenRiverBlue","recovery":"recoveryWatch","lineageLabel":"Green River / blue-lineage CT","atlas_context":"cutthroat_lineage_context"}},{"type":"Feature","geometry":{"type":"LineString","coordinates":[[-108.7736,40.0118],[-108.7722,40.0146]]},"properties":{"name":"Douglas Creek","display_name":"Douglas Creek","source_name":"Douglas Creek","state":"CO","atlas_class":"named_natural_stream_detail","huc8":"14050007","huc8Name":"Lower White","lineageKey":"greenRiverBlue","lineage":"greenRiverBlue","historic":"greenRiverBlue","current":"greenRiverBlue","recovery":"recoveryWatch","lineageLabel":"Green River / blue-lineage CT","atlas_context":"cutthroat_lineage_context"}},{"type":"Feature","geometry":{"type":"LineString","coordinates":[[-108.7708,40.0341],[-108.7706,40.0344]]},"properties":{"name":"Douglas Creek","display_name":"Douglas Creek","source_name":"Douglas Creek","state":"CO","atlas_class":"named_natural_stream_detail","huc8":"14050007","huc8Name":"Lower White","lineageKey":"greenRiverBlue","lineage":"greenRiverBlue","historic":"greenRiverBlue","current":"greenRiverBlue","recovery":"recoveryWatch","lineageLabel":"Green River / blue-lineage CT","atlas_context":"cutthroat_lineage_context"}},{"type":"Feature","geometry":{"type":"LineString","coordinates":[[-108.7694,40.0183],[-108.7675,40.02],[-108.7681,40.0221]]},"properties":{"name":"Douglas Creek","display_name":"Douglas Creek","source_name":"Douglas Creek","state":"CO","atlas_class":"named_natural_stream_detail","huc8":"14050007","huc8Name":"Lower White","lineageKey":"greenRiverBlue","lineage":"greenRiverBlue","historic":"greenRiverBlue","current":"greenRiverBlue","recovery":"recoveryWatch","lineageLabel":"Green River / blue-lineage CT","atlas_context":"cutthroat_lineage_context"}},{"type":"Feature","geometry":{"type":"LineString","coordinates":[[-108.7717,40.0445],[-108.7715,40.0453],[-108.77,40.0452],[-108.7698,40.0477],[-108.7688,40.0476],[-108.7685,40.0531]]},"properties":{"name":"Douglas Creek","display_name":"Douglas Creek","source_name":"Douglas Creek","state":"CO","atlas_class":"named_natural_stream_detail","huc8":"14050007","huc8Name":"Lower White","lineageKey":"greenRiverBlue","lineage":"greenRiverBlue","historic":"greenRiverBlue","current":"greenRiverBlue","recovery":"recoveryWatch","lineageLabel":"Green River / blue-lineage CT","atlas_context":"cutthroat_lineage_context"}},{"type":"Feature","geometry":{"type":"LineString","coordinates":[[-108.7722,40.0146],[-108.7729,40.0158]]},"properties":{"name":"Douglas Creek","display_name":"Douglas Creek","source_name":"Douglas Creek","state":"CO","atlas_class":"named_natural_stream_detail","huc8":"14050007","huc8Name":"Lower White","lineageKey":"greenRiverBlue","lineage":"greenRiverBlue","historic":"greenRiverBlue","current":"greenRiverBlue","recovery":"recoveryWatch","lineageLabel":"Green River / blue-lineage CT","atlas_context":"cutthroat_lineage_context"}},{"type":"Feature","geometry":{"type":"LineString","coordinates":[[-108.7818,39.9998],[-108.7802,40.001]]},"properties":{"name":"Douglas Creek","display_name":"Douglas Creek","source_name":"Douglas Creek","state":"CO","atlas_class":"named_natural_stream_detail","huc8":"14050007","huc8Name":"Lower White","lineageKey":"greenRiverBlue","lineage":"greenRiverBlue","historic":"greenRiverBlue","current":"greenRiverBlue","recovery":"recoveryWatch","lineageLabel":"Green River / blue-lineage CT","atlas_context":"cutthroat_lineage_context"}},{"type":"Feature","geometry":{"type":"LineString","coordinates":[[-108.7691,40.0416],[-108.7702,40.0418],[-108.7704,40.0433],[-108.7722,40.0434]]},"properties":{"name":"Douglas Creek","display_name":"Douglas Creek","source_name":"Douglas Creek","state":"CO","atlas_class":"named_natural_stream_detail","huc8":"14050007","huc8Name":"Lower White","lineageKey":"greenRiverBlue","lineage":"greenRiverBlue","historic":"greenRiverBlue","current":"greenRiverBlue","recovery":"recoveryWatch","lineageLabel":"Green River / blue-lineage CT","atlas_context":"cutthroat_lineage_context"}},{"type":"Feature","geometry":{"type":"LineString","coordinates":[[-108.768,40.0562],[-108.7682,40.0589],[-108.7703,40.0594]]},"properties":{"name":"Douglas Creek","display_name":"Douglas Creek","source_name":"Douglas Creek","state":"CO","atlas_class":"named_natural_stream_detail","huc8":"14050007","huc8Name":"Lower White","lineageKey":"greenRiverBlue","lineage":"greenRiverBlue","historic":"greenRiverBlue","current":"greenRiverBlue","recovery":"recoveryWatch","lineageLabel":"Green River / blue-lineage CT","atlas_context":"cutthroat_lineage_context"}},{"type":"Feature","geometry":{"type":"LineString","coordinates":[[-108.6597,40.0908],[-108.661,40.0923],[-108.6614,40.0954]]},"properties":{"name":"Spring Creek","display_name":"Spring Creek","source_name":"Spring Creek","state":"CO","atlas_class":"named_natural_stream_detail","huc8":"14050007","huc8Name":"Lower White","lineageKey":"greenRiverBlue","lineage":"greenRiverBlue","historic":"greenRiverBlue","current":"greenRiverBlue","recovery":"recoveryWatch","lineageLabel":"Green River / blue-lineage CT","atlas_context":"cutthroat_lineage_context"}},{"type":"Feature","geometry":{"type":"LineString","coordinates":[[-108.6592,40.0896],[-108.6597,40.0908]]},"properties":{"name":"Spring Creek","display_name":"Spring Creek","source_name":"Spring Creek","state":"CO","atlas_class":"named_natural_stream_detail","huc8":"14050007","huc8Name":"Lower White","lineageKey":"greenRiverBlue","lineage":"greenRiverBlue","historic":"greenRiverBlue","current":"greenRiverBlue","recovery":"recoveryWatch","lineageLabel":"Green River / blue-lineage CT","atlas_context":"cutthroat_lineage_context"}},{"type":"Feature","geometry":{"type":"LineString","coordinates":[[-108.6652,40.0988],[-108.6659,40.0988]]},"properties":{"name":"Spring Creek","display_name":"Spring Creek","source_name":"Spring Creek","state":"CO","atlas_class":"named_natural_stream_detail","huc8":"14050007","huc8Name":"Lower White","lineageKey":"greenRiverBlue","lineage":"greenRiverBlue","historic":"greenRiverBlue","current":"greenRiverBlue","recovery":"recoveryWatch","lineageLabel":"Green River / blue-lineage CT","atlas_context":"cutthroat_lineage_context"}},{"type":"Feature","geometry":{"type":"LineString","coordinates":[[-108.6689,40.1017],[-108.6706,40.1023]]},"properties":{"name":"Spring Creek","display_name":"Spring Creek","source_name":"Spring Creek","state":"CO","atlas_class":"named_natural_stream_detail","huc8":"14050007","huc8Name":"Lower White","lineageKey":"greenRiverBlue","lineage":"greenRiverBlue","historic":"greenRiverBlue","current":"greenRiverBlue","recovery":"recoveryWatch","lineageLabel":"Green River / blue-lineage CT","atlas_context":"cutthroat_lineage_context"}},{"type":"Feature","geometry":{"type":"LineString","coordinates":[[-108.6659,40.0988],[-108.6689,40.1017]]},"properties":{"name":"Spring Creek","display_name":"Spring Creek","source_name":"Spring Creek","state":"CO","atlas_class":"named_natural_stream_detail","huc8":"14050007","huc8Name":"Lower White","lineageKey":"greenRiverBlue","lineage":"greenRiverBlue","historic":"greenRiverBlue","current":"greenRiverBlue","recovery":"recoveryWatch","lineageLabel":"Green River / blue-lineage CT","atlas_context":"cutthroat_lineage_context"}},{"type":"Feature","geometry":{"type":"LineString","coordinates":[[-108.6574,40.0864],[-108.6582,40.0897],[-108.6592,40.0896]]},"properties":{"name":"Spring Creek","display_name":"Spring Creek","source_name":"Spring Creek","state":"CO","atlas_class":"named_natural_stream_detail","huc8":"14050007","huc8Name":"Lower White","lineageKey":"greenRiverBlue","lineage":"greenRiverBlue","historic":"greenRiverBlue","current":"greenRiverBlue","recovery":"recoveryWatch","lineageLabel":"Green River / blue-lineage CT","atlas_context":"cutthroat_lineage_context"}},{"type":"Feature","geometry":{"type":"LineString","coordinates":[[-108.6723,40.1826],[-108.6744,40.1814],[-108.6737,40.1807],[-108.6759,40.1801]]},"properties":{"name":"Red Wash","display_name":"Red Wash","source_name":"Red Wash","state":"CO","atlas_class":"named_natural_stream_detail","huc8":"14050007","huc8Name":"Lower White","lineageKey":"greenRiverBlue","lineage":"greenRiverBlue","historic":"greenRiverBlue","current":"greenRiverBlue","recovery":"recoveryWatch","lineageLabel":"Green River / blue-lineage CT","atlas_context":"cutthroat_lineage_context"}},{"type":"Feature","geometry":{"type":"LineString","coordinates":[[-108.6747,40.1049],[-108.675,40.1051]]},"properties":{"name":"Spring Creek","display_name":"Spring Creek","source_name":"Spring Creek","state":"CO","atlas_class":"named_natural_stream_detail","huc8":"14050007","huc8Name":"Lower White","lineageKey":"greenRiverBlue","lineage":"greenRiverBlue","historic":"greenRiverBlue","current":"greenRiverBlue","recovery":"recoveryWatch","lineageLabel":"Green River / blue-lineage CT","atlas_context":"cutthroat_lineage_context"}},{"type":"Feature","geometry":{"type":"LineString","coordinates":[[-108.6759,40.1801],[-108.6763,40.1795],[-108.6746,40.1794]]},"properties":{"name":"Red Wash","display_name":"Red Wash","source_name":"Red Wash","state":"CO","atlas_class":"named_natural_stream_detail","huc8":"14050007","huc8Name":"Lower White","lineageKey":"greenRiverBlue","lineage":"greenRiverBlue","historic":"greenRiverBlue","current":"greenRiverBlue","recovery":"recoveryWatch","lineageLabel":"Green River / blue-lineage CT","atlas_context":"cutthroat_lineage_context"}},{"type":"Feature","geometry":{"type":"LineString","coordinates":[[-108.6563,40.0803],[-108.6577,40.0839],[-108.6569,40.0855]]},"properties":{"name":"Spring Creek","display_name":"Spring Creek","source_name":"Spring Creek","state":"CO","atlas_class":"named_natural_stream_detail","huc8":"14050007","huc8Name":"Lower White","lineageKey":"greenRiverBlue","lineage":"greenRiverBlue","historic":"greenRiverBlue","current":"greenRiverBlue","recovery":"recoveryWatch","lineageLabel":"Green River / blue-lineage CT","atlas_context":"cutthroat_lineage_context"}},{"type":"Feature","geometry":{"type":"LineString","coordinates":[[-108.6706,40.1023],[-108.6747,40.1049]]},"properties":{"name":"Spring Creek","display_name":"Spring Creek","source_name":"Spring Creek","state":"CO","atlas_class":"named_natural_stream_detail","huc8":"14050007","huc8Name":"Lower White","lineageKey":"greenRiverBlue","lineage":"greenRiverBlue","historic":"greenRiverBlue","current":"greenRiverBlue","recovery":"recoveryWatch","lineageLabel":"Green River / blue-lineage CT","atlas_context":"cutthroat_lineage_context"}},{"type":"Feature","geometry":{"type":"LineString","coordinates":[[-108.675,40.1051],[-108.677,40.1049],[-108.6803,40.1076]]},"properties":{"name":"Spring Creek","display_name":"Spring Creek","source_name":"Spring Creek","state":"CO","atlas_class":"named_natural_stream_detail","huc8":"14050007","huc8Name":"Lower White","lineageKey":"greenRiverBlue","lineage":"greenRiverBlue","historic":"greenRiverBlue","current":"greenRiverBlue","recovery":"recoveryWatch","lineageLabel":"Green River / blue-lineage CT","atlas_context":"cutthroat_lineage_context"}},{"type":"Feature","geometry":{"type":"LineString","coordinates":[[-108.6614,40.0954],[-108.6621,40.0977],[-108.6652,40.0988]]},"properties":{"name":"Spring Creek","display_name":"Spring Creek","source_name":"Spring Creek","state":"CO","atlas_class":"named_natural_stream_detail","huc8":"14050007","huc8Name":"Lower White","lineageKey":"greenRiverBlue","lineage":"greenRiverBlue","historic":"greenRiverBlue","current":"greenRiverBlue","recovery":"recoveryWatch","lineageLabel":"Green River / blue-lineage CT","atlas_context":"cutthroat_lineage_context"}},{"type":"Feature","geometry":{"type":"LineString","coordinates":[[-108.6746,40.1794],[-108.6752,40.1779],[-108.6767,40.1789],[-108.68,40.1776],[-108.6804,40.177],[-108.6794,40.1759]]},"properties":{"name":"Red Wash","display_name":"Red Wash","source_name":"Red Wash","state":"CO","atlas_class":"named_natural_stream_detail","huc8":"14050007","huc8Name":"Lower White","lineageKey":"greenRiverBlue","lineage":"greenRiverBlue","historic":"greenRiverBlue","current":"greenRiverBlue","recovery":"recoveryWatch","lineageLabel":"Green River / blue-lineage CT","atlas_context":"cutthroat_lineage_context"}},{"type":"Feature","geometry":{"type":"LineString","coordinates":[[-108.6839,40.173],[-108.6829,40.1725],[-108.6836,40.171],[-108.6821,40.1702]]},"properties":{"name":"Red Wash","display_name":"Red Wash","source_name":"Red Wash","state":"CO","atlas_class":"named_natural_stream_detail","huc8":"14050007","huc8Name":"Lower White","lineageKey":"greenRiverBlue","lineage":"greenRiverBlue","historic":"greenRiverBlue","current":"greenRiverBlue","recovery":"recoveryWatch","lineageLabel":"Green River / blue-lineage CT","atlas_context":"cutthroat_lineage_context"}},{"type":"Feature","geometry":{"type":"LineString","coordinates":[[-108.6803,40.1076],[-108.6856,40.1095],[-108.6887,40.1124],[-108.6896,40.1122],[-108.6911,40.114],[-108.6902,40.1146],[-108.691,40.1154],[-108.6901,40.1166],[-108.6916,40.118],[-108.6908,40.1183],[-108.6913,40.1191]]},"properties":{"name":"Spring Creek","display_name":"Spring Creek","source_name":"Spring Creek","state":"CO","atlas_class":"named_natural_stream_detail","huc8":"14050007","huc8Name":"Lower White","lineageKey":"greenRiverBlue","lineage":"greenRiverBlue","historic":"greenRiverBlue","current":"greenRiverBlue","recovery":"recoveryWatch","lineageLabel":"Green River / blue-lineage CT","atlas_context":"cutthroat_lineage_context"}},{"type":"Feature","geometry":{"type":"LineString","coordinates":[[-108.6821,40.1702],[-108.6829,40.1685],[-108.6856,40.167],[-108.684,40.1656],[-108.6867,40.1645],[-108.6881,40.1615]]},"properties":{"name":"Red Wash","display_name":"Red Wash","source_name":"Red Wash","state":"CO","atlas_class":"named_natural_stream_detail","huc8":"14050007","huc8Name":"Lower White","lineageKey":"greenRiverBlue","lineage":"greenRiverBlue","historic":"greenRiverBlue","current":"greenRiverBlue","recovery":"recoveryWatch","lineageLabel":"Green River / blue-lineage CT","atlas_context":"cutthroat_lineage_context"}},{"type":"Feature","geometry":{"type":"LineString","coordinates":[[-108.6794,40.1759],[-108.6794,40.1734],[-108.6812,40.1736],[-108.6813,40.1726],[-108.6827,40.1733]]},"properties":{"name":"Red Wash","display_name":"Red Wash","source_name":"Red Wash","state":"CO","atlas_class":"named_natural_stream_detail","huc8":"14050007","huc8Name":"Lower White","lineageKey":"greenRiverBlue","lineage":"greenRiverBlue","historic":"greenRiverBlue","current":"greenRiverBlue","recovery":"recoveryWatch","lineageLabel":"Green River / blue-lineage CT","atlas_context":"cutthroat_lineage_context"}},{"type":"Feature","geometry":{"type":"LineString","coordinates":[[-108.6913,40.1191],[-108.6907,40.1206],[-108.6912,40.1226],[-108.6893,40.1243],[-108.6894,40.1258],[-108.688,40.1265],[-108.6866,40.1295],[-108.6869,40.1311],[-108.6855,40.1335],[-108.6862,40.1341],[-108.684,40.1356],[-108.6841,40.1371],[-108.6828,40.1374],[-108.6826,40.1385],[-108.6838,40.1392],[-108.6824,40.1399],[-108.6824,40.142],[-108.6811,40.1428],[-108.6819,40.1434],[-108.6814,40.1443]]},"properties":{"name":"Spring Creek","display_name":"Spring Creek","source_name":"Spring Creek","state":"CO","atlas_class":"named_natural_stream_detail","huc8":"14050007","huc8Name":"Lower White","lineageKey":"greenRiverBlue","lineage":"greenRiverBlue","historic":"greenRiverBlue","current":"greenRiverBlue","recovery":"recoveryWatch","lineageLabel":"Green River / blue-lineage CT","atlas_context":"cutthroat_lineage_context"}},{"type":"Feature","geometry":{"type":"LineString","coordinates":[[-108.6827,40.1733],[-108.6839,40.173]]},"properties":{"name":"Red Wash","display_name":"Red Wash","source_name":"Red Wash","state":"CO","atlas_class":"named_natural_stream_detail","huc8":"14050007","huc8Name":"Lower White","lineageKey":"greenRiverBlue","lineage":"greenRiverBlue","historic":"greenRiverBlue","current":"greenRiverBlue","recovery":"recoveryWatch","lineageLabel":"Green River / blue-lineage CT","atlas_context":"cutthroat_lineage_context"}},{"type":"Feature","geometry":{"type":"LineString","coordinates":[[-108.6815,40.149],[-108.6814,40.1515],[-108.6824,40.1519],[-108.6812,40.1539],[-108.6834,40.1578],[-108.6824,40.1587]]},"properties":{"name":"Spring Creek","display_name":"Spring Creek","source_name":"Spring Creek","state":"CO","atlas_class":"named_natural_stream_detail","huc8":"14050007","huc8Name":"Lower White","lineageKey":"greenRiverBlue","lineage":"greenRiverBlue","historic":"greenRiverBlue","current":"greenRiverBlue","recovery":"recoveryWatch","lineageLabel":"Green River / blue-lineage CT","atlas_context":"cutthroat_lineage_context"}},{"type":"Feature","geometry":{"type":"LineString","coordinates":[[-108.6814,40.1443],[-108.6815,40.149]]},"properties":{"name":"Spring Creek","display_name":"Spring Creek","source_name":"Spring Creek","state":"CO","atlas_class":"named_natural_stream_detail","huc8":"14050007","huc8Name":"Lower White","lineageKey":"greenRiverBlue","lineage":"greenRiverBlue","historic":"greenRiverBlue","current":"greenRiverBlue","recovery":"recoveryWatch","lineageLabel":"Green River / blue-lineage CT","atlas_context":"cutthroat_lineage_context"}},{"type":"Feature","geometry":{"type":"LineString","coordinates":[[-108.6881,40.1615],[-108.6893,40.1612],[-108.6891,40.1591]]},"properties":{"name":"Red Wash","display_name":"Red Wash","source_name":"Red Wash","state":"CO","atlas_class":"named_natural_stream_detail","huc8":"14050007","huc8Name":"Lower White","lineageKey":"greenRiverBlue","lineage":"greenRiverBlue","historic":"greenRiverBlue","current":"greenRiverBlue","recovery":"recoveryWatch","lineageLabel":"Green River / blue-lineage CT","atlas_context":"cutthroat_lineage_context"}},{"type":"Feature","geometry":{"type":"LineString","coordinates":[[-108.7752,40.0834],[-108.774,40.0843],[-108.775,40.0846]]},"properties":{"name":"Douglas Creek","display_name":"Douglas Creek","source_name":"Douglas Creek","state":"CO","atlas_class":"named_natural_stream_detail","huc8":"14050007","huc8Name":"Lower White","lineageKey":"greenRiverBlue","lineage":"greenRiverBlue","historic":"greenRiverBlue","current":"greenRiverBlue","recovery":"recoveryWatch","lineageLabel":"Green River / blue-lineage CT","atlas_context":"cutthroat_lineage_context"}},{"type":"Feature","geometry":{"type":"LineString","coordinates":[[-108.7739,40.0857],[-108.7754,40.086],[-108.775,40.0869],[-108.776,40.0887],[-108.7785,40.0886],[-108.7772,40.0904],[-108.7806,40.0928]]},"properties":{"name":"Douglas Creek","display_name":"Douglas Creek","source_name":"Douglas Creek","state":"CO","atlas_class":"named_natural_stream_detail","huc8":"14050007","huc8Name":"Lower White","lineageKey":"greenRiverBlue","lineage":"greenRiverBlue","historic":"greenRiverBlue","current":"greenRiverBlue","recovery":"recoveryWatch","lineageLabel":"Green River / blue-lineage CT","atlas_context":"cutthroat_lineage_context"}},{"type":"Feature","geometry":{"type":"LineString","coordinates":[[-108.7748,40.0787],[-108.7736,40.0793],[-108.7758,40.0811],[-108.7752,40.0814],[-108.7733,40.0801]]},"properties":{"name":"Douglas Creek","display_name":"Douglas Creek","source_name":"Douglas Creek","state":"CO","atlas_class":"named_natural_stream_detail","huc8":"14050007","huc8Name":"Lower White","lineageKey":"greenRiverBlue","lineage":"greenRiverBlue","historic":"greenRiverBlue","current":"greenRiverBlue","recovery":"recoveryWatch","lineageLabel":"Green River / blue-lineage CT","atlas_context":"cutthroat_lineage_context"}},{"type":"Feature","geometry":{"type":"LineString","coordinates":[[-108.7733,40.0801],[-108.7744,40.0813],[-108.7737,40.0822],[-108.7743,40.0832]]},"properties":{"name":"Douglas Creek","display_name":"Douglas Creek","source_name":"Douglas Creek","state":"CO","atlas_class":"named_natural_stream_detail","huc8":"14050007","huc8Name":"Lower White","lineageKey":"greenRiverBlue","lineage":"greenRiverBlue","historic":"greenRiverBlue","current":"greenRiverBlue","recovery":"recoveryWatch","lineageLabel":"Green River / blue-lineage CT","atlas_context":"cutthroat_lineage_context"}},{"type":"Feature","geometry":{"type":"LineString","coordinates":[[-108.7742,40.0853],[-108.7739,40.0857]]},"properties":{"name":"Douglas Creek","display_name":"Douglas Creek","source_name":"Douglas Creek","state":"CO","atlas_class":"named_natural_stream_detail","huc8":"14050007","huc8Name":"Lower White","lineageKey":"greenRiverBlue","lineage":"greenRiverBlue","historic":"greenRiverBlue","current":"greenRiverBlue","recovery":"recoveryWatch","lineageLabel":"Green River / blue-lineage CT","atlas_context":"cutthroat_lineage_context"}},{"type":"Feature","geometry":{"type":"LineString","coordinates":[[-108.775,40.0846],[-108.7742,40.0853]]},"properties":{"name":"Douglas Creek","display_name":"Douglas Creek","source_name":"Douglas Creek","state":"CO","atlas_class":"named_natural_stream_detail","huc8":"14050007","huc8Name":"Lower White","lineageKey":"greenRiverBlue","lineage":"greenRiverBlue","historic":"greenRiverBlue","current":"greenRiverBlue","recovery":"recoveryWatch","lineageLabel":"Green River / blue-lineage CT","atlas_context":"cutthroat_lineage_context"}},{"type":"Feature","geometry":{"type":"LineString","coordinates":[[-108.6741,40.1902],[-108.6742,40.19]]},"properties":{"name":"Red Wash","display_name":"Red Wash","source_name":"Red Wash","state":"CO","atlas_class":"named_natural_stream_detail","huc8":"14050007","huc8Name":"Lower White","lineageKey":"greenRiverBlue","lineage":"greenRiverBlue","historic":"greenRiverBlue","current":"greenRiverBlue","recovery":"recoveryWatch","lineageLabel":"Green River / blue-lineage CT","atlas_context":"cutthroat_lineage_context"}},{"type":"Feature","geometry":{"type":"LineString","coordinates":[[-108.6761,40.201],[-108.675,40.2007],[-108.6755,40.1985],[-108.6745,40.1972]]},"properties":{"name":"Red Wash","display_name":"Red Wash","source_name":"Red Wash","state":"CO","atlas_class":"named_natural_stream_detail","huc8":"14050007","huc8Name":"Lower White","lineageKey":"greenRiverBlue","lineage":"greenRiverBlue","historic":"greenRiverBlue","current":"greenRiverBlue","recovery":"recoveryWatch","lineageLabel":"Green River / blue-lineage CT","atlas_context":"cutthroat_lineage_context"}},{"type":"Feature","geometry":{"type":"LineString","coordinates":[[-108.6742,40.19],[-108.6761,40.187],[-108.6723,40.1826]]},"properties":{"name":"Red Wash","display_name":"Red Wash","source_name":"Red Wash","state":"CO","atlas_class":"named_natural_stream_detail","huc8":"14050007","huc8Name":"Lower White","lineageKey":"greenRiverBlue","lineage":"greenRiverBlue","historic":"greenRiverBlue","current":"greenRiverBlue","recovery":"recoveryWatch","lineageLabel":"Green River / blue-lineage CT","atlas_context":"cutthroat_lineage_context"}},{"type":"Feature","geometry":{"type":"LineString","coordinates":[[-108.6745,40.1972],[-108.6722,40.1961],[-108.675,40.1956],[-108.6733,40.1937],[-108.6752,40.1928]]},"properties":{"name":"Red Wash","display_name":"Red Wash","source_name":"Red Wash","state":"CO","atlas_class":"named_natural_stream_detail","huc8":"14050007","huc8Name":"Lower White","lineageKey":"greenRiverBlue","lineage":"greenRiverBlue","historic":"greenRiverBlue","current":"greenRiverBlue","recovery":"recoveryWatch","lineageLabel":"Green River / blue-lineage CT","atlas_context":"cutthroat_lineage_context"}},{"type":"Feature","geometry":{"type":"LineString","coordinates":[[-108.6752,40.1928],[-108.6759,40.1925],[-108.6741,40.1913],[-108.6741,40.1902]]},"properties":{"name":"Red Wash","display_name":"Red Wash","source_name":"Red Wash","state":"CO","atlas_class":"named_natural_stream_detail","huc8":"14050007","huc8Name":"Lower White","lineageKey":"greenRiverBlue","lineage":"greenRiverBlue","historic":"greenRiverBlue","current":"greenRiverBlue","recovery":"recoveryWatch","lineageLabel":"Green River / blue-lineage CT","atlas_context":"cutthroat_lineage_context"}}]}