{"type":"FeatureCollection","metadata":{"source":"C:\\ct-atlas-data\\processed\\geojson\\interpreted\\colorado_named_natural_streams_complete_v1.geojson","type":"colorado-natural-stream-detail-tile-v2","tile_size_degrees":0.2,"x":-546,"y":199,"bounds":{"west":-109.2,"south":39.8,"east":-109,"north":40}},"features":[{"type":"Feature","geometry":{"type":"LineString","coordinates":[[-109.0003,39.8027],[-109.0053,39.8037],[-109.0058,39.8033],[-109.0043,39.8028],[-109.0076,39.802],[-109.0082,39.8008],[-109.0108,39.8],[-109.0122,39.8005]]},"properties":{"name":"Texas Creek","display_name":"Texas Creek","source_name":"Texas Creek","state":"CO","atlas_class":"named_natural_stream_detail","huc8":"14050007","huc8Name":"Lower White","lineageKey":"greenRiverBlue","lineage":"greenRiverBlue","historic":"greenRiverBlue","current":"greenRiverBlue","recovery":"recoveryWatch","lineageLabel":"Green River / blue-lineage CT","atlas_context":"cutthroat_lineage_context"}},{"type":"Feature","geometry":{"type":"LineString","coordinates":[[-109.0486,39.7995],[-109.0492,39.8011],[-109.0508,39.8007]]},"properties":{"name":"Missouri Creek","display_name":"Missouri Creek","source_name":"Missouri Creek","state":"CO","atlas_class":"named_natural_stream_detail","huc8":"14050007","huc8Name":"Lower White","lineageKey":"greenRiverBlue","lineage":"greenRiverBlue","historic":"greenRiverBlue","current":"greenRiverBlue","recovery":"recoveryWatch","lineageLabel":"Green River / blue-lineage CT","atlas_context":"cutthroat_lineage_context"}},{"type":"Feature","geometry":{"type":"LineString","coordinates":[[-109.027,39.7997],[-109.028,39.8001]]},"properties":{"name":"Missouri Creek","display_name":"Missouri Creek","source_name":"Missouri Creek","state":"CO","atlas_class":"named_natural_stream_detail","huc8":"14050007","huc8Name":"Lower White","lineageKey":"greenRiverBlue","lineage":"greenRiverBlue","historic":"greenRiverBlue","current":"greenRiverBlue","recovery":"recoveryWatch","lineageLabel":"Green River / blue-lineage CT","atlas_context":"cutthroat_lineage_context"}},{"type":"Feature","geometry":{"type":"LineString","coordinates":[[-109.0391,39.7995],[-109.04,39.8004],[-109.0454,39.7998]]},"properties":{"name":"Missouri Creek","display_name":"Missouri Creek","source_name":"Missouri Creek","state":"CO","atlas_class":"named_natural_stream_detail","huc8":"14050007","huc8Name":"Lower White","lineageKey":"greenRiverBlue","lineage":"greenRiverBlue","historic":"greenRiverBlue","current":"greenRiverBlue","recovery":"recoveryWatch","lineageLabel":"Green River / blue-lineage CT","atlas_context":"cutthroat_lineage_context"}},{"type":"Feature","geometry":{"type":"LineString","coordinates":[[-108.999,39.8041],[-109.0003,39.8027]]},"properties":{"name":"Texas Creek","display_name":"Texas Creek","source_name":"Texas Creek","state":"CO","atlas_class":"named_natural_stream_detail","huc8":"14050007","huc8Name":"Lower White","lineageKey":"greenRiverBlue","lineage":"greenRiverBlue","historic":"greenRiverBlue","current":"greenRiverBlue","recovery":"recoveryWatch","lineageLabel":"Green River / blue-lineage CT","atlas_context":"cutthroat_lineage_context"}},{"type":"Feature","geometry":{"type":"LineString","coordinates":[[-109.028,39.8001],[-109.0296,39.7992],[-109.0327,39.7998],[-109.0338,39.7987],[-109.0366,39.7998],[-109.0389,39.7989]]},"properties":{"name":"Missouri Creek","display_name":"Missouri Creek","source_name":"Missouri Creek","state":"CO","atlas_class":"named_natural_stream_detail","huc8":"14050007","huc8Name":"Lower White","lineageKey":"greenRiverBlue","lineage":"greenRiverBlue","historic":"greenRiverBlue","current":"greenRiverBlue","recovery":"recoveryWatch","lineageLabel":"Green River / blue-lineage CT","atlas_context":"cutthroat_lineage_context"}},{"type":"Feature","geometry":{"type":"LineString","coordinates":[[-109.0122,39.8005],[-109.0147,39.7998]]},"properties":{"name":"Texas Creek","display_name":"Texas Creek","source_name":"Texas Creek","state":"CO","atlas_class":"named_natural_stream_detail","huc8":"14050007","huc8Name":"Lower White","lineageKey":"greenRiverBlue","lineage":"greenRiverBlue","historic":"greenRiverBlue","current":"greenRiverBlue","recovery":"recoveryWatch","lineageLabel":"Green River / blue-lineage CT","atlas_context":"cutthroat_lineage_context"}}]}