{"type":"FeatureCollection","metadata":{"source":"C:\\ct-atlas-data\\processed\\geojson\\interpreted\\colorado_named_natural_streams_complete_v1.geojson","type":"colorado-natural-stream-detail-tile-v2","tile_size_degrees":0.2,"x":-512,"y":186,"bounds":{"west":-102.4,"south":37.2,"east":-102.2,"north":37.4}},"features":[{"type":"Feature","geometry":{"type":"LineString","coordinates":[[-102.3226,37.3946],[-102.3172,37.3981],[-102.3133,37.3971],[-102.3101,37.4004],[-102.3068,37.3997]]},"properties":{"name":"Dry Creek","display_name":"Dry Creek","source_name":"Dry Creek","state":"CO","atlas_class":"named_natural_stream_detail","huc8":"11040005","huc8Name":"Bear","lineageKey":"statewideContext","lineage":"statewideContext","historic":"statewideContext","current":"statewideContext","recovery":"statewideContext","lineageLabel":"Statewide Colorado hydrography context","atlas_context":"statewide_hydrography_context"}},{"type":"Feature","geometry":{"type":"LineString","coordinates":[[-102.2595,37.3431],[-102.2587,37.343]]},"properties":{"name":"Sand Arroyo Creek","display_name":"Sand Arroyo Creek","source_name":"Sand Arroyo Creek","state":"CO","atlas_class":"named_natural_stream_detail","huc8":"11040004","huc8Name":"Sand Arroyo","lineageKey":"statewideContext","lineage":"statewideContext","historic":"statewideContext","current":"statewideContext","recovery":"statewideContext","lineageLabel":"Statewide Colorado hydrography context","atlas_context":"statewide_hydrography_context"}},{"type":"Feature","geometry":{"type":"LineString","coordinates":[[-102.3992,37.2935],[-102.3974,37.2936]]},"properties":{"name":"Sand Arroyo Creek","display_name":"Sand Arroyo Creek","source_name":"Sand Arroyo Creek","state":"CO","atlas_class":"named_natural_stream_detail","huc8":"11040004","huc8Name":"Sand Arroyo","lineageKey":"statewideContext","lineage":"statewideContext","historic":"statewideContext","current":"statewideContext","recovery":"statewideContext","lineageLabel":"Statewide Colorado hydrography context","atlas_context":"statewide_hydrography_context"}},{"type":"Feature","geometry":{"type":"LineString","coordinates":[[-102.3996,37.2934],[-102.3992,37.2935]]},"properties":{"name":"Sand Arroyo Creek","display_name":"Sand Arroyo Creek","source_name":"Sand Arroyo Creek","state":"CO","atlas_class":"named_natural_stream_detail","huc8":"11040004","huc8Name":"Sand Arroyo","lineageKey":"statewideContext","lineage":"statewideContext","historic":"statewideContext","current":"statewideContext","recovery":"statewideContext","lineageLabel":"Statewide Colorado hydrography context","atlas_context":"statewide_hydrography_context"}},{"type":"Feature","geometry":{"type":"LineString","coordinates":[[-102.2626,37.2102],[-102.2606,37.2125]]},"properties":{"name":"North Fork Cimarron River","display_name":"North Fork Cimarron River","source_name":"North Fork Cimarron River","state":"CO","atlas_class":"named_natural_stream_detail","huc8":"11040003","huc8Name":"North Fork Cimarron","lineageKey":"statewideContext","lineage":"statewideContext","historic":"statewideContext","current":"statewideContext","recovery":"statewideContext","lineageLabel":"Statewide Colorado hydrography context","atlas_context":"statewide_hydrography_context"}},{"type":"Feature","geometry":{"type":"LineString","coordinates":[[-102.3884,37.3659],[-102.3878,37.3661]]},"properties":{"name":"Dry Creek","display_name":"Dry Creek","source_name":"Dry Creek","state":"CO","atlas_class":"named_natural_stream_detail","huc8":"11040005","huc8Name":"Bear","lineageKey":"statewideContext","lineage":"statewideContext","historic":"statewideContext","current":"statewideContext","recovery":"statewideContext","lineageLabel":"Statewide Colorado hydrography context","atlas_context":"statewide_hydrography_context"}},{"type":"Feature","geometry":{"type":"LineString","coordinates":[[-102.38,37.3694],[-102.3774,37.3699],[-102.3747,37.3691]]},"properties":{"name":"Dry Creek","display_name":"Dry Creek","source_name":"Dry Creek","state":"CO","atlas_class":"named_natural_stream_detail","huc8":"11040005","huc8Name":"Bear","lineageKey":"statewideContext","lineage":"statewideContext","historic":"statewideContext","current":"statewideContext","recovery":"statewideContext","lineageLabel":"Statewide Colorado hydrography context","atlas_context":"statewide_hydrography_context"}},{"type":"Feature","geometry":{"type":"LineString","coordinates":[[-102.3846,37.366],[-102.3823,37.3678],[-102.3818,37.3695],[-102.38,37.3694]]},"properties":{"name":"Dry Creek","display_name":"Dry Creek","source_name":"Dry Creek","state":"CO","atlas_class":"named_natural_stream_detail","huc8":"11040005","huc8Name":"Bear","lineageKey":"statewideContext","lineage":"statewideContext","historic":"statewideContext","current":"statewideContext","recovery":"statewideContext","lineageLabel":"Statewide Colorado hydrography context","atlas_context":"statewide_hydrography_context"}},{"type":"Feature","geometry":{"type":"LineString","coordinates":[[-102.3869,37.2959],[-102.3864,37.2963]]},"properties":{"name":"Sand Arroyo Creek","display_name":"Sand Arroyo Creek","source_name":"Sand Arroyo Creek","state":"CO","atlas_class":"named_natural_stream_detail","huc8":"11040004","huc8Name":"Sand Arroyo","lineageKey":"statewideContext","lineage":"statewideContext","historic":"statewideContext","current":"statewideContext","recovery":"statewideContext","lineageLabel":"Statewide Colorado hydrography context","atlas_context":"statewide_hydrography_context"}},{"type":"Feature","geometry":{"type":"LineString","coordinates":[[-102.3867,37.3661],[-102.3864,37.366]]},"properties":{"name":"Dry Creek","display_name":"Dry Creek","source_name":"Dry Creek","state":"CO","atlas_class":"named_natural_stream_detail","huc8":"11040005","huc8Name":"Bear","lineageKey":"statewideContext","lineage":"statewideContext","historic":"statewideContext","current":"statewideContext","recovery":"statewideContext","lineageLabel":"Statewide Colorado hydrography context","atlas_context":"statewide_hydrography_context"}},{"type":"Feature","geometry":{"type":"LineString","coordinates":[[-102.2424,37.3499],[-102.241,37.3498],[-102.2403,37.3484],[-102.2391,37.3485],[-102.2346,37.3526],[-102.2251,37.3492],[-102.2205,37.3534]]},"properties":{"name":"Sand Arroyo Creek","display_name":"Sand Arroyo Creek","source_name":"Sand Arroyo Creek","state":"CO","atlas_class":"named_natural_stream_detail","huc8":"11040004","huc8Name":"Sand Arroyo","lineageKey":"statewideContext","lineage":"statewideContext","historic":"statewideContext","current":"statewideContext","recovery":"statewideContext","lineageLabel":"Statewide Colorado hydrography context","atlas_context":"statewide_hydrography_context"}},{"type":"Feature","geometry":{"type":"LineString","coordinates":[[-102.38,37.3018],[-102.379,37.3019]]},"properties":{"name":"Sand Arroyo Creek","display_name":"Sand Arroyo Creek","source_name":"Sand Arroyo Creek","state":"CO","atlas_class":"named_natural_stream_detail","huc8":"11040004","huc8Name":"Sand Arroyo","lineageKey":"statewideContext","lineage":"statewideContext","historic":"statewideContext","current":"statewideContext","recovery":"statewideContext","lineageLabel":"Statewide Colorado hydrography context","atlas_context":"statewide_hydrography_context"}},{"type":"Feature","geometry":{"type":"LineString","coordinates":[[-102.3864,37.366],[-102.3846,37.366]]},"properties":{"name":"Dry Creek","display_name":"Dry Creek","source_name":"Dry Creek","state":"CO","atlas_class":"named_natural_stream_detail","huc8":"11040005","huc8Name":"Bear","lineageKey":"statewideContext","lineage":"statewideContext","historic":"statewideContext","current":"statewideContext","recovery":"statewideContext","lineageLabel":"Statewide Colorado hydrography context","atlas_context":"statewide_hydrography_context"}},{"type":"Feature","geometry":{"type":"LineString","coordinates":[[-102.3961,37.3649],[-102.3928,37.3644]]},"properties":{"name":"Dry Creek","display_name":"Dry Creek","source_name":"Dry Creek","state":"CO","atlas_class":"named_natural_stream_detail","huc8":"11040005","huc8Name":"Bear","lineageKey":"statewideContext","lineage":"statewideContext","historic":"statewideContext","current":"statewideContext","recovery":"statewideContext","lineageLabel":"Statewide Colorado hydrography context","atlas_context":"statewide_hydrography_context"}},{"type":"Feature","geometry":{"type":"LineString","coordinates":[[-102.2512,37.3408],[-102.2469,37.3419],[-102.2463,37.345],[-102.2435,37.3465],[-102.2437,37.3487],[-102.2424,37.3499]]},"properties":{"name":"Sand Arroyo Creek","display_name":"Sand Arroyo Creek","source_name":"Sand Arroyo Creek","state":"CO","atlas_class":"named_natural_stream_detail","huc8":"11040004","huc8Name":"Sand Arroyo","lineageKey":"statewideContext","lineage":"statewideContext","historic":"statewideContext","current":"statewideContext","recovery":"statewideContext","lineageLabel":"Statewide Colorado hydrography context","atlas_context":"statewide_hydrography_context"}},{"type":"Feature","geometry":{"type":"LineString","coordinates":[[-102.3833,37.2995],[-102.38,37.3018]]},"properties":{"name":"Sand Arroyo Creek","display_name":"Sand Arroyo Creek","source_name":"Sand Arroyo Creek","state":"CO","atlas_class":"named_natural_stream_detail","huc8":"11040004","huc8Name":"Sand Arroyo","lineageKey":"statewideContext","lineage":"statewideContext","historic":"statewideContext","current":"statewideContext","recovery":"statewideContext","lineageLabel":"Statewide Colorado hydrography context","atlas_context":"statewide_hydrography_context"}},{"type":"Feature","geometry":{"type":"LineString","coordinates":[[-102.379,37.3019],[-102.3779,37.3019]]},"properties":{"name":"Sand Arroyo Creek","display_name":"Sand Arroyo Creek","source_name":"Sand Arroyo Creek","state":"CO","atlas_class":"named_natural_stream_detail","huc8":"11040004","huc8Name":"Sand Arroyo","lineageKey":"statewideContext","lineage":"statewideContext","historic":"statewideContext","current":"statewideContext","recovery":"statewideContext","lineageLabel":"Statewide Colorado hydrography context","atlas_context":"statewide_hydrography_context"}},{"type":"Feature","geometry":{"type":"LineString","coordinates":[[-102.402,37.2941],[-102.3996,37.2934]]},"properties":{"name":"Sand Arroyo Creek","display_name":"Sand Arroyo Creek","source_name":"Sand Arroyo Creek","state":"CO","atlas_class":"named_natural_stream_detail","huc8":"11040004","huc8Name":"Sand Arroyo","lineageKey":"statewideContext","lineage":"statewideContext","historic":"statewideContext","current":"statewideContext","recovery":"statewideContext","lineageLabel":"Statewide Colorado hydrography context","atlas_context":"statewide_hydrography_context"}},{"type":"Feature","geometry":{"type":"LineString","coordinates":[[-102.2507,37.2135],[-102.247,37.2128],[-102.2422,37.214],[-102.2409,37.2137],[-102.2399,37.2119],[-102.238,37.212],[-102.2367,37.2147],[-102.2322,37.2182],[-102.2339,37.2207],[-102.2337,37.2224],[-102.2272,37.2238],[-102.2246,37.2268],[-102.2158,37.2294],[-102.2156,37.2306],[-102.2179,37.2351],[-102.2144,37.2365],[-102.2156,37.2389],[-102.2152,37.2399],[-102.2116,37.2388],[-102.2049,37.2421],[-102.2009,37.243],[-102.1982,37.2486],[-102.1919,37.2535],[-102.1878,37.2551],[-102.1837,37.2533],[-102.1816,37.2534],[-102.1796,37.2543],[-102.1777,37.2568]]},"properties":{"name":"North Fork Cimarron River","display_name":"North Fork Cimarron River","source_name":"North Fork Cimarron River","state":"CO","atlas_class":"named_natural_stream_detail","huc8":"11040003","huc8Name":"North Fork Cimarron","lineageKey":"statewideContext","lineage":"statewideContext","historic":"statewideContext","current":"statewideContext","recovery":"statewideContext","lineageLabel":"Statewide Colorado hydrography context","atlas_context":"statewide_hydrography_context"}},{"type":"Feature","geometry":{"type":"LineString","coordinates":[[-102.3891,37.2946],[-102.3884,37.295]]},"properties":{"name":"Sand Arroyo Creek","display_name":"Sand Arroyo Creek","source_name":"Sand Arroyo Creek","state":"CO","atlas_class":"named_natural_stream_detail","huc8":"11040004","huc8Name":"Sand Arroyo","lineageKey":"statewideContext","lineage":"statewideContext","historic":"statewideContext","current":"statewideContext","recovery":"statewideContext","lineageLabel":"Statewide Colorado hydrography context","atlas_context":"statewide_hydrography_context"}},{"type":"Feature","geometry":{"type":"LineString","coordinates":[[-102.3932,37.2945],[-102.3919,37.2946]]},"properties":{"name":"Sand Arroyo Creek","display_name":"Sand Arroyo Creek","source_name":"Sand Arroyo Creek","state":"CO","atlas_class":"named_natural_stream_detail","huc8":"11040004","huc8Name":"Sand Arroyo","lineageKey":"statewideContext","lineage":"statewideContext","historic":"statewideContext","current":"statewideContext","recovery":"statewideContext","lineageLabel":"Statewide Colorado hydrography context","atlas_context":"statewide_hydrography_context"}},{"type":"Feature","geometry":{"type":"LineString","coordinates":[[-102.3974,37.2936],[-102.3932,37.2945]]},"properties":{"name":"Sand Arroyo Creek","display_name":"Sand Arroyo Creek","source_name":"Sand Arroyo Creek","state":"CO","atlas_class":"named_natural_stream_detail","huc8":"11040004","huc8Name":"Sand Arroyo","lineageKey":"statewideContext","lineage":"statewideContext","historic":"statewideContext","current":"statewideContext","recovery":"statewideContext","lineageLabel":"Statewide Colorado hydrography context","atlas_context":"statewide_hydrography_context"}},{"type":"Feature","geometry":{"type":"LineString","coordinates":[[-102.3919,37.2946],[-102.3891,37.2946]]},"properties":{"name":"Sand Arroyo Creek","display_name":"Sand Arroyo Creek","source_name":"Sand Arroyo Creek","state":"CO","atlas_class":"named_natural_stream_detail","huc8":"11040004","huc8Name":"Sand Arroyo","lineageKey":"statewideContext","lineage":"statewideContext","historic":"statewideContext","current":"statewideContext","recovery":"statewideContext","lineageLabel":"Statewide Colorado hydrography context","atlas_context":"statewide_hydrography_context"}},{"type":"Feature","geometry":{"type":"LineString","coordinates":[[-102.3864,37.2963],[-102.3861,37.2966]]},"properties":{"name":"Sand Arroyo Creek","display_name":"Sand Arroyo Creek","source_name":"Sand Arroyo Creek","state":"CO","atlas_class":"named_natural_stream_detail","huc8":"11040004","huc8Name":"Sand Arroyo","lineageKey":"statewideContext","lineage":"statewideContext","historic":"statewideContext","current":"statewideContext","recovery":"statewideContext","lineageLabel":"Statewide Colorado hydrography context","atlas_context":"statewide_hydrography_context"}},{"type":"Feature","geometry":{"type":"LineString","coordinates":[[-102.2606,37.2125],[-102.2584,37.2145],[-102.2507,37.2135]]},"properties":{"name":"North Fork Cimarron River","display_name":"North Fork Cimarron River","source_name":"North Fork Cimarron River","state":"CO","atlas_class":"named_natural_stream_detail","huc8":"11040003","huc8Name":"North Fork Cimarron","lineageKey":"statewideContext","lineage":"statewideContext","historic":"statewideContext","current":"statewideContext","recovery":"statewideContext","lineageLabel":"Statewide Colorado hydrography context","atlas_context":"statewide_hydrography_context"}},{"type":"Feature","geometry":{"type":"LineString","coordinates":[[-102.4005,37.3673],[-102.3992,37.3672],[-102.3961,37.3649]]},"properties":{"name":"Dry Creek","display_name":"Dry Creek","source_name":"Dry Creek","state":"CO","atlas_class":"named_natural_stream_detail","huc8":"11040005","huc8Name":"Bear","lineageKey":"statewideContext","lineage":"statewideContext","historic":"statewideContext","current":"statewideContext","recovery":"statewideContext","lineageLabel":"Statewide Colorado hydrography context","atlas_context":"statewide_hydrography_context"}},{"type":"Feature","geometry":{"type":"LineString","coordinates":[[-102.33,37.3865],[-102.3282,37.387],[-102.3305,37.3889],[-102.3289,37.39],[-102.3289,37.3919],[-102.3261,37.3931]]},"properties":{"name":"Dry Creek","display_name":"Dry Creek","source_name":"Dry Creek","state":"CO","atlas_class":"named_natural_stream_detail","huc8":"11040005","huc8Name":"Bear","lineageKey":"statewideContext","lineage":"statewideContext","historic":"statewideContext","current":"statewideContext","recovery":"statewideContext","lineageLabel":"Statewide Colorado hydrography context","atlas_context":"statewide_hydrography_context"}},{"type":"Feature","geometry":{"type":"LineString","coordinates":[[-102.3884,37.295],[-102.3869,37.2959]]},"properties":{"name":"Sand Arroyo Creek","display_name":"Sand Arroyo Creek","source_name":"Sand Arroyo Creek","state":"CO","atlas_class":"named_natural_stream_detail","huc8":"11040004","huc8Name":"Sand Arroyo","lineageKey":"statewideContext","lineage":"statewideContext","historic":"statewideContext","current":"statewideContext","recovery":"statewideContext","lineageLabel":"Statewide Colorado hydrography context","atlas_context":"statewide_hydrography_context"}},{"type":"Feature","geometry":{"type":"LineString","coordinates":[[-102.3779,37.3019],[-102.3755,37.3023]]},"properties":{"name":"Sand Arroyo Creek","display_name":"Sand Arroyo Creek","source_name":"Sand Arroyo Creek","state":"CO","atlas_class":"named_natural_stream_detail","huc8":"11040004","huc8Name":"Sand Arroyo","lineageKey":"statewideContext","lineage":"statewideContext","historic":"statewideContext","current":"statewideContext","recovery":"statewideContext","lineageLabel":"Statewide Colorado hydrography context","atlas_context":"statewide_hydrography_context"}},{"type":"Feature","geometry":{"type":"LineString","coordinates":[[-102.3861,37.2966],[-102.3833,37.2995]]},"properties":{"name":"Sand Arroyo Creek","display_name":"Sand Arroyo Creek","source_name":"Sand Arroyo Creek","state":"CO","atlas_class":"named_natural_stream_detail","huc8":"11040004","huc8Name":"Sand Arroyo","lineageKey":"statewideContext","lineage":"statewideContext","historic":"statewideContext","current":"statewideContext","recovery":"statewideContext","lineageLabel":"Statewide Colorado hydrography context","atlas_context":"statewide_hydrography_context"}},{"type":"Feature","geometry":{"type":"LineString","coordinates":[[-102.3878,37.3661],[-102.3867,37.3661]]},"properties":{"name":"Dry Creek","display_name":"Dry Creek","source_name":"Dry Creek","state":"CO","atlas_class":"named_natural_stream_detail","huc8":"11040005","huc8Name":"Bear","lineageKey":"statewideContext","lineage":"statewideContext","historic":"statewideContext","current":"statewideContext","recovery":"statewideContext","lineageLabel":"Statewide Colorado hydrography context","atlas_context":"statewide_hydrography_context"}},{"type":"Feature","geometry":{"type":"LineString","coordinates":[[-102.3747,37.3691],[-102.3732,37.3694],[-102.3739,37.371],[-102.3719,37.3705],[-102.3686,37.3715],[-102.3668,37.3732],[-102.3646,37.373],[-102.3613,37.3771],[-102.3597,37.3769],[-102.357,37.3842],[-102.352,37.3859],[-102.3511,37.3883],[-102.3486,37.39],[-102.3451,37.3888],[-102.3444,37.3857],[-102.3419,37.3842],[-102.3371,37.3863],[-102.3355,37.39],[-102.3328,37.3894],[-102.33,37.3865]]},"properties":{"name":"Dry Creek","display_name":"Dry Creek","source_name":"Dry Creek","state":"CO","atlas_class":"named_natural_stream_detail","huc8":"11040005","huc8Name":"Bear","lineageKey":"statewideContext","lineage":"statewideContext","historic":"statewideContext","current":"statewideContext","recovery":"statewideContext","lineageLabel":"Statewide Colorado hydrography context","atlas_context":"statewide_hydrography_context"}},{"type":"Feature","geometry":{"type":"LineString","coordinates":[[-102.2871,37.1947],[-102.2844,37.1975],[-102.2788,37.2],[-102.2791,37.2017],[-102.274,37.205],[-102.2722,37.2073],[-102.2646,37.2088],[-102.2626,37.2102]]},"properties":{"name":"North Fork Cimarron River","display_name":"North Fork Cimarron River","source_name":"North Fork Cimarron River","state":"CO","atlas_class":"named_natural_stream_detail","huc8":"11040003","huc8Name":"North Fork Cimarron","lineageKey":"statewideContext","lineage":"statewideContext","historic":"statewideContext","current":"statewideContext","recovery":"statewideContext","lineageLabel":"Statewide Colorado hydrography context","atlas_context":"statewide_hydrography_context"}},{"type":"Feature","geometry":{"type":"LineString","coordinates":[[-102.3068,37.3997],[-102.3003,37.4072],[-102.3,37.4102]]},"properties":{"name":"Dry Creek","display_name":"Dry Creek","source_name":"Dry Creek","state":"CO","atlas_class":"named_natural_stream_detail","huc8":"11040005","huc8Name":"Bear","lineageKey":"statewideContext","lineage":"statewideContext","historic":"statewideContext","current":"statewideContext","recovery":"statewideContext","lineageLabel":"Statewide Colorado hydrography context","atlas_context":"statewide_hydrography_context"}},{"type":"Feature","geometry":{"type":"LineString","coordinates":[[-102.389,37.3653],[-102.3884,37.3659]]},"properties":{"name":"Dry Creek","display_name":"Dry Creek","source_name":"Dry Creek","state":"CO","atlas_class":"named_natural_stream_detail","huc8":"11040005","huc8Name":"Bear","lineageKey":"statewideContext","lineage":"statewideContext","historic":"statewideContext","current":"statewideContext","recovery":"statewideContext","lineageLabel":"Statewide Colorado hydrography context","atlas_context":"statewide_hydrography_context"}},{"type":"Feature","geometry":{"type":"LineString","coordinates":[[-102.2772,37.3405],[-102.2768,37.3405]]},"properties":{"name":"Sand Arroyo Creek","display_name":"Sand Arroyo Creek","source_name":"Sand Arroyo Creek","state":"CO","atlas_class":"named_natural_stream_detail","huc8":"11040004","huc8Name":"Sand Arroyo","lineageKey":"statewideContext","lineage":"statewideContext","historic":"statewideContext","current":"statewideContext","recovery":"statewideContext","lineageLabel":"Statewide Colorado hydrography context","atlas_context":"statewide_hydrography_context"}},{"type":"Feature","geometry":{"type":"LineString","coordinates":[[-102.2576,37.3429],[-102.2572,37.3428]]},"properties":{"name":"Sand Arroyo Creek","display_name":"Sand Arroyo Creek","source_name":"Sand Arroyo Creek","state":"CO","atlas_class":"named_natural_stream_detail","huc8":"11040004","huc8Name":"Sand Arroyo","lineageKey":"statewideContext","lineage":"statewideContext","historic":"statewideContext","current":"statewideContext","recovery":"statewideContext","lineageLabel":"Statewide Colorado hydrography context","atlas_context":"statewide_hydrography_context"}},{"type":"Feature","geometry":{"type":"LineString","coordinates":[[-102.3437,37.309],[-102.3375,37.3176],[-102.3322,37.3212],[-102.3265,37.3213],[-102.3244,37.3204],[-102.3176,37.3239],[-102.3163,37.323],[-102.3134,37.324],[-102.3102,37.3321],[-102.3061,37.3343],[-102.298,37.3354],[-102.2968,37.3389],[-102.293,37.3391],[-102.2902,37.3347],[-102.287,37.3334],[-102.284,37.3365],[-102.2825,37.3356],[-102.2802,37.336],[-102.2772,37.3405]]},"properties":{"name":"Sand Arroyo Creek","display_name":"Sand Arroyo Creek","source_name":"Sand Arroyo Creek","state":"CO","atlas_class":"named_natural_stream_detail","huc8":"11040004","huc8Name":"Sand Arroyo","lineageKey":"statewideContext","lineage":"statewideContext","historic":"statewideContext","current":"statewideContext","recovery":"statewideContext","lineageLabel":"Statewide Colorado hydrography context","atlas_context":"statewide_hydrography_context"}},{"type":"Feature","geometry":{"type":"LineString","coordinates":[[-102.3232,37.3943],[-102.3226,37.3946]]},"properties":{"name":"Dry Creek","display_name":"Dry Creek","source_name":"Dry Creek","state":"CO","atlas_class":"named_natural_stream_detail","huc8":"11040005","huc8Name":"Bear","lineageKey":"statewideContext","lineage":"statewideContext","historic":"statewideContext","current":"statewideContext","recovery":"statewideContext","lineageLabel":"Statewide Colorado hydrography context","atlas_context":"statewide_hydrography_context"}},{"type":"Feature","geometry":{"type":"LineString","coordinates":[[-102.3928,37.3644],[-102.3899,37.3642],[-102.389,37.3653]]},"properties":{"name":"Dry Creek","display_name":"Dry Creek","source_name":"Dry Creek","state":"CO","atlas_class":"named_natural_stream_detail","huc8":"11040005","huc8Name":"Bear","lineageKey":"statewideContext","lineage":"statewideContext","historic":"statewideContext","current":"statewideContext","recovery":"statewideContext","lineageLabel":"Statewide Colorado hydrography context","atlas_context":"statewide_hydrography_context"}}]}