{"type":"FeatureCollection","metadata":{"source":"C:\\ct-atlas-data\\processed\\geojson\\interpreted\\colorado_named_natural_streams_complete_v1.geojson","type":"colorado-natural-stream-detail-tile-v2","tile_size_degrees":0.2,"x":-542,"y":193,"bounds":{"west":-108.4,"south":38.6,"east":-108.2,"north":38.8}},"features":[{"type":"Feature","geometry":{"type":"LineString","coordinates":[[-108.4062,38.6344],[-108.4008,38.633],[-108.3984,38.6332]]},"properties":{"name":"North Fork Escalante Creek","display_name":"North Fork Escalante Creek","source_name":"North Fork Escalante Creek","state":"CO","atlas_class":"named_natural_stream_detail","huc8":"14020005","huc8Name":"Lower Gunnison","lineageKey":"coloradoRiver","lineage":"coloradoRiver","historic":"coloradoRiver","current":"coloradoRiver","recovery":"recoveryWatch","lineageLabel":"Colorado River green lineage","atlas_context":"cutthroat_lineage_context"}},{"type":"Feature","geometry":{"type":"LineString","coordinates":[[-108.3894,38.636],[-108.3888,38.6371]]},"properties":{"name":"Escalante Creek","display_name":"Escalante Creek","source_name":"Escalante Creek","state":"CO","atlas_class":"named_natural_stream_detail","huc8":"14020005","huc8Name":"Lower Gunnison","lineageKey":"coloradoRiver","lineage":"coloradoRiver","historic":"coloradoRiver","current":"coloradoRiver","recovery":"recoveryWatch","lineageLabel":"Colorado River green lineage","atlas_context":"cutthroat_lineage_context"}},{"type":"Feature","geometry":{"type":"LineString","coordinates":[[-108.3968,38.626],[-108.3921,38.6299]]},"properties":{"name":"Escalante Creek","display_name":"Escalante Creek","source_name":"Escalante Creek","state":"CO","atlas_class":"named_natural_stream_detail","huc8":"14020005","huc8Name":"Lower Gunnison","lineageKey":"coloradoRiver","lineage":"coloradoRiver","historic":"coloradoRiver","current":"coloradoRiver","recovery":"recoveryWatch","lineageLabel":"Colorado River green lineage","atlas_context":"cutthroat_lineage_context"}},{"type":"Feature","geometry":{"type":"LineString","coordinates":[[-108.3777,38.6434],[-108.377,38.6465]]},"properties":{"name":"Escalante Creek","display_name":"Escalante Creek","source_name":"Escalante Creek","state":"CO","atlas_class":"named_natural_stream_detail","huc8":"14020005","huc8Name":"Lower Gunnison","lineageKey":"coloradoRiver","lineage":"coloradoRiver","historic":"coloradoRiver","current":"coloradoRiver","recovery":"recoveryWatch","lineageLabel":"Colorado River green lineage","atlas_context":"cutthroat_lineage_context"}},{"type":"Feature","geometry":{"type":"LineString","coordinates":[[-108.4003,38.6231],[-108.3973,38.6245],[-108.3968,38.626]]},"properties":{"name":"Escalante Creek","display_name":"Escalante Creek","source_name":"Escalante Creek","state":"CO","atlas_class":"named_natural_stream_detail","huc8":"14020005","huc8Name":"Lower Gunnison","lineageKey":"coloradoRiver","lineage":"coloradoRiver","historic":"coloradoRiver","current":"coloradoRiver","recovery":"recoveryWatch","lineageLabel":"Colorado River green lineage","atlas_context":"cutthroat_lineage_context"}},{"type":"Feature","geometry":{"type":"LineString","coordinates":[[-108.3984,38.6332],[-108.3946,38.6339],[-108.3917,38.6326]]},"properties":{"name":"North Fork Escalante Creek","display_name":"North Fork Escalante Creek","source_name":"North Fork Escalante Creek","state":"CO","atlas_class":"named_natural_stream_detail","huc8":"14020005","huc8Name":"Lower Gunnison","lineageKey":"coloradoRiver","lineage":"coloradoRiver","historic":"coloradoRiver","current":"coloradoRiver","recovery":"recoveryWatch","lineageLabel":"Colorado River green lineage","atlas_context":"cutthroat_lineage_context"}},{"type":"Feature","geometry":{"type":"LineString","coordinates":[[-108.3786,38.6423],[-108.378,38.643]]},"properties":{"name":"Escalante Creek","display_name":"Escalante Creek","source_name":"Escalante Creek","state":"CO","atlas_class":"named_natural_stream_detail","huc8":"14020005","huc8Name":"Lower Gunnison","lineageKey":"coloradoRiver","lineage":"coloradoRiver","historic":"coloradoRiver","current":"coloradoRiver","recovery":"recoveryWatch","lineageLabel":"Colorado River green lineage","atlas_context":"cutthroat_lineage_context"}},{"type":"Feature","geometry":{"type":"LineString","coordinates":[[-108.3582,38.6519],[-108.3543,38.6533]]},"properties":{"name":"Escalante Creek","display_name":"Escalante Creek","source_name":"Escalante Creek","state":"CO","atlas_class":"named_natural_stream_detail","huc8":"14020005","huc8Name":"Lower Gunnison","lineageKey":"coloradoRiver","lineage":"coloradoRiver","historic":"coloradoRiver","current":"coloradoRiver","recovery":"recoveryWatch","lineageLabel":"Colorado River green lineage","atlas_context":"cutthroat_lineage_context"}},{"type":"Feature","geometry":{"type":"LineString","coordinates":[[-108.3688,38.6515],[-108.3667,38.6509],[-108.3613,38.6529],[-108.3605,38.6518],[-108.3582,38.6519]]},"properties":{"name":"Escalante Creek","display_name":"Escalante Creek","source_name":"Escalante Creek","state":"CO","atlas_class":"named_natural_stream_detail","huc8":"14020005","huc8Name":"Lower Gunnison","lineageKey":"coloradoRiver","lineage":"coloradoRiver","historic":"coloradoRiver","current":"coloradoRiver","recovery":"recoveryWatch","lineageLabel":"Colorado River green lineage","atlas_context":"cutthroat_lineage_context"}},{"type":"Feature","geometry":{"type":"LineString","coordinates":[[-108.3737,38.6494],[-108.3703,38.6514]]},"properties":{"name":"Escalante Creek","display_name":"Escalante Creek","source_name":"Escalante Creek","state":"CO","atlas_class":"named_natural_stream_detail","huc8":"14020005","huc8Name":"Lower Gunnison","lineageKey":"coloradoRiver","lineage":"coloradoRiver","historic":"coloradoRiver","current":"coloradoRiver","recovery":"recoveryWatch","lineageLabel":"Colorado River green lineage","atlas_context":"cutthroat_lineage_context"}},{"type":"Feature","geometry":{"type":"LineString","coordinates":[[-108.3921,38.6299],[-108.3926,38.631],[-108.3917,38.6326]]},"properties":{"name":"Escalante Creek","display_name":"Escalante Creek","source_name":"Escalante Creek","state":"CO","atlas_class":"named_natural_stream_detail","huc8":"14020005","huc8Name":"Lower Gunnison","lineageKey":"coloradoRiver","lineage":"coloradoRiver","historic":"coloradoRiver","current":"coloradoRiver","recovery":"recoveryWatch","lineageLabel":"Colorado River green lineage","atlas_context":"cutthroat_lineage_context"}},{"type":"Feature","geometry":{"type":"LineString","coordinates":[[-108.3846,38.6384],[-108.3817,38.6398],[-108.381,38.642]]},"properties":{"name":"Escalante Creek","display_name":"Escalante Creek","source_name":"Escalante Creek","state":"CO","atlas_class":"named_natural_stream_detail","huc8":"14020005","huc8Name":"Lower Gunnison","lineageKey":"coloradoRiver","lineage":"coloradoRiver","historic":"coloradoRiver","current":"coloradoRiver","recovery":"recoveryWatch","lineageLabel":"Colorado River green lineage","atlas_context":"cutthroat_lineage_context"}},{"type":"Feature","geometry":{"type":"LineString","coordinates":[[-108.3888,38.6371],[-108.3846,38.6384]]},"properties":{"name":"Escalante Creek","display_name":"Escalante Creek","source_name":"Escalante Creek","state":"CO","atlas_class":"named_natural_stream_detail","huc8":"14020005","huc8Name":"Lower Gunnison","lineageKey":"coloradoRiver","lineage":"coloradoRiver","historic":"coloradoRiver","current":"coloradoRiver","recovery":"recoveryWatch","lineageLabel":"Colorado River green lineage","atlas_context":"cutthroat_lineage_context"}},{"type":"Feature","geometry":{"type":"LineString","coordinates":[[-108.309,38.681],[-108.3066,38.6842],[-108.3062,38.6873],[-108.3037,38.6905],[-108.3049,38.693],[-108.3025,38.6959],[-108.3037,38.6985]]},"properties":{"name":"Escalante Creek","display_name":"Escalante Creek","source_name":"Escalante Creek","state":"CO","atlas_class":"named_natural_stream_detail","huc8":"14020005","huc8Name":"Lower Gunnison","lineageKey":"coloradoRiver","lineage":"coloradoRiver","historic":"coloradoRiver","current":"coloradoRiver","recovery":"recoveryWatch","lineageLabel":"Colorado River green lineage","atlas_context":"cutthroat_lineage_context"}},{"type":"Feature","geometry":{"type":"LineString","coordinates":[[-108.377,38.6465],[-108.373,38.6479],[-108.3737,38.6494]]},"properties":{"name":"Escalante Creek","display_name":"Escalante Creek","source_name":"Escalante Creek","state":"CO","atlas_class":"named_natural_stream_detail","huc8":"14020005","huc8Name":"Lower Gunnison","lineageKey":"coloradoRiver","lineage":"coloradoRiver","historic":"coloradoRiver","current":"coloradoRiver","recovery":"recoveryWatch","lineageLabel":"Colorado River green lineage","atlas_context":"cutthroat_lineage_context"}},{"type":"Feature","geometry":{"type":"LineString","coordinates":[[-108.31,38.6213],[-108.3092,38.6228],[-108.3043,38.6264],[-108.3032,38.6284]]},"properties":{"name":"Dry Fork Escalante Creek","display_name":"Dry Fork Escalante Creek","source_name":"Dry Fork Escalante Creek","state":"CO","atlas_class":"named_natural_stream_detail","huc8":"14020005","huc8Name":"Lower Gunnison","lineageKey":"coloradoRiver","lineage":"coloradoRiver","historic":"coloradoRiver","current":"coloradoRiver","recovery":"recoveryWatch","lineageLabel":"Colorado River green lineage","atlas_context":"cutthroat_lineage_context"}},{"type":"Feature","geometry":{"type":"LineString","coordinates":[[-108.3203,38.6732],[-108.3167,38.675]]},"properties":{"name":"Escalante Creek","display_name":"Escalante Creek","source_name":"Escalante Creek","state":"CO","atlas_class":"named_natural_stream_detail","huc8":"14020005","huc8Name":"Lower Gunnison","lineageKey":"coloradoRiver","lineage":"coloradoRiver","historic":"coloradoRiver","current":"coloradoRiver","recovery":"recoveryWatch","lineageLabel":"Colorado River green lineage","atlas_context":"cutthroat_lineage_context"}},{"type":"Feature","geometry":{"type":"LineString","coordinates":[[-108.3219,38.6727],[-108.3203,38.6732]]},"properties":{"name":"Escalante Creek","display_name":"Escalante Creek","source_name":"Escalante Creek","state":"CO","atlas_class":"named_natural_stream_detail","huc8":"14020005","huc8Name":"Lower Gunnison","lineageKey":"coloradoRiver","lineage":"coloradoRiver","historic":"coloradoRiver","current":"coloradoRiver","recovery":"recoveryWatch","lineageLabel":"Colorado River green lineage","atlas_context":"cutthroat_lineage_context"}},{"type":"Feature","geometry":{"type":"LineString","coordinates":[[-108.381,38.642],[-108.3786,38.6423]]},"properties":{"name":"Escalante Creek","display_name":"Escalante Creek","source_name":"Escalante Creek","state":"CO","atlas_class":"named_natural_stream_detail","huc8":"14020005","huc8Name":"Lower Gunnison","lineageKey":"coloradoRiver","lineage":"coloradoRiver","historic":"coloradoRiver","current":"coloradoRiver","recovery":"recoveryWatch","lineageLabel":"Colorado River green lineage","atlas_context":"cutthroat_lineage_context"}},{"type":"Feature","geometry":{"type":"LineString","coordinates":[[-108.4005,38.6174],[-108.401,38.6185],[-108.3992,38.6199],[-108.4003,38.6231]]},"properties":{"name":"Escalante Creek","display_name":"Escalante Creek","source_name":"Escalante Creek","state":"CO","atlas_class":"named_natural_stream_detail","huc8":"14020005","huc8Name":"Lower Gunnison","lineageKey":"coloradoRiver","lineage":"coloradoRiver","historic":"coloradoRiver","current":"coloradoRiver","recovery":"recoveryWatch","lineageLabel":"Colorado River green lineage","atlas_context":"cutthroat_lineage_context"}},{"type":"Feature","geometry":{"type":"LineString","coordinates":[[-108.3115,38.6796],[-108.3098,38.6796],[-108.309,38.681]]},"properties":{"name":"Escalante Creek","display_name":"Escalante Creek","source_name":"Escalante Creek","state":"CO","atlas_class":"named_natural_stream_detail","huc8":"14020005","huc8Name":"Lower Gunnison","lineageKey":"coloradoRiver","lineage":"coloradoRiver","historic":"coloradoRiver","current":"coloradoRiver","recovery":"recoveryWatch","lineageLabel":"Colorado River green lineage","atlas_context":"cutthroat_lineage_context"}},{"type":"Feature","geometry":{"type":"LineString","coordinates":[[-108.3543,38.6533],[-108.3503,38.656]]},"properties":{"name":"Escalante Creek","display_name":"Escalante Creek","source_name":"Escalante Creek","state":"CO","atlas_class":"named_natural_stream_detail","huc8":"14020005","huc8Name":"Lower Gunnison","lineageKey":"coloradoRiver","lineage":"coloradoRiver","historic":"coloradoRiver","current":"coloradoRiver","recovery":"recoveryWatch","lineageLabel":"Colorado River green lineage","atlas_context":"cutthroat_lineage_context"}},{"type":"Feature","geometry":{"type":"LineString","coordinates":[[-108.3208,38.6074],[-108.32,38.61],[-108.3181,38.6105],[-108.3141,38.6172],[-108.3132,38.6175],[-108.3131,38.6195],[-108.3111,38.62],[-108.31,38.6213]]},"properties":{"name":"Dry Fork Escalante Creek","display_name":"Dry Fork Escalante Creek","source_name":"Dry Fork Escalante Creek","state":"CO","atlas_class":"named_natural_stream_detail","huc8":"14020005","huc8Name":"Lower Gunnison","lineageKey":"coloradoRiver","lineage":"coloradoRiver","historic":"coloradoRiver","current":"coloradoRiver","recovery":"recoveryWatch","lineageLabel":"Colorado River green lineage","atlas_context":"cutthroat_lineage_context"}},{"type":"Feature","geometry":{"type":"LineString","coordinates":[[-108.3917,38.6326],[-108.3883,38.6333],[-108.3894,38.636]]},"properties":{"name":"Escalante Creek","display_name":"Escalante Creek","source_name":"Escalante Creek","state":"CO","atlas_class":"named_natural_stream_detail","huc8":"14020005","huc8Name":"Lower Gunnison","lineageKey":"coloradoRiver","lineage":"coloradoRiver","historic":"coloradoRiver","current":"coloradoRiver","recovery":"recoveryWatch","lineageLabel":"Colorado River green lineage","atlas_context":"cutthroat_lineage_context"}},{"type":"Feature","geometry":{"type":"LineString","coordinates":[[-108.3703,38.6514],[-108.3688,38.6515]]},"properties":{"name":"Escalante Creek","display_name":"Escalante Creek","source_name":"Escalante Creek","state":"CO","atlas_class":"named_natural_stream_detail","huc8":"14020005","huc8Name":"Lower Gunnison","lineageKey":"coloradoRiver","lineage":"coloradoRiver","historic":"coloradoRiver","current":"coloradoRiver","recovery":"recoveryWatch","lineageLabel":"Colorado River green lineage","atlas_context":"cutthroat_lineage_context"}},{"type":"Feature","geometry":{"type":"LineString","coordinates":[[-108.3274,38.5995],[-108.3272,38.6011],[-108.3263,38.6011],[-108.3208,38.6074]]},"properties":{"name":"Dry Fork Escalante Creek","display_name":"Dry Fork Escalante Creek","source_name":"Dry Fork Escalante Creek","state":"CO","atlas_class":"named_natural_stream_detail","huc8":"14020005","huc8Name":"Lower Gunnison","lineageKey":"coloradoRiver","lineage":"coloradoRiver","historic":"coloradoRiver","current":"coloradoRiver","recovery":"recoveryWatch","lineageLabel":"Colorado River green lineage","atlas_context":"cutthroat_lineage_context"}},{"type":"Feature","geometry":{"type":"LineString","coordinates":[[-108.2939,38.6435],[-108.2919,38.6451]]},"properties":{"name":"Dry Fork Escalante Creek","display_name":"Dry Fork Escalante Creek","source_name":"Dry Fork Escalante Creek","state":"CO","atlas_class":"named_natural_stream_detail","huc8":"14020005","huc8Name":"Lower Gunnison","lineageKey":"coloradoRiver","lineage":"coloradoRiver","historic":"coloradoRiver","current":"coloradoRiver","recovery":"recoveryWatch","lineageLabel":"Colorado River green lineage","atlas_context":"cutthroat_lineage_context"}},{"type":"Feature","geometry":{"type":"LineString","coordinates":[[-108.3167,38.675],[-108.314,38.6751],[-108.3129,38.6777]]},"properties":{"name":"Escalante Creek","display_name":"Escalante Creek","source_name":"Escalante Creek","state":"CO","atlas_class":"named_natural_stream_detail","huc8":"14020005","huc8Name":"Lower Gunnison","lineageKey":"coloradoRiver","lineage":"coloradoRiver","historic":"coloradoRiver","current":"coloradoRiver","recovery":"recoveryWatch","lineageLabel":"Colorado River green lineage","atlas_context":"cutthroat_lineage_context"}},{"type":"Feature","geometry":{"type":"LineString","coordinates":[[-108.3247,38.6704],[-108.3219,38.6727]]},"properties":{"name":"Escalante Creek","display_name":"Escalante Creek","source_name":"Escalante Creek","state":"CO","atlas_class":"named_natural_stream_detail","huc8":"14020005","huc8Name":"Lower Gunnison","lineageKey":"coloradoRiver","lineage":"coloradoRiver","historic":"coloradoRiver","current":"coloradoRiver","recovery":"recoveryWatch","lineageLabel":"Colorado River green lineage","atlas_context":"cutthroat_lineage_context"}},{"type":"Feature","geometry":{"type":"LineString","coordinates":[[-108.2708,38.667],[-108.2712,38.6678],[-108.2702,38.668],[-108.2696,38.6714],[-108.2707,38.6741]]},"properties":{"name":"Dry Fork Escalante Creek","display_name":"Dry Fork Escalante Creek","source_name":"Dry Fork Escalante Creek","state":"CO","atlas_class":"named_natural_stream_detail","huc8":"14020005","huc8Name":"Lower Gunnison","lineageKey":"coloradoRiver","lineage":"coloradoRiver","historic":"coloradoRiver","current":"coloradoRiver","recovery":"recoveryWatch","lineageLabel":"Colorado River green lineage","atlas_context":"cutthroat_lineage_context"}},{"type":"Feature","geometry":{"type":"LineString","coordinates":[[-108.2919,38.6451],[-108.2871,38.6491],[-108.2858,38.649],[-108.2857,38.65],[-108.2827,38.6524],[-108.2797,38.6537],[-108.278,38.6534],[-108.2745,38.6562]]},"properties":{"name":"Dry Fork Escalante Creek","display_name":"Dry Fork Escalante Creek","source_name":"Dry Fork Escalante Creek","state":"CO","atlas_class":"named_natural_stream_detail","huc8":"14020005","huc8Name":"Lower Gunnison","lineageKey":"coloradoRiver","lineage":"coloradoRiver","historic":"coloradoRiver","current":"coloradoRiver","recovery":"recoveryWatch","lineageLabel":"Colorado River green lineage","atlas_context":"cutthroat_lineage_context"}},{"type":"Feature","geometry":{"type":"LineString","coordinates":[[-108.34,38.6603],[-108.3379,38.661],[-108.3357,38.6644]]},"properties":{"name":"Escalante Creek","display_name":"Escalante Creek","source_name":"Escalante Creek","state":"CO","atlas_class":"named_natural_stream_detail","huc8":"14020005","huc8Name":"Lower Gunnison","lineageKey":"coloradoRiver","lineage":"coloradoRiver","historic":"coloradoRiver","current":"coloradoRiver","recovery":"recoveryWatch","lineageLabel":"Colorado River green lineage","atlas_context":"cutthroat_lineage_context"}},{"type":"Feature","geometry":{"type":"LineString","coordinates":[[-108.3503,38.656],[-108.3485,38.6558],[-108.3468,38.6581],[-108.3457,38.6576],[-108.344,38.6587]]},"properties":{"name":"Escalante Creek","display_name":"Escalante Creek","source_name":"Escalante Creek","state":"CO","atlas_class":"named_natural_stream_detail","huc8":"14020005","huc8Name":"Lower Gunnison","lineageKey":"coloradoRiver","lineage":"coloradoRiver","historic":"coloradoRiver","current":"coloradoRiver","recovery":"recoveryWatch","lineageLabel":"Colorado River green lineage","atlas_context":"cutthroat_lineage_context"}},{"type":"Feature","geometry":{"type":"LineString","coordinates":[[-108.2729,38.6598],[-108.27,38.6622]]},"properties":{"name":"Dry Fork Escalante Creek","display_name":"Dry Fork Escalante Creek","source_name":"Dry Fork Escalante Creek","state":"CO","atlas_class":"named_natural_stream_detail","huc8":"14020005","huc8Name":"Lower Gunnison","lineageKey":"coloradoRiver","lineage":"coloradoRiver","historic":"coloradoRiver","current":"coloradoRiver","recovery":"recoveryWatch","lineageLabel":"Colorado River green lineage","atlas_context":"cutthroat_lineage_context"}},{"type":"Feature","geometry":{"type":"LineString","coordinates":[[-108.344,38.6587],[-108.34,38.6603]]},"properties":{"name":"Escalante Creek","display_name":"Escalante Creek","source_name":"Escalante Creek","state":"CO","atlas_class":"named_natural_stream_detail","huc8":"14020005","huc8Name":"Lower Gunnison","lineageKey":"coloradoRiver","lineage":"coloradoRiver","historic":"coloradoRiver","current":"coloradoRiver","recovery":"recoveryWatch","lineageLabel":"Colorado River green lineage","atlas_context":"cutthroat_lineage_context"}},{"type":"Feature","geometry":{"type":"LineString","coordinates":[[-108.378,38.643],[-108.3777,38.6434]]},"properties":{"name":"Escalante Creek","display_name":"Escalante Creek","source_name":"Escalante Creek","state":"CO","atlas_class":"named_natural_stream_detail","huc8":"14020005","huc8Name":"Lower Gunnison","lineageKey":"coloradoRiver","lineage":"coloradoRiver","historic":"coloradoRiver","current":"coloradoRiver","recovery":"recoveryWatch","lineageLabel":"Colorado River green lineage","atlas_context":"cutthroat_lineage_context"}},{"type":"Feature","geometry":{"type":"LineString","coordinates":[[-108.3032,38.6284],[-108.3013,38.6315],[-108.2995,38.6326],[-108.3004,38.6331],[-108.2984,38.6357],[-108.2987,38.6365],[-108.2957,38.6388],[-108.2961,38.6402],[-108.2944,38.6415],[-108.2939,38.6435]]},"properties":{"name":"Dry Fork Escalante Creek","display_name":"Dry Fork Escalante Creek","source_name":"Dry Fork Escalante Creek","state":"CO","atlas_class":"named_natural_stream_detail","huc8":"14020005","huc8Name":"Lower Gunnison","lineageKey":"coloradoRiver","lineage":"coloradoRiver","historic":"coloradoRiver","current":"coloradoRiver","recovery":"recoveryWatch","lineageLabel":"Colorado River green lineage","atlas_context":"cutthroat_lineage_context"}},{"type":"Feature","geometry":{"type":"LineString","coordinates":[[-108.3357,38.6644],[-108.3343,38.666],[-108.3275,38.6682],[-108.3247,38.6704]]},"properties":{"name":"Escalante Creek","display_name":"Escalante Creek","source_name":"Escalante Creek","state":"CO","atlas_class":"named_natural_stream_detail","huc8":"14020005","huc8Name":"Lower Gunnison","lineageKey":"coloradoRiver","lineage":"coloradoRiver","historic":"coloradoRiver","current":"coloradoRiver","recovery":"recoveryWatch","lineageLabel":"Colorado River green lineage","atlas_context":"cutthroat_lineage_context"}},{"type":"Feature","geometry":{"type":"LineString","coordinates":[[-108.3129,38.6777],[-108.3115,38.6796]]},"properties":{"name":"Escalante Creek","display_name":"Escalante Creek","source_name":"Escalante Creek","state":"CO","atlas_class":"named_natural_stream_detail","huc8":"14020005","huc8Name":"Lower Gunnison","lineageKey":"coloradoRiver","lineage":"coloradoRiver","historic":"coloradoRiver","current":"coloradoRiver","recovery":"recoveryWatch","lineageLabel":"Colorado River green lineage","atlas_context":"cutthroat_lineage_context"}},{"type":"Feature","geometry":{"type":"LineString","coordinates":[[-108.2707,38.6741],[-108.2721,38.6765],[-108.2708,38.6786],[-108.2711,38.6826]]},"properties":{"name":"Dry Fork Escalante Creek","display_name":"Dry Fork Escalante Creek","source_name":"Dry Fork Escalante Creek","state":"CO","atlas_class":"named_natural_stream_detail","huc8":"14020005","huc8Name":"Lower Gunnison","lineageKey":"coloradoRiver","lineage":"coloradoRiver","historic":"coloradoRiver","current":"coloradoRiver","recovery":"recoveryWatch","lineageLabel":"Colorado River green lineage","atlas_context":"cutthroat_lineage_context"}},{"type":"Feature","geometry":{"type":"LineString","coordinates":[[-108.27,38.6622],[-108.2708,38.667]]},"properties":{"name":"Dry Fork Escalante Creek","display_name":"Dry Fork Escalante Creek","source_name":"Dry Fork Escalante Creek","state":"CO","atlas_class":"named_natural_stream_detail","huc8":"14020005","huc8Name":"Lower Gunnison","lineageKey":"coloradoRiver","lineage":"coloradoRiver","historic":"coloradoRiver","current":"coloradoRiver","recovery":"recoveryWatch","lineageLabel":"Colorado River green lineage","atlas_context":"cutthroat_lineage_context"}},{"type":"Feature","geometry":{"type":"LineString","coordinates":[[-108.2711,38.6826],[-108.2722,38.6856],[-108.2708,38.6861]]},"properties":{"name":"Dry Fork Escalante Creek","display_name":"Dry Fork Escalante Creek","source_name":"Dry Fork Escalante Creek","state":"CO","atlas_class":"named_natural_stream_detail","huc8":"14020005","huc8Name":"Lower Gunnison","lineageKey":"coloradoRiver","lineage":"coloradoRiver","historic":"coloradoRiver","current":"coloradoRiver","recovery":"recoveryWatch","lineageLabel":"Colorado River green lineage","atlas_context":"cutthroat_lineage_context"}},{"type":"Feature","geometry":{"type":"LineString","coordinates":[[-108.2708,38.6861],[-108.27,38.6882],[-108.2669,38.6892],[-108.2659,38.6912],[-108.2636,38.6926],[-108.2639,38.697]]},"properties":{"name":"Dry Fork Escalante Creek","display_name":"Dry Fork Escalante Creek","source_name":"Dry Fork Escalante Creek","state":"CO","atlas_class":"named_natural_stream_detail","huc8":"14020005","huc8Name":"Lower Gunnison","lineageKey":"coloradoRiver","lineage":"coloradoRiver","historic":"coloradoRiver","current":"coloradoRiver","recovery":"recoveryWatch","lineageLabel":"Colorado River green lineage","atlas_context":"cutthroat_lineage_context"}},{"type":"Feature","geometry":{"type":"LineString","coordinates":[[-108.2745,38.6562],[-108.2729,38.6598]]},"properties":{"name":"Dry Fork Escalante Creek","display_name":"Dry Fork Escalante Creek","source_name":"Dry Fork Escalante Creek","state":"CO","atlas_class":"named_natural_stream_detail","huc8":"14020005","huc8Name":"Lower Gunnison","lineageKey":"coloradoRiver","lineage":"coloradoRiver","historic":"coloradoRiver","current":"coloradoRiver","recovery":"recoveryWatch","lineageLabel":"Colorado River green lineage","atlas_context":"cutthroat_lineage_context"}},{"type":"Feature","geometry":{"type":"LineString","coordinates":[[-108.2639,38.697],[-108.2623,38.6983],[-108.2626,38.6992],[-108.2614,38.7009],[-108.2622,38.7022]]},"properties":{"name":"Dry Fork Escalante Creek","display_name":"Dry Fork Escalante Creek","source_name":"Dry Fork Escalante Creek","state":"CO","atlas_class":"named_natural_stream_detail","huc8":"14020005","huc8Name":"Lower Gunnison","lineageKey":"coloradoRiver","lineage":"coloradoRiver","historic":"coloradoRiver","current":"coloradoRiver","recovery":"recoveryWatch","lineageLabel":"Colorado River green lineage","atlas_context":"cutthroat_lineage_context"}},{"type":"Feature","geometry":{"type":"LineString","coordinates":[[-108.2831,38.5874],[-108.277,38.5934],[-108.272,38.5964],[-108.2663,38.6034],[-108.2613,38.6073],[-108.259,38.612],[-108.2504,38.6174],[-108.249,38.6195],[-108.2475,38.6192],[-108.2464,38.6203],[-108.2446,38.6205],[-108.2403,38.6259],[-108.2373,38.6275],[-108.2374,38.6287],[-108.2364,38.6289],[-108.2365,38.6303],[-108.2355,38.6304],[-108.2347,38.6325],[-108.2355,38.6339],[-108.2328,38.6356],[-108.232,38.6374]]},"properties":{"name":"Cottonwood Creek","display_name":"Cottonwood Creek","source_name":"Cottonwood Creek","state":"CO","atlas_class":"named_natural_stream_detail","huc8":"14020005","huc8Name":"Lower Gunnison","lineageKey":"coloradoRiver","lineage":"coloradoRiver","historic":"coloradoRiver","current":"coloradoRiver","recovery":"recoveryWatch","lineageLabel":"Colorado River green lineage","atlas_context":"cutthroat_lineage_context"}},{"type":"Feature","geometry":{"type":"LineString","coordinates":[[-108.1995,38.6714],[-108.2007,38.6727],[-108.2011,38.6759],[-108.2026,38.6769]]},"properties":{"name":"Cottonwood Creek","display_name":"Cottonwood Creek","source_name":"Cottonwood Creek","state":"CO","atlas_class":"named_natural_stream_detail","huc8":"14020005","huc8Name":"Lower Gunnison","lineageKey":"coloradoRiver","lineage":"coloradoRiver","historic":"coloradoRiver","current":"coloradoRiver","recovery":"recoveryWatch","lineageLabel":"Colorado River green lineage","atlas_context":"cutthroat_lineage_context"}},{"type":"Feature","geometry":{"type":"LineString","coordinates":[[-108.2084,38.6204],[-108.2069,38.6225],[-108.2025,38.6244],[-108.2025,38.6254],[-108.2001,38.6266],[-108.1986,38.6307],[-108.1968,38.632]]},"properties":{"name":"Potter Creek","display_name":"Potter Creek","source_name":"Potter Creek","state":"CO","atlas_class":"named_natural_stream_detail","huc8":"14020005","huc8Name":"Lower Gunnison","lineageKey":"coloradoRiver","lineage":"coloradoRiver","historic":"coloradoRiver","current":"coloradoRiver","recovery":"recoveryWatch","lineageLabel":"Colorado River green lineage","atlas_context":"cutthroat_lineage_context"}},{"type":"Feature","geometry":{"type":"LineString","coordinates":[[-108.2198,38.6467],[-108.215,38.6483],[-108.2157,38.6505],[-108.2138,38.6521],[-108.2142,38.6543],[-108.2132,38.6545]]},"properties":{"name":"Cottonwood Creek","display_name":"Cottonwood Creek","source_name":"Cottonwood Creek","state":"CO","atlas_class":"named_natural_stream_detail","huc8":"14020005","huc8Name":"Lower Gunnison","lineageKey":"coloradoRiver","lineage":"coloradoRiver","historic":"coloradoRiver","current":"coloradoRiver","recovery":"recoveryWatch","lineageLabel":"Colorado River green lineage","atlas_context":"cutthroat_lineage_context"}},{"type":"Feature","geometry":{"type":"LineString","coordinates":[[-108.2414,38.5999],[-108.2397,38.6018],[-108.2366,38.6032],[-108.2347,38.6031],[-108.2338,38.6046],[-108.2322,38.6042],[-108.2314,38.6052],[-108.2264,38.6064],[-108.2219,38.6108],[-108.219,38.6118],[-108.2181,38.6147],[-108.2163,38.6158]]},"properties":{"name":"Monitor Creek","display_name":"Monitor Creek","source_name":"Monitor Creek","state":"CO","atlas_class":"named_natural_stream_detail","huc8":"14020005","huc8Name":"Lower Gunnison","lineageKey":"coloradoRiver","lineage":"coloradoRiver","historic":"coloradoRiver","current":"coloradoRiver","recovery":"recoveryWatch","lineageLabel":"Colorado River green lineage","atlas_context":"cutthroat_lineage_context"}},{"type":"Feature","geometry":{"type":"LineString","coordinates":[[-108.232,38.6374],[-108.231,38.6396]]},"properties":{"name":"Cottonwood Creek","display_name":"Cottonwood Creek","source_name":"Cottonwood Creek","state":"CO","atlas_class":"named_natural_stream_detail","huc8":"14020005","huc8Name":"Lower Gunnison","lineageKey":"coloradoRiver","lineage":"coloradoRiver","historic":"coloradoRiver","current":"coloradoRiver","recovery":"recoveryWatch","lineageLabel":"Colorado River green lineage","atlas_context":"cutthroat_lineage_context"}},{"type":"Feature","geometry":{"type":"LineString","coordinates":[[-108.2275,38.6445],[-108.2258,38.6454],[-108.2242,38.6447],[-108.2227,38.646]]},"properties":{"name":"Cottonwood Creek","display_name":"Cottonwood Creek","source_name":"Cottonwood Creek","state":"CO","atlas_class":"named_natural_stream_detail","huc8":"14020005","huc8Name":"Lower Gunnison","lineageKey":"coloradoRiver","lineage":"coloradoRiver","historic":"coloradoRiver","current":"coloradoRiver","recovery":"recoveryWatch","lineageLabel":"Colorado River green lineage","atlas_context":"cutthroat_lineage_context"}},{"type":"Feature","geometry":{"type":"LineString","coordinates":[[-108.2163,38.6158],[-108.2132,38.6187],[-108.2084,38.6204]]},"properties":{"name":"Monitor Creek","display_name":"Monitor Creek","source_name":"Monitor Creek","state":"CO","atlas_class":"named_natural_stream_detail","huc8":"14020005","huc8Name":"Lower Gunnison","lineageKey":"coloradoRiver","lineage":"coloradoRiver","historic":"coloradoRiver","current":"coloradoRiver","recovery":"recoveryWatch","lineageLabel":"Colorado River green lineage","atlas_context":"cutthroat_lineage_context"}},{"type":"Feature","geometry":{"type":"LineString","coordinates":[[-108.2114,38.5956],[-108.2117,38.5971],[-108.2106,38.5981],[-108.2108,38.5994],[-108.2051,38.6027],[-108.2043,38.6049],[-108.2048,38.6058],[-108.2041,38.6068],[-108.2054,38.6075],[-108.206,38.6108]]},"properties":{"name":"Potter Creek","display_name":"Potter Creek","source_name":"Potter Creek","state":"CO","atlas_class":"named_natural_stream_detail","huc8":"14020005","huc8Name":"Lower Gunnison","lineageKey":"coloradoRiver","lineage":"coloradoRiver","historic":"coloradoRiver","current":"coloradoRiver","recovery":"recoveryWatch","lineageLabel":"Colorado River green lineage","atlas_context":"cutthroat_lineage_context"}},{"type":"Feature","geometry":{"type":"LineString","coordinates":[[-108.206,38.6108],[-108.2084,38.6204]]},"properties":{"name":"Potter Creek","display_name":"Potter Creek","source_name":"Potter Creek","state":"CO","atlas_class":"named_natural_stream_detail","huc8":"14020005","huc8Name":"Lower Gunnison","lineageKey":"coloradoRiver","lineage":"coloradoRiver","historic":"coloradoRiver","current":"coloradoRiver","recovery":"recoveryWatch","lineageLabel":"Colorado River green lineage","atlas_context":"cutthroat_lineage_context"}},{"type":"Feature","geometry":{"type":"LineString","coordinates":[[-108.2026,38.6769],[-108.2019,38.6793],[-108.2001,38.6808],[-108.1981,38.6811],[-108.1966,38.6832]]},"properties":{"name":"Cottonwood Creek","display_name":"Cottonwood Creek","source_name":"Cottonwood Creek","state":"CO","atlas_class":"named_natural_stream_detail","huc8":"14020005","huc8Name":"Lower Gunnison","lineageKey":"coloradoRiver","lineage":"coloradoRiver","historic":"coloradoRiver","current":"coloradoRiver","recovery":"recoveryWatch","lineageLabel":"Colorado River green lineage","atlas_context":"cutthroat_lineage_context"}},{"type":"Feature","geometry":{"type":"LineString","coordinates":[[-108.2018,38.6623],[-108.2008,38.6627],[-108.2004,38.6649],[-108.1981,38.6665],[-108.1984,38.6674],[-108.1973,38.6687],[-108.1995,38.6714]]},"properties":{"name":"Cottonwood Creek","display_name":"Cottonwood Creek","source_name":"Cottonwood Creek","state":"CO","atlas_class":"named_natural_stream_detail","huc8":"14020005","huc8Name":"Lower Gunnison","lineageKey":"coloradoRiver","lineage":"coloradoRiver","historic":"coloradoRiver","current":"coloradoRiver","recovery":"recoveryWatch","lineageLabel":"Colorado River green lineage","atlas_context":"cutthroat_lineage_context"}},{"type":"Feature","geometry":{"type":"LineString","coordinates":[[-108.2227,38.646],[-108.2206,38.6458],[-108.2206,38.6466],[-108.2198,38.6467]]},"properties":{"name":"Cottonwood Creek","display_name":"Cottonwood Creek","source_name":"Cottonwood Creek","state":"CO","atlas_class":"named_natural_stream_detail","huc8":"14020005","huc8Name":"Lower Gunnison","lineageKey":"coloradoRiver","lineage":"coloradoRiver","historic":"coloradoRiver","current":"coloradoRiver","recovery":"recoveryWatch","lineageLabel":"Colorado River green lineage","atlas_context":"cutthroat_lineage_context"}},{"type":"Feature","geometry":{"type":"LineString","coordinates":[[-108.2132,38.6545],[-108.2125,38.655],[-108.2088,38.6534],[-108.2069,38.6556],[-108.2059,38.6593],[-108.205,38.6591],[-108.2028,38.6621],[-108.2018,38.6623]]},"properties":{"name":"Cottonwood Creek","display_name":"Cottonwood Creek","source_name":"Cottonwood Creek","state":"CO","atlas_class":"named_natural_stream_detail","huc8":"14020005","huc8Name":"Lower Gunnison","lineageKey":"coloradoRiver","lineage":"coloradoRiver","historic":"coloradoRiver","current":"coloradoRiver","recovery":"recoveryWatch","lineageLabel":"Colorado River green lineage","atlas_context":"cutthroat_lineage_context"}},{"type":"Feature","geometry":{"type":"LineString","coordinates":[[-108.231,38.6396],[-108.2298,38.6423],[-108.2271,38.6439],[-108.2275,38.6445]]},"properties":{"name":"Cottonwood Creek","display_name":"Cottonwood Creek","source_name":"Cottonwood Creek","state":"CO","atlas_class":"named_natural_stream_detail","huc8":"14020005","huc8Name":"Lower Gunnison","lineageKey":"coloradoRiver","lineage":"coloradoRiver","historic":"coloradoRiver","current":"coloradoRiver","recovery":"recoveryWatch","lineageLabel":"Colorado River green lineage","atlas_context":"cutthroat_lineage_context"}},{"type":"Feature","geometry":{"type":"LineString","coordinates":[[-108.3079,38.7902],[-108.3056,38.7879]]},"properties":{"name":"Wells Gulch","display_name":"Wells Gulch","source_name":"Wells Gulch","state":"CO","atlas_class":"named_natural_stream_detail","huc8":"14020005","huc8Name":"Lower Gunnison","lineageKey":"coloradoRiver","lineage":"coloradoRiver","historic":"coloradoRiver","current":"coloradoRiver","recovery":"recoveryWatch","lineageLabel":"Colorado River green lineage","atlas_context":"cutthroat_lineage_context"}},{"type":"Feature","geometry":{"type":"LineString","coordinates":[[-108.3112,38.8047],[-108.3125,38.8036],[-108.3119,38.7967],[-108.3095,38.7936],[-108.3097,38.7911],[-108.3079,38.7902]]},"properties":{"name":"Wells Gulch","display_name":"Wells Gulch","source_name":"Wells Gulch","state":"CO","atlas_class":"named_natural_stream_detail","huc8":"14020005","huc8Name":"Lower Gunnison","lineageKey":"coloradoRiver","lineage":"coloradoRiver","historic":"coloradoRiver","current":"coloradoRiver","recovery":"recoveryWatch","lineageLabel":"Colorado River green lineage","atlas_context":"cutthroat_lineage_context"}},{"type":"Feature","geometry":{"type":"LineString","coordinates":[[-108.3056,38.7879],[-108.3056,38.7871]]},"properties":{"name":"Wells Gulch","display_name":"Wells Gulch","source_name":"Wells Gulch","state":"CO","atlas_class":"named_natural_stream_detail","huc8":"14020005","huc8Name":"Lower Gunnison","lineageKey":"coloradoRiver","lineage":"coloradoRiver","historic":"coloradoRiver","current":"coloradoRiver","recovery":"recoveryWatch","lineageLabel":"Colorado River green lineage","atlas_context":"cutthroat_lineage_context"}},{"type":"Feature","geometry":{"type":"LineString","coordinates":[[-108.4057,38.7313],[-108.4038,38.7342],[-108.3984,38.7383],[-108.3982,38.7402]]},"properties":{"name":"Little Dominguez Creek","display_name":"Little Dominguez Creek","source_name":"Little Dominguez Creek","state":"CO","atlas_class":"named_natural_stream_detail","huc8":"14020005","huc8Name":"Lower Gunnison","lineageKey":"coloradoRiver","lineage":"coloradoRiver","historic":"coloradoRiver","current":"coloradoRiver","recovery":"recoveryWatch","lineageLabel":"Colorado River green lineage","atlas_context":"cutthroat_lineage_context"}},{"type":"Feature","geometry":{"type":"LineString","coordinates":[[-108.2922,38.6986],[-108.2898,38.6976],[-108.2829,38.7011],[-108.2827,38.702],[-108.2812,38.7026],[-108.2816,38.704],[-108.2806,38.7051],[-108.2824,38.7067],[-108.2807,38.7072],[-108.2768,38.7107]]},"properties":{"name":"Escalante Creek","display_name":"Escalante Creek","source_name":"Escalante Creek","state":"CO","atlas_class":"named_natural_stream_detail","huc8":"14020005","huc8Name":"Lower Gunnison","lineageKey":"coloradoRiver","lineage":"coloradoRiver","historic":"coloradoRiver","current":"coloradoRiver","recovery":"recoveryWatch","lineageLabel":"Colorado River green lineage","atlas_context":"cutthroat_lineage_context"}},{"type":"Feature","geometry":{"type":"LineString","coordinates":[[-108.392,38.7488],[-108.3908,38.7496],[-108.3913,38.752],[-108.3897,38.7523],[-108.3891,38.7533],[-108.3862,38.7537],[-108.3866,38.7549],[-108.3852,38.755],[-108.3833,38.7569],[-108.3813,38.7614]]},"properties":{"name":"Little Dominguez Creek","display_name":"Little Dominguez Creek","source_name":"Little Dominguez Creek","state":"CO","atlas_class":"named_natural_stream_detail","huc8":"14020005","huc8Name":"Lower Gunnison","lineageKey":"coloradoRiver","lineage":"coloradoRiver","historic":"coloradoRiver","current":"coloradoRiver","recovery":"recoveryWatch","lineageLabel":"Colorado River green lineage","atlas_context":"cutthroat_lineage_context"}},{"type":"Feature","geometry":{"type":"LineString","coordinates":[[-108.3037,38.6985],[-108.2996,38.6996],[-108.2922,38.6986]]},"properties":{"name":"Escalante Creek","display_name":"Escalante Creek","source_name":"Escalante Creek","state":"CO","atlas_class":"named_natural_stream_detail","huc8":"14020005","huc8Name":"Lower Gunnison","lineageKey":"coloradoRiver","lineage":"coloradoRiver","historic":"coloradoRiver","current":"coloradoRiver","recovery":"recoveryWatch","lineageLabel":"Colorado River green lineage","atlas_context":"cutthroat_lineage_context"}},{"type":"Feature","geometry":{"type":"LineString","coordinates":[[-108.3782,38.7777],[-108.3736,38.7792],[-108.3718,38.7811],[-108.3696,38.7804],[-108.3678,38.7823],[-108.3611,38.7827],[-108.3596,38.7838],[-108.3594,38.7851],[-108.3578,38.7859],[-108.3567,38.7852],[-108.3557,38.7876],[-108.3572,38.7885],[-108.3579,38.7906]]},"properties":{"name":"Little Dominguez Creek","display_name":"Little Dominguez Creek","source_name":"Little Dominguez Creek","state":"CO","atlas_class":"named_natural_stream_detail","huc8":"14020005","huc8Name":"Lower Gunnison","lineageKey":"coloradoRiver","lineage":"coloradoRiver","historic":"coloradoRiver","current":"coloradoRiver","recovery":"recoveryWatch","lineageLabel":"Colorado River green lineage","atlas_context":"cutthroat_lineage_context"}},{"type":"Feature","geometry":{"type":"LineString","coordinates":[[-108.3808,38.768],[-108.3809,38.7719],[-108.3819,38.7736]]},"properties":{"name":"Little Dominguez Creek","display_name":"Little Dominguez Creek","source_name":"Little Dominguez Creek","state":"CO","atlas_class":"named_natural_stream_detail","huc8":"14020005","huc8Name":"Lower Gunnison","lineageKey":"coloradoRiver","lineage":"coloradoRiver","historic":"coloradoRiver","current":"coloradoRiver","recovery":"recoveryWatch","lineageLabel":"Colorado River green lineage","atlas_context":"cutthroat_lineage_context"}},{"type":"Feature","geometry":{"type":"LineString","coordinates":[[-108.3579,38.7906],[-108.36,38.7928],[-108.3635,38.7931],[-108.3634,38.7951],[-108.3661,38.7971],[-108.3665,38.7991],[-108.3686,38.7993],[-108.3676,38.8013],[-108.3686,38.8018]]},"properties":{"name":"Little Dominguez Creek","display_name":"Little Dominguez Creek","source_name":"Little Dominguez Creek","state":"CO","atlas_class":"named_natural_stream_detail","huc8":"14020005","huc8Name":"Lower Gunnison","lineageKey":"coloradoRiver","lineage":"coloradoRiver","historic":"coloradoRiver","current":"coloradoRiver","recovery":"recoveryWatch","lineageLabel":"Colorado River green lineage","atlas_context":"cutthroat_lineage_context"}},{"type":"Feature","geometry":{"type":"LineString","coordinates":[[-108.3982,38.7402],[-108.3953,38.7411],[-108.3952,38.7446],[-108.3938,38.7468],[-108.3924,38.7472],[-108.392,38.7488]]},"properties":{"name":"Little Dominguez Creek","display_name":"Little Dominguez Creek","source_name":"Little Dominguez Creek","state":"CO","atlas_class":"named_natural_stream_detail","huc8":"14020005","huc8Name":"Lower Gunnison","lineageKey":"coloradoRiver","lineage":"coloradoRiver","historic":"coloradoRiver","current":"coloradoRiver","recovery":"recoveryWatch","lineageLabel":"Colorado River green lineage","atlas_context":"cutthroat_lineage_context"}},{"type":"Feature","geometry":{"type":"LineString","coordinates":[[-108.3819,38.7736],[-108.3796,38.775],[-108.3782,38.7777]]},"properties":{"name":"Little Dominguez Creek","display_name":"Little Dominguez Creek","source_name":"Little Dominguez Creek","state":"CO","atlas_class":"named_natural_stream_detail","huc8":"14020005","huc8Name":"Lower Gunnison","lineageKey":"coloradoRiver","lineage":"coloradoRiver","historic":"coloradoRiver","current":"coloradoRiver","recovery":"recoveryWatch","lineageLabel":"Colorado River green lineage","atlas_context":"cutthroat_lineage_context"}},{"type":"Feature","geometry":{"type":"LineString","coordinates":[[-108.3795,38.7655],[-108.3808,38.768]]},"properties":{"name":"Little Dominguez Creek","display_name":"Little Dominguez Creek","source_name":"Little Dominguez Creek","state":"CO","atlas_class":"named_natural_stream_detail","huc8":"14020005","huc8Name":"Lower Gunnison","lineageKey":"coloradoRiver","lineage":"coloradoRiver","historic":"coloradoRiver","current":"coloradoRiver","recovery":"recoveryWatch","lineageLabel":"Colorado River green lineage","atlas_context":"cutthroat_lineage_context"}},{"type":"Feature","geometry":{"type":"LineString","coordinates":[[-108.3813,38.7614],[-108.3788,38.7628],[-108.3795,38.7655]]},"properties":{"name":"Little Dominguez Creek","display_name":"Little Dominguez Creek","source_name":"Little Dominguez Creek","state":"CO","atlas_class":"named_natural_stream_detail","huc8":"14020005","huc8Name":"Lower Gunnison","lineageKey":"coloradoRiver","lineage":"coloradoRiver","historic":"coloradoRiver","current":"coloradoRiver","recovery":"recoveryWatch","lineageLabel":"Colorado River green lineage","atlas_context":"cutthroat_lineage_context"}},{"type":"Feature","geometry":{"type":"LineString","coordinates":[[-108.2605,38.7573],[-108.259,38.7589]]},"properties":{"name":"Escalante Creek","display_name":"Escalante Creek","source_name":"Escalante Creek","state":"CO","atlas_class":"named_natural_stream_detail","huc8":"14020005","huc8Name":"Lower Gunnison","lineageKey":"coloradoRiver","lineage":"coloradoRiver","historic":"coloradoRiver","current":"coloradoRiver","recovery":"recoveryWatch","lineageLabel":"Colorado River green lineage","atlas_context":"cutthroat_lineage_context"}},{"type":"Feature","geometry":{"type":"LineString","coordinates":[[-108.2654,38.7364],[-108.264,38.7422],[-108.2616,38.7437]]},"properties":{"name":"Escalante Creek","display_name":"Escalante Creek","source_name":"Escalante Creek","state":"CO","atlas_class":"named_natural_stream_detail","huc8":"14020005","huc8Name":"Lower Gunnison","lineageKey":"coloradoRiver","lineage":"coloradoRiver","historic":"coloradoRiver","current":"coloradoRiver","recovery":"recoveryWatch","lineageLabel":"Colorado River green lineage","atlas_context":"cutthroat_lineage_context"}},{"type":"Feature","geometry":{"type":"LineString","coordinates":[[-108.2666,38.716],[-108.2685,38.7179],[-108.2671,38.7216],[-108.2692,38.7251],[-108.2676,38.7291]]},"properties":{"name":"Escalante Creek","display_name":"Escalante Creek","source_name":"Escalante Creek","state":"CO","atlas_class":"named_natural_stream_detail","huc8":"14020005","huc8Name":"Lower Gunnison","lineageKey":"coloradoRiver","lineage":"coloradoRiver","historic":"coloradoRiver","current":"coloradoRiver","recovery":"recoveryWatch","lineageLabel":"Colorado River green lineage","atlas_context":"cutthroat_lineage_context"}},{"type":"Feature","geometry":{"type":"LineString","coordinates":[[-108.2706,38.713],[-108.2687,38.7152],[-108.2669,38.7147],[-108.2666,38.716]]},"properties":{"name":"Escalante Creek","display_name":"Escalante Creek","source_name":"Escalante Creek","state":"CO","atlas_class":"named_natural_stream_detail","huc8":"14020005","huc8Name":"Lower Gunnison","lineageKey":"coloradoRiver","lineage":"coloradoRiver","historic":"coloradoRiver","current":"coloradoRiver","recovery":"recoveryWatch","lineageLabel":"Colorado River green lineage","atlas_context":"cutthroat_lineage_context"}},{"type":"Feature","geometry":{"type":"LineString","coordinates":[[-108.2676,38.7291],[-108.2654,38.7364]]},"properties":{"name":"Escalante Creek","display_name":"Escalante Creek","source_name":"Escalante Creek","state":"CO","atlas_class":"named_natural_stream_detail","huc8":"14020005","huc8Name":"Lower Gunnison","lineageKey":"coloradoRiver","lineage":"coloradoRiver","historic":"coloradoRiver","current":"coloradoRiver","recovery":"recoveryWatch","lineageLabel":"Colorado River green lineage","atlas_context":"cutthroat_lineage_context"}},{"type":"Feature","geometry":{"type":"LineString","coordinates":[[-108.2768,38.7107],[-108.2729,38.7108],[-108.2708,38.7129]]},"properties":{"name":"Escalante Creek","display_name":"Escalante Creek","source_name":"Escalante Creek","state":"CO","atlas_class":"named_natural_stream_detail","huc8":"14020005","huc8Name":"Lower Gunnison","lineageKey":"coloradoRiver","lineage":"coloradoRiver","historic":"coloradoRiver","current":"coloradoRiver","recovery":"recoveryWatch","lineageLabel":"Colorado River green lineage","atlas_context":"cutthroat_lineage_context"}},{"type":"Feature","geometry":{"type":"LineString","coordinates":[[-108.2708,38.7129],[-108.2706,38.713]]},"properties":{"name":"Escalante Creek","display_name":"Escalante Creek","source_name":"Escalante Creek","state":"CO","atlas_class":"named_natural_stream_detail","huc8":"14020005","huc8Name":"Lower Gunnison","lineageKey":"coloradoRiver","lineage":"coloradoRiver","historic":"coloradoRiver","current":"coloradoRiver","recovery":"recoveryWatch","lineageLabel":"Colorado River green lineage","atlas_context":"cutthroat_lineage_context"}},{"type":"Feature","geometry":{"type":"LineString","coordinates":[[-108.2616,38.7437],[-108.2583,38.7445],[-108.257,38.7463],[-108.26,38.7511],[-108.2617,38.7512],[-108.2611,38.7532],[-108.2587,38.754],[-108.2605,38.7573]]},"properties":{"name":"Escalante Creek","display_name":"Escalante Creek","source_name":"Escalante Creek","state":"CO","atlas_class":"named_natural_stream_detail","huc8":"14020005","huc8Name":"Lower Gunnison","lineageKey":"coloradoRiver","lineage":"coloradoRiver","historic":"coloradoRiver","current":"coloradoRiver","recovery":"recoveryWatch","lineageLabel":"Colorado River green lineage","atlas_context":"cutthroat_lineage_context"}},{"type":"Feature","geometry":{"type":"LineString","coordinates":[[-108.2622,38.7022],[-108.2617,38.7043],[-108.2576,38.7068],[-108.2582,38.7078],[-108.2569,38.7087],[-108.2582,38.7103],[-108.2626,38.7124],[-108.2628,38.7146],[-108.2666,38.716]]},"properties":{"name":"Dry Fork Escalante Creek","display_name":"Dry Fork Escalante Creek","source_name":"Dry Fork Escalante Creek","state":"CO","atlas_class":"named_natural_stream_detail","huc8":"14020005","huc8Name":"Lower Gunnison","lineageKey":"coloradoRiver","lineage":"coloradoRiver","historic":"coloradoRiver","current":"coloradoRiver","recovery":"recoveryWatch","lineageLabel":"Colorado River green lineage","atlas_context":"cutthroat_lineage_context"}},{"type":"Feature","geometry":{"type":"LineString","coordinates":[[-108.1967,38.7527],[-108.199,38.7517],[-108.1987,38.7497],[-108.2027,38.7494],[-108.2029,38.7469]]},"properties":{"name":"Alkali Creek","display_name":"Alkali Creek","source_name":"Alkali Creek","state":"CO","atlas_class":"named_natural_stream_detail","huc8":"14020005","huc8Name":"Lower Gunnison","lineageKey":"coloradoRiver","lineage":"coloradoRiver","historic":"coloradoRiver","current":"coloradoRiver","recovery":"recoveryWatch","lineageLabel":"Colorado River green lineage","atlas_context":"cutthroat_lineage_context"}}]}