{"type":"FeatureCollection","metadata":{"source":"C:\\ct-atlas-data\\processed\\geojson\\interpreted\\colorado_named_natural_streams_complete_v1.geojson","type":"colorado-natural-stream-detail-tile-v2","tile_size_degrees":0.2,"x":-522,"y":188,"bounds":{"west":-104.4,"south":37.6,"east":-104.2,"north":37.8}},"features":[{"type":"Feature","geometry":{"type":"LineString","coordinates":[[-104.3225,37.6394],[-104.3184,37.6392],[-104.3154,37.641],[-104.3093,37.6402],[-104.3084,37.641]]},"properties":{"name":"Tejana Arroyo","display_name":"Tejana Arroyo","source_name":"Tejana Arroyo","state":"CO","atlas_class":"named_natural_stream_detail","huc8":"11020007","huc8Name":"Apishapa","lineageKey":"statewideContext","lineage":"statewideContext","historic":"statewideContext","current":"statewideContext","recovery":"statewideContext","lineageLabel":"Statewide Colorado hydrography context","atlas_context":"statewide_hydrography_context"}},{"type":"Feature","geometry":{"type":"LineString","coordinates":[[-104.3837,37.7971],[-104.3768,37.8003]]},"properties":{"name":"Plum Creek","display_name":"Plum Creek","source_name":"Plum Creek","state":"CO","atlas_class":"named_natural_stream_detail","huc8":"11020007","huc8Name":"Apishapa","lineageKey":"statewideContext","lineage":"statewideContext","historic":"statewideContext","current":"statewideContext","recovery":"statewideContext","lineageLabel":"Statewide Colorado hydrography context","atlas_context":"statewide_hydrography_context"}},{"type":"Feature","geometry":{"type":"LineString","coordinates":[[-104.2445,37.6442],[-104.2443,37.6484],[-104.2462,37.6497]]},"properties":{"name":"Apishapa River","display_name":"Apishapa River","source_name":"Apishapa River","state":"CO","atlas_class":"named_natural_stream_detail","huc8":"11020007","huc8Name":"Apishapa","lineageKey":"statewideContext","lineage":"statewideContext","historic":"statewideContext","current":"statewideContext","recovery":"statewideContext","lineageLabel":"Statewide Colorado hydrography context","atlas_context":"statewide_hydrography_context"}},{"type":"Feature","geometry":{"type":"LineString","coordinates":[[-104.3688,37.6398],[-104.365,37.6398],[-104.3598,37.6369],[-104.3564,37.6363],[-104.3562,37.6376],[-104.3577,37.6401],[-104.353,37.641],[-104.3527,37.6418],[-104.3544,37.6424],[-104.3542,37.643],[-104.3481,37.6445],[-104.3454,37.6421],[-104.3363,37.6448],[-104.3309,37.6438],[-104.3225,37.6394]]},"properties":{"name":"Tejana Arroyo","display_name":"Tejana Arroyo","source_name":"Tejana Arroyo","state":"CO","atlas_class":"named_natural_stream_detail","huc8":"11020007","huc8Name":"Apishapa","lineageKey":"statewideContext","lineage":"statewideContext","historic":"statewideContext","current":"statewideContext","recovery":"statewideContext","lineageLabel":"Statewide Colorado hydrography context","atlas_context":"statewide_hydrography_context"}},{"type":"Feature","geometry":{"type":"LineString","coordinates":[[-104.2846,37.7974],[-104.2788,37.796]]},"properties":{"name":"Saunders Arroyo","display_name":"Saunders Arroyo","source_name":"Saunders Arroyo","state":"CO","atlas_class":"named_natural_stream_detail","huc8":"11020007","huc8Name":"Apishapa","lineageKey":"statewideContext","lineage":"statewideContext","historic":"statewideContext","current":"statewideContext","recovery":"statewideContext","lineageLabel":"Statewide Colorado hydrography context","atlas_context":"statewide_hydrography_context"}},{"type":"Feature","geometry":{"type":"LineString","coordinates":[[-104.2707,37.7965],[-104.2662,37.7977],[-104.2609,37.7971]]},"properties":{"name":"Saunders Arroyo","display_name":"Saunders Arroyo","source_name":"Saunders Arroyo","state":"CO","atlas_class":"named_natural_stream_detail","huc8":"11020007","huc8Name":"Apishapa","lineageKey":"statewideContext","lineage":"statewideContext","historic":"statewideContext","current":"statewideContext","recovery":"statewideContext","lineageLabel":"Statewide Colorado hydrography context","atlas_context":"statewide_hydrography_context"}},{"type":"Feature","geometry":{"type":"LineString","coordinates":[[-104.2605,37.7968],[-104.2573,37.7963],[-104.2505,37.8],[-104.2455,37.8004]]},"properties":{"name":"Saunders Arroyo","display_name":"Saunders Arroyo","source_name":"Saunders Arroyo","state":"CO","atlas_class":"named_natural_stream_detail","huc8":"11020007","huc8Name":"Apishapa","lineageKey":"statewideContext","lineage":"statewideContext","historic":"statewideContext","current":"statewideContext","recovery":"statewideContext","lineageLabel":"Statewide Colorado hydrography context","atlas_context":"statewide_hydrography_context"}},{"type":"Feature","geometry":{"type":"LineString","coordinates":[[-104.3184,37.7907],[-104.3145,37.7925],[-104.3141,37.7945],[-104.3099,37.7977],[-104.3049,37.7982]]},"properties":{"name":"Saunders Arroyo","display_name":"Saunders Arroyo","source_name":"Saunders Arroyo","state":"CO","atlas_class":"named_natural_stream_detail","huc8":"11020007","huc8Name":"Apishapa","lineageKey":"statewideContext","lineage":"statewideContext","historic":"statewideContext","current":"statewideContext","recovery":"statewideContext","lineageLabel":"Statewide Colorado hydrography context","atlas_context":"statewide_hydrography_context"}},{"type":"Feature","geometry":{"type":"LineString","coordinates":[[-104.2203,37.6701],[-104.217,37.6716]]},"properties":{"name":"Apishapa River","display_name":"Apishapa River","source_name":"Apishapa River","state":"CO","atlas_class":"named_natural_stream_detail","huc8":"11020007","huc8Name":"Apishapa","lineageKey":"statewideContext","lineage":"statewideContext","historic":"statewideContext","current":"statewideContext","recovery":"statewideContext","lineageLabel":"Statewide Colorado hydrography context","atlas_context":"statewide_hydrography_context"}},{"type":"Feature","geometry":{"type":"LineString","coordinates":[[-104.217,37.6716],[-104.2166,37.6728],[-104.2129,37.6739]]},"properties":{"name":"Apishapa River","display_name":"Apishapa River","source_name":"Apishapa River","state":"CO","atlas_class":"named_natural_stream_detail","huc8":"11020007","huc8Name":"Apishapa","lineageKey":"statewideContext","lineage":"statewideContext","historic":"statewideContext","current":"statewideContext","recovery":"statewideContext","lineageLabel":"Statewide Colorado hydrography context","atlas_context":"statewide_hydrography_context"}},{"type":"Feature","geometry":{"type":"LineString","coordinates":[[-104.3891,37.796],[-104.3842,37.7971]]},"properties":{"name":"Plum Creek","display_name":"Plum Creek","source_name":"Plum Creek","state":"CO","atlas_class":"named_natural_stream_detail","huc8":"11020007","huc8Name":"Apishapa","lineageKey":"statewideContext","lineage":"statewideContext","historic":"statewideContext","current":"statewideContext","recovery":"statewideContext","lineageLabel":"Statewide Colorado hydrography context","atlas_context":"statewide_hydrography_context"}},{"type":"Feature","geometry":{"type":"LineString","coordinates":[[-104.2292,37.6705],[-104.2274,37.6704],[-104.2267,37.6692],[-104.2203,37.6701]]},"properties":{"name":"Apishapa River","display_name":"Apishapa River","source_name":"Apishapa River","state":"CO","atlas_class":"named_natural_stream_detail","huc8":"11020007","huc8Name":"Apishapa","lineageKey":"statewideContext","lineage":"statewideContext","historic":"statewideContext","current":"statewideContext","recovery":"statewideContext","lineageLabel":"Statewide Colorado hydrography context","atlas_context":"statewide_hydrography_context"}},{"type":"Feature","geometry":{"type":"LineString","coordinates":[[-104.3009,37.7993],[-104.2993,37.8001]]},"properties":{"name":"Saunders Arroyo","display_name":"Saunders Arroyo","source_name":"Saunders Arroyo","state":"CO","atlas_class":"named_natural_stream_detail","huc8":"11020007","huc8Name":"Apishapa","lineageKey":"statewideContext","lineage":"statewideContext","historic":"statewideContext","current":"statewideContext","recovery":"statewideContext","lineageLabel":"Statewide Colorado hydrography context","atlas_context":"statewide_hydrography_context"}},{"type":"Feature","geometry":{"type":"LineString","coordinates":[[-104.3718,37.6321],[-104.3716,37.6358],[-104.3697,37.6369],[-104.3688,37.6398]]},"properties":{"name":"Tejana Arroyo","display_name":"Tejana Arroyo","source_name":"Tejana Arroyo","state":"CO","atlas_class":"named_natural_stream_detail","huc8":"11020007","huc8Name":"Apishapa","lineageKey":"statewideContext","lineage":"statewideContext","historic":"statewideContext","current":"statewideContext","recovery":"statewideContext","lineageLabel":"Statewide Colorado hydrography context","atlas_context":"statewide_hydrography_context"}},{"type":"Feature","geometry":{"type":"LineString","coordinates":[[-104.2441,37.6125],[-104.2436,37.6133],[-104.2452,37.6147],[-104.2509,37.6143]]},"properties":{"name":"Apishapa River","display_name":"Apishapa River","source_name":"Apishapa River","state":"CO","atlas_class":"named_natural_stream_detail","huc8":"11020007","huc8Name":"Apishapa","lineageKey":"statewideContext","lineage":"statewideContext","historic":"statewideContext","current":"statewideContext","recovery":"statewideContext","lineageLabel":"Statewide Colorado hydrography context","atlas_context":"statewide_hydrography_context"}},{"type":"Feature","geometry":{"type":"LineString","coordinates":[[-104.2428,37.6389],[-104.2449,37.6411],[-104.2445,37.6442]]},"properties":{"name":"Apishapa River","display_name":"Apishapa River","source_name":"Apishapa River","state":"CO","atlas_class":"named_natural_stream_detail","huc8":"11020007","huc8Name":"Apishapa","lineageKey":"statewideContext","lineage":"statewideContext","historic":"statewideContext","current":"statewideContext","recovery":"statewideContext","lineageLabel":"Statewide Colorado hydrography context","atlas_context":"statewide_hydrography_context"}},{"type":"Feature","geometry":{"type":"LineString","coordinates":[[-104.2462,37.6497],[-104.2428,37.6554]]},"properties":{"name":"Apishapa River","display_name":"Apishapa River","source_name":"Apishapa River","state":"CO","atlas_class":"named_natural_stream_detail","huc8":"11020007","huc8Name":"Apishapa","lineageKey":"statewideContext","lineage":"statewideContext","historic":"statewideContext","current":"statewideContext","recovery":"statewideContext","lineageLabel":"Statewide Colorado hydrography context","atlas_context":"statewide_hydrography_context"}},{"type":"Feature","geometry":{"type":"LineString","coordinates":[[-104.2788,37.796],[-104.2707,37.7965]]},"properties":{"name":"Saunders Arroyo","display_name":"Saunders Arroyo","source_name":"Saunders Arroyo","state":"CO","atlas_class":"named_natural_stream_detail","huc8":"11020007","huc8Name":"Apishapa","lineageKey":"statewideContext","lineage":"statewideContext","historic":"statewideContext","current":"statewideContext","recovery":"statewideContext","lineageLabel":"Statewide Colorado hydrography context","atlas_context":"statewide_hydrography_context"}},{"type":"Feature","geometry":{"type":"LineString","coordinates":[[-104.3042,37.7982],[-104.3009,37.7993]]},"properties":{"name":"Saunders Arroyo","display_name":"Saunders Arroyo","source_name":"Saunders Arroyo","state":"CO","atlas_class":"named_natural_stream_detail","huc8":"11020007","huc8Name":"Apishapa","lineageKey":"statewideContext","lineage":"statewideContext","historic":"statewideContext","current":"statewideContext","recovery":"statewideContext","lineageLabel":"Statewide Colorado hydrography context","atlas_context":"statewide_hydrography_context"}},{"type":"Feature","geometry":{"type":"LineString","coordinates":[[-104.2026,37.7823],[-104.2005,37.7828]]},"properties":{"name":"Buffalo Arroyo","display_name":"Buffalo Arroyo","source_name":"Buffalo Arroyo","state":"CO","atlas_class":"named_natural_stream_detail","huc8":"11020007","huc8Name":"Apishapa","lineageKey":"statewideContext","lineage":"statewideContext","historic":"statewideContext","current":"statewideContext","recovery":"statewideContext","lineageLabel":"Statewide Colorado hydrography context","atlas_context":"statewide_hydrography_context"}},{"type":"Feature","geometry":{"type":"LineString","coordinates":[[-104.3991,37.7926],[-104.3894,37.7959]]},"properties":{"name":"Plum Creek","display_name":"Plum Creek","source_name":"Plum Creek","state":"CO","atlas_class":"named_natural_stream_detail","huc8":"11020007","huc8Name":"Apishapa","lineageKey":"statewideContext","lineage":"statewideContext","historic":"statewideContext","current":"statewideContext","recovery":"statewideContext","lineageLabel":"Statewide Colorado hydrography context","atlas_context":"statewide_hydrography_context"}},{"type":"Feature","geometry":{"type":"LineString","coordinates":[[-104.2129,37.6739],[-104.2092,37.6767],[-104.2062,37.6779],[-104.206,37.6788],[-104.2083,37.6808],[-104.2021,37.6842],[-104.1998,37.6881],[-104.1972,37.6898]]},"properties":{"name":"Apishapa River","display_name":"Apishapa River","source_name":"Apishapa River","state":"CO","atlas_class":"named_natural_stream_detail","huc8":"11020007","huc8Name":"Apishapa","lineageKey":"statewideContext","lineage":"statewideContext","historic":"statewideContext","current":"statewideContext","recovery":"statewideContext","lineageLabel":"Statewide Colorado hydrography context","atlas_context":"statewide_hydrography_context"}},{"type":"Feature","geometry":{"type":"LineString","coordinates":[[-104.2025,37.691],[-104.2028,37.6932],[-104.2009,37.6928],[-104.1971,37.6952],[-104.1969,37.6989],[-104.1982,37.7006]]},"properties":{"name":"Apishapa River","display_name":"Apishapa River","source_name":"Apishapa River","state":"CO","atlas_class":"named_natural_stream_detail","huc8":"11020007","huc8Name":"Apishapa","lineageKey":"statewideContext","lineage":"statewideContext","historic":"statewideContext","current":"statewideContext","recovery":"statewideContext","lineageLabel":"Statewide Colorado hydrography context","atlas_context":"statewide_hydrography_context"}},{"type":"Feature","geometry":{"type":"LineString","coordinates":[[-104.2103,37.7801],[-104.2026,37.7823]]},"properties":{"name":"Buffalo Arroyo","display_name":"Buffalo Arroyo","source_name":"Buffalo Arroyo","state":"CO","atlas_class":"named_natural_stream_detail","huc8":"11020007","huc8Name":"Apishapa","lineageKey":"statewideContext","lineage":"statewideContext","historic":"statewideContext","current":"statewideContext","recovery":"statewideContext","lineageLabel":"Statewide Colorado hydrography context","atlas_context":"statewide_hydrography_context"}},{"type":"Feature","geometry":{"type":"LineString","coordinates":[[-104.2344,37.6684],[-104.2348,37.6696],[-104.2338,37.6712],[-104.2292,37.6705]]},"properties":{"name":"Apishapa River","display_name":"Apishapa River","source_name":"Apishapa River","state":"CO","atlas_class":"named_natural_stream_detail","huc8":"11020007","huc8Name":"Apishapa","lineageKey":"statewideContext","lineage":"statewideContext","historic":"statewideContext","current":"statewideContext","recovery":"statewideContext","lineageLabel":"Statewide Colorado hydrography context","atlas_context":"statewide_hydrography_context"}},{"type":"Feature","geometry":{"type":"LineString","coordinates":[[-104.2866,37.7995],[-104.2846,37.7974]]},"properties":{"name":"Saunders Arroyo","display_name":"Saunders Arroyo","source_name":"Saunders Arroyo","state":"CO","atlas_class":"named_natural_stream_detail","huc8":"11020007","huc8Name":"Apishapa","lineageKey":"statewideContext","lineage":"statewideContext","historic":"statewideContext","current":"statewideContext","recovery":"statewideContext","lineageLabel":"Statewide Colorado hydrography context","atlas_context":"statewide_hydrography_context"}},{"type":"Feature","geometry":{"type":"LineString","coordinates":[[-104.2974,37.8002],[-104.2907,37.8006],[-104.2869,37.7997]]},"properties":{"name":"Saunders Arroyo","display_name":"Saunders Arroyo","source_name":"Saunders Arroyo","state":"CO","atlas_class":"named_natural_stream_detail","huc8":"11020007","huc8Name":"Apishapa","lineageKey":"statewideContext","lineage":"statewideContext","historic":"statewideContext","current":"statewideContext","recovery":"statewideContext","lineageLabel":"Statewide Colorado hydrography context","atlas_context":"statewide_hydrography_context"}},{"type":"Feature","geometry":{"type":"LineString","coordinates":[[-104.4147,37.6067],[-104.4148,37.6077],[-104.4163,37.6083],[-104.4137,37.609],[-104.4115,37.6085],[-104.4116,37.6102],[-104.41,37.6093],[-104.4099,37.6101],[-104.4093,37.6102],[-104.4094,37.6094],[-104.4082,37.6105],[-104.409,37.6122],[-104.4067,37.6121],[-104.405,37.6134],[-104.4056,37.6172],[-104.4046,37.6187],[-104.4055,37.6193],[-104.4052,37.6205],[-104.4012,37.621],[-104.3965,37.6235],[-104.3957,37.6252],[-104.3913,37.6268],[-104.3913,37.6296],[-104.3842,37.6333],[-104.3805,37.6334],[-104.3802,37.6316],[-104.3768,37.6331],[-104.3718,37.6321]]},"properties":{"name":"Tejana Arroyo","display_name":"Tejana Arroyo","source_name":"Tejana Arroyo","state":"CO","atlas_class":"named_natural_stream_detail","huc8":"11020007","huc8Name":"Apishapa","lineageKey":"statewideContext","lineage":"statewideContext","historic":"statewideContext","current":"statewideContext","recovery":"statewideContext","lineageLabel":"Statewide Colorado hydrography context","atlas_context":"statewide_hydrography_context"}},{"type":"Feature","geometry":{"type":"LineString","coordinates":[[-104.2458,37.5957],[-104.2447,37.5964],[-104.2445,37.5979],[-104.2471,37.5969],[-104.249,37.5972],[-104.2495,37.6005],[-104.2502,37.6009],[-104.2498,37.6034],[-104.2523,37.606],[-104.2492,37.6077],[-104.2477,37.6116],[-104.2441,37.6125]]},"properties":{"name":"Apishapa River","display_name":"Apishapa River","source_name":"Apishapa River","state":"CO","atlas_class":"named_natural_stream_detail","huc8":"11020007","huc8Name":"Apishapa","lineageKey":"statewideContext","lineage":"statewideContext","historic":"statewideContext","current":"statewideContext","recovery":"statewideContext","lineageLabel":"Statewide Colorado hydrography context","atlas_context":"statewide_hydrography_context"}},{"type":"Feature","geometry":{"type":"LineString","coordinates":[[-104.3315,37.7875],[-104.3191,37.7903]]},"properties":{"name":"Saunders Arroyo","display_name":"Saunders Arroyo","source_name":"Saunders Arroyo","state":"CO","atlas_class":"named_natural_stream_detail","huc8":"11020007","huc8Name":"Apishapa","lineageKey":"statewideContext","lineage":"statewideContext","historic":"statewideContext","current":"statewideContext","recovery":"statewideContext","lineageLabel":"Statewide Colorado hydrography context","atlas_context":"statewide_hydrography_context"}},{"type":"Feature","geometry":{"type":"LineString","coordinates":[[-104.2336,37.6637],[-104.2335,37.6657],[-104.2309,37.6651],[-104.2306,37.6665],[-104.2318,37.6677],[-104.2344,37.6684]]},"properties":{"name":"Apishapa River","display_name":"Apishapa River","source_name":"Apishapa River","state":"CO","atlas_class":"named_natural_stream_detail","huc8":"11020007","huc8Name":"Apishapa","lineageKey":"statewideContext","lineage":"statewideContext","historic":"statewideContext","current":"statewideContext","recovery":"statewideContext","lineageLabel":"Statewide Colorado hydrography context","atlas_context":"statewide_hydrography_context"}},{"type":"Feature","geometry":{"type":"LineString","coordinates":[[-104.2351,37.7788],[-104.2333,37.7786],[-104.2315,37.7803],[-104.2285,37.7813],[-104.2225,37.7808],[-104.2195,37.7793],[-104.2122,37.7793],[-104.2103,37.7801]]},"properties":{"name":"Buffalo Arroyo","display_name":"Buffalo Arroyo","source_name":"Buffalo Arroyo","state":"CO","atlas_class":"named_natural_stream_detail","huc8":"11020007","huc8Name":"Apishapa","lineageKey":"statewideContext","lineage":"statewideContext","historic":"statewideContext","current":"statewideContext","recovery":"statewideContext","lineageLabel":"Statewide Colorado hydrography context","atlas_context":"statewide_hydrography_context"}},{"type":"Feature","geometry":{"type":"LineString","coordinates":[[-104.2486,37.6204],[-104.2477,37.6214]]},"properties":{"name":"Apishapa River","display_name":"Apishapa River","source_name":"Apishapa River","state":"CO","atlas_class":"named_natural_stream_detail","huc8":"11020007","huc8Name":"Apishapa","lineageKey":"statewideContext","lineage":"statewideContext","historic":"statewideContext","current":"statewideContext","recovery":"statewideContext","lineageLabel":"Statewide Colorado hydrography context","atlas_context":"statewide_hydrography_context"}},{"type":"Feature","geometry":{"type":"LineString","coordinates":[[-104.1972,37.6898],[-104.1985,37.6914],[-104.2025,37.691]]},"properties":{"name":"Apishapa River","display_name":"Apishapa River","source_name":"Apishapa River","state":"CO","atlas_class":"named_natural_stream_detail","huc8":"11020007","huc8Name":"Apishapa","lineageKey":"statewideContext","lineage":"statewideContext","historic":"statewideContext","current":"statewideContext","recovery":"statewideContext","lineageLabel":"Statewide Colorado hydrography context","atlas_context":"statewide_hydrography_context"}},{"type":"Feature","geometry":{"type":"LineString","coordinates":[[-104.2509,37.6143],[-104.2517,37.6156],[-104.2483,37.6166],[-104.2486,37.6204]]},"properties":{"name":"Apishapa River","display_name":"Apishapa River","source_name":"Apishapa River","state":"CO","atlas_class":"named_natural_stream_detail","huc8":"11020007","huc8Name":"Apishapa","lineageKey":"statewideContext","lineage":"statewideContext","historic":"statewideContext","current":"statewideContext","recovery":"statewideContext","lineageLabel":"Statewide Colorado hydrography context","atlas_context":"statewide_hydrography_context"}},{"type":"Feature","geometry":{"type":"LineString","coordinates":[[-104.2428,37.6554],[-104.2395,37.6591],[-104.2329,37.6587],[-104.2275,37.6609],[-104.2286,37.6623],[-104.233,37.6625],[-104.2336,37.6637]]},"properties":{"name":"Apishapa River","display_name":"Apishapa River","source_name":"Apishapa River","state":"CO","atlas_class":"named_natural_stream_detail","huc8":"11020007","huc8Name":"Apishapa","lineageKey":"statewideContext","lineage":"statewideContext","historic":"statewideContext","current":"statewideContext","recovery":"statewideContext","lineageLabel":"Statewide Colorado hydrography context","atlas_context":"statewide_hydrography_context"}},{"type":"Feature","geometry":{"type":"LineString","coordinates":[[-104.2477,37.6214],[-104.2453,37.6233],[-104.2465,37.6259],[-104.2442,37.6279],[-104.2414,37.6329],[-104.2427,37.6354],[-104.242,37.6371],[-104.2428,37.6389]]},"properties":{"name":"Apishapa River","display_name":"Apishapa River","source_name":"Apishapa River","state":"CO","atlas_class":"named_natural_stream_detail","huc8":"11020007","huc8Name":"Apishapa","lineageKey":"statewideContext","lineage":"statewideContext","historic":"statewideContext","current":"statewideContext","recovery":"statewideContext","lineageLabel":"Statewide Colorado hydrography context","atlas_context":"statewide_hydrography_context"}}]}