{"type":"FeatureCollection","metadata":{"source":"C:\\ct-atlas-data\\processed\\geojson\\interpreted\\colorado_named_natural_streams_complete_v1.geojson","type":"colorado-natural-stream-detail-tile-v2","tile_size_degrees":0.2,"x":-540,"y":192,"bounds":{"west":-108,"south":38.4,"east":-107.8,"north":38.6}},"features":[{"type":"Feature","geometry":{"type":"LineString","coordinates":[[-107.8355,38.5533],[-107.8384,38.5513],[-107.844,38.5523],[-107.8471,38.5507],[-107.8507,38.5517],[-107.855,38.5507],[-107.8579,38.5526],[-107.8606,38.5561],[-107.8697,38.5585],[-107.8735,38.5628],[-107.8763,38.5614]]},"properties":{"name":"Loutsenhizer Arroyo","display_name":"Loutsenhizer Arroyo","source_name":"Loutsenhizer Arroyo","state":"CO","atlas_class":"named_natural_stream_detail","huc8":"14020006","huc8Name":"Uncompahgre","lineageKey":"coloradoRiver","lineage":"coloradoRiver","historic":"coloradoRiver","current":"coloradoRiver","recovery":"recoveryWatch","lineageLabel":"Colorado River green lineage","atlas_context":"cutthroat_lineage_context"}},{"type":"Feature","geometry":{"type":"LineString","coordinates":[[-107.9782,38.5902],[-107.9807,38.5906],[-107.9791,38.5933],[-107.9815,38.5968],[-107.981,38.5985],[-107.9842,38.5996],[-107.9853,38.6013],[-107.9873,38.6015],[-107.9898,38.604],[-107.9887,38.608],[-107.9898,38.6095]]},"properties":{"name":"Uncompahgre River","display_name":"Uncompahgre River","source_name":"Uncompahgre River","state":"CO","atlas_class":"named_natural_stream_detail","huc8":"14020006","huc8Name":"Uncompahgre","lineageKey":"coloradoRiver","lineage":"coloradoRiver","historic":"coloradoRiver","current":"coloradoRiver","recovery":"recoveryWatch","lineageLabel":"Colorado River green lineage","atlas_context":"cutthroat_lineage_context"}},{"type":"Feature","geometry":{"type":"LineString","coordinates":[[-107.912,38.5834],[-107.9164,38.5856],[-107.9169,38.5866],[-107.9179,38.5865],[-107.9182,38.5874],[-107.9196,38.5878],[-107.9201,38.5895],[-107.9214,38.5894],[-107.9217,38.5904],[-107.9239,38.5916],[-107.9238,38.5926],[-107.9268,38.5941],[-107.9274,38.5968],[-107.9297,38.5984],[-107.9305,38.601],[-107.9315,38.6014],[-107.9322,38.6044]]},"properties":{"name":"Loutsenhizer Arroyo","display_name":"Loutsenhizer Arroyo","source_name":"Loutsenhizer Arroyo","state":"CO","atlas_class":"named_natural_stream_detail","huc8":"14020006","huc8Name":"Uncompahgre","lineageKey":"coloradoRiver","lineage":"coloradoRiver","historic":"coloradoRiver","current":"coloradoRiver","recovery":"recoveryWatch","lineageLabel":"Colorado River green lineage","atlas_context":"cutthroat_lineage_context"}},{"type":"Feature","geometry":{"type":"LineString","coordinates":[[-107.9782,38.5901],[-107.9782,38.5902]]},"properties":{"name":"Uncompahgre River","display_name":"Uncompahgre River","source_name":"Uncompahgre River","state":"CO","atlas_class":"named_natural_stream_detail","huc8":"14020006","huc8Name":"Uncompahgre","lineageKey":"coloradoRiver","lineage":"coloradoRiver","historic":"coloradoRiver","current":"coloradoRiver","recovery":"recoveryWatch","lineageLabel":"Colorado River green lineage","atlas_context":"cutthroat_lineage_context"}},{"type":"Feature","geometry":{"type":"LineString","coordinates":[[-107.8047,38.4884],[-107.8074,38.489]]},"properties":{"name":"Cedar Creek","display_name":"Cedar Creek","source_name":"Cedar Creek","state":"CO","atlas_class":"named_natural_stream_detail","huc8":"14020006","huc8Name":"Uncompahgre","lineageKey":"coloradoRiver","lineage":"coloradoRiver","historic":"coloradoRiver","current":"coloradoRiver","recovery":"recoveryWatch","lineageLabel":"Colorado River green lineage","atlas_context":"cutthroat_lineage_context"}},{"type":"Feature","geometry":{"type":"LineString","coordinates":[[-107.799,38.4864],[-107.8047,38.4884]]},"properties":{"name":"Cedar Creek","display_name":"Cedar Creek","source_name":"Cedar Creek","state":"CO","atlas_class":"named_natural_stream_detail","huc8":"14020006","huc8Name":"Uncompahgre","lineageKey":"coloradoRiver","lineage":"coloradoRiver","historic":"coloradoRiver","current":"coloradoRiver","recovery":"recoveryWatch","lineageLabel":"Colorado River green lineage","atlas_context":"cutthroat_lineage_context"}},{"type":"Feature","geometry":{"type":"LineString","coordinates":[[-107.8959,38.5679],[-107.8996,38.5701],[-107.9031,38.5709],[-107.9047,38.5735],[-107.9048,38.5765]]},"properties":{"name":"Loutsenhizer Arroyo","display_name":"Loutsenhizer Arroyo","source_name":"Loutsenhizer Arroyo","state":"CO","atlas_class":"named_natural_stream_detail","huc8":"14020006","huc8Name":"Uncompahgre","lineageKey":"coloradoRiver","lineage":"coloradoRiver","historic":"coloradoRiver","current":"coloradoRiver","recovery":"recoveryWatch","lineageLabel":"Colorado River green lineage","atlas_context":"cutthroat_lineage_context"}},{"type":"Feature","geometry":{"type":"LineString","coordinates":[[-107.904,38.4856],[-107.9048,38.4891],[-107.9036,38.4913],[-107.9065,38.4952]]},"properties":{"name":"Happy Canyon Creek","display_name":"Happy Canyon Creek","source_name":"Happy Canyon Creek","state":"CO","atlas_class":"named_natural_stream_detail","huc8":"14020006","huc8Name":"Uncompahgre","lineageKey":"coloradoRiver","lineage":"coloradoRiver","historic":"coloradoRiver","current":"coloradoRiver","recovery":"recoveryWatch","lineageLabel":"Colorado River green lineage","atlas_context":"cutthroat_lineage_context"}},{"type":"Feature","geometry":{"type":"LineString","coordinates":[[-107.9614,38.498],[-107.9638,38.5011],[-107.9644,38.5041],[-107.9663,38.5044],[-107.9661,38.5068],[-107.9673,38.5075]]},"properties":{"name":"Spring Creek","display_name":"Spring Creek","source_name":"Spring Creek","state":"CO","atlas_class":"named_natural_stream_detail","huc8":"14020006","huc8Name":"Uncompahgre","lineageKey":"coloradoRiver","lineage":"coloradoRiver","historic":"coloradoRiver","current":"coloradoRiver","recovery":"recoveryWatch","lineageLabel":"Colorado River green lineage","atlas_context":"cutthroat_lineage_context"}},{"type":"Feature","geometry":{"type":"LineString","coordinates":[[-107.8763,38.5614],[-107.8777,38.5591],[-107.8803,38.5574],[-107.8834,38.5579],[-107.8853,38.5569],[-107.8858,38.5601],[-107.8885,38.5622],[-107.8897,38.5647],[-107.8912,38.5641],[-107.8935,38.5649],[-107.8959,38.5679]]},"properties":{"name":"Loutsenhizer Arroyo","display_name":"Loutsenhizer Arroyo","source_name":"Loutsenhizer Arroyo","state":"CO","atlas_class":"named_natural_stream_detail","huc8":"14020006","huc8Name":"Uncompahgre","lineageKey":"coloradoRiver","lineage":"coloradoRiver","historic":"coloradoRiver","current":"coloradoRiver","recovery":"recoveryWatch","lineageLabel":"Colorado River green lineage","atlas_context":"cutthroat_lineage_context"}},{"type":"Feature","geometry":{"type":"LineString","coordinates":[[-107.9048,38.5765],[-107.9076,38.5799],[-107.9097,38.5804],[-107.912,38.5834]]},"properties":{"name":"Loutsenhizer Arroyo","display_name":"Loutsenhizer Arroyo","source_name":"Loutsenhizer Arroyo","state":"CO","atlas_class":"named_natural_stream_detail","huc8":"14020006","huc8Name":"Uncompahgre","lineageKey":"coloradoRiver","lineage":"coloradoRiver","historic":"coloradoRiver","current":"coloradoRiver","recovery":"recoveryWatch","lineageLabel":"Colorado River green lineage","atlas_context":"cutthroat_lineage_context"}},{"type":"Feature","geometry":{"type":"LineString","coordinates":[[-107.9564,38.4892],[-107.9564,38.4911],[-107.9586,38.4941],[-107.9591,38.4964],[-107.9614,38.498]]},"properties":{"name":"Spring Creek","display_name":"Spring Creek","source_name":"Spring Creek","state":"CO","atlas_class":"named_natural_stream_detail","huc8":"14020006","huc8Name":"Uncompahgre","lineageKey":"coloradoRiver","lineage":"coloradoRiver","historic":"coloradoRiver","current":"coloradoRiver","recovery":"recoveryWatch","lineageLabel":"Colorado River green lineage","atlas_context":"cutthroat_lineage_context"}},{"type":"Feature","geometry":{"type":"LineString","coordinates":[[-107.968,38.511],[-107.9692,38.5138],[-107.9707,38.5143],[-107.9699,38.5146],[-107.969,38.518],[-107.9711,38.5227],[-107.9704,38.5239],[-107.9713,38.5244],[-107.9699,38.5259],[-107.9703,38.5269],[-107.9693,38.5279],[-107.9699,38.529],[-107.9686,38.5292],[-107.9685,38.5306]]},"properties":{"name":"Spring Creek","display_name":"Spring Creek","source_name":"Spring Creek","state":"CO","atlas_class":"named_natural_stream_detail","huc8":"14020006","huc8Name":"Uncompahgre","lineageKey":"coloradoRiver","lineage":"coloradoRiver","historic":"coloradoRiver","current":"coloradoRiver","recovery":"recoveryWatch","lineageLabel":"Colorado River green lineage","atlas_context":"cutthroat_lineage_context"}},{"type":"Feature","geometry":{"type":"LineString","coordinates":[[-107.9929,38.4445],[-107.9929,38.4469],[-107.9955,38.4491],[-107.9955,38.4502]]},"properties":{"name":"Coal Creek","display_name":"Coal Creek","source_name":"Coal Creek","state":"CO","atlas_class":"named_natural_stream_detail","huc8":"14020006","huc8Name":"Uncompahgre","lineageKey":"coloradoRiver","lineage":"coloradoRiver","historic":"coloradoRiver","current":"coloradoRiver","recovery":"recoveryWatch","lineageLabel":"Colorado River green lineage","atlas_context":"cutthroat_lineage_context"}},{"type":"Feature","geometry":{"type":"LineString","coordinates":[[-107.9978,38.4225],[-107.9966,38.4243],[-107.9983,38.425],[-107.9982,38.4284],[-107.9965,38.431],[-107.9981,38.4332]]},"properties":{"name":"Coal Creek","display_name":"Coal Creek","source_name":"Coal Creek","state":"CO","atlas_class":"named_natural_stream_detail","huc8":"14020006","huc8Name":"Uncompahgre","lineageKey":"coloradoRiver","lineage":"coloradoRiver","historic":"coloradoRiver","current":"coloradoRiver","recovery":"recoveryWatch","lineageLabel":"Colorado River green lineage","atlas_context":"cutthroat_lineage_context"}},{"type":"Feature","geometry":{"type":"LineString","coordinates":[[-107.8006,38.4139],[-107.8015,38.4152],[-107.8036,38.4148],[-107.804,38.4158],[-107.807,38.4167],[-107.8081,38.4192]]},"properties":{"name":"Dry Cedar Creek","display_name":"Dry Cedar Creek","source_name":"Dry Cedar Creek","state":"CO","atlas_class":"named_natural_stream_detail","huc8":"14020006","huc8Name":"Uncompahgre","lineageKey":"coloradoRiver","lineage":"coloradoRiver","historic":"coloradoRiver","current":"coloradoRiver","recovery":"recoveryWatch","lineageLabel":"Colorado River green lineage","atlas_context":"cutthroat_lineage_context"}},{"type":"Feature","geometry":{"type":"LineString","coordinates":[[-107.8176,38.492],[-107.8185,38.4909],[-107.8198,38.4916],[-107.8234,38.4894],[-107.8241,38.4899],[-107.8247,38.4883],[-107.8259,38.4884],[-107.8265,38.4873],[-107.8285,38.4869],[-107.8289,38.4854],[-107.8303,38.4845],[-107.8309,38.4854],[-107.8314,38.4846],[-107.8347,38.4841],[-107.8342,38.4851],[-107.8369,38.4858],[-107.8442,38.4821],[-107.8464,38.4835],[-107.8474,38.4825],[-107.8487,38.4827],[-107.8496,38.4846],[-107.851,38.485],[-107.855,38.4836],[-107.8604,38.4858],[-107.8657,38.4862],[-107.87,38.4884],[-107.8698,38.4894]]},"properties":{"name":"Cedar Creek","display_name":"Cedar Creek","source_name":"Cedar Creek","state":"CO","atlas_class":"named_natural_stream_detail","huc8":"14020006","huc8Name":"Uncompahgre","lineageKey":"coloradoRiver","lineage":"coloradoRiver","historic":"coloradoRiver","current":"coloradoRiver","recovery":"recoveryWatch","lineageLabel":"Colorado River green lineage","atlas_context":"cutthroat_lineage_context"}},{"type":"Feature","geometry":{"type":"LineString","coordinates":[[-107.7962,38.4117],[-107.7975,38.4118],[-107.7996,38.4141],[-107.8006,38.4139]]},"properties":{"name":"Dry Cedar Creek","display_name":"Dry Cedar Creek","source_name":"Dry Cedar Creek","state":"CO","atlas_class":"named_natural_stream_detail","huc8":"14020006","huc8Name":"Uncompahgre","lineageKey":"coloradoRiver","lineage":"coloradoRiver","historic":"coloradoRiver","current":"coloradoRiver","recovery":"recoveryWatch","lineageLabel":"Colorado River green lineage","atlas_context":"cutthroat_lineage_context"}},{"type":"Feature","geometry":{"type":"LineString","coordinates":[[-107.8074,38.489],[-107.8104,38.4909],[-107.8115,38.4904],[-107.8139,38.4916]]},"properties":{"name":"Cedar Creek","display_name":"Cedar Creek","source_name":"Cedar Creek","state":"CO","atlas_class":"named_natural_stream_detail","huc8":"14020006","huc8Name":"Uncompahgre","lineageKey":"coloradoRiver","lineage":"coloradoRiver","historic":"coloradoRiver","current":"coloradoRiver","recovery":"recoveryWatch","lineageLabel":"Colorado River green lineage","atlas_context":"cutthroat_lineage_context"}},{"type":"Feature","geometry":{"type":"LineString","coordinates":[[-107.8081,38.4192],[-107.8084,38.4192]]},"properties":{"name":"Dry Cedar Creek","display_name":"Dry Cedar Creek","source_name":"Dry Cedar Creek","state":"CO","atlas_class":"named_natural_stream_detail","huc8":"14020006","huc8Name":"Uncompahgre","lineageKey":"coloradoRiver","lineage":"coloradoRiver","historic":"coloradoRiver","current":"coloradoRiver","recovery":"recoveryWatch","lineageLabel":"Colorado River green lineage","atlas_context":"cutthroat_lineage_context"}},{"type":"Feature","geometry":{"type":"LineString","coordinates":[[-107.8477,38.4425],[-107.8491,38.4437],[-107.8496,38.4464],[-107.852,38.4487],[-107.8565,38.449],[-107.8591,38.4504],[-107.8634,38.451],[-107.8681,38.4545],[-107.8703,38.4545],[-107.8722,38.4565]]},"properties":{"name":"Dry Cedar Creek","display_name":"Dry Cedar Creek","source_name":"Dry Cedar Creek","state":"CO","atlas_class":"named_natural_stream_detail","huc8":"14020006","huc8Name":"Uncompahgre","lineageKey":"coloradoRiver","lineage":"coloradoRiver","historic":"coloradoRiver","current":"coloradoRiver","recovery":"recoveryWatch","lineageLabel":"Colorado River green lineage","atlas_context":"cutthroat_lineage_context"}},{"type":"Feature","geometry":{"type":"LineString","coordinates":[[-107.8139,38.4916],[-107.8176,38.492]]},"properties":{"name":"Cedar Creek","display_name":"Cedar Creek","source_name":"Cedar Creek","state":"CO","atlas_class":"named_natural_stream_detail","huc8":"14020006","huc8Name":"Uncompahgre","lineageKey":"coloradoRiver","lineage":"coloradoRiver","historic":"coloradoRiver","current":"coloradoRiver","recovery":"recoveryWatch","lineageLabel":"Colorado River green lineage","atlas_context":"cutthroat_lineage_context"}},{"type":"Feature","geometry":{"type":"LineString","coordinates":[[-107.8132,38.4179],[-107.8152,38.4191],[-107.816,38.4183],[-107.8168,38.419],[-107.8186,38.4185],[-107.8243,38.4207],[-107.8298,38.4214],[-107.8296,38.4221],[-107.8309,38.4231],[-107.8303,38.4234],[-107.8323,38.4249],[-107.8321,38.4257],[-107.8346,38.4268],[-107.8354,38.4263],[-107.8384,38.4295],[-107.8379,38.4304],[-107.8407,38.4314],[-107.8414,38.4332],[-107.8438,38.4334],[-107.8446,38.4347],[-107.8441,38.4357],[-107.8455,38.4362],[-107.8455,38.4382],[-107.8467,38.4384],[-107.8473,38.4397],[-107.8477,38.4425]]},"properties":{"name":"Dry Cedar Creek","display_name":"Dry Cedar Creek","source_name":"Dry Cedar Creek","state":"CO","atlas_class":"named_natural_stream_detail","huc8":"14020006","huc8Name":"Uncompahgre","lineageKey":"coloradoRiver","lineage":"coloradoRiver","historic":"coloradoRiver","current":"coloradoRiver","recovery":"recoveryWatch","lineageLabel":"Colorado River green lineage","atlas_context":"cutthroat_lineage_context"}},{"type":"Feature","geometry":{"type":"LineString","coordinates":[[-107.8789,38.4938],[-107.8819,38.4933]]},"properties":{"name":"Cedar Creek","display_name":"Cedar Creek","source_name":"Cedar Creek","state":"CO","atlas_class":"named_natural_stream_detail","huc8":"14020006","huc8Name":"Uncompahgre","lineageKey":"coloradoRiver","lineage":"coloradoRiver","historic":"coloradoRiver","current":"coloradoRiver","recovery":"recoveryWatch","lineageLabel":"Colorado River green lineage","atlas_context":"cutthroat_lineage_context"}},{"type":"Feature","geometry":{"type":"LineString","coordinates":[[-107.8698,38.4894],[-107.8705,38.4906],[-107.8761,38.4917],[-107.8789,38.4938]]},"properties":{"name":"Cedar Creek","display_name":"Cedar Creek","source_name":"Cedar Creek","state":"CO","atlas_class":"named_natural_stream_detail","huc8":"14020006","huc8Name":"Uncompahgre","lineageKey":"coloradoRiver","lineage":"coloradoRiver","historic":"coloradoRiver","current":"coloradoRiver","recovery":"recoveryWatch","lineageLabel":"Colorado River green lineage","atlas_context":"cutthroat_lineage_context"}},{"type":"Feature","geometry":{"type":"LineString","coordinates":[[-107.8914,38.4242],[-107.8913,38.4267],[-107.8899,38.4291],[-107.891,38.4313]]},"properties":{"name":"Happy Canyon Creek","display_name":"Happy Canyon Creek","source_name":"Happy Canyon Creek","state":"CO","atlas_class":"named_natural_stream_detail","huc8":"14020006","huc8Name":"Uncompahgre","lineageKey":"coloradoRiver","lineage":"coloradoRiver","historic":"coloradoRiver","current":"coloradoRiver","recovery":"recoveryWatch","lineageLabel":"Colorado River green lineage","atlas_context":"cutthroat_lineage_context"}},{"type":"Feature","geometry":{"type":"LineString","coordinates":[[-107.8922,38.411],[-107.8916,38.4108],[-107.8921,38.4116],[-107.89,38.413],[-107.8897,38.4144],[-107.8922,38.4168],[-107.8939,38.4164],[-107.8953,38.4185]]},"properties":{"name":"Happy Canyon Creek","display_name":"Happy Canyon Creek","source_name":"Happy Canyon Creek","state":"CO","atlas_class":"named_natural_stream_detail","huc8":"14020006","huc8Name":"Uncompahgre","lineageKey":"coloradoRiver","lineage":"coloradoRiver","historic":"coloradoRiver","current":"coloradoRiver","recovery":"recoveryWatch","lineageLabel":"Colorado River green lineage","atlas_context":"cutthroat_lineage_context"}},{"type":"Feature","geometry":{"type":"LineString","coordinates":[[-107.8722,38.4162],[-107.8766,38.4186],[-107.8794,38.4218],[-107.8798,38.4238],[-107.8838,38.4259],[-107.8848,38.4278],[-107.891,38.4313]]},"properties":{"name":"Dolores Creek","display_name":"Dolores Creek","source_name":"Dolores Creek","state":"CO","atlas_class":"named_natural_stream_detail","huc8":"14020006","huc8Name":"Uncompahgre","lineageKey":"coloradoRiver","lineage":"coloradoRiver","historic":"coloradoRiver","current":"coloradoRiver","recovery":"recoveryWatch","lineageLabel":"Colorado River green lineage","atlas_context":"cutthroat_lineage_context"}},{"type":"Feature","geometry":{"type":"LineString","coordinates":[[-107.8953,38.4185],[-107.8918,38.4216],[-107.8914,38.4242]]},"properties":{"name":"Happy Canyon Creek","display_name":"Happy Canyon Creek","source_name":"Happy Canyon Creek","state":"CO","atlas_class":"named_natural_stream_detail","huc8":"14020006","huc8Name":"Uncompahgre","lineageKey":"coloradoRiver","lineage":"coloradoRiver","historic":"coloradoRiver","current":"coloradoRiver","recovery":"recoveryWatch","lineageLabel":"Colorado River green lineage","atlas_context":"cutthroat_lineage_context"}},{"type":"Feature","geometry":{"type":"LineString","coordinates":[[-107.891,38.4313],[-107.8929,38.4321],[-107.893,38.4336],[-107.8957,38.4351],[-107.8961,38.441],[-107.9001,38.4444],[-107.9002,38.4482],[-107.9027,38.4494],[-107.9033,38.4515],[-107.9049,38.4525],[-107.904,38.4542],[-107.9049,38.4551],[-107.9049,38.457],[-107.9061,38.4577],[-107.9055,38.4585],[-107.9063,38.46]]},"properties":{"name":"Happy Canyon Creek","display_name":"Happy Canyon Creek","source_name":"Happy Canyon Creek","state":"CO","atlas_class":"named_natural_stream_detail","huc8":"14020006","huc8Name":"Uncompahgre","lineageKey":"coloradoRiver","lineage":"coloradoRiver","historic":"coloradoRiver","current":"coloradoRiver","recovery":"recoveryWatch","lineageLabel":"Colorado River green lineage","atlas_context":"cutthroat_lineage_context"}},{"type":"Feature","geometry":{"type":"LineString","coordinates":[[-107.9685,38.5306],[-107.9677,38.5305],[-107.9633,38.5347]]},"properties":{"name":"Spring Creek","display_name":"Spring Creek","source_name":"Spring Creek","state":"CO","atlas_class":"named_natural_stream_detail","huc8":"14020006","huc8Name":"Uncompahgre","lineageKey":"coloradoRiver","lineage":"coloradoRiver","historic":"coloradoRiver","current":"coloradoRiver","recovery":"recoveryWatch","lineageLabel":"Colorado River green lineage","atlas_context":"cutthroat_lineage_context"}},{"type":"Feature","geometry":{"type":"LineString","coordinates":[[-107.9156,38.4093],[-107.9154,38.4107],[-107.917,38.4118],[-107.916,38.415],[-107.9181,38.4158],[-107.9195,38.4182],[-107.9192,38.4209],[-107.9183,38.4218]]},"properties":{"name":"Tappan Creek","display_name":"Tappan Creek","source_name":"Tappan Creek","state":"CO","atlas_class":"named_natural_stream_detail","huc8":"14020006","huc8Name":"Uncompahgre","lineageKey":"coloradoRiver","lineage":"coloradoRiver","historic":"coloradoRiver","current":"coloradoRiver","recovery":"recoveryWatch","lineageLabel":"Colorado River green lineage","atlas_context":"cutthroat_lineage_context"}},{"type":"Feature","geometry":{"type":"LineString","coordinates":[[-107.9349,38.4228],[-107.9346,38.4251],[-107.932,38.426],[-107.9325,38.4265],[-107.9302,38.4266],[-107.9292,38.428],[-107.9246,38.4278],[-107.9223,38.4295]]},"properties":{"name":"Spring Creek","display_name":"Spring Creek","source_name":"Spring Creek","state":"CO","atlas_class":"named_natural_stream_detail","huc8":"14020006","huc8Name":"Uncompahgre","lineageKey":"coloradoRiver","lineage":"coloradoRiver","historic":"coloradoRiver","current":"coloradoRiver","recovery":"recoveryWatch","lineageLabel":"Colorado River green lineage","atlas_context":"cutthroat_lineage_context"}},{"type":"Feature","geometry":{"type":"LineString","coordinates":[[-107.9183,38.4218],[-107.9184,38.4249],[-107.9209,38.4277],[-107.92,38.4299]]},"properties":{"name":"Tappan Creek","display_name":"Tappan Creek","source_name":"Tappan Creek","state":"CO","atlas_class":"named_natural_stream_detail","huc8":"14020006","huc8Name":"Uncompahgre","lineageKey":"coloradoRiver","lineage":"coloradoRiver","historic":"coloradoRiver","current":"coloradoRiver","recovery":"recoveryWatch","lineageLabel":"Colorado River green lineage","atlas_context":"cutthroat_lineage_context"}},{"type":"Feature","geometry":{"type":"LineString","coordinates":[[-107.9351,38.4222],[-107.9349,38.4228]]},"properties":{"name":"Spring Creek","display_name":"Spring Creek","source_name":"Spring Creek","state":"CO","atlas_class":"named_natural_stream_detail","huc8":"14020006","huc8Name":"Uncompahgre","lineageKey":"coloradoRiver","lineage":"coloradoRiver","historic":"coloradoRiver","current":"coloradoRiver","recovery":"recoveryWatch","lineageLabel":"Colorado River green lineage","atlas_context":"cutthroat_lineage_context"}},{"type":"Feature","geometry":{"type":"LineString","coordinates":[[-107.894,38.4055],[-107.8939,38.4059]]},"properties":{"name":"Happy Canyon Creek","display_name":"Happy Canyon Creek","source_name":"Happy Canyon Creek","state":"CO","atlas_class":"named_natural_stream_detail","huc8":"14020006","huc8Name":"Uncompahgre","lineageKey":"coloradoRiver","lineage":"coloradoRiver","historic":"coloradoRiver","current":"coloradoRiver","recovery":"recoveryWatch","lineageLabel":"Colorado River green lineage","atlas_context":"cutthroat_lineage_context"}},{"type":"Feature","geometry":{"type":"LineString","coordinates":[[-107.92,38.4299],[-107.9205,38.4334],[-107.9193,38.4361],[-107.9202,38.4398],[-107.9192,38.4413],[-107.9233,38.4471]]},"properties":{"name":"Spring Creek","display_name":"Spring Creek","source_name":"Spring Creek","state":"CO","atlas_class":"named_natural_stream_detail","huc8":"14020006","huc8Name":"Uncompahgre","lineageKey":"coloradoRiver","lineage":"coloradoRiver","historic":"coloradoRiver","current":"coloradoRiver","recovery":"recoveryWatch","lineageLabel":"Colorado River green lineage","atlas_context":"cutthroat_lineage_context"}},{"type":"Feature","geometry":{"type":"LineString","coordinates":[[-107.9356,38.382],[-107.927,38.393],[-107.923,38.3953],[-107.9208,38.3977],[-107.9186,38.4009],[-107.9156,38.4093]]},"properties":{"name":"Tappan Creek","display_name":"Tappan Creek","source_name":"Tappan Creek","state":"CO","atlas_class":"named_natural_stream_detail","huc8":"14020006","huc8Name":"Uncompahgre","lineageKey":"coloradoRiver","lineage":"coloradoRiver","historic":"coloradoRiver","current":"coloradoRiver","recovery":"recoveryWatch","lineageLabel":"Colorado River green lineage","atlas_context":"cutthroat_lineage_context"}},{"type":"Feature","geometry":{"type":"LineString","coordinates":[[-107.9223,38.4295],[-107.92,38.4299]]},"properties":{"name":"Spring Creek","display_name":"Spring Creek","source_name":"Spring Creek","state":"CO","atlas_class":"named_natural_stream_detail","huc8":"14020006","huc8Name":"Uncompahgre","lineageKey":"coloradoRiver","lineage":"coloradoRiver","historic":"coloradoRiver","current":"coloradoRiver","recovery":"recoveryWatch","lineageLabel":"Colorado River green lineage","atlas_context":"cutthroat_lineage_context"}},{"type":"Feature","geometry":{"type":"LineString","coordinates":[[-107.9233,38.4471],[-107.9238,38.4513],[-107.9252,38.453],[-107.9251,38.4551],[-107.9312,38.46],[-107.9366,38.4682],[-107.9438,38.4732]]},"properties":{"name":"Spring Creek","display_name":"Spring Creek","source_name":"Spring Creek","state":"CO","atlas_class":"named_natural_stream_detail","huc8":"14020006","huc8Name":"Uncompahgre","lineageKey":"coloradoRiver","lineage":"coloradoRiver","historic":"coloradoRiver","current":"coloradoRiver","recovery":"recoveryWatch","lineageLabel":"Colorado River green lineage","atlas_context":"cutthroat_lineage_context"}},{"type":"Feature","geometry":{"type":"LineString","coordinates":[[-107.9063,38.46],[-107.906,38.4638],[-107.9078,38.4688],[-107.9037,38.4771],[-107.904,38.4856]]},"properties":{"name":"Happy Canyon Creek","display_name":"Happy Canyon Creek","source_name":"Happy Canyon Creek","state":"CO","atlas_class":"named_natural_stream_detail","huc8":"14020006","huc8Name":"Uncompahgre","lineageKey":"coloradoRiver","lineage":"coloradoRiver","historic":"coloradoRiver","current":"coloradoRiver","recovery":"recoveryWatch","lineageLabel":"Colorado River green lineage","atlas_context":"cutthroat_lineage_context"}},{"type":"Feature","geometry":{"type":"LineString","coordinates":[[-107.9438,38.4732],[-107.9457,38.4751],[-107.9498,38.4773],[-107.9564,38.4892]]},"properties":{"name":"Spring Creek","display_name":"Spring Creek","source_name":"Spring Creek","state":"CO","atlas_class":"named_natural_stream_detail","huc8":"14020006","huc8Name":"Uncompahgre","lineageKey":"coloradoRiver","lineage":"coloradoRiver","historic":"coloradoRiver","current":"coloradoRiver","recovery":"recoveryWatch","lineageLabel":"Colorado River green lineage","atlas_context":"cutthroat_lineage_context"}},{"type":"Feature","geometry":{"type":"LineString","coordinates":[[-107.9422,38.4042],[-107.9427,38.4051],[-107.9417,38.4064],[-107.9429,38.4077],[-107.9426,38.4089],[-107.9407,38.4099],[-107.9413,38.4114],[-107.9396,38.412],[-107.9386,38.4144],[-107.9358,38.4158],[-107.9363,38.4169],[-107.9352,38.4182],[-107.9351,38.4222]]},"properties":{"name":"Spring Creek","display_name":"Spring Creek","source_name":"Spring Creek","state":"CO","atlas_class":"named_natural_stream_detail","huc8":"14020006","huc8Name":"Uncompahgre","lineageKey":"coloradoRiver","lineage":"coloradoRiver","historic":"coloradoRiver","current":"coloradoRiver","recovery":"recoveryWatch","lineageLabel":"Colorado River green lineage","atlas_context":"cutthroat_lineage_context"}},{"type":"Feature","geometry":{"type":"LineString","coordinates":[[-107.9673,38.5075],[-107.9669,38.5084],[-107.968,38.511]]},"properties":{"name":"Spring Creek","display_name":"Spring Creek","source_name":"Spring Creek","state":"CO","atlas_class":"named_natural_stream_detail","huc8":"14020006","huc8Name":"Uncompahgre","lineageKey":"coloradoRiver","lineage":"coloradoRiver","historic":"coloradoRiver","current":"coloradoRiver","recovery":"recoveryWatch","lineageLabel":"Colorado River green lineage","atlas_context":"cutthroat_lineage_context"}},{"type":"Feature","geometry":{"type":"LineString","coordinates":[[-107.9436,38.3965],[-107.9412,38.3983],[-107.9423,38.4001],[-107.9424,38.4015],[-107.9413,38.4022],[-107.9422,38.4042]]},"properties":{"name":"Spring Creek","display_name":"Spring Creek","source_name":"Spring Creek","state":"CO","atlas_class":"named_natural_stream_detail","huc8":"14020006","huc8Name":"Uncompahgre","lineageKey":"coloradoRiver","lineage":"coloradoRiver","historic":"coloradoRiver","current":"coloradoRiver","recovery":"recoveryWatch","lineageLabel":"Colorado River green lineage","atlas_context":"cutthroat_lineage_context"}},{"type":"Feature","geometry":{"type":"LineString","coordinates":[[-107.8266,38.3628],[-107.8256,38.3654],[-107.826,38.3692],[-107.8248,38.3724],[-107.8233,38.3739],[-107.824,38.3769],[-107.8321,38.387],[-107.8323,38.3883],[-107.8366,38.3907],[-107.8425,38.3988],[-107.8458,38.4024],[-107.8492,38.4042],[-107.8493,38.4063],[-107.8539,38.4108],[-107.854,38.4131],[-107.8584,38.4212],[-107.8574,38.423],[-107.8575,38.4255],[-107.8541,38.4255],[-107.854,38.4271]]},"properties":{"name":"Horsefly Creek","display_name":"Horsefly Creek","source_name":"Horsefly Creek","state":"CO","atlas_class":"named_natural_stream_detail","huc8":"14020006","huc8Name":"Uncompahgre","lineageKey":"coloradoRiver","lineage":"coloradoRiver","historic":"coloradoRiver","current":"coloradoRiver","recovery":"recoveryWatch","lineageLabel":"Colorado River green lineage","atlas_context":"cutthroat_lineage_context"}},{"type":"Feature","geometry":{"type":"LineString","coordinates":[[-107.8631,38.4018],[-107.8632,38.4027],[-107.8648,38.4037]]},"properties":{"name":"Dolores Creek","display_name":"Dolores Creek","source_name":"Dolores Creek","state":"CO","atlas_class":"named_natural_stream_detail","huc8":"14020006","huc8Name":"Uncompahgre","lineageKey":"coloradoRiver","lineage":"coloradoRiver","historic":"coloradoRiver","current":"coloradoRiver","recovery":"recoveryWatch","lineageLabel":"Colorado River green lineage","atlas_context":"cutthroat_lineage_context"}},{"type":"Feature","geometry":{"type":"LineString","coordinates":[[-107.8084,38.4192],[-107.811,38.4192],[-107.8132,38.4179]]},"properties":{"name":"Dry Cedar Creek","display_name":"Dry Cedar Creek","source_name":"Dry Cedar Creek","state":"CO","atlas_class":"named_natural_stream_detail","huc8":"14020006","huc8Name":"Uncompahgre","lineageKey":"coloradoRiver","lineage":"coloradoRiver","historic":"coloradoRiver","current":"coloradoRiver","recovery":"recoveryWatch","lineageLabel":"Colorado River green lineage","atlas_context":"cutthroat_lineage_context"}},{"type":"Feature","geometry":{"type":"LineString","coordinates":[[-107.8648,38.4037],[-107.8643,38.4059],[-107.8673,38.4092],[-107.8689,38.4144],[-107.8722,38.4162]]},"properties":{"name":"Dolores Creek","display_name":"Dolores Creek","source_name":"Dolores Creek","state":"CO","atlas_class":"named_natural_stream_detail","huc8":"14020006","huc8Name":"Uncompahgre","lineageKey":"coloradoRiver","lineage":"coloradoRiver","historic":"coloradoRiver","current":"coloradoRiver","recovery":"recoveryWatch","lineageLabel":"Colorado River green lineage","atlas_context":"cutthroat_lineage_context"}},{"type":"Feature","geometry":{"type":"LineString","coordinates":[[-107.8612,38.4],[-107.8631,38.4018]]},"properties":{"name":"Dolores Creek","display_name":"Dolores Creek","source_name":"Dolores Creek","state":"CO","atlas_class":"named_natural_stream_detail","huc8":"14020006","huc8Name":"Uncompahgre","lineageKey":"coloradoRiver","lineage":"coloradoRiver","historic":"coloradoRiver","current":"coloradoRiver","recovery":"recoveryWatch","lineageLabel":"Colorado River green lineage","atlas_context":"cutthroat_lineage_context"}},{"type":"Feature","geometry":{"type":"LineString","coordinates":[[-107.8925,38.4078],[-107.8918,38.4088],[-107.8922,38.411]]},"properties":{"name":"Happy Canyon Creek","display_name":"Happy Canyon Creek","source_name":"Happy Canyon Creek","state":"CO","atlas_class":"named_natural_stream_detail","huc8":"14020006","huc8Name":"Uncompahgre","lineageKey":"coloradoRiver","lineage":"coloradoRiver","historic":"coloradoRiver","current":"coloradoRiver","recovery":"recoveryWatch","lineageLabel":"Colorado River green lineage","atlas_context":"cutthroat_lineage_context"}},{"type":"Feature","geometry":{"type":"LineString","coordinates":[[-107.8883,38.3914],[-107.8879,38.3931],[-107.8896,38.3961],[-107.8933,38.3984],[-107.8929,38.4009],[-107.8945,38.4039],[-107.894,38.4055]]},"properties":{"name":"Happy Canyon Creek","display_name":"Happy Canyon Creek","source_name":"Happy Canyon Creek","state":"CO","atlas_class":"named_natural_stream_detail","huc8":"14020006","huc8Name":"Uncompahgre","lineageKey":"coloradoRiver","lineage":"coloradoRiver","historic":"coloradoRiver","current":"coloradoRiver","recovery":"recoveryWatch","lineageLabel":"Colorado River green lineage","atlas_context":"cutthroat_lineage_context"}},{"type":"Feature","geometry":{"type":"LineString","coordinates":[[-107.8936,38.4061],[-107.8925,38.4066],[-107.8925,38.4078]]},"properties":{"name":"Happy Canyon Creek","display_name":"Happy Canyon Creek","source_name":"Happy Canyon Creek","state":"CO","atlas_class":"named_natural_stream_detail","huc8":"14020006","huc8Name":"Uncompahgre","lineageKey":"coloradoRiver","lineage":"coloradoRiver","historic":"coloradoRiver","current":"coloradoRiver","recovery":"recoveryWatch","lineageLabel":"Colorado River green lineage","atlas_context":"cutthroat_lineage_context"}},{"type":"Feature","geometry":{"type":"LineString","coordinates":[[-107.8939,38.4059],[-107.8936,38.4061]]},"properties":{"name":"Happy Canyon Creek","display_name":"Happy Canyon Creek","source_name":"Happy Canyon Creek","state":"CO","atlas_class":"named_natural_stream_detail","huc8":"14020006","huc8Name":"Uncompahgre","lineageKey":"coloradoRiver","lineage":"coloradoRiver","historic":"coloradoRiver","current":"coloradoRiver","recovery":"recoveryWatch","lineageLabel":"Colorado River green lineage","atlas_context":"cutthroat_lineage_context"}},{"type":"Feature","geometry":{"type":"LineString","coordinates":[[-108.0016,38.4918],[-108.0027,38.4948],[-108.0019,38.4962],[-108.0026,38.5002],[-108.0015,38.5051],[-108.003,38.5098],[-108.002,38.5121],[-108.004,38.5144],[-108.0027,38.5161],[-108.0034,38.5165],[-108.0029,38.5189],[-108.0007,38.5211],[-108.0014,38.523],[-108.0004,38.5236],[-107.9996,38.5265],[-108.0023,38.5322],[-108.0043,38.5325],[-108.0051,38.5334]]},"properties":{"name":"Coal Creek","display_name":"Coal Creek","source_name":"Coal Creek","state":"CO","atlas_class":"named_natural_stream_detail","huc8":"14020006","huc8Name":"Uncompahgre","lineageKey":"coloradoRiver","lineage":"coloradoRiver","historic":"coloradoRiver","current":"coloradoRiver","recovery":"recoveryWatch","lineageLabel":"Colorado River green lineage","atlas_context":"cutthroat_lineage_context"}},{"type":"Feature","geometry":{"type":"LineString","coordinates":[[-108.004,38.4628],[-108.0051,38.463],[-108.0074,38.4666],[-108.0074,38.4691],[-108.0041,38.4727],[-108.0004,38.4797],[-108.0008,38.4813],[-107.9998,38.4845],[-108.0012,38.4862],[-108.0008,38.4885],[-108.0017,38.4898]]},"properties":{"name":"Coal Creek","display_name":"Coal Creek","source_name":"Coal Creek","state":"CO","atlas_class":"named_natural_stream_detail","huc8":"14020006","huc8Name":"Uncompahgre","lineageKey":"coloradoRiver","lineage":"coloradoRiver","historic":"coloradoRiver","current":"coloradoRiver","recovery":"recoveryWatch","lineageLabel":"Colorado River green lineage","atlas_context":"cutthroat_lineage_context"}},{"type":"Feature","geometry":{"type":"LineString","coordinates":[[-108.0109,38.4055],[-108.0055,38.4155],[-107.9978,38.4225]]},"properties":{"name":"Coal Creek","display_name":"Coal Creek","source_name":"Coal Creek","state":"CO","atlas_class":"named_natural_stream_detail","huc8":"14020006","huc8Name":"Uncompahgre","lineageKey":"coloradoRiver","lineage":"coloradoRiver","historic":"coloradoRiver","current":"coloradoRiver","recovery":"recoveryWatch","lineageLabel":"Colorado River green lineage","atlas_context":"cutthroat_lineage_context"}},{"type":"Feature","geometry":{"type":"LineString","coordinates":[[-107.9968,38.4371],[-107.9961,38.4404],[-107.9932,38.4428],[-107.9929,38.4445]]},"properties":{"name":"Coal Creek","display_name":"Coal Creek","source_name":"Coal Creek","state":"CO","atlas_class":"named_natural_stream_detail","huc8":"14020006","huc8Name":"Uncompahgre","lineageKey":"coloradoRiver","lineage":"coloradoRiver","historic":"coloradoRiver","current":"coloradoRiver","recovery":"recoveryWatch","lineageLabel":"Colorado River green lineage","atlas_context":"cutthroat_lineage_context"}},{"type":"Feature","geometry":{"type":"LineString","coordinates":[[-107.9981,38.4332],[-107.9968,38.4371]]},"properties":{"name":"Coal Creek","display_name":"Coal Creek","source_name":"Coal Creek","state":"CO","atlas_class":"named_natural_stream_detail","huc8":"14020006","huc8Name":"Uncompahgre","lineageKey":"coloradoRiver","lineage":"coloradoRiver","historic":"coloradoRiver","current":"coloradoRiver","recovery":"recoveryWatch","lineageLabel":"Colorado River green lineage","atlas_context":"cutthroat_lineage_context"}},{"type":"Feature","geometry":{"type":"LineString","coordinates":[[-107.9955,38.4502],[-107.9975,38.4543],[-107.9974,38.4589]]},"properties":{"name":"Coal Creek","display_name":"Coal Creek","source_name":"Coal Creek","state":"CO","atlas_class":"named_natural_stream_detail","huc8":"14020006","huc8Name":"Uncompahgre","lineageKey":"coloradoRiver","lineage":"coloradoRiver","historic":"coloradoRiver","current":"coloradoRiver","recovery":"recoveryWatch","lineageLabel":"Colorado River green lineage","atlas_context":"cutthroat_lineage_context"}},{"type":"Feature","geometry":{"type":"LineString","coordinates":[[-107.9974,38.4589],[-108.004,38.4628]]},"properties":{"name":"Coal Creek","display_name":"Coal Creek","source_name":"Coal Creek","state":"CO","atlas_class":"named_natural_stream_detail","huc8":"14020006","huc8Name":"Uncompahgre","lineageKey":"coloradoRiver","lineage":"coloradoRiver","historic":"coloradoRiver","current":"coloradoRiver","recovery":"recoveryWatch","lineageLabel":"Colorado River green lineage","atlas_context":"cutthroat_lineage_context"}}]}