{"type":"FeatureCollection","metadata":{"source":"C:\\ct-atlas-data\\processed\\geojson\\interpreted\\colorado_named_natural_streams_complete_v1.geojson","type":"colorado-natural-stream-detail-tile-v2","tile_size_degrees":0.2,"x":-531,"y":186,"bounds":{"west":-106.2,"south":37.2,"east":-106,"north":37.4}},"features":[{"type":"Feature","geometry":{"type":"LineString","coordinates":[[-106.1879,37.2622],[-106.1877,37.2624]]},"properties":{"name":"Poso Creek","display_name":"Poso Creek","source_name":"Poso Creek","state":"CO","atlas_class":"named_natural_stream_detail","huc8":"13010002","huc8Name":"Alamosa-Trinchera","lineageKey":"rioGrande","lineage":"rioGrande","historic":"rioGrande","current":"rioGrande","recovery":"recoveryWatch","lineageLabel":"Rio Grande lineage","atlas_context":"cutthroat_lineage_context"}},{"type":"Feature","geometry":{"type":"LineString","coordinates":[[-106.2196,37.2849],[-106.2163,37.2837],[-106.2097,37.284],[-106.2067,37.281],[-106.206,37.2762],[-106.204,37.2752],[-106.201,37.275],[-106.1928,37.2725],[-106.19,37.2734]]},"properties":{"name":"Hot Creek","display_name":"Hot Creek","source_name":"Hot Creek","state":"CO","atlas_class":"named_natural_stream_detail","huc8":"13010002","huc8Name":"Alamosa-Trinchera","lineageKey":"rioGrande","lineage":"rioGrande","historic":"rioGrande","current":"rioGrande","recovery":"recoveryWatch","lineageLabel":"Rio Grande lineage","atlas_context":"cutthroat_lineage_context"}},{"type":"Feature","geometry":{"type":"LineString","coordinates":[[-106.1818,37.2198],[-106.1744,37.225],[-106.1692,37.2266]]},"properties":{"name":"La Jara Creek","display_name":"La Jara Creek","source_name":"La Jara Creek","state":"CO","atlas_class":"named_natural_stream_detail","huc8":"13010002","huc8Name":"Alamosa-Trinchera","lineageKey":"rioGrande","lineage":"rioGrande","historic":"rioGrande","current":"rioGrande","recovery":"recoveryWatch","lineageLabel":"Rio Grande lineage","atlas_context":"cutthroat_lineage_context"}},{"type":"Feature","geometry":{"type":"LineString","coordinates":[[-106.1641,37.2744],[-106.1606,37.275]]},"properties":{"name":"Poso Creek","display_name":"Poso Creek","source_name":"Poso Creek","state":"CO","atlas_class":"named_natural_stream_detail","huc8":"13010002","huc8Name":"Alamosa-Trinchera","lineageKey":"rioGrande","lineage":"rioGrande","historic":"rioGrande","current":"rioGrande","recovery":"recoveryWatch","lineageLabel":"Rio Grande lineage","atlas_context":"cutthroat_lineage_context"}},{"type":"Feature","geometry":{"type":"LineString","coordinates":[[-106.0994,37.2861],[-106.0957,37.2878],[-106.0903,37.2862],[-106.0875,37.2882],[-106.0853,37.2882],[-106.0854,37.2895],[-106.0829,37.2877],[-106.082,37.2888],[-106.077,37.2889]]},"properties":{"name":"Alamosa River","display_name":"Alamosa River","source_name":"Alamosa River","state":"CO","atlas_class":"named_natural_stream_detail","huc8":"13010002","huc8Name":"Alamosa-Trinchera","lineageKey":"rioGrande","lineage":"rioGrande","historic":"rioGrande","current":"rioGrande","recovery":"recoveryWatch","lineageLabel":"Rio Grande lineage","atlas_context":"cutthroat_lineage_context"}},{"type":"Feature","geometry":{"type":"LineString","coordinates":[[-106.1463,37.2974],[-106.141,37.2941],[-106.1382,37.294],[-106.1366,37.292],[-106.134,37.2919]]},"properties":{"name":"Alamosa River","display_name":"Alamosa River","source_name":"Alamosa River","state":"CO","atlas_class":"named_natural_stream_detail","huc8":"13010002","huc8Name":"Alamosa-Trinchera","lineageKey":"rioGrande","lineage":"rioGrande","historic":"rioGrande","current":"rioGrande","recovery":"recoveryWatch","lineageLabel":"Rio Grande lineage","atlas_context":"cutthroat_lineage_context"}},{"type":"Feature","geometry":{"type":"LineString","coordinates":[[-106.1615,37.2499],[-106.1604,37.2547],[-106.1563,37.2573]]},"properties":{"name":"La Jara Creek","display_name":"La Jara Creek","source_name":"La Jara Creek","state":"CO","atlas_class":"named_natural_stream_detail","huc8":"13010002","huc8Name":"Alamosa-Trinchera","lineageKey":"rioGrande","lineage":"rioGrande","historic":"rioGrande","current":"rioGrande","recovery":"recoveryWatch","lineageLabel":"Rio Grande lineage","atlas_context":"cutthroat_lineage_context"}},{"type":"Feature","geometry":{"type":"LineString","coordinates":[[-106.1664,37.1952],[-106.1643,37.2031]]},"properties":{"name":"La Jara Arroyo","display_name":"La Jara Arroyo","source_name":"La Jara Arroyo","state":"CO","atlas_class":"named_natural_stream_detail","huc8":"13010002","huc8Name":"Alamosa-Trinchera","lineageKey":"rioGrande","lineage":"rioGrande","historic":"rioGrande","current":"rioGrande","recovery":"recoveryWatch","lineageLabel":"Rio Grande lineage","atlas_context":"cutthroat_lineage_context"}},{"type":"Feature","geometry":{"type":"LineString","coordinates":[[-106.0259,37.2431],[-106.0257,37.2431]]},"properties":{"name":"La Jara Arroyo","display_name":"La Jara Arroyo","source_name":"La Jara Arroyo","state":"CO","atlas_class":"named_natural_stream_detail","huc8":"13010002","huc8Name":"Alamosa-Trinchera","lineageKey":"rioGrande","lineage":"rioGrande","historic":"rioGrande","current":"rioGrande","recovery":"recoveryWatch","lineageLabel":"Rio Grande lineage","atlas_context":"cutthroat_lineage_context"}},{"type":"Feature","geometry":{"type":"LineString","coordinates":[[-106.0143,37.2464],[-106.0118,37.2462],[-106.0113,37.2454],[-106.0104,37.2464],[-106.0088,37.2452],[-106.0074,37.2476],[-106.0066,37.2476],[-106.0074,37.2487],[-106.0057,37.2484],[-106.0045,37.2503],[-106.0024,37.2508],[-106.0019,37.2532],[-105.9972,37.2535],[-105.9954,37.2555]]},"properties":{"name":"La Jara Arroyo","display_name":"La Jara Arroyo","source_name":"La Jara Arroyo","state":"CO","atlas_class":"named_natural_stream_detail","huc8":"13010002","huc8Name":"Alamosa-Trinchera","lineageKey":"rioGrande","lineage":"rioGrande","historic":"rioGrande","current":"rioGrande","recovery":"recoveryWatch","lineageLabel":"Rio Grande lineage","atlas_context":"cutthroat_lineage_context"}},{"type":"Feature","geometry":{"type":"LineString","coordinates":[[-106.075,37.2898],[-106.0707,37.2922]]},"properties":{"name":"Alamosa River","display_name":"Alamosa River","source_name":"Alamosa River","state":"CO","atlas_class":"named_natural_stream_detail","huc8":"13010002","huc8Name":"Alamosa-Trinchera","lineageKey":"rioGrande","lineage":"rioGrande","historic":"rioGrande","current":"rioGrande","recovery":"recoveryWatch","lineageLabel":"Rio Grande lineage","atlas_context":"cutthroat_lineage_context"}},{"type":"Feature","geometry":{"type":"LineString","coordinates":[[-106.1258,37.2278],[-106.1254,37.2292],[-106.1262,37.2309]]},"properties":{"name":"La Jara Arroyo","display_name":"La Jara Arroyo","source_name":"La Jara Arroyo","state":"CO","atlas_class":"named_natural_stream_detail","huc8":"13010002","huc8Name":"Alamosa-Trinchera","lineageKey":"rioGrande","lineage":"rioGrande","historic":"rioGrande","current":"rioGrande","recovery":"recoveryWatch","lineageLabel":"Rio Grande lineage","atlas_context":"cutthroat_lineage_context"}},{"type":"Feature","geometry":{"type":"LineString","coordinates":[[-106.0151,37.275],[-106.0134,37.2735],[-106.0104,37.2729],[-106.0101,37.2743],[-106.0085,37.2746],[-106.0091,37.2731],[-106.0079,37.2728],[-106.0087,37.2721],[-106.007,37.2731],[-106.0071,37.2723],[-106.0057,37.2726],[-106.0063,37.2717],[-106.0057,37.2715],[-106.0033,37.2734],[-106.0032,37.2749],[-105.9997,37.2759],[-105.998,37.2774],[-105.9961,37.2771],[-105.9935,37.2785],[-105.9918,37.2765]]},"properties":{"name":"La Jara Creek","display_name":"La Jara Creek","source_name":"La Jara Creek","state":"CO","atlas_class":"named_natural_stream_detail","huc8":"13010002","huc8Name":"Alamosa-Trinchera","lineageKey":"rioGrande","lineage":"rioGrande","historic":"rioGrande","current":"rioGrande","recovery":"recoveryWatch","lineageLabel":"Rio Grande lineage","atlas_context":"cutthroat_lineage_context"}},{"type":"Feature","geometry":{"type":"LineString","coordinates":[[-106.2146,37.3326],[-106.2141,37.3316],[-106.2109,37.3317],[-106.2098,37.3305],[-106.2078,37.3304],[-106.2034,37.3327],[-106.2013,37.3327],[-106.1995,37.3313],[-106.1979,37.3332],[-106.1956,37.332],[-106.1947,37.3304],[-106.1883,37.3291],[-106.1865,37.3275]]},"properties":{"name":"Alamosa River","display_name":"Alamosa River","source_name":"Alamosa River","state":"CO","atlas_class":"named_natural_stream_detail","huc8":"13010002","huc8Name":"Alamosa-Trinchera","lineageKey":"rioGrande","lineage":"rioGrande","historic":"rioGrande","current":"rioGrande","recovery":"recoveryWatch","lineageLabel":"Rio Grande lineage","atlas_context":"cutthroat_lineage_context"}},{"type":"Feature","geometry":{"type":"LineString","coordinates":[[-106.1941,37.2601],[-106.1926,37.2593],[-106.1902,37.2598]]},"properties":{"name":"Poso Creek","display_name":"Poso Creek","source_name":"Poso Creek","state":"CO","atlas_class":"named_natural_stream_detail","huc8":"13010002","huc8Name":"Alamosa-Trinchera","lineageKey":"rioGrande","lineage":"rioGrande","historic":"rioGrande","current":"rioGrande","recovery":"recoveryWatch","lineageLabel":"Rio Grande lineage","atlas_context":"cutthroat_lineage_context"}},{"type":"Feature","geometry":{"type":"LineString","coordinates":[[-106.0257,37.2431],[-106.0254,37.2431]]},"properties":{"name":"La Jara Arroyo","display_name":"La Jara Arroyo","source_name":"La Jara Arroyo","state":"CO","atlas_class":"named_natural_stream_detail","huc8":"13010002","huc8Name":"Alamosa-Trinchera","lineageKey":"rioGrande","lineage":"rioGrande","historic":"rioGrande","current":"rioGrande","recovery":"recoveryWatch","lineageLabel":"Rio Grande lineage","atlas_context":"cutthroat_lineage_context"}},{"type":"Feature","geometry":{"type":"LineString","coordinates":[[-106.1923,37.206],[-106.1918,37.2062]]},"properties":{"name":"La Jara Creek","display_name":"La Jara Creek","source_name":"La Jara Creek","state":"CO","atlas_class":"named_natural_stream_detail","huc8":"13010002","huc8Name":"Alamosa-Trinchera","lineageKey":"rioGrande","lineage":"rioGrande","historic":"rioGrande","current":"rioGrande","recovery":"recoveryWatch","lineageLabel":"Rio Grande lineage","atlas_context":"cutthroat_lineage_context"}},{"type":"Feature","geometry":{"type":"LineString","coordinates":[[-106.0551,37.2525],[-106.0505,37.2502],[-106.0503,37.2488],[-106.0472,37.2473],[-106.0455,37.2479],[-106.0449,37.2468]]},"properties":{"name":"La Jara Arroyo","display_name":"La Jara Arroyo","source_name":"La Jara Arroyo","state":"CO","atlas_class":"named_natural_stream_detail","huc8":"13010002","huc8Name":"Alamosa-Trinchera","lineageKey":"rioGrande","lineage":"rioGrande","historic":"rioGrande","current":"rioGrande","recovery":"recoveryWatch","lineageLabel":"Rio Grande lineage","atlas_context":"cutthroat_lineage_context"}},{"type":"Feature","geometry":{"type":"LineString","coordinates":[[-106.1638,37.2047],[-106.1616,37.2063],[-106.1599,37.2101],[-106.1555,37.2111]]},"properties":{"name":"La Jara Arroyo","display_name":"La Jara Arroyo","source_name":"La Jara Arroyo","state":"CO","atlas_class":"named_natural_stream_detail","huc8":"13010002","huc8Name":"Alamosa-Trinchera","lineageKey":"rioGrande","lineage":"rioGrande","historic":"rioGrande","current":"rioGrande","recovery":"recoveryWatch","lineageLabel":"Rio Grande lineage","atlas_context":"cutthroat_lineage_context"}},{"type":"Feature","geometry":{"type":"LineString","coordinates":[[-106.1563,37.2573],[-106.1552,37.2591],[-106.1534,37.2599],[-106.154,37.2616],[-106.152,37.2656]]},"properties":{"name":"La Jara Creek","display_name":"La Jara Creek","source_name":"La Jara Creek","state":"CO","atlas_class":"named_natural_stream_detail","huc8":"13010002","huc8Name":"Alamosa-Trinchera","lineageKey":"rioGrande","lineage":"rioGrande","historic":"rioGrande","current":"rioGrande","recovery":"recoveryWatch","lineageLabel":"Rio Grande lineage","atlas_context":"cutthroat_lineage_context"}},{"type":"Feature","geometry":{"type":"LineString","coordinates":[[-106.1389,37.2737],[-106.134,37.2743]]},"properties":{"name":"Hot Creek","display_name":"Hot Creek","source_name":"Hot Creek","state":"CO","atlas_class":"named_natural_stream_detail","huc8":"13010002","huc8Name":"Alamosa-Trinchera","lineageKey":"rioGrande","lineage":"rioGrande","historic":"rioGrande","current":"rioGrande","recovery":"recoveryWatch","lineageLabel":"Rio Grande lineage","atlas_context":"cutthroat_lineage_context"}},{"type":"Feature","geometry":{"type":"LineString","coordinates":[[-106.0254,37.2431],[-106.0248,37.2427],[-106.0239,37.2436],[-106.0229,37.2426],[-106.0222,37.2446],[-106.0211,37.2444],[-106.0206,37.243],[-106.0194,37.2439]]},"properties":{"name":"La Jara Arroyo","display_name":"La Jara Arroyo","source_name":"La Jara Arroyo","state":"CO","atlas_class":"named_natural_stream_detail","huc8":"13010002","huc8Name":"Alamosa-Trinchera","lineageKey":"rioGrande","lineage":"rioGrande","historic":"rioGrande","current":"rioGrande","recovery":"recoveryWatch","lineageLabel":"Rio Grande lineage","atlas_context":"cutthroat_lineage_context"}},{"type":"Feature","geometry":{"type":"LineString","coordinates":[[-106.2002,37.2034],[-106.1923,37.206]]},"properties":{"name":"La Jara Creek","display_name":"La Jara Creek","source_name":"La Jara Creek","state":"CO","atlas_class":"named_natural_stream_detail","huc8":"13010002","huc8Name":"Alamosa-Trinchera","lineageKey":"rioGrande","lineage":"rioGrande","historic":"rioGrande","current":"rioGrande","recovery":"recoveryWatch","lineageLabel":"Rio Grande lineage","atlas_context":"cutthroat_lineage_context"}},{"type":"Feature","geometry":{"type":"LineString","coordinates":[[-106.077,37.2889],[-106.075,37.2898]]},"properties":{"name":"Alamosa River","display_name":"Alamosa River","source_name":"Alamosa River","state":"CO","atlas_class":"named_natural_stream_detail","huc8":"13010002","huc8Name":"Alamosa-Trinchera","lineageKey":"rioGrande","lineage":"rioGrande","historic":"rioGrande","current":"rioGrande","recovery":"recoveryWatch","lineageLabel":"Rio Grande lineage","atlas_context":"cutthroat_lineage_context"}},{"type":"Feature","geometry":{"type":"LineString","coordinates":[[-106.1606,37.275],[-106.1524,37.2766],[-106.1512,37.2752],[-106.1432,37.2745]]},"properties":{"name":"Hot Creek","display_name":"Hot Creek","source_name":"Hot Creek","state":"CO","atlas_class":"named_natural_stream_detail","huc8":"13010002","huc8Name":"Alamosa-Trinchera","lineageKey":"rioGrande","lineage":"rioGrande","historic":"rioGrande","current":"rioGrande","recovery":"recoveryWatch","lineageLabel":"Rio Grande lineage","atlas_context":"cutthroat_lineage_context"}},{"type":"Feature","geometry":{"type":"LineString","coordinates":[[-106.1507,37.3009],[-106.1476,37.2995],[-106.1475,37.2981],[-106.1463,37.2974]]},"properties":{"name":"Alamosa River","display_name":"Alamosa River","source_name":"Alamosa River","state":"CO","atlas_class":"named_natural_stream_detail","huc8":"13010002","huc8Name":"Alamosa-Trinchera","lineageKey":"rioGrande","lineage":"rioGrande","historic":"rioGrande","current":"rioGrande","recovery":"recoveryWatch","lineageLabel":"Rio Grande lineage","atlas_context":"cutthroat_lineage_context"}},{"type":"Feature","geometry":{"type":"LineString","coordinates":[[-106.1262,37.2309],[-106.1259,37.2327],[-106.1243,37.2343]]},"properties":{"name":"La Jara Arroyo","display_name":"La Jara Arroyo","source_name":"La Jara Arroyo","state":"CO","atlas_class":"named_natural_stream_detail","huc8":"13010002","huc8Name":"Alamosa-Trinchera","lineageKey":"rioGrande","lineage":"rioGrande","historic":"rioGrande","current":"rioGrande","recovery":"recoveryWatch","lineageLabel":"Rio Grande lineage","atlas_context":"cutthroat_lineage_context"}},{"type":"Feature","geometry":{"type":"LineString","coordinates":[[-106.1524,37.2127],[-106.1452,37.2177],[-106.1317,37.2225],[-106.1276,37.2256],[-106.1271,37.2269]]},"properties":{"name":"La Jara Arroyo","display_name":"La Jara Arroyo","source_name":"La Jara Arroyo","state":"CO","atlas_class":"named_natural_stream_detail","huc8":"13010002","huc8Name":"Alamosa-Trinchera","lineageKey":"rioGrande","lineage":"rioGrande","historic":"rioGrande","current":"rioGrande","recovery":"recoveryWatch","lineageLabel":"Rio Grande lineage","atlas_context":"cutthroat_lineage_context"}},{"type":"Feature","geometry":{"type":"LineString","coordinates":[[-106.1606,37.2452],[-106.1597,37.2488],[-106.1615,37.2499]]},"properties":{"name":"La Jara Creek","display_name":"La Jara Creek","source_name":"La Jara Creek","state":"CO","atlas_class":"named_natural_stream_detail","huc8":"13010002","huc8Name":"Alamosa-Trinchera","lineageKey":"rioGrande","lineage":"rioGrande","historic":"rioGrande","current":"rioGrande","recovery":"recoveryWatch","lineageLabel":"Rio Grande lineage","atlas_context":"cutthroat_lineage_context"}},{"type":"Feature","geometry":{"type":"LineString","coordinates":[[-106.1107,37.2784],[-106.1094,37.2786],[-106.109,37.2772],[-106.1057,37.2767],[-106.1023,37.2744],[-106.0963,37.2758],[-106.0954,37.2777],[-106.0893,37.2765]]},"properties":{"name":"La Jara Creek","display_name":"La Jara Creek","source_name":"La Jara Creek","state":"CO","atlas_class":"named_natural_stream_detail","huc8":"13010002","huc8Name":"Alamosa-Trinchera","lineageKey":"rioGrande","lineage":"rioGrande","historic":"rioGrande","current":"rioGrande","recovery":"recoveryWatch","lineageLabel":"Rio Grande lineage","atlas_context":"cutthroat_lineage_context"}},{"type":"Feature","geometry":{"type":"LineString","coordinates":[[-106.1397,37.2736],[-106.1389,37.2737]]},"properties":{"name":"Hot Creek","display_name":"Hot Creek","source_name":"Hot Creek","state":"CO","atlas_class":"named_natural_stream_detail","huc8":"13010002","huc8Name":"Alamosa-Trinchera","lineageKey":"rioGrande","lineage":"rioGrande","historic":"rioGrande","current":"rioGrande","recovery":"recoveryWatch","lineageLabel":"Rio Grande lineage","atlas_context":"cutthroat_lineage_context"}},{"type":"Feature","geometry":{"type":"LineString","coordinates":[[-106.0594,37.2611],[-106.0596,37.2596],[-106.0581,37.258],[-106.0589,37.2575],[-106.0584,37.256],[-106.0567,37.2548],[-106.0569,37.2535],[-106.0551,37.2525]]},"properties":{"name":"La Jara Arroyo","display_name":"La Jara Arroyo","source_name":"La Jara Arroyo","state":"CO","atlas_class":"named_natural_stream_detail","huc8":"13010002","huc8Name":"Alamosa-Trinchera","lineageKey":"rioGrande","lineage":"rioGrande","historic":"rioGrande","current":"rioGrande","recovery":"recoveryWatch","lineageLabel":"Rio Grande lineage","atlas_context":"cutthroat_lineage_context"}},{"type":"Feature","geometry":{"type":"LineString","coordinates":[[-106.0427,37.296],[-106.0416,37.2949],[-106.0369,37.2975]]},"properties":{"name":"Alamosa River","display_name":"Alamosa River","source_name":"Alamosa River","state":"CO","atlas_class":"named_natural_stream_detail","huc8":"13010002","huc8Name":"Alamosa-Trinchera","lineageKey":"rioGrande","lineage":"rioGrande","historic":"rioGrande","current":"rioGrande","recovery":"recoveryWatch","lineageLabel":"Rio Grande lineage","atlas_context":"cutthroat_lineage_context"}},{"type":"Feature","geometry":{"type":"LineString","coordinates":[[-106.1798,37.3944],[-106.1698,37.4004]]},"properties":{"name":"Cat Creek","display_name":"Cat Creek","source_name":"Cat Creek","state":"CO","atlas_class":"named_natural_stream_detail","huc8":"13010002","huc8Name":"Alamosa-Trinchera","lineageKey":"rioGrande","lineage":"rioGrande","historic":"rioGrande","current":"rioGrande","recovery":"recoveryWatch","lineageLabel":"Rio Grande lineage","atlas_context":"cutthroat_lineage_context"}},{"type":"Feature","geometry":{"type":"LineString","coordinates":[[-106.0707,37.2922],[-106.0668,37.2919]]},"properties":{"name":"Alamosa River","display_name":"Alamosa River","source_name":"Alamosa River","state":"CO","atlas_class":"named_natural_stream_detail","huc8":"13010002","huc8Name":"Alamosa-Trinchera","lineageKey":"rioGrande","lineage":"rioGrande","historic":"rioGrande","current":"rioGrande","recovery":"recoveryWatch","lineageLabel":"Rio Grande lineage","atlas_context":"cutthroat_lineage_context"}},{"type":"Feature","geometry":{"type":"LineString","coordinates":[[-106.1906,37.389],[-106.1846,37.3918]]},"properties":{"name":"Cat Creek","display_name":"Cat Creek","source_name":"Cat Creek","state":"CO","atlas_class":"named_natural_stream_detail","huc8":"13010002","huc8Name":"Alamosa-Trinchera","lineageKey":"rioGrande","lineage":"rioGrande","historic":"rioGrande","current":"rioGrande","recovery":"recoveryWatch","lineageLabel":"Rio Grande lineage","atlas_context":"cutthroat_lineage_context"}},{"type":"Feature","geometry":{"type":"LineString","coordinates":[[-106.1109,37.2484],[-106.1125,37.2519]]},"properties":{"name":"La Jara Arroyo","display_name":"La Jara Arroyo","source_name":"La Jara Arroyo","state":"CO","atlas_class":"named_natural_stream_detail","huc8":"13010002","huc8Name":"Alamosa-Trinchera","lineageKey":"rioGrande","lineage":"rioGrande","historic":"rioGrande","current":"rioGrande","recovery":"recoveryWatch","lineageLabel":"Rio Grande lineage","atlas_context":"cutthroat_lineage_context"}},{"type":"Feature","geometry":{"type":"LineString","coordinates":[[-106.1125,37.2519],[-106.1103,37.2534],[-106.1097,37.2611]]},"properties":{"name":"La Jara Arroyo","display_name":"La Jara Arroyo","source_name":"La Jara Arroyo","state":"CO","atlas_class":"named_natural_stream_detail","huc8":"13010002","huc8Name":"Alamosa-Trinchera","lineageKey":"rioGrande","lineage":"rioGrande","historic":"rioGrande","current":"rioGrande","recovery":"recoveryWatch","lineageLabel":"Rio Grande lineage","atlas_context":"cutthroat_lineage_context"}},{"type":"Feature","geometry":{"type":"LineString","coordinates":[[-106.1877,37.2624],[-106.1856,37.2659],[-106.1812,37.2675],[-106.1733,37.2742],[-106.1698,37.2754],[-106.1641,37.2744]]},"properties":{"name":"Poso Creek","display_name":"Poso Creek","source_name":"Poso Creek","state":"CO","atlas_class":"named_natural_stream_detail","huc8":"13010002","huc8Name":"Alamosa-Trinchera","lineageKey":"rioGrande","lineage":"rioGrande","historic":"rioGrande","current":"rioGrande","recovery":"recoveryWatch","lineageLabel":"Rio Grande lineage","atlas_context":"cutthroat_lineage_context"}},{"type":"Feature","geometry":{"type":"LineString","coordinates":[[-106.1918,37.2062],[-106.188,37.2092],[-106.1847,37.2171],[-106.1818,37.2198]]},"properties":{"name":"La Jara Creek","display_name":"La Jara Creek","source_name":"La Jara Creek","state":"CO","atlas_class":"named_natural_stream_detail","huc8":"13010002","huc8Name":"Alamosa-Trinchera","lineageKey":"rioGrande","lineage":"rioGrande","historic":"rioGrande","current":"rioGrande","recovery":"recoveryWatch","lineageLabel":"Rio Grande lineage","atlas_context":"cutthroat_lineage_context"}},{"type":"Feature","geometry":{"type":"LineString","coordinates":[[-106.1846,37.3918],[-106.1798,37.3944]]},"properties":{"name":"Cat Creek","display_name":"Cat Creek","source_name":"Cat Creek","state":"CO","atlas_class":"named_natural_stream_detail","huc8":"13010002","huc8Name":"Alamosa-Trinchera","lineageKey":"rioGrande","lineage":"rioGrande","historic":"rioGrande","current":"rioGrande","recovery":"recoveryWatch","lineageLabel":"Rio Grande lineage","atlas_context":"cutthroat_lineage_context"}},{"type":"Feature","geometry":{"type":"LineString","coordinates":[[-106.1865,37.3275],[-106.1807,37.325],[-106.1776,37.3215],[-106.1745,37.3205],[-106.1739,37.319],[-106.1718,37.3184],[-106.1716,37.3166],[-106.1669,37.3128],[-106.1658,37.3131],[-106.163,37.3116],[-106.1623,37.3123],[-106.1598,37.3116]]},"properties":{"name":"Alamosa River","display_name":"Alamosa River","source_name":"Alamosa River","state":"CO","atlas_class":"named_natural_stream_detail","huc8":"13010002","huc8Name":"Alamosa-Trinchera","lineageKey":"rioGrande","lineage":"rioGrande","historic":"rioGrande","current":"rioGrande","recovery":"recoveryWatch","lineageLabel":"Rio Grande lineage","atlas_context":"cutthroat_lineage_context"}},{"type":"Feature","geometry":{"type":"LineString","coordinates":[[-106.1902,37.2598],[-106.1879,37.2622]]},"properties":{"name":"Poso Creek","display_name":"Poso Creek","source_name":"Poso Creek","state":"CO","atlas_class":"named_natural_stream_detail","huc8":"13010002","huc8Name":"Alamosa-Trinchera","lineageKey":"rioGrande","lineage":"rioGrande","historic":"rioGrande","current":"rioGrande","recovery":"recoveryWatch","lineageLabel":"Rio Grande lineage","atlas_context":"cutthroat_lineage_context"}},{"type":"Feature","geometry":{"type":"LineString","coordinates":[[-106.1555,37.2111],[-106.1524,37.2127]]},"properties":{"name":"La Jara Arroyo","display_name":"La Jara Arroyo","source_name":"La Jara Arroyo","state":"CO","atlas_class":"named_natural_stream_detail","huc8":"13010002","huc8Name":"Alamosa-Trinchera","lineageKey":"rioGrande","lineage":"rioGrande","historic":"rioGrande","current":"rioGrande","recovery":"recoveryWatch","lineageLabel":"Rio Grande lineage","atlas_context":"cutthroat_lineage_context"}},{"type":"Feature","geometry":{"type":"LineString","coordinates":[[-106.1097,37.2611],[-106.1061,37.2655],[-106.1027,37.2663],[-106.1004,37.2682],[-106.0961,37.2686],[-106.0931,37.2722]]},"properties":{"name":"La Jara Arroyo","display_name":"La Jara Arroyo","source_name":"La Jara Arroyo","state":"CO","atlas_class":"named_natural_stream_detail","huc8":"13010002","huc8Name":"Alamosa-Trinchera","lineageKey":"rioGrande","lineage":"rioGrande","historic":"rioGrande","current":"rioGrande","recovery":"recoveryWatch","lineageLabel":"Rio Grande lineage","atlas_context":"cutthroat_lineage_context"}},{"type":"Feature","geometry":{"type":"LineString","coordinates":[[-106.0449,37.2468],[-106.0402,37.2473],[-106.0386,37.2459],[-106.0379,37.2466],[-106.0365,37.2463],[-106.0354,37.2448],[-106.0346,37.2455],[-106.0335,37.245],[-106.0331,37.2462],[-106.0314,37.2461],[-106.0314,37.2443],[-106.0278,37.2445],[-106.027,37.2431],[-106.0259,37.2431]]},"properties":{"name":"La Jara Arroyo","display_name":"La Jara Arroyo","source_name":"La Jara Arroyo","state":"CO","atlas_class":"named_natural_stream_detail","huc8":"13010002","huc8Name":"Alamosa-Trinchera","lineageKey":"rioGrande","lineage":"rioGrande","historic":"rioGrande","current":"rioGrande","recovery":"recoveryWatch","lineageLabel":"Rio Grande lineage","atlas_context":"cutthroat_lineage_context"}},{"type":"Feature","geometry":{"type":"LineString","coordinates":[[-106.0369,37.2975],[-106.0331,37.2985],[-106.022,37.2964],[-106.0193,37.2973],[-106.0169,37.2966],[-106.0069,37.2974],[-106.0029,37.2985],[-105.9923,37.2986]]},"properties":{"name":"Alamosa River","display_name":"Alamosa River","source_name":"Alamosa River","state":"CO","atlas_class":"named_natural_stream_detail","huc8":"13010002","huc8Name":"Alamosa-Trinchera","lineageKey":"rioGrande","lineage":"rioGrande","historic":"rioGrande","current":"rioGrande","recovery":"recoveryWatch","lineageLabel":"Rio Grande lineage","atlas_context":"cutthroat_lineage_context"}},{"type":"Feature","geometry":{"type":"LineString","coordinates":[[-106.2144,37.2625],[-106.2019,37.2635],[-106.1941,37.2601]]},"properties":{"name":"Poso Creek","display_name":"Poso Creek","source_name":"Poso Creek","state":"CO","atlas_class":"named_natural_stream_detail","huc8":"13010002","huc8Name":"Alamosa-Trinchera","lineageKey":"rioGrande","lineage":"rioGrande","historic":"rioGrande","current":"rioGrande","recovery":"recoveryWatch","lineageLabel":"Rio Grande lineage","atlas_context":"cutthroat_lineage_context"}},{"type":"Feature","geometry":{"type":"LineString","coordinates":[[-106.0194,37.2439],[-106.0186,37.2456],[-106.0175,37.2459],[-106.0167,37.2451],[-106.0154,37.2455],[-106.0152,37.2466],[-106.0143,37.2464]]},"properties":{"name":"La Jara Arroyo","display_name":"La Jara Arroyo","source_name":"La Jara Arroyo","state":"CO","atlas_class":"named_natural_stream_detail","huc8":"13010002","huc8Name":"Alamosa-Trinchera","lineageKey":"rioGrande","lineage":"rioGrande","historic":"rioGrande","current":"rioGrande","recovery":"recoveryWatch","lineageLabel":"Rio Grande lineage","atlas_context":"cutthroat_lineage_context"}},{"type":"Feature","geometry":{"type":"LineString","coordinates":[[-106.1432,37.2745],[-106.1397,37.2736]]},"properties":{"name":"Hot Creek","display_name":"Hot Creek","source_name":"Hot Creek","state":"CO","atlas_class":"named_natural_stream_detail","huc8":"13010002","huc8Name":"Alamosa-Trinchera","lineageKey":"rioGrande","lineage":"rioGrande","historic":"rioGrande","current":"rioGrande","recovery":"recoveryWatch","lineageLabel":"Rio Grande lineage","atlas_context":"cutthroat_lineage_context"}},{"type":"Feature","geometry":{"type":"LineString","coordinates":[[-106.134,37.2743],[-106.1317,37.2745],[-106.1287,37.2767],[-106.1264,37.2766],[-106.12,37.2808],[-106.1173,37.281]]},"properties":{"name":"La Jara Creek","display_name":"La Jara Creek","source_name":"La Jara Creek","state":"CO","atlas_class":"named_natural_stream_detail","huc8":"13010002","huc8Name":"Alamosa-Trinchera","lineageKey":"rioGrande","lineage":"rioGrande","historic":"rioGrande","current":"rioGrande","recovery":"recoveryWatch","lineageLabel":"Rio Grande lineage","atlas_context":"cutthroat_lineage_context"}},{"type":"Feature","geometry":{"type":"LineString","coordinates":[[-106.106,37.286],[-106.0994,37.2861]]},"properties":{"name":"Alamosa River","display_name":"Alamosa River","source_name":"Alamosa River","state":"CO","atlas_class":"named_natural_stream_detail","huc8":"13010002","huc8Name":"Alamosa-Trinchera","lineageKey":"rioGrande","lineage":"rioGrande","historic":"rioGrande","current":"rioGrande","recovery":"recoveryWatch","lineageLabel":"Rio Grande lineage","atlas_context":"cutthroat_lineage_context"}},{"type":"Feature","geometry":{"type":"LineString","coordinates":[[-106.0931,37.2722],[-106.0901,37.2736],[-106.0882,37.2732],[-106.0864,37.274]]},"properties":{"name":"La Jara Arroyo","display_name":"La Jara Arroyo","source_name":"La Jara Arroyo","state":"CO","atlas_class":"named_natural_stream_detail","huc8":"13010002","huc8Name":"Alamosa-Trinchera","lineageKey":"rioGrande","lineage":"rioGrande","historic":"rioGrande","current":"rioGrande","recovery":"recoveryWatch","lineageLabel":"Rio Grande lineage","atlas_context":"cutthroat_lineage_context"}},{"type":"Feature","geometry":{"type":"LineString","coordinates":[[-106.152,37.2656],[-106.1506,37.2674],[-106.1478,37.2682]]},"properties":{"name":"La Jara Creek","display_name":"La Jara Creek","source_name":"La Jara Creek","state":"CO","atlas_class":"named_natural_stream_detail","huc8":"13010002","huc8Name":"Alamosa-Trinchera","lineageKey":"rioGrande","lineage":"rioGrande","historic":"rioGrande","current":"rioGrande","recovery":"recoveryWatch","lineageLabel":"Rio Grande lineage","atlas_context":"cutthroat_lineage_context"}},{"type":"Feature","geometry":{"type":"LineString","coordinates":[[-106.1679,37.229],[-106.1656,37.2329],[-106.1662,37.2337],[-106.165,37.2369],[-106.165,37.2413],[-106.1619,37.2438]]},"properties":{"name":"La Jara Creek","display_name":"La Jara Creek","source_name":"La Jara Creek","state":"CO","atlas_class":"named_natural_stream_detail","huc8":"13010002","huc8Name":"Alamosa-Trinchera","lineageKey":"rioGrande","lineage":"rioGrande","historic":"rioGrande","current":"rioGrande","recovery":"recoveryWatch","lineageLabel":"Rio Grande lineage","atlas_context":"cutthroat_lineage_context"}},{"type":"Feature","geometry":{"type":"LineString","coordinates":[[-106.134,37.2919],[-106.1304,37.2912],[-106.1278,37.2888],[-106.1263,37.2885]]},"properties":{"name":"Alamosa River","display_name":"Alamosa River","source_name":"Alamosa River","state":"CO","atlas_class":"named_natural_stream_detail","huc8":"13010002","huc8Name":"Alamosa-Trinchera","lineageKey":"rioGrande","lineage":"rioGrande","historic":"rioGrande","current":"rioGrande","recovery":"recoveryWatch","lineageLabel":"Rio Grande lineage","atlas_context":"cutthroat_lineage_context"}},{"type":"Feature","geometry":{"type":"LineString","coordinates":[[-106.19,37.2734],[-106.1843,37.2744]]},"properties":{"name":"Hot Creek","display_name":"Hot Creek","source_name":"Hot Creek","state":"CO","atlas_class":"named_natural_stream_detail","huc8":"13010002","huc8Name":"Alamosa-Trinchera","lineageKey":"rioGrande","lineage":"rioGrande","historic":"rioGrande","current":"rioGrande","recovery":"recoveryWatch","lineageLabel":"Rio Grande lineage","atlas_context":"cutthroat_lineage_context"}},{"type":"Feature","geometry":{"type":"LineString","coordinates":[[-106.1478,37.2682],[-106.1485,37.2697],[-106.1478,37.2704],[-106.1457,37.2712],[-106.1392,37.2707],[-106.1345,37.2725],[-106.134,37.2743]]},"properties":{"name":"La Jara Creek","display_name":"La Jara Creek","source_name":"La Jara Creek","state":"CO","atlas_class":"named_natural_stream_detail","huc8":"13010002","huc8Name":"Alamosa-Trinchera","lineageKey":"rioGrande","lineage":"rioGrande","historic":"rioGrande","current":"rioGrande","recovery":"recoveryWatch","lineageLabel":"Rio Grande lineage","atlas_context":"cutthroat_lineage_context"}},{"type":"Feature","geometry":{"type":"LineString","coordinates":[[-106.0893,37.2765],[-106.0845,37.2759],[-106.0829,37.2771],[-106.0814,37.2767],[-106.0773,37.2782],[-106.0662,37.2779],[-106.0628,37.2771],[-106.0587,37.2792],[-106.056,37.2795],[-106.0531,37.278],[-106.0426,37.2779],[-106.0392,37.2809],[-106.0389,37.2796],[-106.0333,37.2766],[-106.0294,37.2762],[-106.0271,37.2749],[-106.0264,37.2734],[-106.0253,37.2731],[-106.0242,37.2746],[-106.023,37.2743],[-106.0223,37.2751],[-106.0221,37.2739],[-106.0201,37.2732],[-106.0151,37.275]]},"properties":{"name":"La Jara Creek","display_name":"La Jara Creek","source_name":"La Jara Creek","state":"CO","atlas_class":"named_natural_stream_detail","huc8":"13010002","huc8Name":"Alamosa-Trinchera","lineageKey":"rioGrande","lineage":"rioGrande","historic":"rioGrande","current":"rioGrande","recovery":"recoveryWatch","lineageLabel":"Rio Grande lineage","atlas_context":"cutthroat_lineage_context"}},{"type":"Feature","geometry":{"type":"LineString","coordinates":[[-106.1843,37.2744],[-106.1739,37.277]]},"properties":{"name":"Hot Creek","display_name":"Hot Creek","source_name":"Hot Creek","state":"CO","atlas_class":"named_natural_stream_detail","huc8":"13010002","huc8Name":"Alamosa-Trinchera","lineageKey":"rioGrande","lineage":"rioGrande","historic":"rioGrande","current":"rioGrande","recovery":"recoveryWatch","lineageLabel":"Rio Grande lineage","atlas_context":"cutthroat_lineage_context"}},{"type":"Feature","geometry":{"type":"LineString","coordinates":[[-106.1707,37.2774],[-106.1648,37.2772],[-106.1606,37.275]]},"properties":{"name":"Hot Creek","display_name":"Hot Creek","source_name":"Hot Creek","state":"CO","atlas_class":"named_natural_stream_detail","huc8":"13010002","huc8Name":"Alamosa-Trinchera","lineageKey":"rioGrande","lineage":"rioGrande","historic":"rioGrande","current":"rioGrande","recovery":"recoveryWatch","lineageLabel":"Rio Grande lineage","atlas_context":"cutthroat_lineage_context"}},{"type":"Feature","geometry":{"type":"LineString","coordinates":[[-106.1739,37.277],[-106.1707,37.2774]]},"properties":{"name":"Hot Creek","display_name":"Hot Creek","source_name":"Hot Creek","state":"CO","atlas_class":"named_natural_stream_detail","huc8":"13010002","huc8Name":"Alamosa-Trinchera","lineageKey":"rioGrande","lineage":"rioGrande","historic":"rioGrande","current":"rioGrande","recovery":"recoveryWatch","lineageLabel":"Rio Grande lineage","atlas_context":"cutthroat_lineage_context"}},{"type":"Feature","geometry":{"type":"LineString","coordinates":[[-106.1263,37.2885],[-106.1137,37.2859],[-106.106,37.286]]},"properties":{"name":"Alamosa River","display_name":"Alamosa River","source_name":"Alamosa River","state":"CO","atlas_class":"named_natural_stream_detail","huc8":"13010002","huc8Name":"Alamosa-Trinchera","lineageKey":"rioGrande","lineage":"rioGrande","historic":"rioGrande","current":"rioGrande","recovery":"recoveryWatch","lineageLabel":"Rio Grande lineage","atlas_context":"cutthroat_lineage_context"}},{"type":"Feature","geometry":{"type":"LineString","coordinates":[[-106.1243,37.2343],[-106.12,37.2381],[-106.118,37.2416],[-106.114,37.243],[-106.1109,37.2484]]},"properties":{"name":"La Jara Arroyo","display_name":"La Jara Arroyo","source_name":"La Jara Arroyo","state":"CO","atlas_class":"named_natural_stream_detail","huc8":"13010002","huc8Name":"Alamosa-Trinchera","lineageKey":"rioGrande","lineage":"rioGrande","historic":"rioGrande","current":"rioGrande","recovery":"recoveryWatch","lineageLabel":"Rio Grande lineage","atlas_context":"cutthroat_lineage_context"}},{"type":"Feature","geometry":{"type":"LineString","coordinates":[[-106.2106,37.388],[-106.2097,37.3867],[-106.1993,37.3858],[-106.1906,37.389]]},"properties":{"name":"Cat Creek","display_name":"Cat Creek","source_name":"Cat Creek","state":"CO","atlas_class":"named_natural_stream_detail","huc8":"13010002","huc8Name":"Alamosa-Trinchera","lineageKey":"rioGrande","lineage":"rioGrande","historic":"rioGrande","current":"rioGrande","recovery":"recoveryWatch","lineageLabel":"Rio Grande lineage","atlas_context":"cutthroat_lineage_context"}},{"type":"Feature","geometry":{"type":"LineString","coordinates":[[-106.1692,37.2266],[-106.1679,37.229]]},"properties":{"name":"La Jara Creek","display_name":"La Jara Creek","source_name":"La Jara Creek","state":"CO","atlas_class":"named_natural_stream_detail","huc8":"13010002","huc8Name":"Alamosa-Trinchera","lineageKey":"rioGrande","lineage":"rioGrande","historic":"rioGrande","current":"rioGrande","recovery":"recoveryWatch","lineageLabel":"Rio Grande lineage","atlas_context":"cutthroat_lineage_context"}},{"type":"Feature","geometry":{"type":"LineString","coordinates":[[-106.1619,37.2438],[-106.1606,37.2452]]},"properties":{"name":"La Jara Creek","display_name":"La Jara Creek","source_name":"La Jara Creek","state":"CO","atlas_class":"named_natural_stream_detail","huc8":"13010002","huc8Name":"Alamosa-Trinchera","lineageKey":"rioGrande","lineage":"rioGrande","historic":"rioGrande","current":"rioGrande","recovery":"recoveryWatch","lineageLabel":"Rio Grande lineage","atlas_context":"cutthroat_lineage_context"}},{"type":"Feature","geometry":{"type":"LineString","coordinates":[[-106.1598,37.3116],[-106.1589,37.3089],[-106.1574,37.3078],[-106.1576,37.3066],[-106.1554,37.3044],[-106.1531,37.3039],[-106.1524,37.3017],[-106.1507,37.3009]]},"properties":{"name":"Alamosa River","display_name":"Alamosa River","source_name":"Alamosa River","state":"CO","atlas_class":"named_natural_stream_detail","huc8":"13010002","huc8Name":"Alamosa-Trinchera","lineageKey":"rioGrande","lineage":"rioGrande","historic":"rioGrande","current":"rioGrande","recovery":"recoveryWatch","lineageLabel":"Rio Grande lineage","atlas_context":"cutthroat_lineage_context"}},{"type":"Feature","geometry":{"type":"LineString","coordinates":[[-106.0668,37.2919],[-106.0598,37.2951],[-106.0508,37.2961]]},"properties":{"name":"Alamosa River","display_name":"Alamosa River","source_name":"Alamosa River","state":"CO","atlas_class":"named_natural_stream_detail","huc8":"13010002","huc8Name":"Alamosa-Trinchera","lineageKey":"rioGrande","lineage":"rioGrande","historic":"rioGrande","current":"rioGrande","recovery":"recoveryWatch","lineageLabel":"Rio Grande lineage","atlas_context":"cutthroat_lineage_context"}},{"type":"Feature","geometry":{"type":"LineString","coordinates":[[-106.1271,37.2269],[-106.1258,37.2278]]},"properties":{"name":"La Jara Arroyo","display_name":"La Jara Arroyo","source_name":"La Jara Arroyo","state":"CO","atlas_class":"named_natural_stream_detail","huc8":"13010002","huc8Name":"Alamosa-Trinchera","lineageKey":"rioGrande","lineage":"rioGrande","historic":"rioGrande","current":"rioGrande","recovery":"recoveryWatch","lineageLabel":"Rio Grande lineage","atlas_context":"cutthroat_lineage_context"}},{"type":"Feature","geometry":{"type":"LineString","coordinates":[[-106.1643,37.2031],[-106.1638,37.2047]]},"properties":{"name":"La Jara Arroyo","display_name":"La Jara Arroyo","source_name":"La Jara Arroyo","state":"CO","atlas_class":"named_natural_stream_detail","huc8":"13010002","huc8Name":"Alamosa-Trinchera","lineageKey":"rioGrande","lineage":"rioGrande","historic":"rioGrande","current":"rioGrande","recovery":"recoveryWatch","lineageLabel":"Rio Grande lineage","atlas_context":"cutthroat_lineage_context"}},{"type":"Feature","geometry":{"type":"LineString","coordinates":[[-106.1173,37.281],[-106.1107,37.2784]]},"properties":{"name":"La Jara Creek","display_name":"La Jara Creek","source_name":"La Jara Creek","state":"CO","atlas_class":"named_natural_stream_detail","huc8":"13010002","huc8Name":"Alamosa-Trinchera","lineageKey":"rioGrande","lineage":"rioGrande","historic":"rioGrande","current":"rioGrande","recovery":"recoveryWatch","lineageLabel":"Rio Grande lineage","atlas_context":"cutthroat_lineage_context"}},{"type":"Feature","geometry":{"type":"LineString","coordinates":[[-106.0508,37.2961],[-106.0447,37.2966],[-106.0428,37.296]]},"properties":{"name":"Alamosa River","display_name":"Alamosa River","source_name":"Alamosa River","state":"CO","atlas_class":"named_natural_stream_detail","huc8":"13010002","huc8Name":"Alamosa-Trinchera","lineageKey":"rioGrande","lineage":"rioGrande","historic":"rioGrande","current":"rioGrande","recovery":"recoveryWatch","lineageLabel":"Rio Grande lineage","atlas_context":"cutthroat_lineage_context"}}]}