{"type":"FeatureCollection","metadata":{"source":"C:\\ct-atlas-data\\processed\\geojson\\interpreted\\colorado_named_natural_streams_complete_v1.geojson","type":"colorado-natural-stream-detail-tile-v2","tile_size_degrees":0.2,"x":-515,"y":194,"bounds":{"west":-103,"south":38.8,"east":-102.8,"north":39}},"features":[{"type":"Feature","geometry":{"type":"LineString","coordinates":[[-102.9295,38.8613],[-102.9302,38.8594]]},"properties":{"name":"Wild Horse Creek","display_name":"Wild Horse Creek","source_name":"Wild Horse Creek","state":"CO","atlas_class":"named_natural_stream_detail","huc8":"11020011","huc8Name":"Big Sandy","lineageKey":"statewideContext","lineage":"statewideContext","historic":"statewideContext","current":"statewideContext","recovery":"statewideContext","lineageLabel":"Statewide Colorado hydrography context","atlas_context":"statewide_hydrography_context"}},{"type":"Feature","geometry":{"type":"LineString","coordinates":[[-102.9288,38.872],[-102.9236,38.871]]},"properties":{"name":"Wild Horse Creek","display_name":"Wild Horse Creek","source_name":"Wild Horse Creek","state":"CO","atlas_class":"named_natural_stream_detail","huc8":"11020011","huc8Name":"Big Sandy","lineageKey":"statewideContext","lineage":"statewideContext","historic":"statewideContext","current":"statewideContext","recovery":"statewideContext","lineageLabel":"Statewide Colorado hydrography context","atlas_context":"statewide_hydrography_context"}},{"type":"Feature","geometry":{"type":"LineString","coordinates":[[-102.9912,38.8187],[-102.986,38.8151]]},"properties":{"name":"Big Sandy Creek","display_name":"Big Sandy Creek","source_name":"Big Sandy Creek","state":"CO","atlas_class":"named_natural_stream_detail","huc8":"11020011","huc8Name":"Big Sandy","lineageKey":"statewideContext","lineage":"statewideContext","historic":"statewideContext","current":"statewideContext","recovery":"statewideContext","lineageLabel":"Statewide Colorado hydrography context","atlas_context":"statewide_hydrography_context"}},{"type":"Feature","geometry":{"type":"LineString","coordinates":[[-102.9937,38.82],[-102.9912,38.8187]]},"properties":{"name":"Big Sandy Creek","display_name":"Big Sandy Creek","source_name":"Big Sandy Creek","state":"CO","atlas_class":"named_natural_stream_detail","huc8":"11020011","huc8Name":"Big Sandy","lineageKey":"statewideContext","lineage":"statewideContext","historic":"statewideContext","current":"statewideContext","recovery":"statewideContext","lineageLabel":"Statewide Colorado hydrography context","atlas_context":"statewide_hydrography_context"}},{"type":"Feature","geometry":{"type":"LineString","coordinates":[[-102.9282,38.8553],[-102.9254,38.8556]]},"properties":{"name":"Wild Horse Creek","display_name":"Wild Horse Creek","source_name":"Wild Horse Creek","state":"CO","atlas_class":"named_natural_stream_detail","huc8":"11020011","huc8Name":"Big Sandy","lineageKey":"statewideContext","lineage":"statewideContext","historic":"statewideContext","current":"statewideContext","recovery":"statewideContext","lineageLabel":"Statewide Colorado hydrography context","atlas_context":"statewide_hydrography_context"}},{"type":"Feature","geometry":{"type":"LineString","coordinates":[[-102.8217,38.961],[-102.8211,38.9604]]},"properties":{"name":"East Fork Big Spring Creek","display_name":"East Fork Big Spring Creek","source_name":"East Fork Big Spring Creek","state":"CO","atlas_class":"named_natural_stream_detail","huc8":"11020011","huc8Name":"Big Sandy","lineageKey":"statewideContext","lineage":"statewideContext","historic":"statewideContext","current":"statewideContext","recovery":"statewideContext","lineageLabel":"Statewide Colorado hydrography context","atlas_context":"statewide_hydrography_context"}},{"type":"Feature","geometry":{"type":"LineString","coordinates":[[-102.8211,38.9604],[-102.8206,38.9589],[-102.8223,38.9576],[-102.8216,38.9568],[-102.8223,38.9561],[-102.8207,38.9541],[-102.8223,38.954],[-102.8226,38.9527],[-102.8219,38.9521],[-102.8237,38.9507],[-102.8228,38.9504],[-102.8224,38.9469],[-102.8246,38.9452],[-102.8239,38.9447],[-102.8242,38.9434],[-102.8257,38.9431]]},"properties":{"name":"East Fork Big Spring Creek","display_name":"East Fork Big Spring Creek","source_name":"East Fork Big Spring Creek","state":"CO","atlas_class":"named_natural_stream_detail","huc8":"11020011","huc8Name":"Big Sandy","lineageKey":"statewideContext","lineage":"statewideContext","historic":"statewideContext","current":"statewideContext","recovery":"statewideContext","lineageLabel":"Statewide Colorado hydrography context","atlas_context":"statewide_hydrography_context"}},{"type":"Feature","geometry":{"type":"LineString","coordinates":[[-102.8212,38.9818],[-102.8211,38.9793],[-102.8224,38.9792]]},"properties":{"name":"East Fork Big Spring Creek","display_name":"East Fork Big Spring Creek","source_name":"East Fork Big Spring Creek","state":"CO","atlas_class":"named_natural_stream_detail","huc8":"11020011","huc8Name":"Big Sandy","lineageKey":"statewideContext","lineage":"statewideContext","historic":"statewideContext","current":"statewideContext","recovery":"statewideContext","lineageLabel":"Statewide Colorado hydrography context","atlas_context":"statewide_hydrography_context"}},{"type":"Feature","geometry":{"type":"LineString","coordinates":[[-102.8257,38.9431],[-102.8283,38.9401],[-102.8273,38.9391],[-102.8292,38.9366],[-102.8283,38.936],[-102.8277,38.9368],[-102.8261,38.9348],[-102.8263,38.9331],[-102.8249,38.932],[-102.8265,38.9293],[-102.8243,38.9273]]},"properties":{"name":"East Fork Big Spring Creek","display_name":"East Fork Big Spring Creek","source_name":"East Fork Big Spring Creek","state":"CO","atlas_class":"named_natural_stream_detail","huc8":"11020011","huc8Name":"Big Sandy","lineageKey":"statewideContext","lineage":"statewideContext","historic":"statewideContext","current":"statewideContext","recovery":"statewideContext","lineageLabel":"Statewide Colorado hydrography context","atlas_context":"statewide_hydrography_context"}},{"type":"Feature","geometry":{"type":"LineString","coordinates":[[-102.9366,38.879],[-102.9313,38.8768],[-102.9313,38.876],[-102.9338,38.8749],[-102.9294,38.8719]]},"properties":{"name":"Wild Horse Creek","display_name":"Wild Horse Creek","source_name":"Wild Horse Creek","state":"CO","atlas_class":"named_natural_stream_detail","huc8":"11020011","huc8Name":"Big Sandy","lineageKey":"statewideContext","lineage":"statewideContext","historic":"statewideContext","current":"statewideContext","recovery":"statewideContext","lineageLabel":"Statewide Colorado hydrography context","atlas_context":"statewide_hydrography_context"}},{"type":"Feature","geometry":{"type":"LineString","coordinates":[[-102.8738,38.8201],[-102.8736,38.8168],[-102.8765,38.8159],[-102.8788,38.8171],[-102.8792,38.8161],[-102.8763,38.8121],[-102.8769,38.8101],[-102.8742,38.8094],[-102.8739,38.8072],[-102.8652,38.8052],[-102.8623,38.8035],[-102.8609,38.8021],[-102.861,38.7977],[-102.8602,38.7959],[-102.8574,38.7974],[-102.8561,38.7997],[-102.8539,38.7986],[-102.8522,38.7956],[-102.8479,38.7949],[-102.8455,38.793],[-102.8421,38.7922],[-102.8417,38.7909],[-102.8432,38.7889],[-102.843,38.788],[-102.8406,38.7864],[-102.8372,38.7861],[-102.836,38.7839],[-102.8331,38.7874],[-102.8314,38.7876],[-102.8311,38.7862],[-102.8288,38.7864],[-102.8269,38.7842],[-102.8239,38.7837],[-102.8219,38.7811],[-102.8186,38.7814],[-102.8118,38.777],[-102.8111,38.7778],[-102.8094,38.7777],[-102.8057,38.7727],[-102.8058,38.7687],[-102.8036,38.7687],[-102.8006,38.7654],[-102.7982,38.7655],[-102.799,38.7669],[-102.7985,38.7672],[-102.7946,38.7633],[-102.795,38.7613],[-102.7931,38.7591],[-102.7955,38.7572],[-102.7935,38.7545],[-102.7942,38.7541],[-102.7951,38.7552],[-102.7968,38.7554]]},"properties":{"name":"Wild Horse Creek","display_name":"Wild Horse Creek","source_name":"Wild Horse Creek","state":"CO","atlas_class":"named_natural_stream_detail","huc8":"11020011","huc8Name":"Big Sandy","lineageKey":"statewideContext","lineage":"statewideContext","historic":"statewideContext","current":"statewideContext","recovery":"statewideContext","lineageLabel":"Statewide Colorado hydrography context","atlas_context":"statewide_hydrography_context"}},{"type":"Feature","geometry":{"type":"LineString","coordinates":[[-102.9049,38.8489],[-102.9006,38.8431],[-102.8988,38.843]]},"properties":{"name":"Wild Horse Creek","display_name":"Wild Horse Creek","source_name":"Wild Horse Creek","state":"CO","atlas_class":"named_natural_stream_detail","huc8":"11020011","huc8Name":"Big Sandy","lineageKey":"statewideContext","lineage":"statewideContext","historic":"statewideContext","current":"statewideContext","recovery":"statewideContext","lineageLabel":"Statewide Colorado hydrography context","atlas_context":"statewide_hydrography_context"}},{"type":"Feature","geometry":{"type":"LineString","coordinates":[[-102.8442,38.9628],[-102.8433,38.9589]]},"properties":{"name":"Middle Fork Big Spring Creek","display_name":"Middle Fork Big Spring Creek","source_name":"Middle Fork Big Spring Creek","state":"CO","atlas_class":"named_natural_stream_detail","huc8":"11020011","huc8Name":"Big Sandy","lineageKey":"statewideContext","lineage":"statewideContext","historic":"statewideContext","current":"statewideContext","recovery":"statewideContext","lineageLabel":"Statewide Colorado hydrography context","atlas_context":"statewide_hydrography_context"}},{"type":"Feature","geometry":{"type":"LineString","coordinates":[[-102.8463,38.9734],[-102.8456,38.9682]]},"properties":{"name":"Middle Fork Big Spring Creek","display_name":"Middle Fork Big Spring Creek","source_name":"Middle Fork Big Spring Creek","state":"CO","atlas_class":"named_natural_stream_detail","huc8":"11020011","huc8Name":"Big Sandy","lineageKey":"statewideContext","lineage":"statewideContext","historic":"statewideContext","current":"statewideContext","recovery":"statewideContext","lineageLabel":"Statewide Colorado hydrography context","atlas_context":"statewide_hydrography_context"}},{"type":"Feature","geometry":{"type":"LineString","coordinates":[[-102.9881,38.995],[-102.9892,38.993],[-102.9881,38.9926],[-102.9895,38.9903],[-102.9878,38.9892],[-102.9866,38.9869],[-102.9875,38.9867],[-102.9874,38.9857],[-102.9851,38.983],[-102.9861,38.9799],[-102.9854,38.9787],[-102.9883,38.9779],[-102.986,38.977],[-102.9855,38.9722],[-102.9863,38.9713],[-102.9869,38.9657],[-102.9887,38.9635]]},"properties":{"name":"Pass Creek","display_name":"Pass Creek","source_name":"Pass Creek","state":"CO","atlas_class":"named_natural_stream_detail","huc8":"11020011","huc8Name":"Big Sandy","lineageKey":"statewideContext","lineage":"statewideContext","historic":"statewideContext","current":"statewideContext","recovery":"statewideContext","lineageLabel":"Statewide Colorado hydrography context","atlas_context":"statewide_hydrography_context"}},{"type":"Feature","geometry":{"type":"LineString","coordinates":[[-102.9153,38.8535],[-102.9096,38.8531],[-102.9088,38.8523],[-102.9091,38.8509],[-102.9066,38.8504]]},"properties":{"name":"Wild Horse Creek","display_name":"Wild Horse Creek","source_name":"Wild Horse Creek","state":"CO","atlas_class":"named_natural_stream_detail","huc8":"11020011","huc8Name":"Big Sandy","lineageKey":"statewideContext","lineage":"statewideContext","historic":"statewideContext","current":"statewideContext","recovery":"statewideContext","lineageLabel":"Statewide Colorado hydrography context","atlas_context":"statewide_hydrography_context"}},{"type":"Feature","geometry":{"type":"LineString","coordinates":[[-102.8243,38.9273],[-102.8211,38.9292],[-102.82,38.9289],[-102.8188,38.9253],[-102.8162,38.922],[-102.8135,38.9221],[-102.8104,38.9208],[-102.8098,38.9197]]},"properties":{"name":"Big Spring Creek","display_name":"Big Spring Creek","source_name":"Big Spring Creek","state":"CO","atlas_class":"named_natural_stream_detail","huc8":"11020011","huc8Name":"Big Sandy","lineageKey":"statewideContext","lineage":"statewideContext","historic":"statewideContext","current":"statewideContext","recovery":"statewideContext","lineageLabel":"Statewide Colorado hydrography context","atlas_context":"statewide_hydrography_context"}},{"type":"Feature","geometry":{"type":"LineString","coordinates":[[-102.8242,38.9718],[-102.8214,38.9675],[-102.8218,38.9646],[-102.8204,38.9639],[-102.8217,38.961]]},"properties":{"name":"East Fork Big Spring Creek","display_name":"East Fork Big Spring Creek","source_name":"East Fork Big Spring Creek","state":"CO","atlas_class":"named_natural_stream_detail","huc8":"11020011","huc8Name":"Big Sandy","lineageKey":"statewideContext","lineage":"statewideContext","historic":"statewideContext","current":"statewideContext","recovery":"statewideContext","lineageLabel":"Statewide Colorado hydrography context","atlas_context":"statewide_hydrography_context"}},{"type":"Feature","geometry":{"type":"LineString","coordinates":[[-102.9236,38.871],[-102.9242,38.8687],[-102.9253,38.8682]]},"properties":{"name":"Wild Horse Creek","display_name":"Wild Horse Creek","source_name":"Wild Horse Creek","state":"CO","atlas_class":"named_natural_stream_detail","huc8":"11020011","huc8Name":"Big Sandy","lineageKey":"statewideContext","lineage":"statewideContext","historic":"statewideContext","current":"statewideContext","recovery":"statewideContext","lineageLabel":"Statewide Colorado hydrography context","atlas_context":"statewide_hydrography_context"}},{"type":"Feature","geometry":{"type":"LineString","coordinates":[[-102.8368,38.9479],[-102.8362,38.9446]]},"properties":{"name":"Middle Fork Big Spring Creek","display_name":"Middle Fork Big Spring Creek","source_name":"Middle Fork Big Spring Creek","state":"CO","atlas_class":"named_natural_stream_detail","huc8":"11020011","huc8Name":"Big Sandy","lineageKey":"statewideContext","lineage":"statewideContext","historic":"statewideContext","current":"statewideContext","recovery":"statewideContext","lineageLabel":"Statewide Colorado hydrography context","atlas_context":"statewide_hydrography_context"}},{"type":"Feature","geometry":{"type":"LineString","coordinates":[[-102.969,38.9024],[-102.9709,38.8999],[-102.9732,38.8998],[-102.9757,38.901],[-102.9741,38.8971],[-102.9721,38.8966],[-102.9679,38.8973],[-102.962,38.8923],[-102.958,38.8944],[-102.9579,38.8967]]},"properties":{"name":"Wild Horse Creek","display_name":"Wild Horse Creek","source_name":"Wild Horse Creek","state":"CO","atlas_class":"named_natural_stream_detail","huc8":"11020011","huc8Name":"Big Sandy","lineageKey":"statewideContext","lineage":"statewideContext","historic":"statewideContext","current":"statewideContext","recovery":"statewideContext","lineageLabel":"Statewide Colorado hydrography context","atlas_context":"statewide_hydrography_context"}},{"type":"Feature","geometry":{"type":"LineString","coordinates":[[-102.8808,38.9845],[-102.8774,38.9785],[-102.8793,38.9747],[-102.8774,38.9707],[-102.8785,38.9676],[-102.8754,38.9645],[-102.8728,38.9581]]},"properties":{"name":"Big Spring Creek","display_name":"Big Spring Creek","source_name":"Big Spring Creek","state":"CO","atlas_class":"named_natural_stream_detail","huc8":"11020011","huc8Name":"Big Sandy","lineageKey":"statewideContext","lineage":"statewideContext","historic":"statewideContext","current":"statewideContext","recovery":"statewideContext","lineageLabel":"Statewide Colorado hydrography context","atlas_context":"statewide_hydrography_context"}},{"type":"Feature","geometry":{"type":"LineString","coordinates":[[-102.8884,39.0032],[-102.8887,39.0014],[-102.8873,38.9993],[-102.8889,38.9985],[-102.8902,38.9965]]},"properties":{"name":"Big Spring Creek","display_name":"Big Spring Creek","source_name":"Big Spring Creek","state":"CO","atlas_class":"named_natural_stream_detail","huc8":"11020011","huc8Name":"Big Sandy","lineageKey":"statewideContext","lineage":"statewideContext","historic":"statewideContext","current":"statewideContext","recovery":"statewideContext","lineageLabel":"Statewide Colorado hydrography context","atlas_context":"statewide_hydrography_context"}},{"type":"Feature","geometry":{"type":"LineString","coordinates":[[-102.9579,38.8967],[-102.9569,38.8975],[-102.9556,38.8967],[-102.9565,38.8934],[-102.9553,38.8922],[-102.9516,38.8908],[-102.9493,38.8924],[-102.9471,38.8913],[-102.9471,38.8901],[-102.9501,38.89],[-102.9503,38.8888],[-102.9437,38.8848],[-102.9417,38.8818]]},"properties":{"name":"Wild Horse Creek","display_name":"Wild Horse Creek","source_name":"Wild Horse Creek","state":"CO","atlas_class":"named_natural_stream_detail","huc8":"11020011","huc8Name":"Big Sandy","lineageKey":"statewideContext","lineage":"statewideContext","historic":"statewideContext","current":"statewideContext","recovery":"statewideContext","lineageLabel":"Statewide Colorado hydrography context","atlas_context":"statewide_hydrography_context"}},{"type":"Feature","geometry":{"type":"LineString","coordinates":[[-102.9855,38.8146],[-102.984,38.8129]]},"properties":{"name":"Big Sandy Creek","display_name":"Big Sandy Creek","source_name":"Big Sandy Creek","state":"CO","atlas_class":"named_natural_stream_detail","huc8":"11020011","huc8Name":"Big Sandy","lineageKey":"statewideContext","lineage":"statewideContext","historic":"statewideContext","current":"statewideContext","recovery":"statewideContext","lineageLabel":"Statewide Colorado hydrography context","atlas_context":"statewide_hydrography_context"}},{"type":"Feature","geometry":{"type":"LineString","coordinates":[[-102.984,38.8129],[-102.9814,38.8101]]},"properties":{"name":"Big Sandy Creek","display_name":"Big Sandy Creek","source_name":"Big Sandy Creek","state":"CO","atlas_class":"named_natural_stream_detail","huc8":"11020011","huc8Name":"Big Sandy","lineageKey":"statewideContext","lineage":"statewideContext","historic":"statewideContext","current":"statewideContext","recovery":"statewideContext","lineageLabel":"Statewide Colorado hydrography context","atlas_context":"statewide_hydrography_context"}},{"type":"Feature","geometry":{"type":"LineString","coordinates":[[-103.0086,38.9101],[-103.0077,38.9104],[-103.0058,38.9085],[-103.0044,38.9097],[-103.0027,38.909],[-103.0021,38.9099],[-103.0005,38.9097],[-102.9976,38.9069],[-102.9971,38.9086],[-102.995,38.9085],[-102.9939,38.9061],[-102.991,38.908],[-102.9883,38.9085],[-102.9845,38.9052],[-102.9849,38.9064],[-102.9829,38.9072],[-102.9848,38.9089],[-102.9811,38.9092],[-102.9778,38.9039],[-102.9759,38.9047],[-102.977,38.9058],[-102.9762,38.907]]},"properties":{"name":"Wild Horse Creek","display_name":"Wild Horse Creek","source_name":"Wild Horse Creek","state":"CO","atlas_class":"named_natural_stream_detail","huc8":"11020011","huc8Name":"Big Sandy","lineageKey":"statewideContext","lineage":"statewideContext","historic":"statewideContext","current":"statewideContext","recovery":"statewideContext","lineageLabel":"Statewide Colorado hydrography context","atlas_context":"statewide_hydrography_context"}},{"type":"Feature","geometry":{"type":"LineString","coordinates":[[-102.9244,38.855],[-102.9234,38.854]]},"properties":{"name":"Wild Horse Creek","display_name":"Wild Horse Creek","source_name":"Wild Horse Creek","state":"CO","atlas_class":"named_natural_stream_detail","huc8":"11020011","huc8Name":"Big Sandy","lineageKey":"statewideContext","lineage":"statewideContext","historic":"statewideContext","current":"statewideContext","recovery":"statewideContext","lineageLabel":"Statewide Colorado hydrography context","atlas_context":"statewide_hydrography_context"}},{"type":"Feature","geometry":{"type":"LineString","coordinates":[[-103.0129,38.9722],[-103.0081,38.9595],[-103.0056,38.9574],[-103.0062,38.9551],[-103.0034,38.9523],[-103.0013,38.9525],[-102.9989,38.9504],[-102.9995,38.9454],[-102.9966,38.9388],[-102.9983,38.9358]]},"properties":{"name":"Bellyache Creek","display_name":"Bellyache Creek","source_name":"Bellyache Creek","state":"CO","atlas_class":"named_natural_stream_detail","huc8":"11020011","huc8Name":"Big Sandy","lineageKey":"statewideContext","lineage":"statewideContext","historic":"statewideContext","current":"statewideContext","recovery":"statewideContext","lineageLabel":"Statewide Colorado hydrography context","atlas_context":"statewide_hydrography_context"}},{"type":"Feature","geometry":{"type":"LineString","coordinates":[[-102.9407,38.8836],[-102.9388,38.885],[-102.9369,38.8844],[-102.9387,38.8803],[-102.9375,38.8791]]},"properties":{"name":"Wild Horse Creek","display_name":"Wild Horse Creek","source_name":"Wild Horse Creek","state":"CO","atlas_class":"named_natural_stream_detail","huc8":"11020011","huc8Name":"Big Sandy","lineageKey":"statewideContext","lineage":"statewideContext","historic":"statewideContext","current":"statewideContext","recovery":"statewideContext","lineageLabel":"Statewide Colorado hydrography context","atlas_context":"statewide_hydrography_context"}},{"type":"Feature","geometry":{"type":"LineString","coordinates":[[-102.8988,38.843],[-102.8956,38.841],[-102.8964,38.836]]},"properties":{"name":"Wild Horse Creek","display_name":"Wild Horse Creek","source_name":"Wild Horse Creek","state":"CO","atlas_class":"named_natural_stream_detail","huc8":"11020011","huc8Name":"Big Sandy","lineageKey":"statewideContext","lineage":"statewideContext","historic":"statewideContext","current":"statewideContext","recovery":"statewideContext","lineageLabel":"Statewide Colorado hydrography context","atlas_context":"statewide_hydrography_context"}},{"type":"Feature","geometry":{"type":"LineString","coordinates":[[-102.9981,38.9354],[-102.997,38.9348]]},"properties":{"name":"Bellyache Creek","display_name":"Bellyache Creek","source_name":"Bellyache Creek","state":"CO","atlas_class":"named_natural_stream_detail","huc8":"11020011","huc8Name":"Big Sandy","lineageKey":"statewideContext","lineage":"statewideContext","historic":"statewideContext","current":"statewideContext","recovery":"statewideContext","lineageLabel":"Statewide Colorado hydrography context","atlas_context":"statewide_hydrography_context"}},{"type":"Feature","geometry":{"type":"LineString","coordinates":[[-102.9227,38.8539],[-102.9206,38.8529],[-102.9153,38.8535]]},"properties":{"name":"Wild Horse Creek","display_name":"Wild Horse Creek","source_name":"Wild Horse Creek","state":"CO","atlas_class":"named_natural_stream_detail","huc8":"11020011","huc8Name":"Big Sandy","lineageKey":"statewideContext","lineage":"statewideContext","historic":"statewideContext","current":"statewideContext","recovery":"statewideContext","lineageLabel":"Statewide Colorado hydrography context","atlas_context":"statewide_hydrography_context"}},{"type":"Feature","geometry":{"type":"LineString","coordinates":[[-102.8463,38.9753],[-102.8463,38.9734]]},"properties":{"name":"Middle Fork Big Spring Creek","display_name":"Middle Fork Big Spring Creek","source_name":"Middle Fork Big Spring Creek","state":"CO","atlas_class":"named_natural_stream_detail","huc8":"11020011","huc8Name":"Big Sandy","lineageKey":"statewideContext","lineage":"statewideContext","historic":"statewideContext","current":"statewideContext","recovery":"statewideContext","lineageLabel":"Statewide Colorado hydrography context","atlas_context":"statewide_hydrography_context"}},{"type":"Feature","geometry":{"type":"LineString","coordinates":[[-102.9803,38.8092],[-102.9793,38.8082]]},"properties":{"name":"Big Sandy Creek","display_name":"Big Sandy Creek","source_name":"Big Sandy Creek","state":"CO","atlas_class":"named_natural_stream_detail","huc8":"11020011","huc8Name":"Big Sandy","lineageKey":"statewideContext","lineage":"statewideContext","historic":"statewideContext","current":"statewideContext","recovery":"statewideContext","lineageLabel":"Statewide Colorado hydrography context","atlas_context":"statewide_hydrography_context"}},{"type":"Feature","geometry":{"type":"LineString","coordinates":[[-102.9915,38.9319],[-102.9882,38.928],[-102.9858,38.9286],[-102.9834,38.9273],[-102.9815,38.9281]]},"properties":{"name":"Bellyache Creek","display_name":"Bellyache Creek","source_name":"Bellyache Creek","state":"CO","atlas_class":"named_natural_stream_detail","huc8":"11020011","huc8Name":"Big Sandy","lineageKey":"statewideContext","lineage":"statewideContext","historic":"statewideContext","current":"statewideContext","recovery":"statewideContext","lineageLabel":"Statewide Colorado hydrography context","atlas_context":"statewide_hydrography_context"}},{"type":"Feature","geometry":{"type":"LineString","coordinates":[[-102.8438,38.9669],[-102.8427,38.9658],[-102.8446,38.9637],[-102.8442,38.9628]]},"properties":{"name":"Middle Fork Big Spring Creek","display_name":"Middle Fork Big Spring Creek","source_name":"Middle Fork Big Spring Creek","state":"CO","atlas_class":"named_natural_stream_detail","huc8":"11020011","huc8Name":"Big Sandy","lineageKey":"statewideContext","lineage":"statewideContext","historic":"statewideContext","current":"statewideContext","recovery":"statewideContext","lineageLabel":"Statewide Colorado hydrography context","atlas_context":"statewide_hydrography_context"}},{"type":"Feature","geometry":{"type":"LineString","coordinates":[[-102.9731,38.8016],[-102.9723,38.8014]]},"properties":{"name":"Big Sandy Creek","display_name":"Big Sandy Creek","source_name":"Big Sandy Creek","state":"CO","atlas_class":"named_natural_stream_detail","huc8":"11020011","huc8Name":"Big Sandy","lineageKey":"statewideContext","lineage":"statewideContext","historic":"statewideContext","current":"statewideContext","recovery":"statewideContext","lineageLabel":"Statewide Colorado hydrography context","atlas_context":"statewide_hydrography_context"}},{"type":"Feature","geometry":{"type":"LineString","coordinates":[[-102.8521,38.9434],[-102.8502,38.9426],[-102.8478,38.9389],[-102.8457,38.9375],[-102.8455,38.9364],[-102.8425,38.9366]]},"properties":{"name":"Big Spring Creek","display_name":"Big Spring Creek","source_name":"Big Spring Creek","state":"CO","atlas_class":"named_natural_stream_detail","huc8":"11020011","huc8Name":"Big Sandy","lineageKey":"statewideContext","lineage":"statewideContext","historic":"statewideContext","current":"statewideContext","recovery":"statewideContext","lineageLabel":"Statewide Colorado hydrography context","atlas_context":"statewide_hydrography_context"}},{"type":"Feature","geometry":{"type":"LineString","coordinates":[[-102.8686,38.9527],[-102.8677,38.9507],[-102.8655,38.9505],[-102.862,38.9463]]},"properties":{"name":"Big Spring Creek","display_name":"Big Spring Creek","source_name":"Big Spring Creek","state":"CO","atlas_class":"named_natural_stream_detail","huc8":"11020011","huc8Name":"Big Sandy","lineageKey":"statewideContext","lineage":"statewideContext","historic":"statewideContext","current":"statewideContext","recovery":"statewideContext","lineageLabel":"Statewide Colorado hydrography context","atlas_context":"statewide_hydrography_context"}},{"type":"Feature","geometry":{"type":"LineString","coordinates":[[-102.862,38.9463],[-102.8592,38.944],[-102.8584,38.9452],[-102.8521,38.9434]]},"properties":{"name":"Big Spring Creek","display_name":"Big Spring Creek","source_name":"Big Spring Creek","state":"CO","atlas_class":"named_natural_stream_detail","huc8":"11020011","huc8Name":"Big Sandy","lineageKey":"statewideContext","lineage":"statewideContext","historic":"statewideContext","current":"statewideContext","recovery":"statewideContext","lineageLabel":"Statewide Colorado hydrography context","atlas_context":"statewide_hydrography_context"}},{"type":"Feature","geometry":{"type":"LineString","coordinates":[[-102.9814,38.8101],[-102.9803,38.8092]]},"properties":{"name":"Big Sandy Creek","display_name":"Big Sandy Creek","source_name":"Big Sandy Creek","state":"CO","atlas_class":"named_natural_stream_detail","huc8":"11020011","huc8Name":"Big Sandy","lineageKey":"statewideContext","lineage":"statewideContext","historic":"statewideContext","current":"statewideContext","recovery":"statewideContext","lineageLabel":"Statewide Colorado hydrography context","atlas_context":"statewide_hydrography_context"}},{"type":"Feature","geometry":{"type":"LineString","coordinates":[[-102.8964,38.836],[-102.892,38.8325],[-102.8914,38.8311],[-102.8888,38.8302],[-102.885,38.827],[-102.8819,38.8257],[-102.8789,38.8264],[-102.8749,38.8238],[-102.8738,38.8201]]},"properties":{"name":"Wild Horse Creek","display_name":"Wild Horse Creek","source_name":"Wild Horse Creek","state":"CO","atlas_class":"named_natural_stream_detail","huc8":"11020011","huc8Name":"Big Sandy","lineageKey":"statewideContext","lineage":"statewideContext","historic":"statewideContext","current":"statewideContext","recovery":"statewideContext","lineageLabel":"Statewide Colorado hydrography context","atlas_context":"statewide_hydrography_context"}},{"type":"Feature","geometry":{"type":"LineString","coordinates":[[-102.8498,38.9897],[-102.8499,38.9874],[-102.8464,38.9831],[-102.8479,38.9795]]},"properties":{"name":"Middle Fork Big Spring Creek","display_name":"Middle Fork Big Spring Creek","source_name":"Middle Fork Big Spring Creek","state":"CO","atlas_class":"named_natural_stream_detail","huc8":"11020011","huc8Name":"Big Sandy","lineageKey":"statewideContext","lineage":"statewideContext","historic":"statewideContext","current":"statewideContext","recovery":"statewideContext","lineageLabel":"Statewide Colorado hydrography context","atlas_context":"statewide_hydrography_context"}},{"type":"Feature","geometry":{"type":"LineString","coordinates":[[-102.8338,38.9409],[-102.8335,38.9398],[-102.8357,38.9394],[-102.8359,38.938],[-102.8342,38.9377],[-102.8342,38.9364],[-102.8325,38.9367],[-102.8318,38.9347],[-102.8336,38.9337],[-102.8319,38.9337],[-102.8313,38.9322],[-102.8297,38.9314],[-102.8303,38.9286]]},"properties":{"name":"Middle Fork Big Spring Creek","display_name":"Middle Fork Big Spring Creek","source_name":"Middle Fork Big Spring Creek","state":"CO","atlas_class":"named_natural_stream_detail","huc8":"11020011","huc8Name":"Big Sandy","lineageKey":"statewideContext","lineage":"statewideContext","historic":"statewideContext","current":"statewideContext","recovery":"statewideContext","lineageLabel":"Statewide Colorado hydrography context","atlas_context":"statewide_hydrography_context"}},{"type":"Feature","geometry":{"type":"LineString","coordinates":[[-102.8433,38.9589],[-102.8426,38.9574],[-102.8432,38.9546],[-102.8422,38.9516],[-102.8379,38.95],[-102.8381,38.9481],[-102.8368,38.9479]]},"properties":{"name":"Middle Fork Big Spring Creek","display_name":"Middle Fork Big Spring Creek","source_name":"Middle Fork Big Spring Creek","state":"CO","atlas_class":"named_natural_stream_detail","huc8":"11020011","huc8Name":"Big Sandy","lineageKey":"statewideContext","lineage":"statewideContext","historic":"statewideContext","current":"statewideContext","recovery":"statewideContext","lineageLabel":"Statewide Colorado hydrography context","atlas_context":"statewide_hydrography_context"}},{"type":"Feature","geometry":{"type":"LineString","coordinates":[[-102.9887,38.9635],[-102.9887,38.962],[-102.9875,38.9617],[-102.9871,38.9589],[-102.9853,38.9582],[-102.9853,38.9533],[-102.984,38.9517],[-102.9866,38.9485],[-102.9868,38.9468],[-102.9861,38.9463],[-102.9848,38.9477],[-102.9855,38.9457],[-102.9845,38.9459],[-102.9842,38.9448],[-102.9859,38.9439],[-102.984,38.9421],[-102.9847,38.9397],[-102.9833,38.9377],[-102.9843,38.9371],[-102.9848,38.934],[-102.9835,38.9317],[-102.9838,38.93],[-102.9815,38.9281]]},"properties":{"name":"Pass Creek","display_name":"Pass Creek","source_name":"Pass Creek","state":"CO","atlas_class":"named_natural_stream_detail","huc8":"11020011","huc8Name":"Big Sandy","lineageKey":"statewideContext","lineage":"statewideContext","historic":"statewideContext","current":"statewideContext","recovery":"statewideContext","lineageLabel":"Statewide Colorado hydrography context","atlas_context":"statewide_hydrography_context"}},{"type":"Feature","geometry":{"type":"LineString","coordinates":[[-102.8728,38.9581],[-102.8714,38.9562],[-102.8718,38.9537],[-102.8686,38.9527]]},"properties":{"name":"Big Spring Creek","display_name":"Big Spring Creek","source_name":"Big Spring Creek","state":"CO","atlas_class":"named_natural_stream_detail","huc8":"11020011","huc8Name":"Big Sandy","lineageKey":"statewideContext","lineage":"statewideContext","historic":"statewideContext","current":"statewideContext","recovery":"statewideContext","lineageLabel":"Statewide Colorado hydrography context","atlas_context":"statewide_hydrography_context"}},{"type":"Feature","geometry":{"type":"LineString","coordinates":[[-102.9066,38.8504],[-102.9049,38.8489]]},"properties":{"name":"Wild Horse Creek","display_name":"Wild Horse Creek","source_name":"Wild Horse Creek","state":"CO","atlas_class":"named_natural_stream_detail","huc8":"11020011","huc8Name":"Big Sandy","lineageKey":"statewideContext","lineage":"statewideContext","historic":"statewideContext","current":"statewideContext","recovery":"statewideContext","lineageLabel":"Statewide Colorado hydrography context","atlas_context":"statewide_hydrography_context"}},{"type":"Feature","geometry":{"type":"LineString","coordinates":[[-102.9417,38.8818],[-102.9407,38.8836]]},"properties":{"name":"Wild Horse Creek","display_name":"Wild Horse Creek","source_name":"Wild Horse Creek","state":"CO","atlas_class":"named_natural_stream_detail","huc8":"11020011","huc8Name":"Big Sandy","lineageKey":"statewideContext","lineage":"statewideContext","historic":"statewideContext","current":"statewideContext","recovery":"statewideContext","lineageLabel":"Statewide Colorado hydrography context","atlas_context":"statewide_hydrography_context"}},{"type":"Feature","geometry":{"type":"LineString","coordinates":[[-102.8031,39.0124],[-102.8029,39.0105],[-102.8006,39.0092],[-102.8033,39.0054],[-102.8001,39.0015],[-102.8009,38.9993],[-102.7978,38.9984],[-102.7951,38.9955],[-102.7948,38.9934],[-102.7955,38.9929]]},"properties":{"name":"Little Spring Creek","display_name":"Little Spring Creek","source_name":"Little Spring Creek","state":"CO","atlas_class":"named_natural_stream_detail","huc8":"11020011","huc8Name":"Big Sandy","lineageKey":"statewideContext","lineage":"statewideContext","historic":"statewideContext","current":"statewideContext","recovery":"statewideContext","lineageLabel":"Statewide Colorado hydrography context","atlas_context":"statewide_hydrography_context"}},{"type":"Feature","geometry":{"type":"LineString","coordinates":[[-102.9784,38.8074],[-102.9782,38.8072]]},"properties":{"name":"Big Sandy Creek","display_name":"Big Sandy Creek","source_name":"Big Sandy Creek","state":"CO","atlas_class":"named_natural_stream_detail","huc8":"11020011","huc8Name":"Big Sandy","lineageKey":"statewideContext","lineage":"statewideContext","historic":"statewideContext","current":"statewideContext","recovery":"statewideContext","lineageLabel":"Statewide Colorado hydrography context","atlas_context":"statewide_hydrography_context"}},{"type":"Feature","geometry":{"type":"LineString","coordinates":[[-102.9301,38.8585],[-102.9289,38.8573]]},"properties":{"name":"Wild Horse Creek","display_name":"Wild Horse Creek","source_name":"Wild Horse Creek","state":"CO","atlas_class":"named_natural_stream_detail","huc8":"11020011","huc8Name":"Big Sandy","lineageKey":"statewideContext","lineage":"statewideContext","historic":"statewideContext","current":"statewideContext","recovery":"statewideContext","lineageLabel":"Statewide Colorado hydrography context","atlas_context":"statewide_hydrography_context"}},{"type":"Feature","geometry":{"type":"LineString","coordinates":[[-102.9256,38.8677],[-102.9255,38.8675]]},"properties":{"name":"Wild Horse Creek","display_name":"Wild Horse Creek","source_name":"Wild Horse Creek","state":"CO","atlas_class":"named_natural_stream_detail","huc8":"11020011","huc8Name":"Big Sandy","lineageKey":"statewideContext","lineage":"statewideContext","historic":"statewideContext","current":"statewideContext","recovery":"statewideContext","lineageLabel":"Statewide Colorado hydrography context","atlas_context":"statewide_hydrography_context"}},{"type":"Feature","geometry":{"type":"LineString","coordinates":[[-102.9815,38.9281],[-102.9818,38.9244],[-102.981,38.9224],[-102.9819,38.9196],[-102.9766,38.916],[-102.9774,38.9147],[-102.9786,38.9159],[-102.9799,38.9159],[-102.9791,38.913],[-102.98,38.9098],[-102.9782,38.9077],[-102.9762,38.907]]},"properties":{"name":"Bellyache Creek","display_name":"Bellyache Creek","source_name":"Bellyache Creek","state":"CO","atlas_class":"named_natural_stream_detail","huc8":"11020011","huc8Name":"Big Sandy","lineageKey":"statewideContext","lineage":"statewideContext","historic":"statewideContext","current":"statewideContext","recovery":"statewideContext","lineageLabel":"Statewide Colorado hydrography context","atlas_context":"statewide_hydrography_context"}},{"type":"Feature","geometry":{"type":"LineString","coordinates":[[-102.9762,38.907],[-102.974,38.9079],[-102.9701,38.9068]]},"properties":{"name":"Wild Horse Creek","display_name":"Wild Horse Creek","source_name":"Wild Horse Creek","state":"CO","atlas_class":"named_natural_stream_detail","huc8":"11020011","huc8Name":"Big Sandy","lineageKey":"statewideContext","lineage":"statewideContext","historic":"statewideContext","current":"statewideContext","recovery":"statewideContext","lineageLabel":"Statewide Colorado hydrography context","atlas_context":"statewide_hydrography_context"}},{"type":"Feature","geometry":{"type":"LineString","coordinates":[[-102.8902,38.9965],[-102.8852,38.9934]]},"properties":{"name":"Big Spring Creek","display_name":"Big Spring Creek","source_name":"Big Spring Creek","state":"CO","atlas_class":"named_natural_stream_detail","huc8":"11020011","huc8Name":"Big Sandy","lineageKey":"statewideContext","lineage":"statewideContext","historic":"statewideContext","current":"statewideContext","recovery":"statewideContext","lineageLabel":"Statewide Colorado hydrography context","atlas_context":"statewide_hydrography_context"}},{"type":"Feature","geometry":{"type":"LineString","coordinates":[[-102.995,38.8197],[-102.9937,38.82]]},"properties":{"name":"Big Sandy Creek","display_name":"Big Sandy Creek","source_name":"Big Sandy Creek","state":"CO","atlas_class":"named_natural_stream_detail","huc8":"11020011","huc8Name":"Big Sandy","lineageKey":"statewideContext","lineage":"statewideContext","historic":"statewideContext","current":"statewideContext","recovery":"statewideContext","lineageLabel":"Statewide Colorado hydrography context","atlas_context":"statewide_hydrography_context"}},{"type":"Feature","geometry":{"type":"LineString","coordinates":[[-102.8246,38.9754],[-102.8245,38.9723]]},"properties":{"name":"East Fork Big Spring Creek","display_name":"East Fork Big Spring Creek","source_name":"East Fork Big Spring Creek","state":"CO","atlas_class":"named_natural_stream_detail","huc8":"11020011","huc8Name":"Big Sandy","lineageKey":"statewideContext","lineage":"statewideContext","historic":"statewideContext","current":"statewideContext","recovery":"statewideContext","lineageLabel":"Statewide Colorado hydrography context","atlas_context":"statewide_hydrography_context"}},{"type":"Feature","geometry":{"type":"LineString","coordinates":[[-102.8224,38.9792],[-102.8246,38.9754]]},"properties":{"name":"East Fork Big Spring Creek","display_name":"East Fork Big Spring Creek","source_name":"East Fork Big Spring Creek","state":"CO","atlas_class":"named_natural_stream_detail","huc8":"11020011","huc8Name":"Big Sandy","lineageKey":"statewideContext","lineage":"statewideContext","historic":"statewideContext","current":"statewideContext","recovery":"statewideContext","lineageLabel":"Statewide Colorado hydrography context","atlas_context":"statewide_hydrography_context"}},{"type":"Feature","geometry":{"type":"LineString","coordinates":[[-102.8243,39.0117],[-102.8239,39.0105],[-102.8263,39.0059],[-102.8222,39.0026],[-102.8221,38.9975],[-102.8204,38.9964],[-102.8209,38.9953],[-102.8186,38.9939],[-102.82,38.993],[-102.8185,38.9919],[-102.8181,38.9891],[-102.8197,38.9886],[-102.8197,38.9876],[-102.8178,38.986]]},"properties":{"name":"East Fork Big Spring Creek","display_name":"East Fork Big Spring Creek","source_name":"East Fork Big Spring Creek","state":"CO","atlas_class":"named_natural_stream_detail","huc8":"11020011","huc8Name":"Big Sandy","lineageKey":"statewideContext","lineage":"statewideContext","historic":"statewideContext","current":"statewideContext","recovery":"statewideContext","lineageLabel":"Statewide Colorado hydrography context","atlas_context":"statewide_hydrography_context"}},{"type":"Feature","geometry":{"type":"LineString","coordinates":[[-102.8303,38.9286],[-102.8266,38.927],[-102.8243,38.9273]]},"properties":{"name":"Big Spring Creek","display_name":"Big Spring Creek","source_name":"Big Spring Creek","state":"CO","atlas_class":"named_natural_stream_detail","huc8":"11020011","huc8Name":"Big Sandy","lineageKey":"statewideContext","lineage":"statewideContext","historic":"statewideContext","current":"statewideContext","recovery":"statewideContext","lineageLabel":"Statewide Colorado hydrography context","atlas_context":"statewide_hydrography_context"}},{"type":"Feature","geometry":{"type":"LineString","coordinates":[[-102.8456,38.9682],[-102.8438,38.9669]]},"properties":{"name":"Middle Fork Big Spring Creek","display_name":"Middle Fork Big Spring Creek","source_name":"Middle Fork Big Spring Creek","state":"CO","atlas_class":"named_natural_stream_detail","huc8":"11020011","huc8Name":"Big Sandy","lineageKey":"statewideContext","lineage":"statewideContext","historic":"statewideContext","current":"statewideContext","recovery":"statewideContext","lineageLabel":"Statewide Colorado hydrography context","atlas_context":"statewide_hydrography_context"}},{"type":"Feature","geometry":{"type":"LineString","coordinates":[[-102.9699,38.9062],[-102.969,38.9024]]},"properties":{"name":"Wild Horse Creek","display_name":"Wild Horse Creek","source_name":"Wild Horse Creek","state":"CO","atlas_class":"named_natural_stream_detail","huc8":"11020011","huc8Name":"Big Sandy","lineageKey":"statewideContext","lineage":"statewideContext","historic":"statewideContext","current":"statewideContext","recovery":"statewideContext","lineageLabel":"Statewide Colorado hydrography context","atlas_context":"statewide_hydrography_context"}},{"type":"Feature","geometry":{"type":"LineString","coordinates":[[-102.8845,38.9928],[-102.8812,38.9897],[-102.8819,38.9868],[-102.8808,38.9845]]},"properties":{"name":"Big Spring Creek","display_name":"Big Spring Creek","source_name":"Big Spring Creek","state":"CO","atlas_class":"named_natural_stream_detail","huc8":"11020011","huc8Name":"Big Sandy","lineageKey":"statewideContext","lineage":"statewideContext","historic":"statewideContext","current":"statewideContext","recovery":"statewideContext","lineageLabel":"Statewide Colorado hydrography context","atlas_context":"statewide_hydrography_context"}},{"type":"Feature","geometry":{"type":"LineString","coordinates":[[-102.8098,38.9197],[-102.8079,38.9174],[-102.8056,38.9171],[-102.8021,38.9151]]},"properties":{"name":"Big Spring Creek","display_name":"Big Spring Creek","source_name":"Big Spring Creek","state":"CO","atlas_class":"named_natural_stream_detail","huc8":"11020011","huc8Name":"Big Sandy","lineageKey":"statewideContext","lineage":"statewideContext","historic":"statewideContext","current":"statewideContext","recovery":"statewideContext","lineageLabel":"Statewide Colorado hydrography context","atlas_context":"statewide_hydrography_context"}},{"type":"Feature","geometry":{"type":"LineString","coordinates":[[-102.8178,38.986],[-102.8198,38.984],[-102.8195,38.982],[-102.821,38.982]]},"properties":{"name":"East Fork Big Spring Creek","display_name":"East Fork Big Spring Creek","source_name":"East Fork Big Spring Creek","state":"CO","atlas_class":"named_natural_stream_detail","huc8":"11020011","huc8Name":"Big Sandy","lineageKey":"statewideContext","lineage":"statewideContext","historic":"statewideContext","current":"statewideContext","recovery":"statewideContext","lineageLabel":"Statewide Colorado hydrography context","atlas_context":"statewide_hydrography_context"}},{"type":"Feature","geometry":{"type":"LineString","coordinates":[[-102.8021,38.9151],[-102.8015,38.9127],[-102.7977,38.9071]]},"properties":{"name":"Big Spring Creek","display_name":"Big Spring Creek","source_name":"Big Spring Creek","state":"CO","atlas_class":"named_natural_stream_detail","huc8":"11020011","huc8Name":"Big Sandy","lineageKey":"statewideContext","lineage":"statewideContext","historic":"statewideContext","current":"statewideContext","recovery":"statewideContext","lineageLabel":"Statewide Colorado hydrography context","atlas_context":"statewide_hydrography_context"}},{"type":"Feature","geometry":{"type":"LineString","coordinates":[[-102.8512,39.0001],[-102.849,38.9996]]},"properties":{"name":"Middle Fork Big Spring Creek","display_name":"Middle Fork Big Spring Creek","source_name":"Middle Fork Big Spring Creek","state":"CO","atlas_class":"named_natural_stream_detail","huc8":"11020011","huc8Name":"Big Sandy","lineageKey":"statewideContext","lineage":"statewideContext","historic":"statewideContext","current":"statewideContext","recovery":"statewideContext","lineageLabel":"Statewide Colorado hydrography context","atlas_context":"statewide_hydrography_context"}},{"type":"Feature","geometry":{"type":"LineString","coordinates":[[-102.9289,38.8567],[-102.929,38.8558]]},"properties":{"name":"Wild Horse Creek","display_name":"Wild Horse Creek","source_name":"Wild Horse Creek","state":"CO","atlas_class":"named_natural_stream_detail","huc8":"11020011","huc8Name":"Big Sandy","lineageKey":"statewideContext","lineage":"statewideContext","historic":"statewideContext","current":"statewideContext","recovery":"statewideContext","lineageLabel":"Statewide Colorado hydrography context","atlas_context":"statewide_hydrography_context"}},{"type":"Feature","geometry":{"type":"LineString","coordinates":[[-102.9749,38.8023],[-102.9731,38.8016]]},"properties":{"name":"Big Sandy Creek","display_name":"Big Sandy Creek","source_name":"Big Sandy Creek","state":"CO","atlas_class":"named_natural_stream_detail","huc8":"11020011","huc8Name":"Big Sandy","lineageKey":"statewideContext","lineage":"statewideContext","historic":"statewideContext","current":"statewideContext","recovery":"statewideContext","lineageLabel":"Statewide Colorado hydrography context","atlas_context":"statewide_hydrography_context"}},{"type":"Feature","geometry":{"type":"LineString","coordinates":[[-102.9723,38.8014],[-102.9707,38.7999]]},"properties":{"name":"Big Sandy Creek","display_name":"Big Sandy Creek","source_name":"Big Sandy Creek","state":"CO","atlas_class":"named_natural_stream_detail","huc8":"11020011","huc8Name":"Big Sandy","lineageKey":"statewideContext","lineage":"statewideContext","historic":"statewideContext","current":"statewideContext","recovery":"statewideContext","lineageLabel":"Statewide Colorado hydrography context","atlas_context":"statewide_hydrography_context"}},{"type":"Feature","geometry":{"type":"LineString","coordinates":[[-102.8425,38.9366],[-102.8423,38.9342],[-102.8404,38.9345],[-102.8387,38.933],[-102.837,38.9337],[-102.8358,38.9311],[-102.8342,38.9309],[-102.8331,38.929],[-102.8303,38.9286]]},"properties":{"name":"Big Spring Creek","display_name":"Big Spring Creek","source_name":"Big Spring Creek","state":"CO","atlas_class":"named_natural_stream_detail","huc8":"11020011","huc8Name":"Big Sandy","lineageKey":"statewideContext","lineage":"statewideContext","historic":"statewideContext","current":"statewideContext","recovery":"statewideContext","lineageLabel":"Statewide Colorado hydrography context","atlas_context":"statewide_hydrography_context"}},{"type":"Feature","geometry":{"type":"LineString","coordinates":[[-102.9782,38.8072],[-102.9774,38.8052]]},"properties":{"name":"Big Sandy Creek","display_name":"Big Sandy Creek","source_name":"Big Sandy Creek","state":"CO","atlas_class":"named_natural_stream_detail","huc8":"11020011","huc8Name":"Big Sandy","lineageKey":"statewideContext","lineage":"statewideContext","historic":"statewideContext","current":"statewideContext","recovery":"statewideContext","lineageLabel":"Statewide Colorado hydrography context","atlas_context":"statewide_hydrography_context"}},{"type":"Feature","geometry":{"type":"LineString","coordinates":[[-102.9966,38.9348],[-102.9921,38.9322]]},"properties":{"name":"Bellyache Creek","display_name":"Bellyache Creek","source_name":"Bellyache Creek","state":"CO","atlas_class":"named_natural_stream_detail","huc8":"11020011","huc8Name":"Big Sandy","lineageKey":"statewideContext","lineage":"statewideContext","historic":"statewideContext","current":"statewideContext","recovery":"statewideContext","lineageLabel":"Statewide Colorado hydrography context","atlas_context":"statewide_hydrography_context"}},{"type":"Feature","geometry":{"type":"LineString","coordinates":[[-102.9846,39.0051],[-102.9838,39.0037],[-102.9854,39.0027],[-102.9847,38.9993],[-102.9856,38.9978],[-102.9869,38.9987],[-102.9881,38.9973]]},"properties":{"name":"Pass Creek","display_name":"Pass Creek","source_name":"Pass Creek","state":"CO","atlas_class":"named_natural_stream_detail","huc8":"11020011","huc8Name":"Big Sandy","lineageKey":"statewideContext","lineage":"statewideContext","historic":"statewideContext","current":"statewideContext","recovery":"statewideContext","lineageLabel":"Statewide Colorado hydrography context","atlas_context":"statewide_hydrography_context"}},{"type":"Feature","geometry":{"type":"LineString","coordinates":[[-102.849,38.9996],[-102.849,38.9968],[-102.8473,38.9949],[-102.8477,38.9927],[-102.8496,38.992],[-102.8491,38.9908],[-102.8498,38.9897]]},"properties":{"name":"Middle Fork Big Spring Creek","display_name":"Middle Fork Big Spring Creek","source_name":"Middle Fork Big Spring Creek","state":"CO","atlas_class":"named_natural_stream_detail","huc8":"11020011","huc8Name":"Big Sandy","lineageKey":"statewideContext","lineage":"statewideContext","historic":"statewideContext","current":"statewideContext","recovery":"statewideContext","lineageLabel":"Statewide Colorado hydrography context","atlas_context":"statewide_hydrography_context"}},{"type":"Feature","geometry":{"type":"LineString","coordinates":[[-102.9282,38.8666],[-102.9294,38.8622]]},"properties":{"name":"Wild Horse Creek","display_name":"Wild Horse Creek","source_name":"Wild Horse Creek","state":"CO","atlas_class":"named_natural_stream_detail","huc8":"11020011","huc8Name":"Big Sandy","lineageKey":"statewideContext","lineage":"statewideContext","historic":"statewideContext","current":"statewideContext","recovery":"statewideContext","lineageLabel":"Statewide Colorado hydrography context","atlas_context":"statewide_hydrography_context"}},{"type":"Feature","geometry":{"type":"LineString","coordinates":[[-102.8359,38.9441],[-102.8363,38.9419],[-102.8342,38.9413]]},"properties":{"name":"Middle Fork Big Spring Creek","display_name":"Middle Fork Big Spring Creek","source_name":"Middle Fork Big Spring Creek","state":"CO","atlas_class":"named_natural_stream_detail","huc8":"11020011","huc8Name":"Big Sandy","lineageKey":"statewideContext","lineage":"statewideContext","historic":"statewideContext","current":"statewideContext","recovery":"statewideContext","lineageLabel":"Statewide Colorado hydrography context","atlas_context":"statewide_hydrography_context"}},{"type":"Feature","geometry":{"type":"LineString","coordinates":[[-102.8479,38.9795],[-102.8463,38.9753]]},"properties":{"name":"Middle Fork Big Spring Creek","display_name":"Middle Fork Big Spring Creek","source_name":"Middle Fork Big Spring Creek","state":"CO","atlas_class":"named_natural_stream_detail","huc8":"11020011","huc8Name":"Big Sandy","lineageKey":"statewideContext","lineage":"statewideContext","historic":"statewideContext","current":"statewideContext","recovery":"statewideContext","lineageLabel":"Statewide Colorado hydrography context","atlas_context":"statewide_hydrography_context"}},{"type":"Feature","geometry":{"type":"LineString","coordinates":[[-102.986,38.8151],[-102.9855,38.8146]]},"properties":{"name":"Big Sandy Creek","display_name":"Big Sandy Creek","source_name":"Big Sandy Creek","state":"CO","atlas_class":"named_natural_stream_detail","huc8":"11020011","huc8Name":"Big Sandy","lineageKey":"statewideContext","lineage":"statewideContext","historic":"statewideContext","current":"statewideContext","recovery":"statewideContext","lineageLabel":"Statewide Colorado hydrography context","atlas_context":"statewide_hydrography_context"}},{"type":"Feature","geometry":{"type":"LineString","coordinates":[[-102.979,38.808],[-102.9784,38.8074]]},"properties":{"name":"Big Sandy Creek","display_name":"Big Sandy Creek","source_name":"Big Sandy Creek","state":"CO","atlas_class":"named_natural_stream_detail","huc8":"11020011","huc8Name":"Big Sandy","lineageKey":"statewideContext","lineage":"statewideContext","historic":"statewideContext","current":"statewideContext","recovery":"statewideContext","lineageLabel":"Statewide Colorado hydrography context","atlas_context":"statewide_hydrography_context"}}]}