{"type":"FeatureCollection","metadata":{"source":"C:\\ct-atlas-data\\processed\\geojson\\interpreted\\colorado_named_natural_streams_complete_v1.geojson","type":"colorado-natural-stream-detail-tile-v2","tile_size_degrees":0.2,"x":-514,"y":191,"bounds":{"west":-102.8,"south":38.2,"east":-102.6,"north":38.4}},"features":[{"type":"Feature","geometry":{"type":"LineString","coordinates":[[-102.6054,38.4917],[-102.6053,38.4897],[-102.6041,38.4887],[-102.5923,38.4887],[-102.5957,38.4841],[-102.5947,38.4823],[-102.5961,38.4812],[-102.5962,38.4792],[-102.5937,38.4778],[-102.5943,38.476],[-102.5905,38.4743],[-102.592,38.4719],[-102.5887,38.4716],[-102.5862,38.4739],[-102.5833,38.4741],[-102.5832,38.4723],[-102.5874,38.4687],[-102.5861,38.4677],[-102.582,38.4669],[-102.5761,38.4627],[-102.5763,38.4619],[-102.5783,38.4608],[-102.5851,38.4589],[-102.5842,38.4577],[-102.5802,38.4573],[-102.5812,38.4541],[-102.5778,38.4546],[-102.5757,38.4569],[-102.5743,38.4572],[-102.573,38.4562],[-102.5736,38.4542],[-102.5724,38.454],[-102.5712,38.4545],[-102.5703,38.4568],[-102.5687,38.4551],[-102.5688,38.4518],[-102.5676,38.4512],[-102.5665,38.4515],[-102.5666,38.4537],[-102.5648,38.4546],[-102.5635,38.4525],[-102.5645,38.449],[-102.5622,38.4455],[-102.5599,38.444],[-102.5607,38.4432],[-102.5648,38.4437],[-102.5664,38.4426],[-102.5661,38.4414],[-102.5621,38.4406],[-102.5589,38.4421],[-102.5565,38.441],[-102.5532,38.4339],[-102.5518,38.4325],[-102.5483,38.4317],[-102.5476,38.4304],[-102.5476,38.4293],[-102.5501,38.4291],[-102.5507,38.4275],[-102.5479,38.4273],[-102.5442,38.4288],[-102.5428,38.4286],[-102.544,38.4234],[-102.5463,38.4227],[-102.5487,38.4233],[-102.5508,38.4209],[-102.55,38.4194],[-102.5473,38.4192],[-102.5474,38.4183],[-102.5456,38.4177],[-102.5431,38.4147],[-102.5442,38.4133],[-102.5471,38.4129],[-102.5465,38.4117],[-102.5472,38.4107],[-102.5454,38.408],[-102.5403,38.4074],[-102.5423,38.4039],[-102.5481,38.4056],[-102.5483,38.403],[-102.5504,38.4012],[-102.5446,38.3985],[-102.544,38.3975],[-102.5451,38.3965],[-102.5489,38.3961],[-102.55,38.3945],[-102.5478,38.3909],[-102.5425,38.3891],[-102.5422,38.3866],[-102.5452,38.3856],[-102.5445,38.3835],[-102.5384,38.3806],[-102.5333,38.3794],[-102.5366,38.3778],[-102.5404,38.3795],[-102.5424,38.3791],[-102.5428,38.3762],[-102.5421,38.3742],[-102.539,38.3732],[-102.5374,38.3739],[-102.5321,38.3732],[-102.5312,38.3739]]},"properties":{"name":"Rush Creek","display_name":"Rush Creek","source_name":"Rush Creek","state":"CO","atlas_class":"named_natural_stream_detail","huc8":"11020012","huc8Name":"Rush","lineageKey":"statewideContext","lineage":"statewideContext","historic":"statewideContext","current":"statewideContext","recovery":"statewideContext","lineageLabel":"Statewide Colorado hydrography context","atlas_context":"statewide_hydrography_context"}}]}