{"type":"FeatureCollection","metadata":{"source":"C:\\ct-atlas-data\\processed\\geojson\\interpreted\\colorado_named_natural_streams_complete_v1.geojson","type":"colorado-natural-stream-detail-tile-v2","tile_size_degrees":0.2,"x":-519,"y":201,"bounds":{"west":-103.8,"south":40.2,"east":-103.6,"north":40.4}},"features":[{"type":"Feature","geometry":{"type":"LineString","coordinates":[[-103.8018,40.173],[-103.8001,40.175],[-103.7964,40.1768],[-103.798,40.1784],[-103.8013,40.1786],[-103.7977,40.1802],[-103.7985,40.1821],[-103.7963,40.1826],[-103.7957,40.1809],[-103.7932,40.1817],[-103.7925,40.1845],[-103.7943,40.185],[-103.793,40.1869],[-103.7898,40.1883],[-103.7902,40.1898],[-103.7873,40.1895],[-103.7868,40.1911],[-103.7879,40.1913],[-103.7885,40.1933],[-103.7882,40.1945],[-103.786,40.1948],[-103.7868,40.1967],[-103.784,40.1959],[-103.7843,40.1977],[-103.7823,40.1979],[-103.7807,40.1993],[-103.7817,40.2001],[-103.7809,40.2014],[-103.7713,40.2047]]},"properties":{"name":"Badger Creek","display_name":"Badger Creek","source_name":"Badger Creek","state":"CO","atlas_class":"named_natural_stream_detail","huc8":"10190012","huc8Name":"Middle South Platte-Sterling","lineageKey":"statewideContext","lineage":"statewideContext","historic":"statewideContext","current":"statewideContext","recovery":"statewideContext","lineageLabel":"Statewide Colorado hydrography context","atlas_context":"statewide_hydrography_context"}},{"type":"Feature","geometry":{"type":"LineString","coordinates":[[-103.7815,40.3676],[-103.7798,40.3675],[-103.7791,40.3653],[-103.7768,40.3635]]},"properties":{"name":"Wildcat Creek","display_name":"Wildcat Creek","source_name":"Wildcat Creek","state":"CO","atlas_class":"named_natural_stream_detail","huc8":"10190012","huc8Name":"Middle South Platte-Sterling","lineageKey":"statewideContext","lineage":"statewideContext","historic":"statewideContext","current":"statewideContext","recovery":"statewideContext","lineageLabel":"Statewide Colorado hydrography context","atlas_context":"statewide_hydrography_context"}},{"type":"Feature","geometry":{"type":"LineString","coordinates":[[-103.6771,40.2926],[-103.677,40.2926]]},"properties":{"name":"Wildcat Creek","display_name":"Wildcat Creek","source_name":"Wildcat Creek","state":"CO","atlas_class":"named_natural_stream_detail","huc8":"10190012","huc8Name":"Middle South Platte-Sterling","lineageKey":"statewideContext","lineage":"statewideContext","historic":"statewideContext","current":"statewideContext","recovery":"statewideContext","lineageLabel":"Statewide Colorado hydrography context","atlas_context":"statewide_hydrography_context"}},{"type":"Feature","geometry":{"type":"LineString","coordinates":[[-103.6139,40.2457],[-103.6134,40.2499]]},"properties":{"name":"Beaver Creek","display_name":"Beaver Creek","source_name":"Beaver Creek","state":"CO","atlas_class":"named_natural_stream_detail","huc8":"10190013","huc8Name":"Beaver","lineageKey":"statewideContext","lineage":"statewideContext","historic":"statewideContext","current":"statewideContext","recovery":"statewideContext","lineageLabel":"Statewide Colorado hydrography context","atlas_context":"statewide_hydrography_context"}},{"type":"Feature","geometry":{"type":"LineString","coordinates":[[-103.7554,40.3457],[-103.75,40.344],[-103.7483,40.3418],[-103.7452,40.342],[-103.7447,40.3407],[-103.7426,40.34],[-103.7431,40.3387],[-103.7414,40.3373],[-103.7377,40.3393],[-103.7334,40.3354],[-103.7282,40.3358],[-103.7258,40.3337],[-103.7204,40.3353],[-103.72,40.3343],[-103.7212,40.3321],[-103.7193,40.3296],[-103.7191,40.3273],[-103.7155,40.3231],[-103.7131,40.3164],[-103.7114,40.3162],[-103.7125,40.3119],[-103.7145,40.3112]]},"properties":{"name":"Wildcat Creek","display_name":"Wildcat Creek","source_name":"Wildcat Creek","state":"CO","atlas_class":"named_natural_stream_detail","huc8":"10190012","huc8Name":"Middle South Platte-Sterling","lineageKey":"statewideContext","lineage":"statewideContext","historic":"statewideContext","current":"statewideContext","recovery":"statewideContext","lineageLabel":"Statewide Colorado hydrography context","atlas_context":"statewide_hydrography_context"}},{"type":"Feature","geometry":{"type":"LineString","coordinates":[[-103.7067,40.2649],[-103.7049,40.2658],[-103.7024,40.2643],[-103.701,40.2656],[-103.7037,40.2688],[-103.7082,40.27],[-103.7069,40.2734],[-103.7097,40.2761]]},"properties":{"name":"Badger Creek","display_name":"Badger Creek","source_name":"Badger Creek","state":"CO","atlas_class":"named_natural_stream_detail","huc8":"10190012","huc8Name":"Middle South Platte-Sterling","lineageKey":"statewideContext","lineage":"statewideContext","historic":"statewideContext","current":"statewideContext","recovery":"statewideContext","lineageLabel":"Statewide Colorado hydrography context","atlas_context":"statewide_hydrography_context"}},{"type":"Feature","geometry":{"type":"LineString","coordinates":[[-103.6729,40.2942],[-103.6717,40.294]]},"properties":{"name":"Wildcat Creek","display_name":"Wildcat Creek","source_name":"Wildcat Creek","state":"CO","atlas_class":"named_natural_stream_detail","huc8":"10190012","huc8Name":"Middle South Platte-Sterling","lineageKey":"statewideContext","lineage":"statewideContext","historic":"statewideContext","current":"statewideContext","recovery":"statewideContext","lineageLabel":"Statewide Colorado hydrography context","atlas_context":"statewide_hydrography_context"}},{"type":"Feature","geometry":{"type":"LineString","coordinates":[[-103.7417,40.2372],[-103.7417,40.237]]},"properties":{"name":"Badger Creek","display_name":"Badger Creek","source_name":"Badger Creek","state":"CO","atlas_class":"named_natural_stream_detail","huc8":"10190012","huc8Name":"Middle South Platte-Sterling","lineageKey":"statewideContext","lineage":"statewideContext","historic":"statewideContext","current":"statewideContext","recovery":"statewideContext","lineageLabel":"Statewide Colorado hydrography context","atlas_context":"statewide_hydrography_context"}},{"type":"Feature","geometry":{"type":"LineString","coordinates":[[-103.7448,40.2377],[-103.7431,40.2392],[-103.7414,40.2394]]},"properties":{"name":"Badger Creek","display_name":"Badger Creek","source_name":"Badger Creek","state":"CO","atlas_class":"named_natural_stream_detail","huc8":"10190012","huc8Name":"Middle South Platte-Sterling","lineageKey":"statewideContext","lineage":"statewideContext","historic":"statewideContext","current":"statewideContext","recovery":"statewideContext","lineageLabel":"Statewide Colorado hydrography context","atlas_context":"statewide_hydrography_context"}},{"type":"Feature","geometry":{"type":"LineString","coordinates":[[-103.7418,40.2357],[-103.741,40.2343],[-103.7383,40.2358],[-103.7327,40.2366],[-103.7335,40.2382],[-103.7327,40.2394],[-103.7342,40.2407],[-103.7324,40.2409],[-103.7313,40.2434],[-103.7288,40.2447],[-103.7224,40.2463]]},"properties":{"name":"Badger Creek","display_name":"Badger Creek","source_name":"Badger Creek","state":"CO","atlas_class":"named_natural_stream_detail","huc8":"10190012","huc8Name":"Middle South Platte-Sterling","lineageKey":"statewideContext","lineage":"statewideContext","historic":"statewideContext","current":"statewideContext","recovery":"statewideContext","lineageLabel":"Statewide Colorado hydrography context","atlas_context":"statewide_hydrography_context"}},{"type":"Feature","geometry":{"type":"LineString","coordinates":[[-103.5968,40.1677],[-103.5962,40.1698],[-103.5906,40.1728],[-103.5941,40.1744],[-103.5933,40.1767],[-103.5943,40.1777],[-103.5943,40.18],[-103.5965,40.1822],[-103.595,40.184],[-103.5944,40.1883],[-103.5967,40.1906],[-103.6027,40.1941],[-103.6034,40.1968],[-103.6046,40.1973],[-103.6044,40.2023],[-103.6011,40.2054],[-103.6012,40.2071],[-103.6,40.2079]]},"properties":{"name":"Beaver Creek","display_name":"Beaver Creek","source_name":"Beaver Creek","state":"CO","atlas_class":"named_natural_stream_detail","huc8":"10190013","huc8Name":"Beaver","lineageKey":"statewideContext","lineage":"statewideContext","historic":"statewideContext","current":"statewideContext","recovery":"statewideContext","lineageLabel":"Statewide Colorado hydrography context","atlas_context":"statewide_hydrography_context"}},{"type":"Feature","geometry":{"type":"LineString","coordinates":[[-103.6995,40.3016],[-103.699,40.3014]]},"properties":{"name":"Wildcat Creek","display_name":"Wildcat Creek","source_name":"Wildcat Creek","state":"CO","atlas_class":"named_natural_stream_detail","huc8":"10190012","huc8Name":"Middle South Platte-Sterling","lineageKey":"statewideContext","lineage":"statewideContext","historic":"statewideContext","current":"statewideContext","recovery":"statewideContext","lineageLabel":"Statewide Colorado hydrography context","atlas_context":"statewide_hydrography_context"}},{"type":"Feature","geometry":{"type":"LineString","coordinates":[[-103.699,40.3014],[-103.699,40.3003],[-103.7008,40.3005],[-103.7003,40.2986]]},"properties":{"name":"Wildcat Creek","display_name":"Wildcat Creek","source_name":"Wildcat Creek","state":"CO","atlas_class":"named_natural_stream_detail","huc8":"10190012","huc8Name":"Middle South Platte-Sterling","lineageKey":"statewideContext","lineage":"statewideContext","historic":"statewideContext","current":"statewideContext","recovery":"statewideContext","lineageLabel":"Statewide Colorado hydrography context","atlas_context":"statewide_hydrography_context"}},{"type":"Feature","geometry":{"type":"LineString","coordinates":[[-103.7003,40.2986],[-103.6985,40.2982]]},"properties":{"name":"Wildcat Creek","display_name":"Wildcat Creek","source_name":"Wildcat Creek","state":"CO","atlas_class":"named_natural_stream_detail","huc8":"10190012","huc8Name":"Middle South Platte-Sterling","lineageKey":"statewideContext","lineage":"statewideContext","historic":"statewideContext","current":"statewideContext","recovery":"statewideContext","lineageLabel":"Statewide Colorado hydrography context","atlas_context":"statewide_hydrography_context"}},{"type":"Feature","geometry":{"type":"LineString","coordinates":[[-103.6754,40.2934],[-103.6741,40.2938]]},"properties":{"name":"Wildcat Creek","display_name":"Wildcat Creek","source_name":"Wildcat Creek","state":"CO","atlas_class":"named_natural_stream_detail","huc8":"10190012","huc8Name":"Middle South Platte-Sterling","lineageKey":"statewideContext","lineage":"statewideContext","historic":"statewideContext","current":"statewideContext","recovery":"statewideContext","lineageLabel":"Statewide Colorado hydrography context","atlas_context":"statewide_hydrography_context"}},{"type":"Feature","geometry":{"type":"LineString","coordinates":[[-103.6824,40.2911],[-103.6815,40.2912]]},"properties":{"name":"Wildcat Creek","display_name":"Wildcat Creek","source_name":"Wildcat Creek","state":"CO","atlas_class":"named_natural_stream_detail","huc8":"10190012","huc8Name":"Middle South Platte-Sterling","lineageKey":"statewideContext","lineage":"statewideContext","historic":"statewideContext","current":"statewideContext","recovery":"statewideContext","lineageLabel":"Statewide Colorado hydrography context","atlas_context":"statewide_hydrography_context"}},{"type":"Feature","geometry":{"type":"LineString","coordinates":[[-103.6815,40.2912],[-103.6806,40.2916]]},"properties":{"name":"Wildcat Creek","display_name":"Wildcat Creek","source_name":"Wildcat Creek","state":"CO","atlas_class":"named_natural_stream_detail","huc8":"10190012","huc8Name":"Middle South Platte-Sterling","lineageKey":"statewideContext","lineage":"statewideContext","historic":"statewideContext","current":"statewideContext","recovery":"statewideContext","lineageLabel":"Statewide Colorado hydrography context","atlas_context":"statewide_hydrography_context"}},{"type":"Feature","geometry":{"type":"LineString","coordinates":[[-103.7111,40.3047],[-103.7108,40.305]]},"properties":{"name":"Wildcat Creek","display_name":"Wildcat Creek","source_name":"Wildcat Creek","state":"CO","atlas_class":"named_natural_stream_detail","huc8":"10190012","huc8Name":"Middle South Platte-Sterling","lineageKey":"statewideContext","lineage":"statewideContext","historic":"statewideContext","current":"statewideContext","recovery":"statewideContext","lineageLabel":"Statewide Colorado hydrography context","atlas_context":"statewide_hydrography_context"}},{"type":"Feature","geometry":{"type":"LineString","coordinates":[[-103.7143,40.3097],[-103.7099,40.3077],[-103.7104,40.306],[-103.7114,40.3068],[-103.712,40.3063],[-103.7121,40.3051],[-103.7111,40.3047]]},"properties":{"name":"Wildcat Creek","display_name":"Wildcat Creek","source_name":"Wildcat Creek","state":"CO","atlas_class":"named_natural_stream_detail","huc8":"10190012","huc8Name":"Middle South Platte-Sterling","lineageKey":"statewideContext","lineage":"statewideContext","historic":"statewideContext","current":"statewideContext","recovery":"statewideContext","lineageLabel":"Statewide Colorado hydrography context","atlas_context":"statewide_hydrography_context"}},{"type":"Feature","geometry":{"type":"LineString","coordinates":[[-103.7145,40.3112],[-103.7143,40.3097]]},"properties":{"name":"Wildcat Creek","display_name":"Wildcat Creek","source_name":"Wildcat Creek","state":"CO","atlas_class":"named_natural_stream_detail","huc8":"10190012","huc8Name":"Middle South Platte-Sterling","lineageKey":"statewideContext","lineage":"statewideContext","historic":"statewideContext","current":"statewideContext","recovery":"statewideContext","lineageLabel":"Statewide Colorado hydrography context","atlas_context":"statewide_hydrography_context"}},{"type":"Feature","geometry":{"type":"LineString","coordinates":[[-103.6134,40.2499],[-103.6071,40.2506],[-103.6089,40.2563],[-103.6032,40.2582],[-103.6027,40.2596],[-103.6044,40.2601],[-103.6044,40.2614],[-103.6009,40.2638],[-103.6029,40.2643],[-103.6028,40.2651],[-103.5973,40.2666],[-103.5907,40.2719],[-103.59,40.2736],[-103.5869,40.2763],[-103.5869,40.2805],[-103.5819,40.2804]]},"properties":{"name":"Beaver Creek","display_name":"Beaver Creek","source_name":"Beaver Creek","state":"CO","atlas_class":"named_natural_stream_detail","huc8":"10190013","huc8Name":"Beaver","lineageKey":"statewideContext","lineage":"statewideContext","historic":"statewideContext","current":"statewideContext","recovery":"statewideContext","lineageLabel":"Statewide Colorado hydrography context","atlas_context":"statewide_hydrography_context"}},{"type":"Feature","geometry":{"type":"LineString","coordinates":[[-103.6985,40.2982],[-103.6947,40.2968],[-103.693,40.2983],[-103.6887,40.2971],[-103.6844,40.2925]]},"properties":{"name":"Wildcat Creek","display_name":"Wildcat Creek","source_name":"Wildcat Creek","state":"CO","atlas_class":"named_natural_stream_detail","huc8":"10190012","huc8Name":"Middle South Platte-Sterling","lineageKey":"statewideContext","lineage":"statewideContext","historic":"statewideContext","current":"statewideContext","recovery":"statewideContext","lineageLabel":"Statewide Colorado hydrography context","atlas_context":"statewide_hydrography_context"}},{"type":"Feature","geometry":{"type":"LineString","coordinates":[[-103.6806,40.2916],[-103.6779,40.2919]]},"properties":{"name":"Wildcat Creek","display_name":"Wildcat Creek","source_name":"Wildcat Creek","state":"CO","atlas_class":"named_natural_stream_detail","huc8":"10190012","huc8Name":"Middle South Platte-Sterling","lineageKey":"statewideContext","lineage":"statewideContext","historic":"statewideContext","current":"statewideContext","recovery":"statewideContext","lineageLabel":"Statewide Colorado hydrography context","atlas_context":"statewide_hydrography_context"}},{"type":"Feature","geometry":{"type":"LineString","coordinates":[[-103.6717,40.294],[-103.6697,40.2934]]},"properties":{"name":"Wildcat Creek","display_name":"Wildcat Creek","source_name":"Wildcat Creek","state":"CO","atlas_class":"named_natural_stream_detail","huc8":"10190012","huc8Name":"Middle South Platte-Sterling","lineageKey":"statewideContext","lineage":"statewideContext","historic":"statewideContext","current":"statewideContext","recovery":"statewideContext","lineageLabel":"Statewide Colorado hydrography context","atlas_context":"statewide_hydrography_context"}},{"type":"Feature","geometry":{"type":"LineString","coordinates":[[-103.7629,40.3491],[-103.7614,40.3499],[-103.7567,40.3488],[-103.756,40.3483],[-103.7567,40.3468],[-103.7554,40.3457]]},"properties":{"name":"Wildcat Creek","display_name":"Wildcat Creek","source_name":"Wildcat Creek","state":"CO","atlas_class":"named_natural_stream_detail","huc8":"10190012","huc8Name":"Middle South Platte-Sterling","lineageKey":"statewideContext","lineage":"statewideContext","historic":"statewideContext","current":"statewideContext","recovery":"statewideContext","lineageLabel":"Statewide Colorado hydrography context","atlas_context":"statewide_hydrography_context"}},{"type":"Feature","geometry":{"type":"LineString","coordinates":[[-103.7097,40.2761],[-103.7088,40.2769]]},"properties":{"name":"Badger Creek","display_name":"Badger Creek","source_name":"Badger Creek","state":"CO","atlas_class":"named_natural_stream_detail","huc8":"10190012","huc8Name":"Middle South Platte-Sterling","lineageKey":"statewideContext","lineage":"statewideContext","historic":"statewideContext","current":"statewideContext","recovery":"statewideContext","lineageLabel":"Statewide Colorado hydrography context","atlas_context":"statewide_hydrography_context"}},{"type":"Feature","geometry":{"type":"LineString","coordinates":[[-103.5973,40.2184],[-103.6009,40.2203],[-103.6022,40.2199],[-103.6023,40.2186],[-103.605,40.2191],[-103.6021,40.2218],[-103.5985,40.2222],[-103.6006,40.2244]]},"properties":{"name":"Beaver Creek","display_name":"Beaver Creek","source_name":"Beaver Creek","state":"CO","atlas_class":"named_natural_stream_detail","huc8":"10190013","huc8Name":"Beaver","lineageKey":"statewideContext","lineage":"statewideContext","historic":"statewideContext","current":"statewideContext","recovery":"statewideContext","lineageLabel":"Statewide Colorado hydrography context","atlas_context":"statewide_hydrography_context"}},{"type":"Feature","geometry":{"type":"LineString","coordinates":[[-103.677,40.2926],[-103.6761,40.2931]]},"properties":{"name":"Wildcat Creek","display_name":"Wildcat Creek","source_name":"Wildcat Creek","state":"CO","atlas_class":"named_natural_stream_detail","huc8":"10190012","huc8Name":"Middle South Platte-Sterling","lineageKey":"statewideContext","lineage":"statewideContext","historic":"statewideContext","current":"statewideContext","recovery":"statewideContext","lineageLabel":"Statewide Colorado hydrography context","atlas_context":"statewide_hydrography_context"}},{"type":"Feature","geometry":{"type":"LineString","coordinates":[[-103.7837,40.367],[-103.7833,40.3663],[-103.7823,40.3667]]},"properties":{"name":"Wildcat Creek","display_name":"Wildcat Creek","source_name":"Wildcat Creek","state":"CO","atlas_class":"named_natural_stream_detail","huc8":"10190012","huc8Name":"Middle South Platte-Sterling","lineageKey":"statewideContext","lineage":"statewideContext","historic":"statewideContext","current":"statewideContext","recovery":"statewideContext","lineageLabel":"Statewide Colorado hydrography context","atlas_context":"statewide_hydrography_context"}},{"type":"Feature","geometry":{"type":"LineString","coordinates":[[-103.8033,40.3862],[-103.8061,40.3828],[-103.8031,40.382],[-103.8036,40.3798],[-103.8009,40.3798],[-103.7992,40.3786],[-103.8026,40.3778]]},"properties":{"name":"Wildcat Creek","display_name":"Wildcat Creek","source_name":"Wildcat Creek","state":"CO","atlas_class":"named_natural_stream_detail","huc8":"10190012","huc8Name":"Middle South Platte-Sterling","lineageKey":"statewideContext","lineage":"statewideContext","historic":"statewideContext","current":"statewideContext","recovery":"statewideContext","lineageLabel":"Statewide Colorado hydrography context","atlas_context":"statewide_hydrography_context"}},{"type":"Feature","geometry":{"type":"LineString","coordinates":[[-103.7642,40.3488],[-103.7629,40.3491]]},"properties":{"name":"Wildcat Creek","display_name":"Wildcat Creek","source_name":"Wildcat Creek","state":"CO","atlas_class":"named_natural_stream_detail","huc8":"10190012","huc8Name":"Middle South Platte-Sterling","lineageKey":"statewideContext","lineage":"statewideContext","historic":"statewideContext","current":"statewideContext","recovery":"statewideContext","lineageLabel":"Statewide Colorado hydrography context","atlas_context":"statewide_hydrography_context"}},{"type":"Feature","geometry":{"type":"LineString","coordinates":[[-103.7945,40.3723],[-103.7925,40.3723],[-103.7921,40.3713],[-103.7904,40.371],[-103.7903,40.3681],[-103.7869,40.3702],[-103.7862,40.3698]]},"properties":{"name":"Wildcat Creek","display_name":"Wildcat Creek","source_name":"Wildcat Creek","state":"CO","atlas_class":"named_natural_stream_detail","huc8":"10190012","huc8Name":"Middle South Platte-Sterling","lineageKey":"statewideContext","lineage":"statewideContext","historic":"statewideContext","current":"statewideContext","recovery":"statewideContext","lineageLabel":"Statewide Colorado hydrography context","atlas_context":"statewide_hydrography_context"}},{"type":"Feature","geometry":{"type":"LineString","coordinates":[[-103.8026,40.3778],[-103.798,40.3729],[-103.7956,40.3731],[-103.7957,40.3711],[-103.7947,40.3702],[-103.7945,40.3723]]},"properties":{"name":"Wildcat Creek","display_name":"Wildcat Creek","source_name":"Wildcat Creek","state":"CO","atlas_class":"named_natural_stream_detail","huc8":"10190012","huc8Name":"Middle South Platte-Sterling","lineageKey":"statewideContext","lineage":"statewideContext","historic":"statewideContext","current":"statewideContext","recovery":"statewideContext","lineageLabel":"Statewide Colorado hydrography context","atlas_context":"statewide_hydrography_context"}},{"type":"Feature","geometry":{"type":"LineString","coordinates":[[-103.7217,40.2468],[-103.7181,40.2482],[-103.7148,40.2507],[-103.7154,40.252],[-103.7174,40.2517],[-103.7186,40.2529],[-103.7145,40.2541],[-103.7147,40.2581],[-103.7074,40.2589],[-103.7076,40.2604],[-103.7106,40.2628],[-103.7098,40.2641],[-103.707,40.2647]]},"properties":{"name":"Badger Creek","display_name":"Badger Creek","source_name":"Badger Creek","state":"CO","atlas_class":"named_natural_stream_detail","huc8":"10190012","huc8Name":"Middle South Platte-Sterling","lineageKey":"statewideContext","lineage":"statewideContext","historic":"statewideContext","current":"statewideContext","recovery":"statewideContext","lineageLabel":"Statewide Colorado hydrography context","atlas_context":"statewide_hydrography_context"}},{"type":"Feature","geometry":{"type":"LineString","coordinates":[[-103.7708,40.2047],[-103.7621,40.2051],[-103.7619,40.2063],[-103.7628,40.2067],[-103.7597,40.2065],[-103.7587,40.2077],[-103.7619,40.2102],[-103.7611,40.212],[-103.759,40.2128],[-103.7582,40.2115],[-103.7528,40.2125],[-103.7561,40.2138],[-103.7569,40.213],[-103.7576,40.2143],[-103.7562,40.2158],[-103.7546,40.2155],[-103.7537,40.2163],[-103.7545,40.2172],[-103.752,40.2246],[-103.7525,40.2263],[-103.754,40.2269],[-103.748,40.2295],[-103.7492,40.2314],[-103.7435,40.232],[-103.7447,40.2347],[-103.7448,40.2377]]},"properties":{"name":"Badger Creek","display_name":"Badger Creek","source_name":"Badger Creek","state":"CO","atlas_class":"named_natural_stream_detail","huc8":"10190012","huc8Name":"Middle South Platte-Sterling","lineageKey":"statewideContext","lineage":"statewideContext","historic":"statewideContext","current":"statewideContext","recovery":"statewideContext","lineageLabel":"Statewide Colorado hydrography context","atlas_context":"statewide_hydrography_context"}},{"type":"Feature","geometry":{"type":"LineString","coordinates":[[-103.6779,40.2919],[-103.6771,40.2926]]},"properties":{"name":"Wildcat Creek","display_name":"Wildcat Creek","source_name":"Wildcat Creek","state":"CO","atlas_class":"named_natural_stream_detail","huc8":"10190012","huc8Name":"Middle South Platte-Sterling","lineageKey":"statewideContext","lineage":"statewideContext","historic":"statewideContext","current":"statewideContext","recovery":"statewideContext","lineageLabel":"Statewide Colorado hydrography context","atlas_context":"statewide_hydrography_context"}},{"type":"Feature","geometry":{"type":"LineString","coordinates":[[-103.6,40.2079],[-103.6002,40.2088],[-103.6019,40.2094],[-103.6039,40.2084],[-103.6039,40.206],[-103.6061,40.2073],[-103.6047,40.2123],[-103.6072,40.2133],[-103.6067,40.2142],[-103.6076,40.2155],[-103.6051,40.2164],[-103.6019,40.2132],[-103.6005,40.213],[-103.6015,40.2148],[-103.5974,40.2169],[-103.5973,40.2184]]},"properties":{"name":"Beaver Creek","display_name":"Beaver Creek","source_name":"Beaver Creek","state":"CO","atlas_class":"named_natural_stream_detail","huc8":"10190013","huc8Name":"Beaver","lineageKey":"statewideContext","lineage":"statewideContext","historic":"statewideContext","current":"statewideContext","recovery":"statewideContext","lineageLabel":"Statewide Colorado hydrography context","atlas_context":"statewide_hydrography_context"}},{"type":"Feature","geometry":{"type":"LineString","coordinates":[[-103.6084,40.2265],[-103.6049,40.2301],[-103.6093,40.2298],[-103.613,40.2317],[-103.6088,40.2328],[-103.6083,40.2346],[-103.6056,40.2362],[-103.6058,40.2401],[-103.6081,40.2426],[-103.6119,40.2429],[-103.6111,40.2441],[-103.6139,40.2457]]},"properties":{"name":"Beaver Creek","display_name":"Beaver Creek","source_name":"Beaver Creek","state":"CO","atlas_class":"named_natural_stream_detail","huc8":"10190013","huc8Name":"Beaver","lineageKey":"statewideContext","lineage":"statewideContext","historic":"statewideContext","current":"statewideContext","recovery":"statewideContext","lineageLabel":"Statewide Colorado hydrography context","atlas_context":"statewide_hydrography_context"}},{"type":"Feature","geometry":{"type":"LineString","coordinates":[[-103.6006,40.2244],[-103.6016,40.225],[-103.6014,40.2261],[-103.6037,40.2269],[-103.6065,40.2271],[-103.608,40.2254],[-103.6089,40.2256],[-103.6084,40.2265]]},"properties":{"name":"Beaver Creek","display_name":"Beaver Creek","source_name":"Beaver Creek","state":"CO","atlas_class":"named_natural_stream_detail","huc8":"10190013","huc8Name":"Beaver","lineageKey":"statewideContext","lineage":"statewideContext","historic":"statewideContext","current":"statewideContext","recovery":"statewideContext","lineageLabel":"Statewide Colorado hydrography context","atlas_context":"statewide_hydrography_context"}},{"type":"Feature","geometry":{"type":"LineString","coordinates":[[-103.7859,40.3692],[-103.7835,40.3679],[-103.7837,40.367]]},"properties":{"name":"Wildcat Creek","display_name":"Wildcat Creek","source_name":"Wildcat Creek","state":"CO","atlas_class":"named_natural_stream_detail","huc8":"10190012","huc8Name":"Middle South Platte-Sterling","lineageKey":"statewideContext","lineage":"statewideContext","historic":"statewideContext","current":"statewideContext","recovery":"statewideContext","lineageLabel":"Statewide Colorado hydrography context","atlas_context":"statewide_hydrography_context"}},{"type":"Feature","geometry":{"type":"LineString","coordinates":[[-103.7696,40.3525],[-103.7667,40.3499]]},"properties":{"name":"Wildcat Creek","display_name":"Wildcat Creek","source_name":"Wildcat Creek","state":"CO","atlas_class":"named_natural_stream_detail","huc8":"10190012","huc8Name":"Middle South Platte-Sterling","lineageKey":"statewideContext","lineage":"statewideContext","historic":"statewideContext","current":"statewideContext","recovery":"statewideContext","lineageLabel":"Statewide Colorado hydrography context","atlas_context":"statewide_hydrography_context"}},{"type":"Feature","geometry":{"type":"LineString","coordinates":[[-103.6844,40.2925],[-103.6824,40.2911]]},"properties":{"name":"Wildcat Creek","display_name":"Wildcat Creek","source_name":"Wildcat Creek","state":"CO","atlas_class":"named_natural_stream_detail","huc8":"10190012","huc8Name":"Middle South Platte-Sterling","lineageKey":"statewideContext","lineage":"statewideContext","historic":"statewideContext","current":"statewideContext","recovery":"statewideContext","lineageLabel":"Statewide Colorado hydrography context","atlas_context":"statewide_hydrography_context"}},{"type":"Feature","geometry":{"type":"LineString","coordinates":[[-103.676,40.2932],[-103.6755,40.2933]]},"properties":{"name":"Wildcat Creek","display_name":"Wildcat Creek","source_name":"Wildcat Creek","state":"CO","atlas_class":"named_natural_stream_detail","huc8":"10190012","huc8Name":"Middle South Platte-Sterling","lineageKey":"statewideContext","lineage":"statewideContext","historic":"statewideContext","current":"statewideContext","recovery":"statewideContext","lineageLabel":"Statewide Colorado hydrography context","atlas_context":"statewide_hydrography_context"}},{"type":"Feature","geometry":{"type":"LineString","coordinates":[[-103.6755,40.2933],[-103.6754,40.2934]]},"properties":{"name":"Wildcat Creek","display_name":"Wildcat Creek","source_name":"Wildcat Creek","state":"CO","atlas_class":"named_natural_stream_detail","huc8":"10190012","huc8Name":"Middle South Platte-Sterling","lineageKey":"statewideContext","lineage":"statewideContext","historic":"statewideContext","current":"statewideContext","recovery":"statewideContext","lineageLabel":"Statewide Colorado hydrography context","atlas_context":"statewide_hydrography_context"}},{"type":"Feature","geometry":{"type":"LineString","coordinates":[[-103.7768,40.3635],[-103.778,40.3614],[-103.7758,40.3601],[-103.7752,40.3578],[-103.774,40.3575]]},"properties":{"name":"Wildcat Creek","display_name":"Wildcat Creek","source_name":"Wildcat Creek","state":"CO","atlas_class":"named_natural_stream_detail","huc8":"10190012","huc8Name":"Middle South Platte-Sterling","lineageKey":"statewideContext","lineage":"statewideContext","historic":"statewideContext","current":"statewideContext","recovery":"statewideContext","lineageLabel":"Statewide Colorado hydrography context","atlas_context":"statewide_hydrography_context"}},{"type":"Feature","geometry":{"type":"LineString","coordinates":[[-103.7108,40.305],[-103.7093,40.3036],[-103.7067,40.3043],[-103.7045,40.3036],[-103.7017,40.3055],[-103.6995,40.3016]]},"properties":{"name":"Wildcat Creek","display_name":"Wildcat Creek","source_name":"Wildcat Creek","state":"CO","atlas_class":"named_natural_stream_detail","huc8":"10190012","huc8Name":"Middle South Platte-Sterling","lineageKey":"statewideContext","lineage":"statewideContext","historic":"statewideContext","current":"statewideContext","recovery":"statewideContext","lineageLabel":"Statewide Colorado hydrography context","atlas_context":"statewide_hydrography_context"}},{"type":"Feature","geometry":{"type":"LineString","coordinates":[[-103.6761,40.2931],[-103.676,40.2932]]},"properties":{"name":"Wildcat Creek","display_name":"Wildcat Creek","source_name":"Wildcat Creek","state":"CO","atlas_class":"named_natural_stream_detail","huc8":"10190012","huc8Name":"Middle South Platte-Sterling","lineageKey":"statewideContext","lineage":"statewideContext","historic":"statewideContext","current":"statewideContext","recovery":"statewideContext","lineageLabel":"Statewide Colorado hydrography context","atlas_context":"statewide_hydrography_context"}},{"type":"Feature","geometry":{"type":"LineString","coordinates":[[-103.6741,40.2938],[-103.6729,40.2942]]},"properties":{"name":"Wildcat Creek","display_name":"Wildcat Creek","source_name":"Wildcat Creek","state":"CO","atlas_class":"named_natural_stream_detail","huc8":"10190012","huc8Name":"Middle South Platte-Sterling","lineageKey":"statewideContext","lineage":"statewideContext","historic":"statewideContext","current":"statewideContext","recovery":"statewideContext","lineageLabel":"Statewide Colorado hydrography context","atlas_context":"statewide_hydrography_context"}},{"type":"Feature","geometry":{"type":"LineString","coordinates":[[-103.6697,40.2934],[-103.6687,40.2933]]},"properties":{"name":"Wildcat Creek","display_name":"Wildcat Creek","source_name":"Wildcat Creek","state":"CO","atlas_class":"named_natural_stream_detail","huc8":"10190012","huc8Name":"Middle South Platte-Sterling","lineageKey":"statewideContext","lineage":"statewideContext","historic":"statewideContext","current":"statewideContext","recovery":"statewideContext","lineageLabel":"Statewide Colorado hydrography context","atlas_context":"statewide_hydrography_context"}},{"type":"Feature","geometry":{"type":"LineString","coordinates":[[-103.7649,40.3491],[-103.7646,40.3489]]},"properties":{"name":"Wildcat Creek","display_name":"Wildcat Creek","source_name":"Wildcat Creek","state":"CO","atlas_class":"named_natural_stream_detail","huc8":"10190012","huc8Name":"Middle South Platte-Sterling","lineageKey":"statewideContext","lineage":"statewideContext","historic":"statewideContext","current":"statewideContext","recovery":"statewideContext","lineageLabel":"Statewide Colorado hydrography context","atlas_context":"statewide_hydrography_context"}}]}