{"type":"FeatureCollection","metadata":{"source":"C:\\ct-atlas-data\\processed\\geojson\\interpreted\\colorado_named_natural_streams_complete_v1.geojson","type":"colorado-natural-stream-detail-tile-v2","tile_size_degrees":0.2,"x":-533,"y":205,"bounds":{"west":-106.6,"south":41,"east":-106.4,"north":41.2}},"features":[{"type":"Feature","geometry":{"type":"LineString","coordinates":[[-106.4901,41.0021],[-106.4929,41.0017]]},"properties":{"name":"Holroyd Creek","display_name":"Holroyd Creek","source_name":"Holroyd Creek","state":"CO","atlas_class":"named_natural_stream_detail","huc8":"10180002","huc8Name":"Upper North Platte","lineageKey":"statewideContext","lineage":"statewideContext","historic":"statewideContext","current":"statewideContext","recovery":"statewideContext","lineageLabel":"Statewide Colorado hydrography context","atlas_context":"statewide_hydrography_context"}},{"type":"Feature","geometry":{"type":"LineString","coordinates":[[-106.4835,41.002],[-106.4837,41.0021]]},"properties":{"name":"Holroyd Creek","display_name":"Holroyd Creek","source_name":"Holroyd Creek","state":"CO","atlas_class":"named_natural_stream_detail","huc8":"10180002","huc8Name":"Upper North Platte","lineageKey":"statewideContext","lineage":"statewideContext","historic":"statewideContext","current":"statewideContext","recovery":"statewideContext","lineageLabel":"Statewide Colorado hydrography context","atlas_context":"statewide_hydrography_context"}},{"type":"Feature","geometry":{"type":"MultiLineString","coordinates":[[[-106.5823,40.991],[-106.5775,40.9974],[-106.5762,41.0022]],[[-106.5762,41.0022],[-106.5761,41.0022]]]},"properties":{"name":"Beaver Creek","display_name":"Beaver Creek","source_name":"Beaver Creek","state":"CO","atlas_class":"named_natural_stream_detail","huc8":"10180002","huc8Name":"Upper North Platte","lineageKey":"statewideContext","lineage":"statewideContext","historic":"statewideContext","current":"statewideContext","recovery":"statewideContext","lineageLabel":"Statewide Colorado hydrography context","atlas_context":"statewide_hydrography_context"}},{"type":"Feature","geometry":{"type":"LineString","coordinates":[[-106.4396,40.9998],[-106.439,41.0019]]},"properties":{"name":"Sixmile Creek","display_name":"Sixmile Creek","source_name":"Sixmile Creek","state":"CO","atlas_class":"named_natural_stream_detail","huc8":"10180002","huc8Name":"Upper North Platte","lineageKey":"statewideContext","lineage":"statewideContext","historic":"statewideContext","current":"statewideContext","recovery":"statewideContext","lineageLabel":"Statewide Colorado hydrography context","atlas_context":"statewide_hydrography_context"}},{"type":"Feature","geometry":{"type":"LineString","coordinates":[[-106.4929,41.0017],[-106.4941,41.0021]]},"properties":{"name":"Holroyd Creek","display_name":"Holroyd Creek","source_name":"Holroyd Creek","state":"CO","atlas_class":"named_natural_stream_detail","huc8":"10180002","huc8Name":"Upper North Platte","lineageKey":"statewideContext","lineage":"statewideContext","historic":"statewideContext","current":"statewideContext","recovery":"statewideContext","lineageLabel":"Statewide Colorado hydrography context","atlas_context":"statewide_hydrography_context"}},{"type":"Feature","geometry":{"type":"LineString","coordinates":[[-106.5233,40.9961],[-106.5254,40.9975],[-106.5264,40.9989],[-106.5261,41.0007],[-106.5272,41.0011]]},"properties":{"name":"South Fork Big Creek","display_name":"South Fork Big Creek","source_name":"South Fork Big Creek","state":"CO","atlas_class":"named_natural_stream_detail","huc8":"10180002","huc8Name":"Upper North Platte","lineageKey":"statewideContext","lineage":"statewideContext","historic":"statewideContext","current":"statewideContext","recovery":"statewideContext","lineageLabel":"Statewide Colorado hydrography context","atlas_context":"statewide_hydrography_context"}},{"type":"Feature","geometry":{"type":"LineString","coordinates":[[-106.5272,41.0011],[-106.5263,41.0022]]},"properties":{"name":"South Fork Big Creek","display_name":"South Fork Big Creek","source_name":"South Fork Big Creek","state":"CO","atlas_class":"named_natural_stream_detail","huc8":"10180002","huc8Name":"Upper North Platte","lineageKey":"statewideContext","lineage":"statewideContext","historic":"statewideContext","current":"statewideContext","recovery":"statewideContext","lineageLabel":"Statewide Colorado hydrography context","atlas_context":"statewide_hydrography_context"}},{"type":"Feature","geometry":{"type":"MultiLineString","coordinates":[[[-106.5933,40.9963],[-106.5935,40.9974],[-106.591,40.9991],[-106.5903,41.0008],[-106.5856,41.0023]],[[-106.5854,41.0023],[-106.5848,41.0023]]]},"properties":{"name":"Line Creek","display_name":"Line Creek","source_name":"Line Creek","state":"CO","atlas_class":"named_natural_stream_detail","huc8":"10180002","huc8Name":"Upper North Platte","lineageKey":"statewideContext","lineage":"statewideContext","historic":"statewideContext","current":"statewideContext","recovery":"statewideContext","lineageLabel":"Statewide Colorado hydrography context","atlas_context":"statewide_hydrography_context"}},{"type":"Feature","geometry":{"type":"LineString","coordinates":[[-106.4831,41.0018],[-106.4835,41.002]]},"properties":{"name":"Holroyd Creek","display_name":"Holroyd Creek","source_name":"Holroyd Creek","state":"CO","atlas_class":"named_natural_stream_detail","huc8":"10180002","huc8Name":"Upper North Platte","lineageKey":"statewideContext","lineage":"statewideContext","historic":"statewideContext","current":"statewideContext","recovery":"statewideContext","lineageLabel":"Statewide Colorado hydrography context","atlas_context":"statewide_hydrography_context"}},{"type":"Feature","geometry":{"type":"LineString","coordinates":[[-106.4799,41.0002],[-106.4831,41.0018]]},"properties":{"name":"Holroyd Creek","display_name":"Holroyd Creek","source_name":"Holroyd Creek","state":"CO","atlas_class":"named_natural_stream_detail","huc8":"10180002","huc8Name":"Upper North Platte","lineageKey":"statewideContext","lineage":"statewideContext","historic":"statewideContext","current":"statewideContext","recovery":"statewideContext","lineageLabel":"Statewide Colorado hydrography context","atlas_context":"statewide_hydrography_context"}},{"type":"Feature","geometry":{"type":"LineString","coordinates":[[-106.4774,40.9943],[-106.4777,40.9982],[-106.4799,41.0002]]},"properties":{"name":"Holroyd Creek","display_name":"Holroyd Creek","source_name":"Holroyd Creek","state":"CO","atlas_class":"named_natural_stream_detail","huc8":"10180002","huc8Name":"Upper North Platte","lineageKey":"statewideContext","lineage":"statewideContext","historic":"statewideContext","current":"statewideContext","recovery":"statewideContext","lineageLabel":"Statewide Colorado hydrography context","atlas_context":"statewide_hydrography_context"}},{"type":"Feature","geometry":{"type":"LineString","coordinates":[[-106.412,40.9908],[-106.4093,40.9943],[-106.4093,40.9956],[-106.4122,40.9995],[-106.4112,41.0015]]},"properties":{"name":"Spring Creek","display_name":"Spring Creek","source_name":"Spring Creek","state":"CO","atlas_class":"named_natural_stream_detail","huc8":"10180002","huc8Name":"Upper North Platte","lineageKey":"statewideContext","lineage":"statewideContext","historic":"statewideContext","current":"statewideContext","recovery":"statewideContext","lineageLabel":"Statewide Colorado hydrography context","atlas_context":"statewide_hydrography_context"}}]}