{"type":"FeatureCollection","metadata":{"source":"C:\\ct-atlas-data\\processed\\geojson\\interpreted\\colorado_named_natural_streams_complete_v1.geojson","type":"colorado-natural-stream-detail-tile-v2","tile_size_degrees":0.2,"x":-518,"y":196,"bounds":{"west":-103.6,"south":39.2,"east":-103.4,"north":39.4}},"features":[{"type":"Feature","geometry":{"type":"LineString","coordinates":[[-103.4953,39.3128],[-103.4922,39.3115],[-103.49,39.3122],[-103.488,39.3088],[-103.4852,39.31],[-103.4866,39.3115],[-103.4854,39.3129],[-103.4841,39.3127]]},"properties":{"name":"Hell Creek","display_name":"Hell Creek","source_name":"Hell Creek","state":"CO","atlas_class":"named_natural_stream_detail","huc8":"10250001","huc8Name":"Arikaree","lineageKey":"statewideContext","lineage":"statewideContext","historic":"statewideContext","current":"statewideContext","recovery":"statewideContext","lineageLabel":"Statewide Colorado hydrography context","atlas_context":"statewide_hydrography_context"}},{"type":"Feature","geometry":{"type":"LineString","coordinates":[[-103.4952,39.3454],[-103.4947,39.3447]]},"properties":{"name":"Dugout Creek","display_name":"Dugout Creek","source_name":"Dugout Creek","state":"CO","atlas_class":"named_natural_stream_detail","huc8":"10250001","huc8Name":"Arikaree","lineageKey":"statewideContext","lineage":"statewideContext","historic":"statewideContext","current":"statewideContext","recovery":"statewideContext","lineageLabel":"Statewide Colorado hydrography context","atlas_context":"statewide_hydrography_context"}},{"type":"Feature","geometry":{"type":"LineString","coordinates":[[-103.5725,39.3597],[-103.5728,39.3605]]},"properties":{"name":"Lickdab Creek","display_name":"Lickdab Creek","source_name":"Lickdab Creek","state":"CO","atlas_class":"named_natural_stream_detail","huc8":"10250001","huc8Name":"Arikaree","lineageKey":"statewideContext","lineage":"statewideContext","historic":"statewideContext","current":"statewideContext","recovery":"statewideContext","lineageLabel":"Statewide Colorado hydrography context","atlas_context":"statewide_hydrography_context"}},{"type":"Feature","geometry":{"type":"LineString","coordinates":[[-103.4317,39.3039],[-103.4307,39.3042],[-103.4303,39.3056],[-103.4347,39.3096],[-103.4288,39.3121],[-103.4246,39.3101]]},"properties":{"name":"Hell Creek","display_name":"Hell Creek","source_name":"Hell Creek","state":"CO","atlas_class":"named_natural_stream_detail","huc8":"10250001","huc8Name":"Arikaree","lineageKey":"statewideContext","lineage":"statewideContext","historic":"statewideContext","current":"statewideContext","recovery":"statewideContext","lineageLabel":"Statewide Colorado hydrography context","atlas_context":"statewide_hydrography_context"}},{"type":"Feature","geometry":{"type":"LineString","coordinates":[[-103.5619,39.2945],[-103.5588,39.2915]]},"properties":{"name":"Hell Creek","display_name":"Hell Creek","source_name":"Hell Creek","state":"CO","atlas_class":"named_natural_stream_detail","huc8":"10250001","huc8Name":"Arikaree","lineageKey":"statewideContext","lineage":"statewideContext","historic":"statewideContext","current":"statewideContext","recovery":"statewideContext","lineageLabel":"Statewide Colorado hydrography context","atlas_context":"statewide_hydrography_context"}},{"type":"Feature","geometry":{"type":"LineString","coordinates":[[-103.5553,39.3148],[-103.5546,39.3145],[-103.555,39.314]]},"properties":{"name":"Dugout Creek","display_name":"Dugout Creek","source_name":"Dugout Creek","state":"CO","atlas_class":"named_natural_stream_detail","huc8":"10250001","huc8Name":"Arikaree","lineageKey":"statewideContext","lineage":"statewideContext","historic":"statewideContext","current":"statewideContext","recovery":"statewideContext","lineageLabel":"Statewide Colorado hydrography context","atlas_context":"statewide_hydrography_context"}},{"type":"Feature","geometry":{"type":"LineString","coordinates":[[-103.5862,39.3202],[-103.5855,39.3197]]},"properties":{"name":"Dugout Creek","display_name":"Dugout Creek","source_name":"Dugout Creek","state":"CO","atlas_class":"named_natural_stream_detail","huc8":"10250001","huc8Name":"Arikaree","lineageKey":"statewideContext","lineage":"statewideContext","historic":"statewideContext","current":"statewideContext","recovery":"statewideContext","lineageLabel":"Statewide Colorado hydrography context","atlas_context":"statewide_hydrography_context"}},{"type":"Feature","geometry":{"type":"LineString","coordinates":[[-103.5477,39.3131],[-103.5454,39.3133],[-103.5452,39.312],[-103.5443,39.3116],[-103.5441,39.3134]]},"properties":{"name":"Dugout Creek","display_name":"Dugout Creek","source_name":"Dugout Creek","state":"CO","atlas_class":"named_natural_stream_detail","huc8":"10250001","huc8Name":"Arikaree","lineageKey":"statewideContext","lineage":"statewideContext","historic":"statewideContext","current":"statewideContext","recovery":"statewideContext","lineageLabel":"Statewide Colorado hydrography context","atlas_context":"statewide_hydrography_context"}},{"type":"Feature","geometry":{"type":"LineString","coordinates":[[-103.4434,39.2589],[-103.441,39.2574],[-103.4381,39.2575]]},"properties":{"name":"Hackberry Creek","display_name":"Hackberry Creek","source_name":"Hackberry Creek","state":"CO","atlas_class":"named_natural_stream_detail","huc8":"10250001","huc8Name":"Arikaree","lineageKey":"statewideContext","lineage":"statewideContext","historic":"statewideContext","current":"statewideContext","recovery":"statewideContext","lineageLabel":"Statewide Colorado hydrography context","atlas_context":"statewide_hydrography_context"}},{"type":"Feature","geometry":{"type":"LineString","coordinates":[[-103.5029,39.347],[-103.4992,39.3476],[-103.4952,39.3454]]},"properties":{"name":"Dugout Creek","display_name":"Dugout Creek","source_name":"Dugout Creek","state":"CO","atlas_class":"named_natural_stream_detail","huc8":"10250001","huc8Name":"Arikaree","lineageKey":"statewideContext","lineage":"statewideContext","historic":"statewideContext","current":"statewideContext","recovery":"statewideContext","lineageLabel":"Statewide Colorado hydrography context","atlas_context":"statewide_hydrography_context"}},{"type":"Feature","geometry":{"type":"LineString","coordinates":[[-103.5066,39.3466],[-103.5065,39.3466]]},"properties":{"name":"Dugout Creek","display_name":"Dugout Creek","source_name":"Dugout Creek","state":"CO","atlas_class":"named_natural_stream_detail","huc8":"10250001","huc8Name":"Arikaree","lineageKey":"statewideContext","lineage":"statewideContext","historic":"statewideContext","current":"statewideContext","recovery":"statewideContext","lineageLabel":"Statewide Colorado hydrography context","atlas_context":"statewide_hydrography_context"}},{"type":"Feature","geometry":{"type":"LineString","coordinates":[[-103.5183,39.3984],[-103.5155,39.3989]]},"properties":{"name":"Lickdab Creek","display_name":"Lickdab Creek","source_name":"Lickdab Creek","state":"CO","atlas_class":"named_natural_stream_detail","huc8":"10250001","huc8Name":"Arikaree","lineageKey":"statewideContext","lineage":"statewideContext","historic":"statewideContext","current":"statewideContext","recovery":"statewideContext","lineageLabel":"Statewide Colorado hydrography context","atlas_context":"statewide_hydrography_context"}},{"type":"Feature","geometry":{"type":"LineString","coordinates":[[-103.5413,39.3741],[-103.5396,39.3768],[-103.541,39.3767],[-103.5399,39.3799],[-103.5354,39.3794]]},"properties":{"name":"Lickdab Creek","display_name":"Lickdab Creek","source_name":"Lickdab Creek","state":"CO","atlas_class":"named_natural_stream_detail","huc8":"10250001","huc8Name":"Arikaree","lineageKey":"statewideContext","lineage":"statewideContext","historic":"statewideContext","current":"statewideContext","recovery":"statewideContext","lineageLabel":"Statewide Colorado hydrography context","atlas_context":"statewide_hydrography_context"}},{"type":"Feature","geometry":{"type":"LineString","coordinates":[[-103.4368,39.2577],[-103.435,39.2567],[-103.4345,39.2593],[-103.4292,39.2602],[-103.4262,39.2594]]},"properties":{"name":"Hackberry Creek","display_name":"Hackberry Creek","source_name":"Hackberry Creek","state":"CO","atlas_class":"named_natural_stream_detail","huc8":"10250001","huc8Name":"Arikaree","lineageKey":"statewideContext","lineage":"statewideContext","historic":"statewideContext","current":"statewideContext","recovery":"statewideContext","lineageLabel":"Statewide Colorado hydrography context","atlas_context":"statewide_hydrography_context"}},{"type":"Feature","geometry":{"type":"LineString","coordinates":[[-103.4097,39.2623],[-103.4078,39.2628],[-103.4065,39.2623],[-103.4073,39.2641],[-103.4063,39.2647],[-103.4064,39.2666],[-103.4049,39.2673],[-103.4029,39.2656],[-103.4018,39.2665],[-103.402,39.2679],[-103.4008,39.2684],[-103.3975,39.2647]]},"properties":{"name":"Hackberry Creek","display_name":"Hackberry Creek","source_name":"Hackberry Creek","state":"CO","atlas_class":"named_natural_stream_detail","huc8":"10250001","huc8Name":"Arikaree","lineageKey":"statewideContext","lineage":"statewideContext","historic":"statewideContext","current":"statewideContext","recovery":"statewideContext","lineageLabel":"Statewide Colorado hydrography context","atlas_context":"statewide_hydrography_context"}},{"type":"Feature","geometry":{"type":"LineString","coordinates":[[-103.5938,39.3571],[-103.5934,39.3574]]},"properties":{"name":"Lickdab Creek","display_name":"Lickdab Creek","source_name":"Lickdab Creek","state":"CO","atlas_class":"named_natural_stream_detail","huc8":"10250001","huc8Name":"Arikaree","lineageKey":"statewideContext","lineage":"statewideContext","historic":"statewideContext","current":"statewideContext","recovery":"statewideContext","lineageLabel":"Statewide Colorado hydrography context","atlas_context":"statewide_hydrography_context"}},{"type":"Feature","geometry":{"type":"LineString","coordinates":[[-103.4188,39.3263],[-103.4196,39.3269],[-103.417,39.3278],[-103.4159,39.3292],[-103.4134,39.3293],[-103.4117,39.3303]]},"properties":{"name":"Hell Creek","display_name":"Hell Creek","source_name":"Hell Creek","state":"CO","atlas_class":"named_natural_stream_detail","huc8":"10250001","huc8Name":"Arikaree","lineageKey":"statewideContext","lineage":"statewideContext","historic":"statewideContext","current":"statewideContext","recovery":"statewideContext","lineageLabel":"Statewide Colorado hydrography context","atlas_context":"statewide_hydrography_context"}},{"type":"Feature","geometry":{"type":"LineString","coordinates":[[-103.521,39.2817],[-103.5207,39.2816]]},"properties":{"name":"Hell Creek","display_name":"Hell Creek","source_name":"Hell Creek","state":"CO","atlas_class":"named_natural_stream_detail","huc8":"10250001","huc8Name":"Arikaree","lineageKey":"statewideContext","lineage":"statewideContext","historic":"statewideContext","current":"statewideContext","recovery":"statewideContext","lineageLabel":"Statewide Colorado hydrography context","atlas_context":"statewide_hydrography_context"}},{"type":"Feature","geometry":{"type":"LineString","coordinates":[[-103.5207,39.2816],[-103.5204,39.2825],[-103.5184,39.2821],[-103.5159,39.2831],[-103.5169,39.2837],[-103.5165,39.2859],[-103.5153,39.2867],[-103.5156,39.2883]]},"properties":{"name":"Hell Creek","display_name":"Hell Creek","source_name":"Hell Creek","state":"CO","atlas_class":"named_natural_stream_detail","huc8":"10250001","huc8Name":"Arikaree","lineageKey":"statewideContext","lineage":"statewideContext","historic":"statewideContext","current":"statewideContext","recovery":"statewideContext","lineageLabel":"Statewide Colorado hydrography context","atlas_context":"statewide_hydrography_context"}},{"type":"Feature","geometry":{"type":"LineString","coordinates":[[-103.5114,39.2906],[-103.5108,39.2914]]},"properties":{"name":"Hell Creek","display_name":"Hell Creek","source_name":"Hell Creek","state":"CO","atlas_class":"named_natural_stream_detail","huc8":"10250001","huc8Name":"Arikaree","lineageKey":"statewideContext","lineage":"statewideContext","historic":"statewideContext","current":"statewideContext","recovery":"statewideContext","lineageLabel":"Statewide Colorado hydrography context","atlas_context":"statewide_hydrography_context"}},{"type":"Feature","geometry":{"type":"LineString","coordinates":[[-103.4944,39.3444],[-103.4929,39.3439],[-103.4914,39.3448],[-103.4878,39.3448],[-103.4889,39.3463],[-103.4909,39.347],[-103.4889,39.3497]]},"properties":{"name":"Dugout Creek","display_name":"Dugout Creek","source_name":"Dugout Creek","state":"CO","atlas_class":"named_natural_stream_detail","huc8":"10250001","huc8Name":"Arikaree","lineageKey":"statewideContext","lineage":"statewideContext","historic":"statewideContext","current":"statewideContext","recovery":"statewideContext","lineageLabel":"Statewide Colorado hydrography context","atlas_context":"statewide_hydrography_context"}},{"type":"Feature","geometry":{"type":"LineString","coordinates":[[-103.5742,39.3569],[-103.5737,39.3594],[-103.5725,39.3597]]},"properties":{"name":"Lickdab Creek","display_name":"Lickdab Creek","source_name":"Lickdab Creek","state":"CO","atlas_class":"named_natural_stream_detail","huc8":"10250001","huc8Name":"Arikaree","lineageKey":"statewideContext","lineage":"statewideContext","historic":"statewideContext","current":"statewideContext","recovery":"statewideContext","lineageLabel":"Statewide Colorado hydrography context","atlas_context":"statewide_hydrography_context"}},{"type":"Feature","geometry":{"type":"LineString","coordinates":[[-103.5882,39.3571],[-103.5855,39.3558],[-103.5837,39.3572],[-103.5817,39.3567]]},"properties":{"name":"Lickdab Creek","display_name":"Lickdab Creek","source_name":"Lickdab Creek","state":"CO","atlas_class":"named_natural_stream_detail","huc8":"10250001","huc8Name":"Arikaree","lineageKey":"statewideContext","lineage":"statewideContext","historic":"statewideContext","current":"statewideContext","recovery":"statewideContext","lineageLabel":"Statewide Colorado hydrography context","atlas_context":"statewide_hydrography_context"}},{"type":"Feature","geometry":{"type":"LineString","coordinates":[[-103.4344,39.3044],[-103.4317,39.3039]]},"properties":{"name":"Hell Creek","display_name":"Hell Creek","source_name":"Hell Creek","state":"CO","atlas_class":"named_natural_stream_detail","huc8":"10250001","huc8Name":"Arikaree","lineageKey":"statewideContext","lineage":"statewideContext","historic":"statewideContext","current":"statewideContext","recovery":"statewideContext","lineageLabel":"Statewide Colorado hydrography context","atlas_context":"statewide_hydrography_context"}},{"type":"Feature","geometry":{"type":"LineString","coordinates":[[-103.4381,39.2575],[-103.4372,39.2578]]},"properties":{"name":"Hackberry Creek","display_name":"Hackberry Creek","source_name":"Hackberry Creek","state":"CO","atlas_class":"named_natural_stream_detail","huc8":"10250001","huc8Name":"Arikaree","lineageKey":"statewideContext","lineage":"statewideContext","historic":"statewideContext","current":"statewideContext","recovery":"statewideContext","lineageLabel":"Statewide Colorado hydrography context","atlas_context":"statewide_hydrography_context"}},{"type":"Feature","geometry":{"type":"LineString","coordinates":[[-103.5254,39.3884],[-103.5225,39.3884],[-103.5204,39.3899],[-103.5212,39.3901],[-103.5204,39.3919],[-103.5192,39.3909],[-103.5175,39.3924]]},"properties":{"name":"Lickdab Creek","display_name":"Lickdab Creek","source_name":"Lickdab Creek","state":"CO","atlas_class":"named_natural_stream_detail","huc8":"10250001","huc8Name":"Arikaree","lineageKey":"statewideContext","lineage":"statewideContext","historic":"statewideContext","current":"statewideContext","recovery":"statewideContext","lineageLabel":"Statewide Colorado hydrography context","atlas_context":"statewide_hydrography_context"}},{"type":"Feature","geometry":{"type":"LineString","coordinates":[[-103.515,39.3371],[-103.5155,39.3378],[-103.5146,39.3384],[-103.5129,39.3376],[-103.5123,39.3384],[-103.5116,39.3381]]},"properties":{"name":"Dugout Creek","display_name":"Dugout Creek","source_name":"Dugout Creek","state":"CO","atlas_class":"named_natural_stream_detail","huc8":"10250001","huc8Name":"Arikaree","lineageKey":"statewideContext","lineage":"statewideContext","historic":"statewideContext","current":"statewideContext","recovery":"statewideContext","lineageLabel":"Statewide Colorado hydrography context","atlas_context":"statewide_hydrography_context"}},{"type":"Feature","geometry":{"type":"LineString","coordinates":[[-103.5463,39.3706],[-103.5453,39.3714],[-103.5423,39.3716]]},"properties":{"name":"Lickdab Creek","display_name":"Lickdab Creek","source_name":"Lickdab Creek","state":"CO","atlas_class":"named_natural_stream_detail","huc8":"10250001","huc8Name":"Arikaree","lineageKey":"statewideContext","lineage":"statewideContext","historic":"statewideContext","current":"statewideContext","recovery":"statewideContext","lineageLabel":"Statewide Colorado hydrography context","atlas_context":"statewide_hydrography_context"}},{"type":"Feature","geometry":{"type":"LineString","coordinates":[[-103.5728,39.3172],[-103.5716,39.3165]]},"properties":{"name":"Dugout Creek","display_name":"Dugout Creek","source_name":"Dugout Creek","state":"CO","atlas_class":"named_natural_stream_detail","huc8":"10250001","huc8Name":"Arikaree","lineageKey":"statewideContext","lineage":"statewideContext","historic":"statewideContext","current":"statewideContext","recovery":"statewideContext","lineageLabel":"Statewide Colorado hydrography context","atlas_context":"statewide_hydrography_context"}},{"type":"Feature","geometry":{"type":"LineString","coordinates":[[-103.5228,39.3205],[-103.521,39.3217],[-103.5213,39.3223],[-103.5198,39.3222],[-103.5193,39.3231],[-103.5203,39.3232],[-103.5194,39.3235]]},"properties":{"name":"Dugout Creek","display_name":"Dugout Creek","source_name":"Dugout Creek","state":"CO","atlas_class":"named_natural_stream_detail","huc8":"10250001","huc8Name":"Arikaree","lineageKey":"statewideContext","lineage":"statewideContext","historic":"statewideContext","current":"statewideContext","recovery":"statewideContext","lineageLabel":"Statewide Colorado hydrography context","atlas_context":"statewide_hydrography_context"}},{"type":"Feature","geometry":{"type":"LineString","coordinates":[[-103.5584,39.3621],[-103.5591,39.3626],[-103.5589,39.3651],[-103.5562,39.3659],[-103.5551,39.3653]]},"properties":{"name":"Lickdab Creek","display_name":"Lickdab Creek","source_name":"Lickdab Creek","state":"CO","atlas_class":"named_natural_stream_detail","huc8":"10250001","huc8Name":"Arikaree","lineageKey":"statewideContext","lineage":"statewideContext","historic":"statewideContext","current":"statewideContext","recovery":"statewideContext","lineageLabel":"Statewide Colorado hydrography context","atlas_context":"statewide_hydrography_context"}},{"type":"Feature","geometry":{"type":"LineString","coordinates":[[-103.5035,39.2982],[-103.5012,39.2993],[-103.5018,39.3006]]},"properties":{"name":"Hell Creek","display_name":"Hell Creek","source_name":"Hell Creek","state":"CO","atlas_class":"named_natural_stream_detail","huc8":"10250001","huc8Name":"Arikaree","lineageKey":"statewideContext","lineage":"statewideContext","historic":"statewideContext","current":"statewideContext","recovery":"statewideContext","lineageLabel":"Statewide Colorado hydrography context","atlas_context":"statewide_hydrography_context"}},{"type":"Feature","geometry":{"type":"LineString","coordinates":[[-103.5015,39.3018],[-103.5002,39.3025],[-103.5007,39.3034],[-103.4978,39.3038],[-103.4977,39.3052],[-103.4947,39.3058],[-103.4947,39.3067],[-103.4966,39.3077],[-103.4946,39.3083],[-103.4943,39.3103],[-103.4956,39.3104]]},"properties":{"name":"Hell Creek","display_name":"Hell Creek","source_name":"Hell Creek","state":"CO","atlas_class":"named_natural_stream_detail","huc8":"10250001","huc8Name":"Arikaree","lineageKey":"statewideContext","lineage":"statewideContext","historic":"statewideContext","current":"statewideContext","recovery":"statewideContext","lineageLabel":"Statewide Colorado hydrography context","atlas_context":"statewide_hydrography_context"}},{"type":"Feature","geometry":{"type":"LineString","coordinates":[[-103.5193,39.3353],[-103.5189,39.3358]]},"properties":{"name":"Dugout Creek","display_name":"Dugout Creek","source_name":"Dugout Creek","state":"CO","atlas_class":"named_natural_stream_detail","huc8":"10250001","huc8Name":"Arikaree","lineageKey":"statewideContext","lineage":"statewideContext","historic":"statewideContext","current":"statewideContext","recovery":"statewideContext","lineageLabel":"Statewide Colorado hydrography context","atlas_context":"statewide_hydrography_context"}},{"type":"Feature","geometry":{"type":"LineString","coordinates":[[-103.4196,39.2595],[-103.418,39.2606]]},"properties":{"name":"Hackberry Creek","display_name":"Hackberry Creek","source_name":"Hackberry Creek","state":"CO","atlas_class":"named_natural_stream_detail","huc8":"10250001","huc8Name":"Arikaree","lineageKey":"statewideContext","lineage":"statewideContext","historic":"statewideContext","current":"statewideContext","recovery":"statewideContext","lineageLabel":"Statewide Colorado hydrography context","atlas_context":"statewide_hydrography_context"}},{"type":"Feature","geometry":{"type":"LineString","coordinates":[[-103.4178,39.3209],[-103.4159,39.3211]]},"properties":{"name":"Hell Creek","display_name":"Hell Creek","source_name":"Hell Creek","state":"CO","atlas_class":"named_natural_stream_detail","huc8":"10250001","huc8Name":"Arikaree","lineageKey":"statewideContext","lineage":"statewideContext","historic":"statewideContext","current":"statewideContext","recovery":"statewideContext","lineageLabel":"Statewide Colorado hydrography context","atlas_context":"statewide_hydrography_context"}},{"type":"Feature","geometry":{"type":"LineString","coordinates":[[-103.5183,39.3929],[-103.5185,39.3945],[-103.5174,39.3948],[-103.5171,39.3961]]},"properties":{"name":"Lickdab Creek","display_name":"Lickdab Creek","source_name":"Lickdab Creek","state":"CO","atlas_class":"named_natural_stream_detail","huc8":"10250001","huc8Name":"Arikaree","lineageKey":"statewideContext","lineage":"statewideContext","historic":"statewideContext","current":"statewideContext","recovery":"statewideContext","lineageLabel":"Statewide Colorado hydrography context","atlas_context":"statewide_hydrography_context"}},{"type":"Feature","geometry":{"type":"LineString","coordinates":[[-103.5855,39.3197],[-103.5835,39.321],[-103.581,39.3205],[-103.5787,39.3187],[-103.5778,39.3193],[-103.5761,39.3184]]},"properties":{"name":"Dugout Creek","display_name":"Dugout Creek","source_name":"Dugout Creek","state":"CO","atlas_class":"named_natural_stream_detail","huc8":"10250001","huc8Name":"Arikaree","lineageKey":"statewideContext","lineage":"statewideContext","historic":"statewideContext","current":"statewideContext","recovery":"statewideContext","lineageLabel":"Statewide Colorado hydrography context","atlas_context":"statewide_hydrography_context"}},{"type":"Feature","geometry":{"type":"LineString","coordinates":[[-103.5761,39.3184],[-103.5741,39.3175]]},"properties":{"name":"Dugout Creek","display_name":"Dugout Creek","source_name":"Dugout Creek","state":"CO","atlas_class":"named_natural_stream_detail","huc8":"10250001","huc8Name":"Arikaree","lineageKey":"statewideContext","lineage":"statewideContext","historic":"statewideContext","current":"statewideContext","recovery":"statewideContext","lineageLabel":"Statewide Colorado hydrography context","atlas_context":"statewide_hydrography_context"}},{"type":"Feature","geometry":{"type":"LineString","coordinates":[[-103.5951,39.3555],[-103.5942,39.3557]]},"properties":{"name":"Lickdab Creek","display_name":"Lickdab Creek","source_name":"Lickdab Creek","state":"CO","atlas_class":"named_natural_stream_detail","huc8":"10250001","huc8Name":"Arikaree","lineageKey":"statewideContext","lineage":"statewideContext","historic":"statewideContext","current":"statewideContext","recovery":"statewideContext","lineageLabel":"Statewide Colorado hydrography context","atlas_context":"statewide_hydrography_context"}},{"type":"Feature","geometry":{"type":"LineString","coordinates":[[-103.5153,39.2887],[-103.5145,39.2895]]},"properties":{"name":"Hell Creek","display_name":"Hell Creek","source_name":"Hell Creek","state":"CO","atlas_class":"named_natural_stream_detail","huc8":"10250001","huc8Name":"Arikaree","lineageKey":"statewideContext","lineage":"statewideContext","historic":"statewideContext","current":"statewideContext","recovery":"statewideContext","lineageLabel":"Statewide Colorado hydrography context","atlas_context":"statewide_hydrography_context"}},{"type":"Feature","geometry":{"type":"LineString","coordinates":[[-103.5121,39.2907],[-103.512,39.2907]]},"properties":{"name":"Hell Creek","display_name":"Hell Creek","source_name":"Hell Creek","state":"CO","atlas_class":"named_natural_stream_detail","huc8":"10250001","huc8Name":"Arikaree","lineageKey":"statewideContext","lineage":"statewideContext","historic":"statewideContext","current":"statewideContext","recovery":"statewideContext","lineageLabel":"Statewide Colorado hydrography context","atlas_context":"statewide_hydrography_context"}},{"type":"Feature","geometry":{"type":"LineString","coordinates":[[-103.5118,39.2928],[-103.5115,39.2932]]},"properties":{"name":"Hell Creek","display_name":"Hell Creek","source_name":"Hell Creek","state":"CO","atlas_class":"named_natural_stream_detail","huc8":"10250001","huc8Name":"Arikaree","lineageKey":"statewideContext","lineage":"statewideContext","historic":"statewideContext","current":"statewideContext","recovery":"statewideContext","lineageLabel":"Statewide Colorado hydrography context","atlas_context":"statewide_hydrography_context"}},{"type":"Feature","geometry":{"type":"LineString","coordinates":[[-103.4135,39.2602],[-103.4128,39.2598],[-103.4122,39.2608],[-103.413,39.2627],[-103.4125,39.2639],[-103.4097,39.2623]]},"properties":{"name":"Hackberry Creek","display_name":"Hackberry Creek","source_name":"Hackberry Creek","state":"CO","atlas_class":"named_natural_stream_detail","huc8":"10250001","huc8Name":"Arikaree","lineageKey":"statewideContext","lineage":"statewideContext","historic":"statewideContext","current":"statewideContext","recovery":"statewideContext","lineageLabel":"Statewide Colorado hydrography context","atlas_context":"statewide_hydrography_context"}},{"type":"Feature","geometry":{"type":"LineString","coordinates":[[-103.6006,39.3538],[-103.5995,39.354]]},"properties":{"name":"Lickdab Creek","display_name":"Lickdab Creek","source_name":"Lickdab Creek","state":"CO","atlas_class":"named_natural_stream_detail","huc8":"10250001","huc8Name":"Arikaree","lineageKey":"statewideContext","lineage":"statewideContext","historic":"statewideContext","current":"statewideContext","recovery":"statewideContext","lineageLabel":"Statewide Colorado hydrography context","atlas_context":"statewide_hydrography_context"}},{"type":"Feature","geometry":{"type":"LineString","coordinates":[[-103.5551,39.3653],[-103.5505,39.3634],[-103.5472,39.3638],[-103.5469,39.3654],[-103.5486,39.3651],[-103.5483,39.3669],[-103.5492,39.3665],[-103.5495,39.3685],[-103.5463,39.3706]]},"properties":{"name":"Lickdab Creek","display_name":"Lickdab Creek","source_name":"Lickdab Creek","state":"CO","atlas_class":"named_natural_stream_detail","huc8":"10250001","huc8Name":"Arikaree","lineageKey":"statewideContext","lineage":"statewideContext","historic":"statewideContext","current":"statewideContext","recovery":"statewideContext","lineageLabel":"Statewide Colorado hydrography context","atlas_context":"statewide_hydrography_context"}},{"type":"Feature","geometry":{"type":"LineString","coordinates":[[-103.407,39.3317],[-103.4057,39.3319],[-103.4049,39.3304],[-103.4037,39.3307]]},"properties":{"name":"Hell Creek","display_name":"Hell Creek","source_name":"Hell Creek","state":"CO","atlas_class":"named_natural_stream_detail","huc8":"10250001","huc8Name":"Arikaree","lineageKey":"statewideContext","lineage":"statewideContext","historic":"statewideContext","current":"statewideContext","recovery":"statewideContext","lineageLabel":"Statewide Colorado hydrography context","atlas_context":"statewide_hydrography_context"}},{"type":"Feature","geometry":{"type":"LineString","coordinates":[[-103.5994,39.3552],[-103.5951,39.3555]]},"properties":{"name":"Lickdab Creek","display_name":"Lickdab Creek","source_name":"Lickdab Creek","state":"CO","atlas_class":"named_natural_stream_detail","huc8":"10250001","huc8Name":"Arikaree","lineageKey":"statewideContext","lineage":"statewideContext","historic":"statewideContext","current":"statewideContext","recovery":"statewideContext","lineageLabel":"Statewide Colorado hydrography context","atlas_context":"statewide_hydrography_context"}},{"type":"Feature","geometry":{"type":"LineString","coordinates":[[-103.4826,39.2692],[-103.4795,39.2669],[-103.476,39.2658],[-103.4742,39.2641],[-103.4719,39.2632],[-103.4696,39.2637],[-103.4653,39.2609],[-103.463,39.2611],[-103.4575,39.2594],[-103.4556,39.2599],[-103.4506,39.2577],[-103.4464,39.2595],[-103.4434,39.2589]]},"properties":{"name":"Hackberry Creek","display_name":"Hackberry Creek","source_name":"Hackberry Creek","state":"CO","atlas_class":"named_natural_stream_detail","huc8":"10250001","huc8Name":"Arikaree","lineageKey":"statewideContext","lineage":"statewideContext","historic":"statewideContext","current":"statewideContext","recovery":"statewideContext","lineageLabel":"Statewide Colorado hydrography context","atlas_context":"statewide_hydrography_context"}},{"type":"Feature","geometry":{"type":"LineString","coordinates":[[-103.5268,39.3861],[-103.526,39.3862]]},"properties":{"name":"Lickdab Creek","display_name":"Lickdab Creek","source_name":"Lickdab Creek","state":"CO","atlas_class":"named_natural_stream_detail","huc8":"10250001","huc8Name":"Arikaree","lineageKey":"statewideContext","lineage":"statewideContext","historic":"statewideContext","current":"statewideContext","recovery":"statewideContext","lineageLabel":"Statewide Colorado hydrography context","atlas_context":"statewide_hydrography_context"}},{"type":"Feature","geometry":{"type":"LineString","coordinates":[[-103.5437,39.3136],[-103.5424,39.3142]]},"properties":{"name":"Dugout Creek","display_name":"Dugout Creek","source_name":"Dugout Creek","state":"CO","atlas_class":"named_natural_stream_detail","huc8":"10250001","huc8Name":"Arikaree","lineageKey":"statewideContext","lineage":"statewideContext","historic":"statewideContext","current":"statewideContext","recovery":"statewideContext","lineageLabel":"Statewide Colorado hydrography context","atlas_context":"statewide_hydrography_context"}},{"type":"Feature","geometry":{"type":"LineString","coordinates":[[-103.4551,39.3073],[-103.4546,39.306],[-103.4525,39.3058]]},"properties":{"name":"Hell Creek","display_name":"Hell Creek","source_name":"Hell Creek","state":"CO","atlas_class":"named_natural_stream_detail","huc8":"10250001","huc8Name":"Arikaree","lineageKey":"statewideContext","lineage":"statewideContext","historic":"statewideContext","current":"statewideContext","recovery":"statewideContext","lineageLabel":"Statewide Colorado hydrography context","atlas_context":"statewide_hydrography_context"}},{"type":"Feature","geometry":{"type":"LineString","coordinates":[[-103.5881,39.3219],[-103.5866,39.3209]]},"properties":{"name":"Dugout Creek","display_name":"Dugout Creek","source_name":"Dugout Creek","state":"CO","atlas_class":"named_natural_stream_detail","huc8":"10250001","huc8Name":"Arikaree","lineageKey":"statewideContext","lineage":"statewideContext","historic":"statewideContext","current":"statewideContext","recovery":"statewideContext","lineageLabel":"Statewide Colorado hydrography context","atlas_context":"statewide_hydrography_context"}},{"type":"Feature","geometry":{"type":"LineString","coordinates":[[-103.5728,39.3605],[-103.5708,39.3619],[-103.5669,39.3609],[-103.5658,39.362]]},"properties":{"name":"Lickdab Creek","display_name":"Lickdab Creek","source_name":"Lickdab Creek","state":"CO","atlas_class":"named_natural_stream_detail","huc8":"10250001","huc8Name":"Arikaree","lineageKey":"statewideContext","lineage":"statewideContext","historic":"statewideContext","current":"statewideContext","recovery":"statewideContext","lineageLabel":"Statewide Colorado hydrography context","atlas_context":"statewide_hydrography_context"}},{"type":"Feature","geometry":{"type":"LineString","coordinates":[[-103.4466,39.3652],[-103.4457,39.3655]]},"properties":{"name":"Dugout Creek","display_name":"Dugout Creek","source_name":"Dugout Creek","state":"CO","atlas_class":"named_natural_stream_detail","huc8":"10250001","huc8Name":"Arikaree","lineageKey":"statewideContext","lineage":"statewideContext","historic":"statewideContext","current":"statewideContext","recovery":"statewideContext","lineageLabel":"Statewide Colorado hydrography context","atlas_context":"statewide_hydrography_context"}},{"type":"Feature","geometry":{"type":"LineString","coordinates":[[-103.4614,39.3476],[-103.4607,39.3464]]},"properties":{"name":"Dugout Creek","display_name":"Dugout Creek","source_name":"Dugout Creek","state":"CO","atlas_class":"named_natural_stream_detail","huc8":"10250001","huc8Name":"Arikaree","lineageKey":"statewideContext","lineage":"statewideContext","historic":"statewideContext","current":"statewideContext","recovery":"statewideContext","lineageLabel":"Statewide Colorado hydrography context","atlas_context":"statewide_hydrography_context"}},{"type":"Feature","geometry":{"type":"LineString","coordinates":[[-103.5418,39.314],[-103.5395,39.3157],[-103.5368,39.3154]]},"properties":{"name":"Dugout Creek","display_name":"Dugout Creek","source_name":"Dugout Creek","state":"CO","atlas_class":"named_natural_stream_detail","huc8":"10250001","huc8Name":"Arikaree","lineageKey":"statewideContext","lineage":"statewideContext","historic":"statewideContext","current":"statewideContext","recovery":"statewideContext","lineageLabel":"Statewide Colorado hydrography context","atlas_context":"statewide_hydrography_context"}},{"type":"Feature","geometry":{"type":"LineString","coordinates":[[-103.5303,39.3145],[-103.5291,39.3121],[-103.528,39.3148]]},"properties":{"name":"Dugout Creek","display_name":"Dugout Creek","source_name":"Dugout Creek","state":"CO","atlas_class":"named_natural_stream_detail","huc8":"10250001","huc8Name":"Arikaree","lineageKey":"statewideContext","lineage":"statewideContext","historic":"statewideContext","current":"statewideContext","recovery":"statewideContext","lineageLabel":"Statewide Colorado hydrography context","atlas_context":"statewide_hydrography_context"}},{"type":"Feature","geometry":{"type":"LineString","coordinates":[[-103.5266,39.3153],[-103.5248,39.314],[-103.5238,39.3167],[-103.5225,39.3174]]},"properties":{"name":"Dugout Creek","display_name":"Dugout Creek","source_name":"Dugout Creek","state":"CO","atlas_class":"named_natural_stream_detail","huc8":"10250001","huc8Name":"Arikaree","lineageKey":"statewideContext","lineage":"statewideContext","historic":"statewideContext","current":"statewideContext","recovery":"statewideContext","lineageLabel":"Statewide Colorado hydrography context","atlas_context":"statewide_hydrography_context"}},{"type":"Feature","geometry":{"type":"LineString","coordinates":[[-103.5354,39.3794],[-103.5334,39.3795],[-103.5324,39.3784]]},"properties":{"name":"Lickdab Creek","display_name":"Lickdab Creek","source_name":"Lickdab Creek","state":"CO","atlas_class":"named_natural_stream_detail","huc8":"10250001","huc8Name":"Arikaree","lineageKey":"statewideContext","lineage":"statewideContext","historic":"statewideContext","current":"statewideContext","recovery":"statewideContext","lineageLabel":"Statewide Colorado hydrography context","atlas_context":"statewide_hydrography_context"}},{"type":"Feature","geometry":{"type":"LineString","coordinates":[[-103.5324,39.3784],[-103.5311,39.3781],[-103.5313,39.3791],[-103.5293,39.3803],[-103.5301,39.3812],[-103.5291,39.3825],[-103.53,39.3838],[-103.5296,39.3855],[-103.5279,39.387],[-103.5268,39.3861]]},"properties":{"name":"Lickdab Creek","display_name":"Lickdab Creek","source_name":"Lickdab Creek","state":"CO","atlas_class":"named_natural_stream_detail","huc8":"10250001","huc8Name":"Arikaree","lineageKey":"statewideContext","lineage":"statewideContext","historic":"statewideContext","current":"statewideContext","recovery":"statewideContext","lineageLabel":"Statewide Colorado hydrography context","atlas_context":"statewide_hydrography_context"}},{"type":"Feature","geometry":{"type":"LineString","coordinates":[[-103.5104,39.2942],[-103.5088,39.2958],[-103.5057,39.2955],[-103.5062,39.2972],[-103.5048,39.2978],[-103.5051,39.2988],[-103.5035,39.2982]]},"properties":{"name":"Hell Creek","display_name":"Hell Creek","source_name":"Hell Creek","state":"CO","atlas_class":"named_natural_stream_detail","huc8":"10250001","huc8Name":"Arikaree","lineageKey":"statewideContext","lineage":"statewideContext","historic":"statewideContext","current":"statewideContext","recovery":"statewideContext","lineageLabel":"Statewide Colorado hydrography context","atlas_context":"statewide_hydrography_context"}},{"type":"Feature","geometry":{"type":"LineString","coordinates":[[-103.5169,39.3355],[-103.5163,39.3365]]},"properties":{"name":"Dugout Creek","display_name":"Dugout Creek","source_name":"Dugout Creek","state":"CO","atlas_class":"named_natural_stream_detail","huc8":"10250001","huc8Name":"Arikaree","lineageKey":"statewideContext","lineage":"statewideContext","historic":"statewideContext","current":"statewideContext","recovery":"statewideContext","lineageLabel":"Statewide Colorado hydrography context","atlas_context":"statewide_hydrography_context"}},{"type":"Feature","geometry":{"type":"LineString","coordinates":[[-103.5647,39.3176],[-103.5627,39.3159],[-103.559,39.3162],[-103.5561,39.3151]]},"properties":{"name":"Dugout Creek","display_name":"Dugout Creek","source_name":"Dugout Creek","state":"CO","atlas_class":"named_natural_stream_detail","huc8":"10250001","huc8Name":"Arikaree","lineageKey":"statewideContext","lineage":"statewideContext","historic":"statewideContext","current":"statewideContext","recovery":"statewideContext","lineageLabel":"Statewide Colorado hydrography context","atlas_context":"statewide_hydrography_context"}},{"type":"Feature","geometry":{"type":"LineString","coordinates":[[-103.5817,39.3567],[-103.5785,39.3548],[-103.5779,39.3561],[-103.5754,39.3568]]},"properties":{"name":"Lickdab Creek","display_name":"Lickdab Creek","source_name":"Lickdab Creek","state":"CO","atlas_class":"named_natural_stream_detail","huc8":"10250001","huc8Name":"Arikaree","lineageKey":"statewideContext","lineage":"statewideContext","historic":"statewideContext","current":"statewideContext","recovery":"statewideContext","lineageLabel":"Statewide Colorado hydrography context","atlas_context":"statewide_hydrography_context"}},{"type":"Feature","geometry":{"type":"LineString","coordinates":[[-103.5651,39.3636],[-103.5662,39.3629],[-103.5672,39.364],[-103.5635,39.365],[-103.5598,39.3607],[-103.5584,39.3621]]},"properties":{"name":"Lickdab Creek","display_name":"Lickdab Creek","source_name":"Lickdab Creek","state":"CO","atlas_class":"named_natural_stream_detail","huc8":"10250001","huc8Name":"Arikaree","lineageKey":"statewideContext","lineage":"statewideContext","historic":"statewideContext","current":"statewideContext","recovery":"statewideContext","lineageLabel":"Statewide Colorado hydrography context","atlas_context":"statewide_hydrography_context"}},{"type":"Feature","geometry":{"type":"LineString","coordinates":[[-103.5109,39.3377],[-103.51,39.3384],[-103.5105,39.3392]]},"properties":{"name":"Dugout Creek","display_name":"Dugout Creek","source_name":"Dugout Creek","state":"CO","atlas_class":"named_natural_stream_detail","huc8":"10250001","huc8Name":"Arikaree","lineageKey":"statewideContext","lineage":"statewideContext","historic":"statewideContext","current":"statewideContext","recovery":"statewideContext","lineageLabel":"Statewide Colorado hydrography context","atlas_context":"statewide_hydrography_context"}},{"type":"Feature","geometry":{"type":"LineString","coordinates":[[-103.4246,39.3101],[-103.4229,39.3136],[-103.4242,39.3155],[-103.4222,39.3163]]},"properties":{"name":"Hell Creek","display_name":"Hell Creek","source_name":"Hell Creek","state":"CO","atlas_class":"named_natural_stream_detail","huc8":"10250001","huc8Name":"Arikaree","lineageKey":"statewideContext","lineage":"statewideContext","historic":"statewideContext","current":"statewideContext","recovery":"statewideContext","lineageLabel":"Statewide Colorado hydrography context","atlas_context":"statewide_hydrography_context"}},{"type":"Feature","geometry":{"type":"LineString","coordinates":[[-103.484,39.3959],[-103.4826,39.3967],[-103.4822,39.398],[-103.4788,39.3994],[-103.4775,39.3989]]},"properties":{"name":"Lickdab Creek","display_name":"Lickdab Creek","source_name":"Lickdab Creek","state":"CO","atlas_class":"named_natural_stream_detail","huc8":"10250001","huc8Name":"Arikaree","lineageKey":"statewideContext","lineage":"statewideContext","historic":"statewideContext","current":"statewideContext","recovery":"statewideContext","lineageLabel":"Statewide Colorado hydrography context","atlas_context":"statewide_hydrography_context"}},{"type":"Feature","geometry":{"type":"LineString","coordinates":[[-103.5338,39.3145],[-103.5333,39.3137],[-103.531,39.3146]]},"properties":{"name":"Dugout Creek","display_name":"Dugout Creek","source_name":"Dugout Creek","state":"CO","atlas_class":"named_natural_stream_detail","huc8":"10250001","huc8Name":"Arikaree","lineageKey":"statewideContext","lineage":"statewideContext","historic":"statewideContext","current":"statewideContext","recovery":"statewideContext","lineageLabel":"Statewide Colorado hydrography context","atlas_context":"statewide_hydrography_context"}},{"type":"Feature","geometry":{"type":"LineString","coordinates":[[-103.5423,39.3716],[-103.5409,39.3726],[-103.5425,39.3728]]},"properties":{"name":"Lickdab Creek","display_name":"Lickdab Creek","source_name":"Lickdab Creek","state":"CO","atlas_class":"named_natural_stream_detail","huc8":"10250001","huc8Name":"Arikaree","lineageKey":"statewideContext","lineage":"statewideContext","historic":"statewideContext","current":"statewideContext","recovery":"statewideContext","lineageLabel":"Statewide Colorado hydrography context","atlas_context":"statewide_hydrography_context"}},{"type":"Feature","geometry":{"type":"LineString","coordinates":[[-103.418,39.2606],[-103.4163,39.2599],[-103.4139,39.2613],[-103.4135,39.2602]]},"properties":{"name":"Hackberry Creek","display_name":"Hackberry Creek","source_name":"Hackberry Creek","state":"CO","atlas_class":"named_natural_stream_detail","huc8":"10250001","huc8Name":"Arikaree","lineageKey":"statewideContext","lineage":"statewideContext","historic":"statewideContext","current":"statewideContext","recovery":"statewideContext","lineageLabel":"Statewide Colorado hydrography context","atlas_context":"statewide_hydrography_context"}},{"type":"Feature","geometry":{"type":"LineString","coordinates":[[-103.5572,39.2908],[-103.5534,39.2902],[-103.5514,39.2884],[-103.5444,39.2863]]},"properties":{"name":"Hell Creek","display_name":"Hell Creek","source_name":"Hell Creek","state":"CO","atlas_class":"named_natural_stream_detail","huc8":"10250001","huc8Name":"Arikaree","lineageKey":"statewideContext","lineage":"statewideContext","historic":"statewideContext","current":"statewideContext","recovery":"statewideContext","lineageLabel":"Statewide Colorado hydrography context","atlas_context":"statewide_hydrography_context"}},{"type":"Feature","geometry":{"type":"LineString","coordinates":[[-103.5109,39.2932],[-103.5111,39.2941]]},"properties":{"name":"Hell Creek","display_name":"Hell Creek","source_name":"Hell Creek","state":"CO","atlas_class":"named_natural_stream_detail","huc8":"10250001","huc8Name":"Arikaree","lineageKey":"statewideContext","lineage":"statewideContext","historic":"statewideContext","current":"statewideContext","recovery":"statewideContext","lineageLabel":"Statewide Colorado hydrography context","atlas_context":"statewide_hydrography_context"}},{"type":"Feature","geometry":{"type":"LineString","coordinates":[[-103.5155,39.3362],[-103.5143,39.3358],[-103.5143,39.3365]]},"properties":{"name":"Dugout Creek","display_name":"Dugout Creek","source_name":"Dugout Creek","state":"CO","atlas_class":"named_natural_stream_detail","huc8":"10250001","huc8Name":"Arikaree","lineageKey":"statewideContext","lineage":"statewideContext","historic":"statewideContext","current":"statewideContext","recovery":"statewideContext","lineageLabel":"Statewide Colorado hydrography context","atlas_context":"statewide_hydrography_context"}},{"type":"Feature","geometry":{"type":"LineString","coordinates":[[-103.526,39.3862],[-103.5261,39.3879]]},"properties":{"name":"Lickdab Creek","display_name":"Lickdab Creek","source_name":"Lickdab Creek","state":"CO","atlas_class":"named_natural_stream_detail","huc8":"10250001","huc8Name":"Arikaree","lineageKey":"statewideContext","lineage":"statewideContext","historic":"statewideContext","current":"statewideContext","recovery":"statewideContext","lineageLabel":"Statewide Colorado hydrography context","atlas_context":"statewide_hydrography_context"}},{"type":"Feature","geometry":{"type":"LineString","coordinates":[[-103.5175,39.3337],[-103.5193,39.3353]]},"properties":{"name":"Dugout Creek","display_name":"Dugout Creek","source_name":"Dugout Creek","state":"CO","atlas_class":"named_natural_stream_detail","huc8":"10250001","huc8Name":"Arikaree","lineageKey":"statewideContext","lineage":"statewideContext","historic":"statewideContext","current":"statewideContext","recovery":"statewideContext","lineageLabel":"Statewide Colorado hydrography context","atlas_context":"statewide_hydrography_context"}},{"type":"Feature","geometry":{"type":"LineString","coordinates":[[-103.5147,39.3988],[-103.5099,39.3977]]},"properties":{"name":"Lickdab Creek","display_name":"Lickdab Creek","source_name":"Lickdab Creek","state":"CO","atlas_class":"named_natural_stream_detail","huc8":"10250001","huc8Name":"Arikaree","lineageKey":"statewideContext","lineage":"statewideContext","historic":"statewideContext","current":"statewideContext","recovery":"statewideContext","lineageLabel":"Statewide Colorado hydrography context","atlas_context":"statewide_hydrography_context"}},{"type":"Feature","geometry":{"type":"LineString","coordinates":[[-103.5957,39.3245],[-103.5908,39.3217],[-103.5881,39.3219]]},"properties":{"name":"Dugout Creek","display_name":"Dugout Creek","source_name":"Dugout Creek","state":"CO","atlas_class":"named_natural_stream_detail","huc8":"10250001","huc8Name":"Arikaree","lineageKey":"statewideContext","lineage":"statewideContext","historic":"statewideContext","current":"statewideContext","recovery":"statewideContext","lineageLabel":"Statewide Colorado hydrography context","atlas_context":"statewide_hydrography_context"}},{"type":"Feature","geometry":{"type":"LineString","coordinates":[[-103.4525,39.3058],[-103.4507,39.3048],[-103.4482,39.3054],[-103.447,39.3031],[-103.4451,39.304],[-103.4446,39.3028]]},"properties":{"name":"Hell Creek","display_name":"Hell Creek","source_name":"Hell Creek","state":"CO","atlas_class":"named_natural_stream_detail","huc8":"10250001","huc8Name":"Arikaree","lineageKey":"statewideContext","lineage":"statewideContext","historic":"statewideContext","current":"statewideContext","recovery":"statewideContext","lineageLabel":"Statewide Colorado hydrography context","atlas_context":"statewide_hydrography_context"}},{"type":"Feature","geometry":{"type":"LineString","coordinates":[[-103.4418,39.3686],[-103.438,39.37]]},"properties":{"name":"Dugout Creek","display_name":"Dugout Creek","source_name":"Dugout Creek","state":"CO","atlas_class":"named_natural_stream_detail","huc8":"10250001","huc8Name":"Arikaree","lineageKey":"statewideContext","lineage":"statewideContext","historic":"statewideContext","current":"statewideContext","recovery":"statewideContext","lineageLabel":"Statewide Colorado hydrography context","atlas_context":"statewide_hydrography_context"}},{"type":"Feature","geometry":{"type":"LineString","coordinates":[[-103.4889,39.3497],[-103.4862,39.3486],[-103.4807,39.3489],[-103.4788,39.3459]]},"properties":{"name":"Dugout Creek","display_name":"Dugout Creek","source_name":"Dugout Creek","state":"CO","atlas_class":"named_natural_stream_detail","huc8":"10250001","huc8Name":"Arikaree","lineageKey":"statewideContext","lineage":"statewideContext","historic":"statewideContext","current":"statewideContext","recovery":"statewideContext","lineageLabel":"Statewide Colorado hydrography context","atlas_context":"statewide_hydrography_context"}},{"type":"Feature","geometry":{"type":"LineString","coordinates":[[-103.4788,39.3459],[-103.475,39.3431],[-103.4744,39.3409]]},"properties":{"name":"Dugout Creek","display_name":"Dugout Creek","source_name":"Dugout Creek","state":"CO","atlas_class":"named_natural_stream_detail","huc8":"10250001","huc8Name":"Arikaree","lineageKey":"statewideContext","lineage":"statewideContext","historic":"statewideContext","current":"statewideContext","recovery":"statewideContext","lineageLabel":"Statewide Colorado hydrography context","atlas_context":"statewide_hydrography_context"}},{"type":"Feature","geometry":{"type":"LineString","coordinates":[[-103.4742,39.3408],[-103.4724,39.3406],[-103.4707,39.3392],[-103.469,39.3406]]},"properties":{"name":"Dugout Creek","display_name":"Dugout Creek","source_name":"Dugout Creek","state":"CO","atlas_class":"named_natural_stream_detail","huc8":"10250001","huc8Name":"Arikaree","lineageKey":"statewideContext","lineage":"statewideContext","historic":"statewideContext","current":"statewideContext","recovery":"statewideContext","lineageLabel":"Statewide Colorado hydrography context","atlas_context":"statewide_hydrography_context"}},{"type":"Feature","geometry":{"type":"LineString","coordinates":[[-103.457,39.3481],[-103.4565,39.3492],[-103.4596,39.3493],[-103.4566,39.3534],[-103.4527,39.3526]]},"properties":{"name":"Dugout Creek","display_name":"Dugout Creek","source_name":"Dugout Creek","state":"CO","atlas_class":"named_natural_stream_detail","huc8":"10250001","huc8Name":"Arikaree","lineageKey":"statewideContext","lineage":"statewideContext","historic":"statewideContext","current":"statewideContext","recovery":"statewideContext","lineageLabel":"Statewide Colorado hydrography context","atlas_context":"statewide_hydrography_context"}},{"type":"Feature","geometry":{"type":"LineString","coordinates":[[-103.5739,39.3178],[-103.5734,39.3179]]},"properties":{"name":"Dugout Creek","display_name":"Dugout Creek","source_name":"Dugout Creek","state":"CO","atlas_class":"named_natural_stream_detail","huc8":"10250001","huc8Name":"Arikaree","lineageKey":"statewideContext","lineage":"statewideContext","historic":"statewideContext","current":"statewideContext","recovery":"statewideContext","lineageLabel":"Statewide Colorado hydrography context","atlas_context":"statewide_hydrography_context"}},{"type":"Feature","geometry":{"type":"LineString","coordinates":[[-103.5706,39.3167],[-103.5694,39.3174],[-103.5666,39.3159],[-103.5647,39.3176]]},"properties":{"name":"Dugout Creek","display_name":"Dugout Creek","source_name":"Dugout Creek","state":"CO","atlas_class":"named_natural_stream_detail","huc8":"10250001","huc8Name":"Arikaree","lineageKey":"statewideContext","lineage":"statewideContext","historic":"statewideContext","current":"statewideContext","recovery":"statewideContext","lineageLabel":"Statewide Colorado hydrography context","atlas_context":"statewide_hydrography_context"}},{"type":"Feature","geometry":{"type":"LineString","coordinates":[[-103.4577,39.3478],[-103.457,39.3481]]},"properties":{"name":"Dugout Creek","display_name":"Dugout Creek","source_name":"Dugout Creek","state":"CO","atlas_class":"named_natural_stream_detail","huc8":"10250001","huc8Name":"Arikaree","lineageKey":"statewideContext","lineage":"statewideContext","historic":"statewideContext","current":"statewideContext","recovery":"statewideContext","lineageLabel":"Statewide Colorado hydrography context","atlas_context":"statewide_hydrography_context"}},{"type":"Feature","geometry":{"type":"LineString","coordinates":[[-103.4222,39.3163],[-103.4208,39.3186],[-103.4241,39.3182],[-103.4248,39.3189]]},"properties":{"name":"Hell Creek","display_name":"Hell Creek","source_name":"Hell Creek","state":"CO","atlas_class":"named_natural_stream_detail","huc8":"10250001","huc8Name":"Arikaree","lineageKey":"statewideContext","lineage":"statewideContext","historic":"statewideContext","current":"statewideContext","recovery":"statewideContext","lineageLabel":"Statewide Colorado hydrography context","atlas_context":"statewide_hydrography_context"}},{"type":"Feature","geometry":{"type":"LineString","coordinates":[[-103.5418,39.2857],[-103.5412,39.286]]},"properties":{"name":"Hell Creek","display_name":"Hell Creek","source_name":"Hell Creek","state":"CO","atlas_class":"named_natural_stream_detail","huc8":"10250001","huc8Name":"Arikaree","lineageKey":"statewideContext","lineage":"statewideContext","historic":"statewideContext","current":"statewideContext","recovery":"statewideContext","lineageLabel":"Statewide Colorado hydrography context","atlas_context":"statewide_hydrography_context"}},{"type":"Feature","geometry":{"type":"LineString","coordinates":[[-103.5494,39.3134],[-103.5477,39.3131]]},"properties":{"name":"Dugout Creek","display_name":"Dugout Creek","source_name":"Dugout Creek","state":"CO","atlas_class":"named_natural_stream_detail","huc8":"10250001","huc8Name":"Arikaree","lineageKey":"statewideContext","lineage":"statewideContext","historic":"statewideContext","current":"statewideContext","recovery":"statewideContext","lineageLabel":"Statewide Colorado hydrography context","atlas_context":"statewide_hydrography_context"}},{"type":"Feature","geometry":{"type":"LineString","coordinates":[[-103.5047,39.3458],[-103.5042,39.3462]]},"properties":{"name":"Dugout Creek","display_name":"Dugout Creek","source_name":"Dugout Creek","state":"CO","atlas_class":"named_natural_stream_detail","huc8":"10250001","huc8Name":"Arikaree","lineageKey":"statewideContext","lineage":"statewideContext","historic":"statewideContext","current":"statewideContext","recovery":"statewideContext","lineageLabel":"Statewide Colorado hydrography context","atlas_context":"statewide_hydrography_context"}},{"type":"Feature","geometry":{"type":"LineString","coordinates":[[-103.5171,39.3352],[-103.5169,39.3355]]},"properties":{"name":"Dugout Creek","display_name":"Dugout Creek","source_name":"Dugout Creek","state":"CO","atlas_class":"named_natural_stream_detail","huc8":"10250001","huc8Name":"Arikaree","lineageKey":"statewideContext","lineage":"statewideContext","historic":"statewideContext","current":"statewideContext","recovery":"statewideContext","lineageLabel":"Statewide Colorado hydrography context","atlas_context":"statewide_hydrography_context"}},{"type":"Feature","geometry":{"type":"LineString","coordinates":[[-103.5194,39.3307],[-103.5159,39.3314],[-103.5177,39.3328]]},"properties":{"name":"Dugout Creek","display_name":"Dugout Creek","source_name":"Dugout Creek","state":"CO","atlas_class":"named_natural_stream_detail","huc8":"10250001","huc8Name":"Arikaree","lineageKey":"statewideContext","lineage":"statewideContext","historic":"statewideContext","current":"statewideContext","recovery":"statewideContext","lineageLabel":"Statewide Colorado hydrography context","atlas_context":"statewide_hydrography_context"}},{"type":"Feature","geometry":{"type":"LineString","coordinates":[[-103.511,39.3396],[-103.5116,39.3413],[-103.508,39.3406],[-103.5094,39.3435],[-103.509,39.3447],[-103.5075,39.3447],[-103.5078,39.3457],[-103.5066,39.3466]]},"properties":{"name":"Dugout Creek","display_name":"Dugout Creek","source_name":"Dugout Creek","state":"CO","atlas_class":"named_natural_stream_detail","huc8":"10250001","huc8Name":"Arikaree","lineageKey":"statewideContext","lineage":"statewideContext","historic":"statewideContext","current":"statewideContext","recovery":"statewideContext","lineageLabel":"Statewide Colorado hydrography context","atlas_context":"statewide_hydrography_context"}},{"type":"Feature","geometry":{"type":"LineString","coordinates":[[-103.5057,39.346],[-103.5061,39.3447],[-103.505,39.3453]]},"properties":{"name":"Dugout Creek","display_name":"Dugout Creek","source_name":"Dugout Creek","state":"CO","atlas_class":"named_natural_stream_detail","huc8":"10250001","huc8Name":"Arikaree","lineageKey":"statewideContext","lineage":"statewideContext","historic":"statewideContext","current":"statewideContext","recovery":"statewideContext","lineageLabel":"Statewide Colorado hydrography context","atlas_context":"statewide_hydrography_context"}},{"type":"Feature","geometry":{"type":"LineString","coordinates":[[-103.4956,39.3104],[-103.4953,39.3128]]},"properties":{"name":"Hell Creek","display_name":"Hell Creek","source_name":"Hell Creek","state":"CO","atlas_class":"named_natural_stream_detail","huc8":"10250001","huc8Name":"Arikaree","lineageKey":"statewideContext","lineage":"statewideContext","historic":"statewideContext","current":"statewideContext","recovery":"statewideContext","lineageLabel":"Statewide Colorado hydrography context","atlas_context":"statewide_hydrography_context"}},{"type":"Feature","geometry":{"type":"LineString","coordinates":[[-103.4669,39.3486],[-103.4636,39.3499],[-103.4614,39.3476]]},"properties":{"name":"Dugout Creek","display_name":"Dugout Creek","source_name":"Dugout Creek","state":"CO","atlas_class":"named_natural_stream_detail","huc8":"10250001","huc8Name":"Arikaree","lineageKey":"statewideContext","lineage":"statewideContext","historic":"statewideContext","current":"statewideContext","recovery":"statewideContext","lineageLabel":"Statewide Colorado hydrography context","atlas_context":"statewide_hydrography_context"}},{"type":"Feature","geometry":{"type":"LineString","coordinates":[[-103.4607,39.3464],[-103.4594,39.3457],[-103.4577,39.3478]]},"properties":{"name":"Dugout Creek","display_name":"Dugout Creek","source_name":"Dugout Creek","state":"CO","atlas_class":"named_natural_stream_detail","huc8":"10250001","huc8Name":"Arikaree","lineageKey":"statewideContext","lineage":"statewideContext","historic":"statewideContext","current":"statewideContext","recovery":"statewideContext","lineageLabel":"Statewide Colorado hydrography context","atlas_context":"statewide_hydrography_context"}},{"type":"Feature","geometry":{"type":"LineString","coordinates":[[-103.4488,39.3555],[-103.4501,39.3586]]},"properties":{"name":"Dugout Creek","display_name":"Dugout Creek","source_name":"Dugout Creek","state":"CO","atlas_class":"named_natural_stream_detail","huc8":"10250001","huc8Name":"Arikaree","lineageKey":"statewideContext","lineage":"statewideContext","historic":"statewideContext","current":"statewideContext","recovery":"statewideContext","lineageLabel":"Statewide Colorado hydrography context","atlas_context":"statewide_hydrography_context"}},{"type":"Feature","geometry":{"type":"LineString","coordinates":[[-103.6056,39.321],[-103.5999,39.3238],[-103.5957,39.3245]]},"properties":{"name":"Dugout Creek","display_name":"Dugout Creek","source_name":"Dugout Creek","state":"CO","atlas_class":"named_natural_stream_detail","huc8":"10250001","huc8Name":"Arikaree","lineageKey":"statewideContext","lineage":"statewideContext","historic":"statewideContext","current":"statewideContext","recovery":"statewideContext","lineageLabel":"Statewide Colorado hydrography context","atlas_context":"statewide_hydrography_context"}},{"type":"Feature","geometry":{"type":"LineString","coordinates":[[-103.4433,39.3681],[-103.4418,39.3686]]},"properties":{"name":"Dugout Creek","display_name":"Dugout Creek","source_name":"Dugout Creek","state":"CO","atlas_class":"named_natural_stream_detail","huc8":"10250001","huc8Name":"Arikaree","lineageKey":"statewideContext","lineage":"statewideContext","historic":"statewideContext","current":"statewideContext","recovery":"statewideContext","lineageLabel":"Statewide Colorado hydrography context","atlas_context":"statewide_hydrography_context"}},{"type":"Feature","geometry":{"type":"LineString","coordinates":[[-103.5178,39.3356],[-103.5176,39.3352]]},"properties":{"name":"Dugout Creek","display_name":"Dugout Creek","source_name":"Dugout Creek","state":"CO","atlas_class":"named_natural_stream_detail","huc8":"10250001","huc8Name":"Arikaree","lineageKey":"statewideContext","lineage":"statewideContext","historic":"statewideContext","current":"statewideContext","recovery":"statewideContext","lineageLabel":"Statewide Colorado hydrography context","atlas_context":"statewide_hydrography_context"}},{"type":"Feature","geometry":{"type":"LineString","coordinates":[[-103.4446,39.3028],[-103.4432,39.3025],[-103.4409,39.3035],[-103.4387,39.3022],[-103.4366,39.3034],[-103.4363,39.3052],[-103.4344,39.3044]]},"properties":{"name":"Hell Creek","display_name":"Hell Creek","source_name":"Hell Creek","state":"CO","atlas_class":"named_natural_stream_detail","huc8":"10250001","huc8Name":"Arikaree","lineageKey":"statewideContext","lineage":"statewideContext","historic":"statewideContext","current":"statewideContext","recovery":"statewideContext","lineageLabel":"Statewide Colorado hydrography context","atlas_context":"statewide_hydrography_context"}},{"type":"Feature","geometry":{"type":"LineString","coordinates":[[-103.4457,39.3655],[-103.4443,39.3655],[-103.4433,39.3681]]},"properties":{"name":"Dugout Creek","display_name":"Dugout Creek","source_name":"Dugout Creek","state":"CO","atlas_class":"named_natural_stream_detail","huc8":"10250001","huc8Name":"Arikaree","lineageKey":"statewideContext","lineage":"statewideContext","historic":"statewideContext","current":"statewideContext","recovery":"statewideContext","lineageLabel":"Statewide Colorado hydrography context","atlas_context":"statewide_hydrography_context"}},{"type":"Feature","geometry":{"type":"LineString","coordinates":[[-103.4159,39.3211],[-103.4135,39.3252],[-103.4147,39.3263],[-103.4188,39.3263]]},"properties":{"name":"Hell Creek","display_name":"Hell Creek","source_name":"Hell Creek","state":"CO","atlas_class":"named_natural_stream_detail","huc8":"10250001","huc8Name":"Arikaree","lineageKey":"statewideContext","lineage":"statewideContext","historic":"statewideContext","current":"statewideContext","recovery":"statewideContext","lineageLabel":"Statewide Colorado hydrography context","atlas_context":"statewide_hydrography_context"}},{"type":"Feature","geometry":{"type":"LineString","coordinates":[[-103.5299,39.2814],[-103.5285,39.2808],[-103.528,39.2822],[-103.526,39.2832],[-103.5244,39.2823],[-103.5228,39.2831],[-103.521,39.2817]]},"properties":{"name":"Hell Creek","display_name":"Hell Creek","source_name":"Hell Creek","state":"CO","atlas_class":"named_natural_stream_detail","huc8":"10250001","huc8Name":"Arikaree","lineageKey":"statewideContext","lineage":"statewideContext","historic":"statewideContext","current":"statewideContext","recovery":"statewideContext","lineageLabel":"Statewide Colorado hydrography context","atlas_context":"statewide_hydrography_context"}},{"type":"Feature","geometry":{"type":"LineString","coordinates":[[-103.5427,39.3738],[-103.5426,39.374]]},"properties":{"name":"Lickdab Creek","display_name":"Lickdab Creek","source_name":"Lickdab Creek","state":"CO","atlas_class":"named_natural_stream_detail","huc8":"10250001","huc8Name":"Arikaree","lineageKey":"statewideContext","lineage":"statewideContext","historic":"statewideContext","current":"statewideContext","recovery":"statewideContext","lineageLabel":"Statewide Colorado hydrography context","atlas_context":"statewide_hydrography_context"}},{"type":"Feature","geometry":{"type":"LineString","coordinates":[[-103.5412,39.286],[-103.54,39.2859],[-103.5343,39.2814],[-103.5315,39.2809]]},"properties":{"name":"Hell Creek","display_name":"Hell Creek","source_name":"Hell Creek","state":"CO","atlas_class":"named_natural_stream_detail","huc8":"10250001","huc8Name":"Arikaree","lineageKey":"statewideContext","lineage":"statewideContext","historic":"statewideContext","current":"statewideContext","recovery":"statewideContext","lineageLabel":"Statewide Colorado hydrography context","atlas_context":"statewide_hydrography_context"}},{"type":"Feature","geometry":{"type":"LineString","coordinates":[[-103.5364,39.3152],[-103.534,39.3148]]},"properties":{"name":"Dugout Creek","display_name":"Dugout Creek","source_name":"Dugout Creek","state":"CO","atlas_class":"named_natural_stream_detail","huc8":"10250001","huc8Name":"Arikaree","lineageKey":"statewideContext","lineage":"statewideContext","historic":"statewideContext","current":"statewideContext","recovery":"statewideContext","lineageLabel":"Statewide Colorado hydrography context","atlas_context":"statewide_hydrography_context"}},{"type":"Feature","geometry":{"type":"LineString","coordinates":[[-103.555,39.314],[-103.5531,39.3137],[-103.5527,39.3143],[-103.5513,39.3133],[-103.5496,39.3133]]},"properties":{"name":"Dugout Creek","display_name":"Dugout Creek","source_name":"Dugout Creek","state":"CO","atlas_class":"named_natural_stream_detail","huc8":"10250001","huc8Name":"Arikaree","lineageKey":"statewideContext","lineage":"statewideContext","historic":"statewideContext","current":"statewideContext","recovery":"statewideContext","lineageLabel":"Statewide Colorado hydrography context","atlas_context":"statewide_hydrography_context"}},{"type":"Feature","geometry":{"type":"LineString","coordinates":[[-103.5215,39.3179],[-103.5208,39.3191],[-103.5199,39.3191],[-103.522,39.3205]]},"properties":{"name":"Dugout Creek","display_name":"Dugout Creek","source_name":"Dugout Creek","state":"CO","atlas_class":"named_natural_stream_detail","huc8":"10250001","huc8Name":"Arikaree","lineageKey":"statewideContext","lineage":"statewideContext","historic":"statewideContext","current":"statewideContext","recovery":"statewideContext","lineageLabel":"Statewide Colorado hydrography context","atlas_context":"statewide_hydrography_context"}},{"type":"Feature","geometry":{"type":"LineString","coordinates":[[-103.4775,39.3989],[-103.4767,39.4004],[-103.4793,39.4024],[-103.4754,39.4036]]},"properties":{"name":"Lickdab Creek","display_name":"Lickdab Creek","source_name":"Lickdab Creek","state":"CO","atlas_class":"named_natural_stream_detail","huc8":"10250001","huc8Name":"Arikaree","lineageKey":"statewideContext","lineage":"statewideContext","historic":"statewideContext","current":"statewideContext","recovery":"statewideContext","lineageLabel":"Statewide Colorado hydrography context","atlas_context":"statewide_hydrography_context"}},{"type":"Feature","geometry":{"type":"LineString","coordinates":[[-103.4705,39.3146],[-103.4636,39.3108],[-103.4614,39.3113],[-103.4614,39.3097],[-103.459,39.31],[-103.4591,39.3088],[-103.4576,39.3086],[-103.4574,39.3073],[-103.4551,39.3073]]},"properties":{"name":"Hell Creek","display_name":"Hell Creek","source_name":"Hell Creek","state":"CO","atlas_class":"named_natural_stream_detail","huc8":"10250001","huc8Name":"Arikaree","lineageKey":"statewideContext","lineage":"statewideContext","historic":"statewideContext","current":"statewideContext","recovery":"statewideContext","lineageLabel":"Statewide Colorado hydrography context","atlas_context":"statewide_hydrography_context"}},{"type":"Feature","geometry":{"type":"LineString","coordinates":[[-103.4037,39.3307],[-103.403,39.3317],[-103.4015,39.3318],[-103.4006,39.3309],[-103.4012,39.3292]]},"properties":{"name":"Hell Creek","display_name":"Hell Creek","source_name":"Hell Creek","state":"CO","atlas_class":"named_natural_stream_detail","huc8":"10250001","huc8Name":"Arikaree","lineageKey":"statewideContext","lineage":"statewideContext","historic":"statewideContext","current":"statewideContext","recovery":"statewideContext","lineageLabel":"Statewide Colorado hydrography context","atlas_context":"statewide_hydrography_context"}},{"type":"Feature","geometry":{"type":"LineString","coordinates":[[-103.4839,39.3129],[-103.4824,39.313],[-103.4824,39.3146],[-103.481,39.3131],[-103.4791,39.3128],[-103.4757,39.3143],[-103.4752,39.3133],[-103.4735,39.3132],[-103.4733,39.3152],[-103.4705,39.3146]]},"properties":{"name":"Hell Creek","display_name":"Hell Creek","source_name":"Hell Creek","state":"CO","atlas_class":"named_natural_stream_detail","huc8":"10250001","huc8Name":"Arikaree","lineageKey":"statewideContext","lineage":"statewideContext","historic":"statewideContext","current":"statewideContext","recovery":"statewideContext","lineageLabel":"Statewide Colorado hydrography context","atlas_context":"statewide_hydrography_context"}},{"type":"Feature","geometry":{"type":"LineString","coordinates":[[-103.4527,39.3526],[-103.4501,39.3524],[-103.4501,39.3542],[-103.4483,39.3542],[-103.4488,39.3555]]},"properties":{"name":"Dugout Creek","display_name":"Dugout Creek","source_name":"Dugout Creek","state":"CO","atlas_class":"named_natural_stream_detail","huc8":"10250001","huc8Name":"Arikaree","lineageKey":"statewideContext","lineage":"statewideContext","historic":"statewideContext","current":"statewideContext","recovery":"statewideContext","lineageLabel":"Statewide Colorado hydrography context","atlas_context":"statewide_hydrography_context"}},{"type":"Feature","geometry":{"type":"LineString","coordinates":[[-103.4248,39.3189],[-103.4231,39.3203],[-103.423,39.3216],[-103.4178,39.3209]]},"properties":{"name":"Hell Creek","display_name":"Hell Creek","source_name":"Hell Creek","state":"CO","atlas_class":"named_natural_stream_detail","huc8":"10250001","huc8Name":"Arikaree","lineageKey":"statewideContext","lineage":"statewideContext","historic":"statewideContext","current":"statewideContext","recovery":"statewideContext","lineageLabel":"Statewide Colorado hydrography context","atlas_context":"statewide_hydrography_context"}},{"type":"Feature","geometry":{"type":"LineString","coordinates":[[-103.4501,39.3586],[-103.4477,39.3599],[-103.4508,39.3624],[-103.4491,39.3643],[-103.4466,39.3652]]},"properties":{"name":"Dugout Creek","display_name":"Dugout Creek","source_name":"Dugout Creek","state":"CO","atlas_class":"named_natural_stream_detail","huc8":"10250001","huc8Name":"Arikaree","lineageKey":"statewideContext","lineage":"statewideContext","historic":"statewideContext","current":"statewideContext","recovery":"statewideContext","lineageLabel":"Statewide Colorado hydrography context","atlas_context":"statewide_hydrography_context"}},{"type":"Feature","geometry":{"type":"LineString","coordinates":[[-103.4744,39.3409],[-103.4742,39.3408]]},"properties":{"name":"Dugout Creek","display_name":"Dugout Creek","source_name":"Dugout Creek","state":"CO","atlas_class":"named_natural_stream_detail","huc8":"10250001","huc8Name":"Arikaree","lineageKey":"statewideContext","lineage":"statewideContext","historic":"statewideContext","current":"statewideContext","recovery":"statewideContext","lineageLabel":"Statewide Colorado hydrography context","atlas_context":"statewide_hydrography_context"}},{"type":"Feature","geometry":{"type":"LineString","coordinates":[[-103.469,39.3406],[-103.4679,39.3412]]},"properties":{"name":"Dugout Creek","display_name":"Dugout Creek","source_name":"Dugout Creek","state":"CO","atlas_class":"named_natural_stream_detail","huc8":"10250001","huc8Name":"Arikaree","lineageKey":"statewideContext","lineage":"statewideContext","historic":"statewideContext","current":"statewideContext","recovery":"statewideContext","lineageLabel":"Statewide Colorado hydrography context","atlas_context":"statewide_hydrography_context"}},{"type":"Feature","geometry":{"type":"LineString","coordinates":[[-103.4679,39.3412],[-103.4706,39.342],[-103.4699,39.3437],[-103.4718,39.3461],[-103.4691,39.346],[-103.4686,39.3472],[-103.4716,39.3482],[-103.4689,39.3499],[-103.4669,39.3486]]},"properties":{"name":"Dugout Creek","display_name":"Dugout Creek","source_name":"Dugout Creek","state":"CO","atlas_class":"named_natural_stream_detail","huc8":"10250001","huc8Name":"Arikaree","lineageKey":"statewideContext","lineage":"statewideContext","historic":"statewideContext","current":"statewideContext","recovery":"statewideContext","lineageLabel":"Statewide Colorado hydrography context","atlas_context":"statewide_hydrography_context"}},{"type":"Feature","geometry":{"type":"LineString","coordinates":[[-103.4012,39.3292],[-103.3999,39.3291],[-103.3991,39.3306],[-103.3951,39.333]]},"properties":{"name":"Hell Creek","display_name":"Hell Creek","source_name":"Hell Creek","state":"CO","atlas_class":"named_natural_stream_detail","huc8":"10250001","huc8Name":"Arikaree","lineageKey":"statewideContext","lineage":"statewideContext","historic":"statewideContext","current":"statewideContext","recovery":"statewideContext","lineageLabel":"Statewide Colorado hydrography context","atlas_context":"statewide_hydrography_context"}},{"type":"Feature","geometry":{"type":"LineString","coordinates":[[-103.4262,39.2594],[-103.4223,39.2607],[-103.4206,39.2598],[-103.4208,39.2589],[-103.4196,39.2595]]},"properties":{"name":"Hackberry Creek","display_name":"Hackberry Creek","source_name":"Hackberry Creek","state":"CO","atlas_class":"named_natural_stream_detail","huc8":"10250001","huc8Name":"Arikaree","lineageKey":"statewideContext","lineage":"statewideContext","historic":"statewideContext","current":"statewideContext","recovery":"statewideContext","lineageLabel":"Statewide Colorado hydrography context","atlas_context":"statewide_hydrography_context"}},{"type":"Feature","geometry":{"type":"LineString","coordinates":[[-103.5099,39.3977],[-103.5058,39.3984],[-103.5029,39.4012],[-103.5023,39.4005],[-103.5039,39.3998],[-103.5036,39.3989],[-103.5012,39.399],[-103.5002,39.4005],[-103.4983,39.3991],[-103.4973,39.397],[-103.4955,39.3974],[-103.4942,39.3963],[-103.4909,39.3962],[-103.4901,39.3952],[-103.4886,39.3956],[-103.487,39.3945],[-103.484,39.3959]]},"properties":{"name":"Lickdab Creek","display_name":"Lickdab Creek","source_name":"Lickdab Creek","state":"CO","atlas_class":"named_natural_stream_detail","huc8":"10250001","huc8Name":"Arikaree","lineageKey":"statewideContext","lineage":"statewideContext","historic":"statewideContext","current":"statewideContext","recovery":"statewideContext","lineageLabel":"Statewide Colorado hydrography context","atlas_context":"statewide_hydrography_context"}},{"type":"Feature","geometry":{"type":"LineString","coordinates":[[-103.5146,39.2898],[-103.5121,39.2907]]},"properties":{"name":"Hell Creek","display_name":"Hell Creek","source_name":"Hell Creek","state":"CO","atlas_class":"named_natural_stream_detail","huc8":"10250001","huc8Name":"Arikaree","lineageKey":"statewideContext","lineage":"statewideContext","historic":"statewideContext","current":"statewideContext","recovery":"statewideContext","lineageLabel":"Statewide Colorado hydrography context","atlas_context":"statewide_hydrography_context"}},{"type":"Feature","geometry":{"type":"LineString","coordinates":[[-103.5108,39.292],[-103.5118,39.2928]]},"properties":{"name":"Hell Creek","display_name":"Hell Creek","source_name":"Hell Creek","state":"CO","atlas_class":"named_natural_stream_detail","huc8":"10250001","huc8Name":"Arikaree","lineageKey":"statewideContext","lineage":"statewideContext","historic":"statewideContext","current":"statewideContext","recovery":"statewideContext","lineageLabel":"Statewide Colorado hydrography context","atlas_context":"statewide_hydrography_context"}},{"type":"Feature","geometry":{"type":"LineString","coordinates":[[-103.518,39.324],[-103.5194,39.3246],[-103.5195,39.3258],[-103.5184,39.3265],[-103.5193,39.3271],[-103.5181,39.3275],[-103.5202,39.3281],[-103.5196,39.329],[-103.5202,39.3303]]},"properties":{"name":"Dugout Creek","display_name":"Dugout Creek","source_name":"Dugout Creek","state":"CO","atlas_class":"named_natural_stream_detail","huc8":"10250001","huc8Name":"Arikaree","lineageKey":"statewideContext","lineage":"statewideContext","historic":"statewideContext","current":"statewideContext","recovery":"statewideContext","lineageLabel":"Statewide Colorado hydrography context","atlas_context":"statewide_hydrography_context"}},{"type":"Feature","geometry":{"type":"LineString","coordinates":[[-103.5171,39.3961],[-103.5183,39.3969],[-103.5183,39.3984]]},"properties":{"name":"Lickdab Creek","display_name":"Lickdab Creek","source_name":"Lickdab Creek","state":"CO","atlas_class":"named_natural_stream_detail","huc8":"10250001","huc8Name":"Arikaree","lineageKey":"statewideContext","lineage":"statewideContext","historic":"statewideContext","current":"statewideContext","recovery":"statewideContext","lineageLabel":"Statewide Colorado hydrography context","atlas_context":"statewide_hydrography_context"}},{"type":"Feature","geometry":{"type":"LineString","coordinates":[[-103.5745,39.3569],[-103.5742,39.3569]]},"properties":{"name":"Lickdab Creek","display_name":"Lickdab Creek","source_name":"Lickdab Creek","state":"CO","atlas_class":"named_natural_stream_detail","huc8":"10250001","huc8Name":"Arikaree","lineageKey":"statewideContext","lineage":"statewideContext","historic":"statewideContext","current":"statewideContext","recovery":"statewideContext","lineageLabel":"Statewide Colorado hydrography context","atlas_context":"statewide_hydrography_context"}},{"type":"Feature","geometry":{"type":"LineString","coordinates":[[-103.4117,39.3303],[-103.4087,39.3301],[-103.407,39.3317]]},"properties":{"name":"Hell Creek","display_name":"Hell Creek","source_name":"Hell Creek","state":"CO","atlas_class":"named_natural_stream_detail","huc8":"10250001","huc8Name":"Arikaree","lineageKey":"statewideContext","lineage":"statewideContext","historic":"statewideContext","current":"statewideContext","recovery":"statewideContext","lineageLabel":"Statewide Colorado hydrography context","atlas_context":"statewide_hydrography_context"}},{"type":"Feature","geometry":{"type":"LineString","coordinates":[[-103.5084,39.2157],[-103.508,39.2094],[-103.5089,39.2089]]},"properties":{"name":"Barron Creek","display_name":"Barron Creek","source_name":"Barron Creek","state":"CO","atlas_class":"named_natural_stream_detail","huc8":"11020011","huc8Name":"Big Sandy","lineageKey":"statewideContext","lineage":"statewideContext","historic":"statewideContext","current":"statewideContext","recovery":"statewideContext","lineageLabel":"Statewide Colorado hydrography context","atlas_context":"statewide_hydrography_context"}},{"type":"Feature","geometry":{"type":"LineString","coordinates":[[-103.5022,39.2014],[-103.5013,39.201],[-103.5009,39.2016],[-103.5002,39.2006],[-103.5014,39.199],[-103.5003,39.198],[-103.5022,39.1963],[-103.4999,39.1961],[-103.4986,39.1944],[-103.5003,39.1923],[-103.4984,39.1912],[-103.4991,39.1897],[-103.4968,39.1885],[-103.4983,39.1876],[-103.4953,39.1873],[-103.4956,39.1864],[-103.4991,39.1852],[-103.4994,39.1839],[-103.4975,39.1823],[-103.4992,39.1812],[-103.4958,39.1781],[-103.4974,39.1781],[-103.4974,39.1769],[-103.4993,39.1771]]},"properties":{"name":"Barron Creek","display_name":"Barron Creek","source_name":"Barron Creek","state":"CO","atlas_class":"named_natural_stream_detail","huc8":"11020011","huc8Name":"Big Sandy","lineageKey":"statewideContext","lineage":"statewideContext","historic":"statewideContext","current":"statewideContext","recovery":"statewideContext","lineageLabel":"Statewide Colorado hydrography context","atlas_context":"statewide_hydrography_context"}},{"type":"Feature","geometry":{"type":"LineString","coordinates":[[-103.5074,39.203],[-103.5024,39.2019]]},"properties":{"name":"Barron Creek","display_name":"Barron Creek","source_name":"Barron Creek","state":"CO","atlas_class":"named_natural_stream_detail","huc8":"11020011","huc8Name":"Big Sandy","lineageKey":"statewideContext","lineage":"statewideContext","historic":"statewideContext","current":"statewideContext","recovery":"statewideContext","lineageLabel":"Statewide Colorado hydrography context","atlas_context":"statewide_hydrography_context"}},{"type":"Feature","geometry":{"type":"LineString","coordinates":[[-103.5155,39.2408],[-103.5155,39.2396]]},"properties":{"name":"Barron Creek","display_name":"Barron Creek","source_name":"Barron Creek","state":"CO","atlas_class":"named_natural_stream_detail","huc8":"11020011","huc8Name":"Big Sandy","lineageKey":"statewideContext","lineage":"statewideContext","historic":"statewideContext","current":"statewideContext","recovery":"statewideContext","lineageLabel":"Statewide Colorado hydrography context","atlas_context":"statewide_hydrography_context"}},{"type":"Feature","geometry":{"type":"LineString","coordinates":[[-103.5089,39.2089],[-103.5093,39.2066],[-103.5105,39.2058],[-103.5079,39.2033]]},"properties":{"name":"Barron Creek","display_name":"Barron Creek","source_name":"Barron Creek","state":"CO","atlas_class":"named_natural_stream_detail","huc8":"11020011","huc8Name":"Big Sandy","lineageKey":"statewideContext","lineage":"statewideContext","historic":"statewideContext","current":"statewideContext","recovery":"statewideContext","lineageLabel":"Statewide Colorado hydrography context","atlas_context":"statewide_hydrography_context"}},{"type":"Feature","geometry":{"type":"LineString","coordinates":[[-103.5141,39.2386],[-103.5139,39.2366],[-103.5113,39.2356]]},"properties":{"name":"Barron Creek","display_name":"Barron Creek","source_name":"Barron Creek","state":"CO","atlas_class":"named_natural_stream_detail","huc8":"11020011","huc8Name":"Big Sandy","lineageKey":"statewideContext","lineage":"statewideContext","historic":"statewideContext","current":"statewideContext","recovery":"statewideContext","lineageLabel":"Statewide Colorado hydrography context","atlas_context":"statewide_hydrography_context"}},{"type":"Feature","geometry":{"type":"LineString","coordinates":[[-103.5078,39.2168],[-103.5081,39.2163]]},"properties":{"name":"Barron Creek","display_name":"Barron Creek","source_name":"Barron Creek","state":"CO","atlas_class":"named_natural_stream_detail","huc8":"11020011","huc8Name":"Big Sandy","lineageKey":"statewideContext","lineage":"statewideContext","historic":"statewideContext","current":"statewideContext","recovery":"statewideContext","lineageLabel":"Statewide Colorado hydrography context","atlas_context":"statewide_hydrography_context"}},{"type":"Feature","geometry":{"type":"LineString","coordinates":[[-103.511,39.2344],[-103.5084,39.2291],[-103.508,39.2258],[-103.5089,39.2242],[-103.5071,39.2187],[-103.5078,39.2168]]},"properties":{"name":"Barron Creek","display_name":"Barron Creek","source_name":"Barron Creek","state":"CO","atlas_class":"named_natural_stream_detail","huc8":"11020011","huc8Name":"Big Sandy","lineageKey":"statewideContext","lineage":"statewideContext","historic":"statewideContext","current":"statewideContext","recovery":"statewideContext","lineageLabel":"Statewide Colorado hydrography context","atlas_context":"statewide_hydrography_context"}}]}