{"type":"FeatureCollection","metadata":{"source":"C:\\ct-atlas-data\\processed\\geojson\\interpreted\\colorado_named_natural_streams_complete_v1.geojson","type":"colorado-natural-stream-detail-tile-v2","tile_size_degrees":0.2,"x":-517,"y":190,"bounds":{"west":-103.4,"south":38,"east":-103.2,"north":38.2}},"features":[{"type":"Feature","geometry":{"type":"LineString","coordinates":[[-103.3137,38.0901],[-103.3107,38.0875],[-103.3104,38.0854],[-103.3119,38.0821]]},"properties":{"name":"Adobe Creek","display_name":"Adobe Creek","source_name":"Adobe Creek","state":"CO","atlas_class":"named_natural_stream_detail","huc8":"11020009","huc8Name":"Upper Arkansas-John Martin Reservoir","lineageKey":"statewideContext","lineage":"statewideContext","historic":"statewideContext","current":"statewideContext","recovery":"statewideContext","lineageLabel":"Statewide Colorado hydrography context","atlas_context":"statewide_hydrography_context"}},{"type":"Feature","geometry":{"type":"LineString","coordinates":[[-103.3082,38.0776],[-103.3034,38.0765],[-103.3017,38.078],[-103.2992,38.0781],[-103.2961,38.08],[-103.2919,38.0808]]},"properties":{"name":"Adobe Creek","display_name":"Adobe Creek","source_name":"Adobe Creek","state":"CO","atlas_class":"named_natural_stream_detail","huc8":"11020009","huc8Name":"Upper Arkansas-John Martin Reservoir","lineageKey":"statewideContext","lineage":"statewideContext","historic":"statewideContext","current":"statewideContext","recovery":"statewideContext","lineageLabel":"Statewide Colorado hydrography context","atlas_context":"statewide_hydrography_context"}},{"type":"Feature","geometry":{"type":"LineString","coordinates":[[-103.3323,38.1733],[-103.3312,38.1685],[-103.3285,38.1637],[-103.3274,38.1568],[-103.3295,38.1543],[-103.3298,38.1523],[-103.3271,38.1455],[-103.3288,38.142],[-103.3257,38.1401],[-103.3281,38.1335],[-103.3265,38.1323],[-103.3213,38.1349]]},"properties":{"name":"Adobe Creek","display_name":"Adobe Creek","source_name":"Adobe Creek","state":"CO","atlas_class":"named_natural_stream_detail","huc8":"11020009","huc8Name":"Upper Arkansas-John Martin Reservoir","lineageKey":"statewideContext","lineage":"statewideContext","historic":"statewideContext","current":"statewideContext","recovery":"statewideContext","lineageLabel":"Statewide Colorado hydrography context","atlas_context":"statewide_hydrography_context"}},{"type":"Feature","geometry":{"type":"LineString","coordinates":[[-103.3189,38.216],[-103.3196,38.2118],[-103.3224,38.2088],[-103.3261,38.2065],[-103.3269,38.2026],[-103.3285,38.2002],[-103.3322,38.1981]]},"properties":{"name":"Adobe Creek","display_name":"Adobe Creek","source_name":"Adobe Creek","state":"CO","atlas_class":"named_natural_stream_detail","huc8":"11020009","huc8Name":"Upper Arkansas-John Martin Reservoir","lineageKey":"statewideContext","lineage":"statewideContext","historic":"statewideContext","current":"statewideContext","recovery":"statewideContext","lineageLabel":"Statewide Colorado hydrography context","atlas_context":"statewide_hydrography_context"}},{"type":"Feature","geometry":{"type":"LineString","coordinates":[[-103.3158,38.1233],[-103.3165,38.1207],[-103.3152,38.1172],[-103.3158,38.1149]]},"properties":{"name":"Adobe Creek","display_name":"Adobe Creek","source_name":"Adobe Creek","state":"CO","atlas_class":"named_natural_stream_detail","huc8":"11020009","huc8Name":"Upper Arkansas-John Martin Reservoir","lineageKey":"statewideContext","lineage":"statewideContext","historic":"statewideContext","current":"statewideContext","recovery":"statewideContext","lineageLabel":"Statewide Colorado hydrography context","atlas_context":"statewide_hydrography_context"}},{"type":"Feature","geometry":{"type":"LineString","coordinates":[[-103.3206,38.1272],[-103.3167,38.125],[-103.3158,38.1233]]},"properties":{"name":"Adobe Creek","display_name":"Adobe Creek","source_name":"Adobe Creek","state":"CO","atlas_class":"named_natural_stream_detail","huc8":"11020009","huc8Name":"Upper Arkansas-John Martin Reservoir","lineageKey":"statewideContext","lineage":"statewideContext","historic":"statewideContext","current":"statewideContext","recovery":"statewideContext","lineageLabel":"Statewide Colorado hydrography context","atlas_context":"statewide_hydrography_context"}},{"type":"Feature","geometry":{"type":"LineString","coordinates":[[-103.3322,38.1981],[-103.332,38.1951],[-103.3242,38.1867],[-103.3256,38.1837],[-103.3307,38.1811],[-103.3319,38.1763]]},"properties":{"name":"Adobe Creek","display_name":"Adobe Creek","source_name":"Adobe Creek","state":"CO","atlas_class":"named_natural_stream_detail","huc8":"11020009","huc8Name":"Upper Arkansas-John Martin Reservoir","lineageKey":"statewideContext","lineage":"statewideContext","historic":"statewideContext","current":"statewideContext","recovery":"statewideContext","lineageLabel":"Statewide Colorado hydrography context","atlas_context":"statewide_hydrography_context"}},{"type":"Feature","geometry":{"type":"LineString","coordinates":[[-103.3119,38.0821],[-103.3106,38.0795],[-103.3082,38.0776]]},"properties":{"name":"Adobe Creek","display_name":"Adobe Creek","source_name":"Adobe Creek","state":"CO","atlas_class":"named_natural_stream_detail","huc8":"11020009","huc8Name":"Upper Arkansas-John Martin Reservoir","lineageKey":"statewideContext","lineage":"statewideContext","historic":"statewideContext","current":"statewideContext","recovery":"statewideContext","lineageLabel":"Statewide Colorado hydrography context","atlas_context":"statewide_hydrography_context"}},{"type":"Feature","geometry":{"type":"LineString","coordinates":[[-103.3857,38.1106],[-103.383,38.1091],[-103.3785,38.1106]]},"properties":{"name":"Horse Creek","display_name":"Horse Creek","source_name":"Horse Creek","state":"CO","atlas_class":"named_natural_stream_detail","huc8":"11020008","huc8Name":"Horse","lineageKey":"statewideContext","lineage":"statewideContext","historic":"statewideContext","current":"statewideContext","recovery":"statewideContext","lineageLabel":"Statewide Colorado hydrography context","atlas_context":"statewide_hydrography_context"}},{"type":"Feature","geometry":{"type":"LineString","coordinates":[[-103.3694,38.1133],[-103.3647,38.1106],[-103.3667,38.1075],[-103.3693,38.1066],[-103.3695,38.105]]},"properties":{"name":"Horse Creek","display_name":"Horse Creek","source_name":"Horse Creek","state":"CO","atlas_class":"named_natural_stream_detail","huc8":"11020008","huc8Name":"Horse","lineageKey":"statewideContext","lineage":"statewideContext","historic":"statewideContext","current":"statewideContext","recovery":"statewideContext","lineageLabel":"Statewide Colorado hydrography context","atlas_context":"statewide_hydrography_context"}},{"type":"Feature","geometry":{"type":"LineString","coordinates":[[-103.4223,38.1161],[-103.4149,38.1155],[-103.4146,38.1122],[-103.413,38.1107],[-103.4058,38.1113],[-103.4009,38.11],[-103.398,38.1105],[-103.3966,38.1127],[-103.395,38.1134],[-103.3912,38.1137],[-103.3873,38.1126],[-103.3857,38.1106]]},"properties":{"name":"Horse Creek","display_name":"Horse Creek","source_name":"Horse Creek","state":"CO","atlas_class":"named_natural_stream_detail","huc8":"11020008","huc8Name":"Horse","lineageKey":"statewideContext","lineage":"statewideContext","historic":"statewideContext","current":"statewideContext","recovery":"statewideContext","lineageLabel":"Statewide Colorado hydrography context","atlas_context":"statewide_hydrography_context"}},{"type":"Feature","geometry":{"type":"LineString","coordinates":[[-103.3785,38.1106],[-103.378,38.1109]]},"properties":{"name":"Horse Creek","display_name":"Horse Creek","source_name":"Horse Creek","state":"CO","atlas_class":"named_natural_stream_detail","huc8":"11020008","huc8Name":"Horse","lineageKey":"statewideContext","lineage":"statewideContext","historic":"statewideContext","current":"statewideContext","recovery":"statewideContext","lineageLabel":"Statewide Colorado hydrography context","atlas_context":"statewide_hydrography_context"}},{"type":"Feature","geometry":{"type":"LineString","coordinates":[[-103.3721,38.0996],[-103.3727,38.0959],[-103.3715,38.0943],[-103.3721,38.0928],[-103.3701,38.0884],[-103.3664,38.0861],[-103.3651,38.0865],[-103.364,38.0856],[-103.3584,38.0847],[-103.357,38.0861],[-103.3551,38.0861],[-103.3532,38.0844]]},"properties":{"name":"Horse Creek","display_name":"Horse Creek","source_name":"Horse Creek","state":"CO","atlas_class":"named_natural_stream_detail","huc8":"11020008","huc8Name":"Horse","lineageKey":"statewideContext","lineage":"statewideContext","historic":"statewideContext","current":"statewideContext","recovery":"statewideContext","lineageLabel":"Statewide Colorado hydrography context","atlas_context":"statewide_hydrography_context"}},{"type":"Feature","geometry":{"type":"LineString","coordinates":[[-103.378,38.1109],[-103.3717,38.1129],[-103.371,38.1138],[-103.3694,38.1133]]},"properties":{"name":"Horse Creek","display_name":"Horse Creek","source_name":"Horse Creek","state":"CO","atlas_class":"named_natural_stream_detail","huc8":"11020008","huc8Name":"Horse","lineageKey":"statewideContext","lineage":"statewideContext","historic":"statewideContext","current":"statewideContext","recovery":"statewideContext","lineageLabel":"Statewide Colorado hydrography context","atlas_context":"statewide_hydrography_context"}},{"type":"Feature","geometry":{"type":"LineString","coordinates":[[-103.3532,38.0844],[-103.3519,38.0839],[-103.3509,38.0822],[-103.3528,38.0789],[-103.3533,38.0753],[-103.3498,38.0752],[-103.347,38.0775],[-103.345,38.078],[-103.3436,38.0811],[-103.3417,38.0817],[-103.3407,38.0811],[-103.3402,38.0786],[-103.3388,38.078],[-103.3388,38.0768],[-103.3375,38.0766],[-103.3357,38.0779],[-103.3289,38.0748],[-103.3288,38.0726],[-103.3241,38.073],[-103.3203,38.0703]]},"properties":{"name":"Horse Creek","display_name":"Horse Creek","source_name":"Horse Creek","state":"CO","atlas_class":"named_natural_stream_detail","huc8":"11020008","huc8Name":"Horse","lineageKey":"statewideContext","lineage":"statewideContext","historic":"statewideContext","current":"statewideContext","recovery":"statewideContext","lineageLabel":"Statewide Colorado hydrography context","atlas_context":"statewide_hydrography_context"}},{"type":"Feature","geometry":{"type":"LineString","coordinates":[[-103.3162,38.1139],[-103.3141,38.1119],[-103.311,38.1114],[-103.3141,38.1077],[-103.3139,38.1045],[-103.312,38.1031]]},"properties":{"name":"Adobe Creek","display_name":"Adobe Creek","source_name":"Adobe Creek","state":"CO","atlas_class":"named_natural_stream_detail","huc8":"11020009","huc8Name":"Upper Arkansas-John Martin Reservoir","lineageKey":"statewideContext","lineage":"statewideContext","historic":"statewideContext","current":"statewideContext","recovery":"statewideContext","lineageLabel":"Statewide Colorado hydrography context","atlas_context":"statewide_hydrography_context"}},{"type":"Feature","geometry":{"type":"LineString","coordinates":[[-103.2919,38.0808],[-103.2878,38.0822],[-103.2863,38.0814],[-103.2856,38.0787],[-103.2827,38.0792],[-103.2814,38.0777]]},"properties":{"name":"Adobe Creek","display_name":"Adobe Creek","source_name":"Adobe Creek","state":"CO","atlas_class":"named_natural_stream_detail","huc8":"11020009","huc8Name":"Upper Arkansas-John Martin Reservoir","lineageKey":"statewideContext","lineage":"statewideContext","historic":"statewideContext","current":"statewideContext","recovery":"statewideContext","lineageLabel":"Statewide Colorado hydrography context","atlas_context":"statewide_hydrography_context"}},{"type":"Feature","geometry":{"type":"LineString","coordinates":[[-103.3107,38.1005],[-103.3132,38.097]]},"properties":{"name":"Adobe Creek","display_name":"Adobe Creek","source_name":"Adobe Creek","state":"CO","atlas_class":"named_natural_stream_detail","huc8":"11020009","huc8Name":"Upper Arkansas-John Martin Reservoir","lineageKey":"statewideContext","lineage":"statewideContext","historic":"statewideContext","current":"statewideContext","recovery":"statewideContext","lineageLabel":"Statewide Colorado hydrography context","atlas_context":"statewide_hydrography_context"}},{"type":"Feature","geometry":{"type":"LineString","coordinates":[[-103.3211,38.135],[-103.3161,38.1366],[-103.3148,38.1362],[-103.3135,38.1344],[-103.3137,38.1318],[-103.3152,38.1295],[-103.3177,38.1299],[-103.3184,38.1322],[-103.3204,38.1314]]},"properties":{"name":"Adobe Creek","display_name":"Adobe Creek","source_name":"Adobe Creek","state":"CO","atlas_class":"named_natural_stream_detail","huc8":"11020009","huc8Name":"Upper Arkansas-John Martin Reservoir","lineageKey":"statewideContext","lineage":"statewideContext","historic":"statewideContext","current":"statewideContext","recovery":"statewideContext","lineageLabel":"Statewide Colorado hydrography context","atlas_context":"statewide_hydrography_context"}}]}