{"type":"FeatureCollection","metadata":{"source":"C:\\ct-atlas-data\\processed\\geojson\\interpreted\\colorado_named_natural_streams_complete_v1.geojson","type":"colorado-natural-stream-detail-tile-v2","tile_size_degrees":0.2,"x":-519,"y":198,"bounds":{"west":-103.8,"south":39.6,"east":-103.6,"north":39.8}},"features":[{"type":"Feature","geometry":{"type":"LineString","coordinates":[[-103.6668,39.6224],[-103.6663,39.6264],[-103.6671,39.6269],[-103.6676,39.6262],[-103.67,39.6295]]},"properties":{"name":"Middlemist Creek","display_name":"Middlemist Creek","source_name":"Middlemist Creek","state":"CO","atlas_class":"named_natural_stream_detail","huc8":"10190013","huc8Name":"Beaver","lineageKey":"statewideContext","lineage":"statewideContext","historic":"statewideContext","current":"statewideContext","recovery":"statewideContext","lineageLabel":"Statewide Colorado hydrography context","atlas_context":"statewide_hydrography_context"}},{"type":"Feature","geometry":{"type":"LineString","coordinates":[[-103.6232,39.6914],[-103.6218,39.6918],[-103.6229,39.6928],[-103.6218,39.6932],[-103.6226,39.6946],[-103.6221,39.6954],[-103.6239,39.6958],[-103.6216,39.6968],[-103.6222,39.6983],[-103.6214,39.6988],[-103.6222,39.6998],[-103.62,39.6999],[-103.6214,39.7009],[-103.6208,39.702],[-103.6218,39.7023],[-103.6196,39.7027],[-103.6207,39.7035],[-103.6188,39.7042],[-103.6202,39.7049],[-103.6195,39.7053]]},"properties":{"name":"West Fork Plum Bush Creek","display_name":"West Fork Plum Bush Creek","source_name":"West Fork Plum Bush Creek","state":"CO","atlas_class":"named_natural_stream_detail","huc8":"10190013","huc8Name":"Beaver","lineageKey":"statewideContext","lineage":"statewideContext","historic":"statewideContext","current":"statewideContext","recovery":"statewideContext","lineageLabel":"Statewide Colorado hydrography context","atlas_context":"statewide_hydrography_context"}},{"type":"Feature","geometry":{"type":"LineString","coordinates":[[-103.6207,39.7151],[-103.6216,39.7155]]},"properties":{"name":"West Fork Plum Bush Creek","display_name":"West Fork Plum Bush Creek","source_name":"West Fork Plum Bush Creek","state":"CO","atlas_class":"named_natural_stream_detail","huc8":"10190013","huc8Name":"Beaver","lineageKey":"statewideContext","lineage":"statewideContext","historic":"statewideContext","current":"statewideContext","recovery":"statewideContext","lineageLabel":"Statewide Colorado hydrography context","atlas_context":"statewide_hydrography_context"}},{"type":"Feature","geometry":{"type":"LineString","coordinates":[[-103.6221,39.716],[-103.6213,39.7168],[-103.6222,39.7174],[-103.6217,39.7183],[-103.6225,39.7185],[-103.6205,39.7192],[-103.6204,39.7208]]},"properties":{"name":"West Fork Plum Bush Creek","display_name":"West Fork Plum Bush Creek","source_name":"West Fork Plum Bush Creek","state":"CO","atlas_class":"named_natural_stream_detail","huc8":"10190013","huc8Name":"Beaver","lineageKey":"statewideContext","lineage":"statewideContext","historic":"statewideContext","current":"statewideContext","recovery":"statewideContext","lineageLabel":"Statewide Colorado hydrography context","atlas_context":"statewide_hydrography_context"}},{"type":"Feature","geometry":{"type":"LineString","coordinates":[[-103.669,39.7693],[-103.6689,39.7703],[-103.6711,39.7718],[-103.6689,39.7719],[-103.6683,39.7732],[-103.6644,39.7728],[-103.6634,39.7739],[-103.6651,39.7747],[-103.6641,39.7761]]},"properties":{"name":"Beaver Creek","display_name":"Beaver Creek","source_name":"Beaver Creek","state":"CO","atlas_class":"named_natural_stream_detail","huc8":"10190013","huc8Name":"Beaver","lineageKey":"statewideContext","lineage":"statewideContext","historic":"statewideContext","current":"statewideContext","recovery":"statewideContext","lineageLabel":"Statewide Colorado hydrography context","atlas_context":"statewide_hydrography_context"}},{"type":"Feature","geometry":{"type":"LineString","coordinates":[[-103.6695,39.6537],[-103.6682,39.6576],[-103.6655,39.658]]},"properties":{"name":"Middlemist Creek","display_name":"Middlemist Creek","source_name":"Middlemist Creek","state":"CO","atlas_class":"named_natural_stream_detail","huc8":"10190013","huc8Name":"Beaver","lineageKey":"statewideContext","lineage":"statewideContext","historic":"statewideContext","current":"statewideContext","recovery":"statewideContext","lineageLabel":"Statewide Colorado hydrography context","atlas_context":"statewide_hydrography_context"}},{"type":"Feature","geometry":{"type":"LineString","coordinates":[[-103.6714,39.6737],[-103.6746,39.6731],[-103.6749,39.674],[-103.6727,39.675],[-103.6746,39.6764],[-103.678,39.6744]]},"properties":{"name":"Middlemist Creek","display_name":"Middlemist Creek","source_name":"Middlemist Creek","state":"CO","atlas_class":"named_natural_stream_detail","huc8":"10190013","huc8Name":"Beaver","lineageKey":"statewideContext","lineage":"statewideContext","historic":"statewideContext","current":"statewideContext","recovery":"statewideContext","lineageLabel":"Statewide Colorado hydrography context","atlas_context":"statewide_hydrography_context"}},{"type":"Feature","geometry":{"type":"LineString","coordinates":[[-103.619,39.639],[-103.6196,39.6394],[-103.619,39.6411],[-103.6202,39.6414],[-103.6193,39.6426],[-103.6207,39.6435],[-103.6197,39.6442]]},"properties":{"name":"West Fork Plum Bush Creek","display_name":"West Fork Plum Bush Creek","source_name":"West Fork Plum Bush Creek","state":"CO","atlas_class":"named_natural_stream_detail","huc8":"10190013","huc8Name":"Beaver","lineageKey":"statewideContext","lineage":"statewideContext","historic":"statewideContext","current":"statewideContext","recovery":"statewideContext","lineageLabel":"Statewide Colorado hydrography context","atlas_context":"statewide_hydrography_context"}},{"type":"Feature","geometry":{"type":"LineString","coordinates":[[-103.6197,39.6442],[-103.6187,39.6455],[-103.6198,39.6459],[-103.6197,39.6473]]},"properties":{"name":"West Fork Plum Bush Creek","display_name":"West Fork Plum Bush Creek","source_name":"West Fork Plum Bush Creek","state":"CO","atlas_class":"named_natural_stream_detail","huc8":"10190013","huc8Name":"Beaver","lineageKey":"statewideContext","lineage":"statewideContext","historic":"statewideContext","current":"statewideContext","recovery":"statewideContext","lineageLabel":"Statewide Colorado hydrography context","atlas_context":"statewide_hydrography_context"}},{"type":"Feature","geometry":{"type":"LineString","coordinates":[[-103.7787,39.6357],[-103.7771,39.6374],[-103.7774,39.6401]]},"properties":{"name":"Rattlesnake Creek","display_name":"Rattlesnake Creek","source_name":"Rattlesnake Creek","state":"CO","atlas_class":"named_natural_stream_detail","huc8":"10190013","huc8Name":"Beaver","lineageKey":"statewideContext","lineage":"statewideContext","historic":"statewideContext","current":"statewideContext","recovery":"statewideContext","lineageLabel":"Statewide Colorado hydrography context","atlas_context":"statewide_hydrography_context"}},{"type":"Feature","geometry":{"type":"LineString","coordinates":[[-103.6134,39.7387],[-103.6119,39.7391],[-103.6118,39.7401]]},"properties":{"name":"West Fork Plum Bush Creek","display_name":"West Fork Plum Bush Creek","source_name":"West Fork Plum Bush Creek","state":"CO","atlas_class":"named_natural_stream_detail","huc8":"10190013","huc8Name":"Beaver","lineageKey":"statewideContext","lineage":"statewideContext","historic":"statewideContext","current":"statewideContext","recovery":"statewideContext","lineageLabel":"Statewide Colorado hydrography context","atlas_context":"statewide_hydrography_context"}},{"type":"Feature","geometry":{"type":"LineString","coordinates":[[-103.7944,39.6241],[-103.7944,39.6266],[-103.7926,39.6268],[-103.7938,39.629],[-103.7916,39.6297],[-103.7916,39.6323],[-103.7904,39.6326],[-103.7887,39.6311],[-103.7873,39.6315],[-103.7868,39.6336],[-103.7845,39.6348],[-103.7838,39.6362]]},"properties":{"name":"Rattlesnake Creek","display_name":"Rattlesnake Creek","source_name":"Rattlesnake Creek","state":"CO","atlas_class":"named_natural_stream_detail","huc8":"10190013","huc8Name":"Beaver","lineageKey":"statewideContext","lineage":"statewideContext","historic":"statewideContext","current":"statewideContext","recovery":"statewideContext","lineageLabel":"Statewide Colorado hydrography context","atlas_context":"statewide_hydrography_context"}},{"type":"Feature","geometry":{"type":"LineString","coordinates":[[-103.7905,39.6871],[-103.7883,39.6871],[-103.7883,39.688],[-103.7875,39.686]]},"properties":{"name":"Cottonwood Creek","display_name":"Cottonwood Creek","source_name":"Cottonwood Creek","state":"CO","atlas_class":"named_natural_stream_detail","huc8":"10190013","huc8Name":"Beaver","lineageKey":"statewideContext","lineage":"statewideContext","historic":"statewideContext","current":"statewideContext","recovery":"statewideContext","lineageLabel":"Statewide Colorado hydrography context","atlas_context":"statewide_hydrography_context"}},{"type":"Feature","geometry":{"type":"LineString","coordinates":[[-103.792,39.7292],[-103.7893,39.7304],[-103.7878,39.7327]]},"properties":{"name":"Wetzel Creek","display_name":"Wetzel Creek","source_name":"Wetzel Creek","state":"CO","atlas_class":"named_natural_stream_detail","huc8":"10190013","huc8Name":"Beaver","lineageKey":"statewideContext","lineage":"statewideContext","historic":"statewideContext","current":"statewideContext","recovery":"statewideContext","lineageLabel":"Statewide Colorado hydrography context","atlas_context":"statewide_hydrography_context"}},{"type":"Feature","geometry":{"type":"LineString","coordinates":[[-103.7049,39.723],[-103.703,39.7218],[-103.7008,39.7223],[-103.7015,39.7244],[-103.6993,39.7245],[-103.6963,39.7205],[-103.6951,39.7209],[-103.6944,39.7202],[-103.6938,39.7211],[-103.6917,39.7215]]},"properties":{"name":"Beaver Creek","display_name":"Beaver Creek","source_name":"Beaver Creek","state":"CO","atlas_class":"named_natural_stream_detail","huc8":"10190013","huc8Name":"Beaver","lineageKey":"statewideContext","lineage":"statewideContext","historic":"statewideContext","current":"statewideContext","recovery":"statewideContext","lineageLabel":"Statewide Colorado hydrography context","atlas_context":"statewide_hydrography_context"}},{"type":"Feature","geometry":{"type":"LineString","coordinates":[[-103.6223,39.6012],[-103.6222,39.6042],[-103.6244,39.6099]]},"properties":{"name":"West Fork Plum Bush Creek","display_name":"West Fork Plum Bush Creek","source_name":"West Fork Plum Bush Creek","state":"CO","atlas_class":"named_natural_stream_detail","huc8":"10190013","huc8Name":"Beaver","lineageKey":"statewideContext","lineage":"statewideContext","historic":"statewideContext","current":"statewideContext","recovery":"statewideContext","lineageLabel":"Statewide Colorado hydrography context","atlas_context":"statewide_hydrography_context"}},{"type":"Feature","geometry":{"type":"LineString","coordinates":[[-103.6632,39.6024],[-103.6654,39.6071],[-103.6648,39.6101],[-103.6666,39.6111],[-103.6666,39.6141],[-103.6679,39.6143],[-103.6679,39.6168],[-103.6659,39.6187]]},"properties":{"name":"Middlemist Creek","display_name":"Middlemist Creek","source_name":"Middlemist Creek","state":"CO","atlas_class":"named_natural_stream_detail","huc8":"10190013","huc8Name":"Beaver","lineageKey":"statewideContext","lineage":"statewideContext","historic":"statewideContext","current":"statewideContext","recovery":"statewideContext","lineageLabel":"Statewide Colorado hydrography context","atlas_context":"statewide_hydrography_context"}},{"type":"Feature","geometry":{"type":"LineString","coordinates":[[-103.691,39.7039],[-103.6919,39.7046]]},"properties":{"name":"Middlemist Creek","display_name":"Middlemist Creek","source_name":"Middlemist Creek","state":"CO","atlas_class":"named_natural_stream_detail","huc8":"10190013","huc8Name":"Beaver","lineageKey":"statewideContext","lineage":"statewideContext","historic":"statewideContext","current":"statewideContext","recovery":"statewideContext","lineageLabel":"Statewide Colorado hydrography context","atlas_context":"statewide_hydrography_context"}},{"type":"Feature","geometry":{"type":"LineString","coordinates":[[-103.7475,39.7542],[-103.7471,39.7557],[-103.7458,39.7562],[-103.7462,39.7587],[-103.7443,39.7611],[-103.7449,39.7617],[-103.7444,39.7628],[-103.741,39.7642],[-103.7397,39.7636]]},"properties":{"name":"Wetzel Creek","display_name":"Wetzel Creek","source_name":"Wetzel Creek","state":"CO","atlas_class":"named_natural_stream_detail","huc8":"10190013","huc8Name":"Beaver","lineageKey":"statewideContext","lineage":"statewideContext","historic":"statewideContext","current":"statewideContext","recovery":"statewideContext","lineageLabel":"Statewide Colorado hydrography context","atlas_context":"statewide_hydrography_context"}},{"type":"Feature","geometry":{"type":"LineString","coordinates":[[-103.7418,39.6657],[-103.7444,39.6666],[-103.7436,39.6681],[-103.7459,39.6689],[-103.7435,39.6695],[-103.7428,39.6708]]},"properties":{"name":"Rattlesnake Creek","display_name":"Rattlesnake Creek","source_name":"Rattlesnake Creek","state":"CO","atlas_class":"named_natural_stream_detail","huc8":"10190013","huc8Name":"Beaver","lineageKey":"statewideContext","lineage":"statewideContext","historic":"statewideContext","current":"statewideContext","recovery":"statewideContext","lineageLabel":"Statewide Colorado hydrography context","atlas_context":"statewide_hydrography_context"}},{"type":"Feature","geometry":{"type":"LineString","coordinates":[[-103.6905,39.698],[-103.6912,39.6987],[-103.6899,39.7005],[-103.6873,39.6993],[-103.6867,39.7001]]},"properties":{"name":"Middlemist Creek","display_name":"Middlemist Creek","source_name":"Middlemist Creek","state":"CO","atlas_class":"named_natural_stream_detail","huc8":"10190013","huc8Name":"Beaver","lineageKey":"statewideContext","lineage":"statewideContext","historic":"statewideContext","current":"statewideContext","recovery":"statewideContext","lineageLabel":"Statewide Colorado hydrography context","atlas_context":"statewide_hydrography_context"}},{"type":"Feature","geometry":{"type":"LineString","coordinates":[[-103.688,39.7006],[-103.6894,39.7025],[-103.6914,39.7016],[-103.6923,39.7021],[-103.691,39.7039]]},"properties":{"name":"Middlemist Creek","display_name":"Middlemist Creek","source_name":"Middlemist Creek","state":"CO","atlas_class":"named_natural_stream_detail","huc8":"10190013","huc8Name":"Beaver","lineageKey":"statewideContext","lineage":"statewideContext","historic":"statewideContext","current":"statewideContext","recovery":"statewideContext","lineageLabel":"Statewide Colorado hydrography context","atlas_context":"statewide_hydrography_context"}},{"type":"Feature","geometry":{"type":"LineString","coordinates":[[-103.7846,39.7367],[-103.7844,39.737]]},"properties":{"name":"Wetzel Creek","display_name":"Wetzel Creek","source_name":"Wetzel Creek","state":"CO","atlas_class":"named_natural_stream_detail","huc8":"10190013","huc8Name":"Beaver","lineageKey":"statewideContext","lineage":"statewideContext","historic":"statewideContext","current":"statewideContext","recovery":"statewideContext","lineageLabel":"Statewide Colorado hydrography context","atlas_context":"statewide_hydrography_context"}},{"type":"Feature","geometry":{"type":"LineString","coordinates":[[-103.7834,39.7366],[-103.7765,39.7372]]},"properties":{"name":"Wetzel Creek","display_name":"Wetzel Creek","source_name":"Wetzel Creek","state":"CO","atlas_class":"named_natural_stream_detail","huc8":"10190013","huc8Name":"Beaver","lineageKey":"statewideContext","lineage":"statewideContext","historic":"statewideContext","current":"statewideContext","recovery":"statewideContext","lineageLabel":"Statewide Colorado hydrography context","atlas_context":"statewide_hydrography_context"}},{"type":"Feature","geometry":{"type":"LineString","coordinates":[[-103.7318,39.6888],[-103.7297,39.6889],[-103.7297,39.6899],[-103.7284,39.6899],[-103.73,39.6909],[-103.7298,39.6918]]},"properties":{"name":"Cottonwood Creek","display_name":"Cottonwood Creek","source_name":"Cottonwood Creek","state":"CO","atlas_class":"named_natural_stream_detail","huc8":"10190013","huc8Name":"Beaver","lineageKey":"statewideContext","lineage":"statewideContext","historic":"statewideContext","current":"statewideContext","recovery":"statewideContext","lineageLabel":"Statewide Colorado hydrography context","atlas_context":"statewide_hydrography_context"}},{"type":"Feature","geometry":{"type":"LineString","coordinates":[[-103.6723,39.6421],[-103.6735,39.6442],[-103.6706,39.6449],[-103.6742,39.6449],[-103.6735,39.6466],[-103.6718,39.6472],[-103.6742,39.6482],[-103.6729,39.6491],[-103.6678,39.6499],[-103.6681,39.6508],[-103.6703,39.6517],[-103.6695,39.6537]]},"properties":{"name":"Middlemist Creek","display_name":"Middlemist Creek","source_name":"Middlemist Creek","state":"CO","atlas_class":"named_natural_stream_detail","huc8":"10190013","huc8Name":"Beaver","lineageKey":"statewideContext","lineage":"statewideContext","historic":"statewideContext","current":"statewideContext","recovery":"statewideContext","lineageLabel":"Statewide Colorado hydrography context","atlas_context":"statewide_hydrography_context"}},{"type":"Feature","geometry":{"type":"LineString","coordinates":[[-103.6621,39.6595],[-103.6626,39.6618],[-103.6647,39.6628],[-103.6687,39.6619],[-103.67,39.6625]]},"properties":{"name":"Middlemist Creek","display_name":"Middlemist Creek","source_name":"Middlemist Creek","state":"CO","atlas_class":"named_natural_stream_detail","huc8":"10190013","huc8Name":"Beaver","lineageKey":"statewideContext","lineage":"statewideContext","historic":"statewideContext","current":"statewideContext","recovery":"statewideContext","lineageLabel":"Statewide Colorado hydrography context","atlas_context":"statewide_hydrography_context"}},{"type":"Feature","geometry":{"type":"LineString","coordinates":[[-103.8,39.6819],[-103.7975,39.6822],[-103.797,39.6834]]},"properties":{"name":"Cottonwood Creek","display_name":"Cottonwood Creek","source_name":"Cottonwood Creek","state":"CO","atlas_class":"named_natural_stream_detail","huc8":"10190013","huc8Name":"Beaver","lineageKey":"statewideContext","lineage":"statewideContext","historic":"statewideContext","current":"statewideContext","recovery":"statewideContext","lineageLabel":"Statewide Colorado hydrography context","atlas_context":"statewide_hydrography_context"}},{"type":"Feature","geometry":{"type":"LineString","coordinates":[[-103.7987,39.7236],[-103.7926,39.7288]]},"properties":{"name":"Wetzel Creek","display_name":"Wetzel Creek","source_name":"Wetzel Creek","state":"CO","atlas_class":"named_natural_stream_detail","huc8":"10190013","huc8Name":"Beaver","lineageKey":"statewideContext","lineage":"statewideContext","historic":"statewideContext","current":"statewideContext","recovery":"statewideContext","lineageLabel":"Statewide Colorado hydrography context","atlas_context":"statewide_hydrography_context"}},{"type":"Feature","geometry":{"type":"LineString","coordinates":[[-103.7633,39.7369],[-103.7627,39.7387],[-103.7579,39.7408],[-103.7577,39.7418],[-103.7562,39.7414]]},"properties":{"name":"Wetzel Creek","display_name":"Wetzel Creek","source_name":"Wetzel Creek","state":"CO","atlas_class":"named_natural_stream_detail","huc8":"10190013","huc8Name":"Beaver","lineageKey":"statewideContext","lineage":"statewideContext","historic":"statewideContext","current":"statewideContext","recovery":"statewideContext","lineageLabel":"Statewide Colorado hydrography context","atlas_context":"statewide_hydrography_context"}},{"type":"Feature","geometry":{"type":"LineString","coordinates":[[-103.6659,39.6187],[-103.6682,39.6196],[-103.6668,39.6224]]},"properties":{"name":"Middlemist Creek","display_name":"Middlemist Creek","source_name":"Middlemist Creek","state":"CO","atlas_class":"named_natural_stream_detail","huc8":"10190013","huc8Name":"Beaver","lineageKey":"statewideContext","lineage":"statewideContext","historic":"statewideContext","current":"statewideContext","recovery":"statewideContext","lineageLabel":"Statewide Colorado hydrography context","atlas_context":"statewide_hydrography_context"}},{"type":"Feature","geometry":{"type":"LineString","coordinates":[[-103.67,39.6295],[-103.673,39.632]]},"properties":{"name":"Middlemist Creek","display_name":"Middlemist Creek","source_name":"Middlemist Creek","state":"CO","atlas_class":"named_natural_stream_detail","huc8":"10190013","huc8Name":"Beaver","lineageKey":"statewideContext","lineage":"statewideContext","historic":"statewideContext","current":"statewideContext","recovery":"statewideContext","lineageLabel":"Statewide Colorado hydrography context","atlas_context":"statewide_hydrography_context"}},{"type":"Feature","geometry":{"type":"LineString","coordinates":[[-103.673,39.632],[-103.6704,39.6337],[-103.6728,39.6347],[-103.6702,39.6382],[-103.6709,39.64],[-103.6665,39.6391],[-103.6671,39.6421]]},"properties":{"name":"Middlemist Creek","display_name":"Middlemist Creek","source_name":"Middlemist Creek","state":"CO","atlas_class":"named_natural_stream_detail","huc8":"10190013","huc8Name":"Beaver","lineageKey":"statewideContext","lineage":"statewideContext","historic":"statewideContext","current":"statewideContext","recovery":"statewideContext","lineageLabel":"Statewide Colorado hydrography context","atlas_context":"statewide_hydrography_context"}},{"type":"Feature","geometry":{"type":"LineString","coordinates":[[-103.7486,39.6593],[-103.7456,39.6601],[-103.7458,39.6609],[-103.7478,39.6615],[-103.7479,39.6627],[-103.7464,39.6631],[-103.7469,39.6645],[-103.744,39.6649],[-103.7432,39.6634],[-103.7418,39.6657]]},"properties":{"name":"Rattlesnake Creek","display_name":"Rattlesnake Creek","source_name":"Rattlesnake Creek","state":"CO","atlas_class":"named_natural_stream_detail","huc8":"10190013","huc8Name":"Beaver","lineageKey":"statewideContext","lineage":"statewideContext","historic":"statewideContext","current":"statewideContext","recovery":"statewideContext","lineageLabel":"Statewide Colorado hydrography context","atlas_context":"statewide_hydrography_context"}},{"type":"Feature","geometry":{"type":"LineString","coordinates":[[-103.7428,39.6708],[-103.7423,39.6714],[-103.7408,39.6708],[-103.7412,39.6725],[-103.7386,39.6742],[-103.7364,39.6738]]},"properties":{"name":"Rattlesnake Creek","display_name":"Rattlesnake Creek","source_name":"Rattlesnake Creek","state":"CO","atlas_class":"named_natural_stream_detail","huc8":"10190013","huc8Name":"Beaver","lineageKey":"statewideContext","lineage":"statewideContext","historic":"statewideContext","current":"statewideContext","recovery":"statewideContext","lineageLabel":"Statewide Colorado hydrography context","atlas_context":"statewide_hydrography_context"}},{"type":"Feature","geometry":{"type":"LineString","coordinates":[[-103.7363,39.6562],[-103.7343,39.6571],[-103.7343,39.6592],[-103.7357,39.6604],[-103.7337,39.6617],[-103.7381,39.6624],[-103.7366,39.6635],[-103.7379,39.6645],[-103.7367,39.6655],[-103.7385,39.6663],[-103.7374,39.6674],[-103.7352,39.6666]]},"properties":{"name":"Beaver Creek","display_name":"Beaver Creek","source_name":"Beaver Creek","state":"CO","atlas_class":"named_natural_stream_detail","huc8":"10190013","huc8Name":"Beaver","lineageKey":"statewideContext","lineage":"statewideContext","historic":"statewideContext","current":"statewideContext","recovery":"statewideContext","lineageLabel":"Statewide Colorado hydrography context","atlas_context":"statewide_hydrography_context"}},{"type":"Feature","geometry":{"type":"LineString","coordinates":[[-103.6212,39.7086],[-103.6215,39.7098],[-103.6202,39.71],[-103.6212,39.7111],[-103.6204,39.712],[-103.6226,39.7133]]},"properties":{"name":"West Fork Plum Bush Creek","display_name":"West Fork Plum Bush Creek","source_name":"West Fork Plum Bush Creek","state":"CO","atlas_class":"named_natural_stream_detail","huc8":"10190013","huc8Name":"Beaver","lineageKey":"statewideContext","lineage":"statewideContext","historic":"statewideContext","current":"statewideContext","recovery":"statewideContext","lineageLabel":"Statewide Colorado hydrography context","atlas_context":"statewide_hydrography_context"}},{"type":"Feature","geometry":{"type":"LineString","coordinates":[[-103.753,39.6108],[-103.754,39.6121],[-103.751,39.613],[-103.7518,39.6138],[-103.7507,39.6145],[-103.7484,39.6149],[-103.7503,39.6169],[-103.7521,39.6173]]},"properties":{"name":"Beaver Creek","display_name":"Beaver Creek","source_name":"Beaver Creek","state":"CO","atlas_class":"named_natural_stream_detail","huc8":"10190013","huc8Name":"Beaver","lineageKey":"statewideContext","lineage":"statewideContext","historic":"statewideContext","current":"statewideContext","recovery":"statewideContext","lineageLabel":"Statewide Colorado hydrography context","atlas_context":"statewide_hydrography_context"}},{"type":"Feature","geometry":{"type":"LineString","coordinates":[[-103.774,39.688],[-103.7724,39.6882],[-103.7729,39.687],[-103.7712,39.6882],[-103.7708,39.6872],[-103.7701,39.6883],[-103.7683,39.6878],[-103.7686,39.689],[-103.7679,39.6882]]},"properties":{"name":"Cottonwood Creek","display_name":"Cottonwood Creek","source_name":"Cottonwood Creek","state":"CO","atlas_class":"named_natural_stream_detail","huc8":"10190013","huc8Name":"Beaver","lineageKey":"statewideContext","lineage":"statewideContext","historic":"statewideContext","current":"statewideContext","recovery":"statewideContext","lineageLabel":"Statewide Colorado hydrography context","atlas_context":"statewide_hydrography_context"}},{"type":"Feature","geometry":{"type":"LineString","coordinates":[[-103.736,39.7651],[-103.7361,39.7658],[-103.7341,39.7667],[-103.7341,39.7684],[-103.7326,39.7704],[-103.7323,39.7717],[-103.7327,39.7728],[-103.7334,39.7726],[-103.7319,39.7733],[-103.734,39.7749],[-103.7335,39.7775],[-103.7346,39.7776],[-103.7343,39.7801],[-103.7354,39.7801],[-103.7337,39.7818],[-103.7348,39.7833],[-103.7338,39.784],[-103.7348,39.7855],[-103.7334,39.7862]]},"properties":{"name":"Wetzel Creek","display_name":"Wetzel Creek","source_name":"Wetzel Creek","state":"CO","atlas_class":"named_natural_stream_detail","huc8":"10190013","huc8Name":"Beaver","lineageKey":"statewideContext","lineage":"statewideContext","historic":"statewideContext","current":"statewideContext","recovery":"statewideContext","lineageLabel":"Statewide Colorado hydrography context","atlas_context":"statewide_hydrography_context"}},{"type":"Feature","geometry":{"type":"LineString","coordinates":[[-103.612,39.7446],[-103.6092,39.7461],[-103.6101,39.7476],[-103.6078,39.7477],[-103.6082,39.749],[-103.6072,39.7509],[-103.6063,39.7509],[-103.6068,39.7495],[-103.6045,39.7502]]},"properties":{"name":"West Fork Plum Bush Creek","display_name":"West Fork Plum Bush Creek","source_name":"West Fork Plum Bush Creek","state":"CO","atlas_class":"named_natural_stream_detail","huc8":"10190013","huc8Name":"Beaver","lineageKey":"statewideContext","lineage":"statewideContext","historic":"statewideContext","current":"statewideContext","recovery":"statewideContext","lineageLabel":"Statewide Colorado hydrography context","atlas_context":"statewide_hydrography_context"}},{"type":"Feature","geometry":{"type":"LineString","coordinates":[[-103.7221,39.7914],[-103.7218,39.7934],[-103.7227,39.7936],[-103.7211,39.794],[-103.7216,39.795],[-103.72,39.7949],[-103.7206,39.796],[-103.7194,39.7964],[-103.721,39.797],[-103.7196,39.7977],[-103.7208,39.7988],[-103.7193,39.7985],[-103.7179,39.7999],[-103.7187,39.8009],[-103.7168,39.8008]]},"properties":{"name":"Wetzel Creek","display_name":"Wetzel Creek","source_name":"Wetzel Creek","state":"CO","atlas_class":"named_natural_stream_detail","huc8":"10190013","huc8Name":"Beaver","lineageKey":"statewideContext","lineage":"statewideContext","historic":"statewideContext","current":"statewideContext","recovery":"statewideContext","lineageLabel":"Statewide Colorado hydrography context","atlas_context":"statewide_hydrography_context"}},{"type":"Feature","geometry":{"type":"LineString","coordinates":[[-103.7576,39.6889],[-103.7555,39.6883],[-103.7545,39.6868],[-103.7526,39.6878],[-103.7527,39.6891],[-103.7514,39.6889],[-103.7499,39.687],[-103.7505,39.6857],[-103.749,39.686],[-103.7451,39.6838],[-103.7426,39.6843],[-103.7421,39.6828],[-103.7406,39.6839],[-103.738,39.6836],[-103.7369,39.6827],[-103.7378,39.6816],[-103.7368,39.6812],[-103.7362,39.6829],[-103.735,39.683],[-103.7343,39.6855],[-103.7363,39.6874],[-103.7342,39.687],[-103.735,39.6887],[-103.7341,39.6898]]},"properties":{"name":"Cottonwood Creek","display_name":"Cottonwood Creek","source_name":"Cottonwood Creek","state":"CO","atlas_class":"named_natural_stream_detail","huc8":"10190013","huc8Name":"Beaver","lineageKey":"statewideContext","lineage":"statewideContext","historic":"statewideContext","current":"statewideContext","recovery":"statewideContext","lineageLabel":"Statewide Colorado hydrography context","atlas_context":"statewide_hydrography_context"}},{"type":"Feature","geometry":{"type":"LineString","coordinates":[[-103.7307,39.6801],[-103.7299,39.6851],[-103.7266,39.6845],[-103.7258,39.6852]]},"properties":{"name":"Beaver Creek","display_name":"Beaver Creek","source_name":"Beaver Creek","state":"CO","atlas_class":"named_natural_stream_detail","huc8":"10190013","huc8Name":"Beaver","lineageKey":"statewideContext","lineage":"statewideContext","historic":"statewideContext","current":"statewideContext","recovery":"statewideContext","lineageLabel":"Statewide Colorado hydrography context","atlas_context":"statewide_hydrography_context"}},{"type":"Feature","geometry":{"type":"LineString","coordinates":[[-103.7288,39.6924],[-103.7256,39.6944],[-103.7244,39.6937]]},"properties":{"name":"Cottonwood Creek","display_name":"Cottonwood Creek","source_name":"Cottonwood Creek","state":"CO","atlas_class":"named_natural_stream_detail","huc8":"10190013","huc8Name":"Beaver","lineageKey":"statewideContext","lineage":"statewideContext","historic":"statewideContext","current":"statewideContext","recovery":"statewideContext","lineageLabel":"Statewide Colorado hydrography context","atlas_context":"statewide_hydrography_context"}},{"type":"Feature","geometry":{"type":"LineString","coordinates":[[-103.7258,39.6852],[-103.7262,39.6861],[-103.7279,39.6862],[-103.7261,39.6881],[-103.7258,39.6869],[-103.725,39.687],[-103.7253,39.6892],[-103.7228,39.6915],[-103.7244,39.6937]]},"properties":{"name":"Beaver Creek","display_name":"Beaver Creek","source_name":"Beaver Creek","state":"CO","atlas_class":"named_natural_stream_detail","huc8":"10190013","huc8Name":"Beaver","lineageKey":"statewideContext","lineage":"statewideContext","historic":"statewideContext","current":"statewideContext","recovery":"statewideContext","lineageLabel":"Statewide Colorado hydrography context","atlas_context":"statewide_hydrography_context"}},{"type":"Feature","geometry":{"type":"LineString","coordinates":[[-103.7244,39.6937],[-103.7238,39.6962],[-103.7204,39.694]]},"properties":{"name":"Beaver Creek","display_name":"Beaver Creek","source_name":"Beaver Creek","state":"CO","atlas_class":"named_natural_stream_detail","huc8":"10190013","huc8Name":"Beaver","lineageKey":"statewideContext","lineage":"statewideContext","historic":"statewideContext","current":"statewideContext","recovery":"statewideContext","lineageLabel":"Statewide Colorado hydrography context","atlas_context":"statewide_hydrography_context"}},{"type":"Feature","geometry":{"type":"LineString","coordinates":[[-103.6218,39.7231],[-103.6236,39.7246],[-103.6219,39.7248],[-103.6218,39.7255]]},"properties":{"name":"West Fork Plum Bush Creek","display_name":"West Fork Plum Bush Creek","source_name":"West Fork Plum Bush Creek","state":"CO","atlas_class":"named_natural_stream_detail","huc8":"10190013","huc8Name":"Beaver","lineageKey":"statewideContext","lineage":"statewideContext","historic":"statewideContext","current":"statewideContext","recovery":"statewideContext","lineageLabel":"Statewide Colorado hydrography context","atlas_context":"statewide_hydrography_context"}},{"type":"Feature","geometry":{"type":"LineString","coordinates":[[-103.7521,39.6173],[-103.7511,39.6179],[-103.7481,39.617],[-103.7483,39.6181],[-103.7473,39.619],[-103.7453,39.6186],[-103.7448,39.6199],[-103.7468,39.6214],[-103.7456,39.6219]]},"properties":{"name":"Beaver Creek","display_name":"Beaver Creek","source_name":"Beaver Creek","state":"CO","atlas_class":"named_natural_stream_detail","huc8":"10190013","huc8Name":"Beaver","lineageKey":"statewideContext","lineage":"statewideContext","historic":"statewideContext","current":"statewideContext","recovery":"statewideContext","lineageLabel":"Statewide Colorado hydrography context","atlas_context":"statewide_hydrography_context"}},{"type":"Feature","geometry":{"type":"LineString","coordinates":[[-103.6931,39.7054],[-103.6933,39.7076],[-103.6945,39.7087],[-103.694,39.7102],[-103.6954,39.7094],[-103.6981,39.7116],[-103.7005,39.708],[-103.7019,39.7099],[-103.701,39.7105],[-103.7012,39.7113],[-103.7002,39.7113],[-103.7005,39.712],[-103.7038,39.7125],[-103.7033,39.7137],[-103.7061,39.7134],[-103.7055,39.7154],[-103.7081,39.7156]]},"properties":{"name":"Middlemist Creek","display_name":"Middlemist Creek","source_name":"Middlemist Creek","state":"CO","atlas_class":"named_natural_stream_detail","huc8":"10190013","huc8Name":"Beaver","lineageKey":"statewideContext","lineage":"statewideContext","historic":"statewideContext","current":"statewideContext","recovery":"statewideContext","lineageLabel":"Statewide Colorado hydrography context","atlas_context":"statewide_hydrography_context"}},{"type":"Feature","geometry":{"type":"LineString","coordinates":[[-103.6917,39.7215],[-103.6912,39.7228],[-103.6921,39.7246],[-103.6896,39.723],[-103.6888,39.7199],[-103.6851,39.7214],[-103.6856,39.7224],[-103.685,39.7231]]},"properties":{"name":"Beaver Creek","display_name":"Beaver Creek","source_name":"Beaver Creek","state":"CO","atlas_class":"named_natural_stream_detail","huc8":"10190013","huc8Name":"Beaver","lineageKey":"statewideContext","lineage":"statewideContext","historic":"statewideContext","current":"statewideContext","recovery":"statewideContext","lineageLabel":"Statewide Colorado hydrography context","atlas_context":"statewide_hydrography_context"}},{"type":"Feature","geometry":{"type":"LineString","coordinates":[[-103.7761,39.6893],[-103.7745,39.6895],[-103.774,39.688]]},"properties":{"name":"Cottonwood Creek","display_name":"Cottonwood Creek","source_name":"Cottonwood Creek","state":"CO","atlas_class":"named_natural_stream_detail","huc8":"10190013","huc8Name":"Beaver","lineageKey":"statewideContext","lineage":"statewideContext","historic":"statewideContext","current":"statewideContext","recovery":"statewideContext","lineageLabel":"Statewide Colorado hydrography context","atlas_context":"statewide_hydrography_context"}},{"type":"Feature","geometry":{"type":"LineString","coordinates":[[-103.7081,39.7156],[-103.706,39.7168]]},"properties":{"name":"Beaver Creek","display_name":"Beaver Creek","source_name":"Beaver Creek","state":"CO","atlas_class":"named_natural_stream_detail","huc8":"10190013","huc8Name":"Beaver","lineageKey":"statewideContext","lineage":"statewideContext","historic":"statewideContext","current":"statewideContext","recovery":"statewideContext","lineageLabel":"Statewide Colorado hydrography context","atlas_context":"statewide_hydrography_context"}},{"type":"Feature","geometry":{"type":"LineString","coordinates":[[-103.706,39.7168],[-103.7045,39.7166],[-103.7036,39.7179],[-103.705,39.7196],[-103.7032,39.7194],[-103.7054,39.722],[-103.7049,39.723]]},"properties":{"name":"Beaver Creek","display_name":"Beaver Creek","source_name":"Beaver Creek","state":"CO","atlas_class":"named_natural_stream_detail","huc8":"10190013","huc8Name":"Beaver","lineageKey":"statewideContext","lineage":"statewideContext","historic":"statewideContext","current":"statewideContext","recovery":"statewideContext","lineageLabel":"Statewide Colorado hydrography context","atlas_context":"statewide_hydrography_context"}},{"type":"Feature","geometry":{"type":"LineString","coordinates":[[-103.7742,39.7367],[-103.7724,39.7359]]},"properties":{"name":"Wetzel Creek","display_name":"Wetzel Creek","source_name":"Wetzel Creek","state":"CO","atlas_class":"named_natural_stream_detail","huc8":"10190013","huc8Name":"Beaver","lineageKey":"statewideContext","lineage":"statewideContext","historic":"statewideContext","current":"statewideContext","recovery":"statewideContext","lineageLabel":"Statewide Colorado hydrography context","atlas_context":"statewide_hydrography_context"}},{"type":"Feature","geometry":{"type":"LineString","coordinates":[[-103.7456,39.6219],[-103.7433,39.6222],[-103.7416,39.62],[-103.7401,39.6203],[-103.7411,39.6227],[-103.7381,39.6236],[-103.7388,39.6246],[-103.7405,39.6246],[-103.7387,39.6263],[-103.7373,39.6252],[-103.7338,39.6273]]},"properties":{"name":"Beaver Creek","display_name":"Beaver Creek","source_name":"Beaver Creek","state":"CO","atlas_class":"named_natural_stream_detail","huc8":"10190013","huc8Name":"Beaver","lineageKey":"statewideContext","lineage":"statewideContext","historic":"statewideContext","current":"statewideContext","recovery":"statewideContext","lineageLabel":"Statewide Colorado hydrography context","atlas_context":"statewide_hydrography_context"}},{"type":"Feature","geometry":{"type":"LineString","coordinates":[[-103.6045,39.7502],[-103.6034,39.7512],[-103.6014,39.7511],[-103.5993,39.7538],[-103.5965,39.7538]]},"properties":{"name":"West Fork Plum Bush Creek","display_name":"West Fork Plum Bush Creek","source_name":"West Fork Plum Bush Creek","state":"CO","atlas_class":"named_natural_stream_detail","huc8":"10190013","huc8Name":"Beaver","lineageKey":"statewideContext","lineage":"statewideContext","historic":"statewideContext","current":"statewideContext","recovery":"statewideContext","lineageLabel":"Statewide Colorado hydrography context","atlas_context":"statewide_hydrography_context"}},{"type":"Feature","geometry":{"type":"LineString","coordinates":[[-103.6208,39.687],[-103.6212,39.6866]]},"properties":{"name":"West Fork Plum Bush Creek","display_name":"West Fork Plum Bush Creek","source_name":"West Fork Plum Bush Creek","state":"CO","atlas_class":"named_natural_stream_detail","huc8":"10190013","huc8Name":"Beaver","lineageKey":"statewideContext","lineage":"statewideContext","historic":"statewideContext","current":"statewideContext","recovery":"statewideContext","lineageLabel":"Statewide Colorado hydrography context","atlas_context":"statewide_hydrography_context"}},{"type":"Feature","geometry":{"type":"LineString","coordinates":[[-103.6671,39.6421],[-103.6723,39.6421]]},"properties":{"name":"Middlemist Creek","display_name":"Middlemist Creek","source_name":"Middlemist Creek","state":"CO","atlas_class":"named_natural_stream_detail","huc8":"10190013","huc8Name":"Beaver","lineageKey":"statewideContext","lineage":"statewideContext","historic":"statewideContext","current":"statewideContext","recovery":"statewideContext","lineageLabel":"Statewide Colorado hydrography context","atlas_context":"statewide_hydrography_context"}},{"type":"Feature","geometry":{"type":"LineString","coordinates":[[-103.685,39.7231],[-103.6843,39.7239],[-103.687,39.7243],[-103.6862,39.7246],[-103.6868,39.727],[-103.6841,39.729],[-103.6845,39.7306],[-103.6814,39.7324]]},"properties":{"name":"Beaver Creek","display_name":"Beaver Creek","source_name":"Beaver Creek","state":"CO","atlas_class":"named_natural_stream_detail","huc8":"10190013","huc8Name":"Beaver","lineageKey":"statewideContext","lineage":"statewideContext","historic":"statewideContext","current":"statewideContext","recovery":"statewideContext","lineageLabel":"Statewide Colorado hydrography context","atlas_context":"statewide_hydrography_context"}},{"type":"Feature","geometry":{"type":"LineString","coordinates":[[-103.6118,39.7401],[-103.6122,39.7413]]},"properties":{"name":"West Fork Plum Bush Creek","display_name":"West Fork Plum Bush Creek","source_name":"West Fork Plum Bush Creek","state":"CO","atlas_class":"named_natural_stream_detail","huc8":"10190013","huc8Name":"Beaver","lineageKey":"statewideContext","lineage":"statewideContext","historic":"statewideContext","current":"statewideContext","recovery":"statewideContext","lineageLabel":"Statewide Colorado hydrography context","atlas_context":"statewide_hydrography_context"}},{"type":"Feature","geometry":{"type":"LineString","coordinates":[[-103.667,39.6674],[-103.6688,39.6694],[-103.667,39.671],[-103.6701,39.6708],[-103.6703,39.6723],[-103.6716,39.6722],[-103.6714,39.6737]]},"properties":{"name":"Middlemist Creek","display_name":"Middlemist Creek","source_name":"Middlemist Creek","state":"CO","atlas_class":"named_natural_stream_detail","huc8":"10190013","huc8Name":"Beaver","lineageKey":"statewideContext","lineage":"statewideContext","historic":"statewideContext","current":"statewideContext","recovery":"statewideContext","lineageLabel":"Statewide Colorado hydrography context","atlas_context":"statewide_hydrography_context"}},{"type":"Feature","geometry":{"type":"LineString","coordinates":[[-103.7611,39.653],[-103.7591,39.6531],[-103.757,39.6544],[-103.7561,39.6539],[-103.7559,39.6523],[-103.7544,39.6523],[-103.7541,39.6545],[-103.7547,39.6551],[-103.7527,39.6557],[-103.753,39.657],[-103.7488,39.6561],[-103.7493,39.6589]]},"properties":{"name":"Rattlesnake Creek","display_name":"Rattlesnake Creek","source_name":"Rattlesnake Creek","state":"CO","atlas_class":"named_natural_stream_detail","huc8":"10190013","huc8Name":"Beaver","lineageKey":"statewideContext","lineage":"statewideContext","historic":"statewideContext","current":"statewideContext","recovery":"statewideContext","lineageLabel":"Statewide Colorado hydrography context","atlas_context":"statewide_hydrography_context"}},{"type":"Feature","geometry":{"type":"LineString","coordinates":[[-103.7838,39.6362],[-103.7804,39.6369],[-103.7787,39.6357]]},"properties":{"name":"Rattlesnake Creek","display_name":"Rattlesnake Creek","source_name":"Rattlesnake Creek","state":"CO","atlas_class":"named_natural_stream_detail","huc8":"10190013","huc8Name":"Beaver","lineageKey":"statewideContext","lineage":"statewideContext","historic":"statewideContext","current":"statewideContext","recovery":"statewideContext","lineageLabel":"Statewide Colorado hydrography context","atlas_context":"statewide_hydrography_context"}},{"type":"Feature","geometry":{"type":"LineString","coordinates":[[-103.7724,39.7359],[-103.7698,39.7359]]},"properties":{"name":"Wetzel Creek","display_name":"Wetzel Creek","source_name":"Wetzel Creek","state":"CO","atlas_class":"named_natural_stream_detail","huc8":"10190013","huc8Name":"Beaver","lineageKey":"statewideContext","lineage":"statewideContext","historic":"statewideContext","current":"statewideContext","recovery":"statewideContext","lineageLabel":"Statewide Colorado hydrography context","atlas_context":"statewide_hydrography_context"}},{"type":"Feature","geometry":{"type":"LineString","coordinates":[[-103.7691,39.7353],[-103.7684,39.7353]]},"properties":{"name":"Wetzel Creek","display_name":"Wetzel Creek","source_name":"Wetzel Creek","state":"CO","atlas_class":"named_natural_stream_detail","huc8":"10190013","huc8Name":"Beaver","lineageKey":"statewideContext","lineage":"statewideContext","historic":"statewideContext","current":"statewideContext","recovery":"statewideContext","lineageLabel":"Statewide Colorado hydrography context","atlas_context":"statewide_hydrography_context"}},{"type":"Feature","geometry":{"type":"LineString","coordinates":[[-103.7244,39.791],[-103.7232,39.7924],[-103.7221,39.7914]]},"properties":{"name":"Wetzel Creek","display_name":"Wetzel Creek","source_name":"Wetzel Creek","state":"CO","atlas_class":"named_natural_stream_detail","huc8":"10190013","huc8Name":"Beaver","lineageKey":"statewideContext","lineage":"statewideContext","historic":"statewideContext","current":"statewideContext","recovery":"statewideContext","lineageLabel":"Statewide Colorado hydrography context","atlas_context":"statewide_hydrography_context"}},{"type":"Feature","geometry":{"type":"LineString","coordinates":[[-103.6641,39.7761],[-103.664,39.7776],[-103.6628,39.7764],[-103.6619,39.777],[-103.6636,39.779],[-103.6633,39.7798],[-103.6648,39.7801],[-103.6657,39.7793],[-103.6674,39.781],[-103.6641,39.7821],[-103.6642,39.7842],[-103.6659,39.7851],[-103.6613,39.7858],[-103.6622,39.7881],[-103.6611,39.7903],[-103.6638,39.7902],[-103.6579,39.7925],[-103.6612,39.7947],[-103.657,39.7948],[-103.6565,39.7963],[-103.6586,39.7972],[-103.6568,39.7977],[-103.6569,39.799],[-103.6555,39.7999],[-103.652,39.8009],[-103.6502,39.7993],[-103.6478,39.8004]]},"properties":{"name":"Beaver Creek","display_name":"Beaver Creek","source_name":"Beaver Creek","state":"CO","atlas_class":"named_natural_stream_detail","huc8":"10190013","huc8Name":"Beaver","lineageKey":"statewideContext","lineage":"statewideContext","historic":"statewideContext","current":"statewideContext","recovery":"statewideContext","lineageLabel":"Statewide Colorado hydrography context","atlas_context":"statewide_hydrography_context"}},{"type":"Feature","geometry":{"type":"LineString","coordinates":[[-103.7204,39.694],[-103.7171,39.6972],[-103.7187,39.6987],[-103.721,39.6988]]},"properties":{"name":"Beaver Creek","display_name":"Beaver Creek","source_name":"Beaver Creek","state":"CO","atlas_class":"named_natural_stream_detail","huc8":"10190013","huc8Name":"Beaver","lineageKey":"statewideContext","lineage":"statewideContext","historic":"statewideContext","current":"statewideContext","recovery":"statewideContext","lineageLabel":"Statewide Colorado hydrography context","atlas_context":"statewide_hydrography_context"}},{"type":"Feature","geometry":{"type":"LineString","coordinates":[[-103.721,39.6988],[-103.7188,39.7002],[-103.7169,39.7],[-103.7189,39.7028],[-103.7157,39.7039],[-103.7177,39.7054],[-103.7173,39.7067],[-103.7148,39.7078],[-103.7133,39.7068],[-103.7141,39.7053],[-103.7121,39.7042],[-103.7113,39.7076]]},"properties":{"name":"Beaver Creek","display_name":"Beaver Creek","source_name":"Beaver Creek","state":"CO","atlas_class":"named_natural_stream_detail","huc8":"10190013","huc8Name":"Beaver","lineageKey":"statewideContext","lineage":"statewideContext","historic":"statewideContext","current":"statewideContext","recovery":"statewideContext","lineageLabel":"Statewide Colorado hydrography context","atlas_context":"statewide_hydrography_context"}},{"type":"Feature","geometry":{"type":"LineString","coordinates":[[-103.7668,39.6878],[-103.7655,39.6874],[-103.7656,39.6888],[-103.7665,39.689],[-103.7659,39.6893],[-103.7629,39.688]]},"properties":{"name":"Cottonwood Creek","display_name":"Cottonwood Creek","source_name":"Cottonwood Creek","state":"CO","atlas_class":"named_natural_stream_detail","huc8":"10190013","huc8Name":"Beaver","lineageKey":"statewideContext","lineage":"statewideContext","historic":"statewideContext","current":"statewideContext","recovery":"statewideContext","lineageLabel":"Statewide Colorado hydrography context","atlas_context":"statewide_hydrography_context"}},{"type":"Feature","geometry":{"type":"LineString","coordinates":[[-103.617,39.6642],[-103.6179,39.6653]]},"properties":{"name":"West Fork Plum Bush Creek","display_name":"West Fork Plum Bush Creek","source_name":"West Fork Plum Bush Creek","state":"CO","atlas_class":"named_natural_stream_detail","huc8":"10190013","huc8Name":"Beaver","lineageKey":"statewideContext","lineage":"statewideContext","historic":"statewideContext","current":"statewideContext","recovery":"statewideContext","lineageLabel":"Statewide Colorado hydrography context","atlas_context":"statewide_hydrography_context"}},{"type":"Feature","geometry":{"type":"LineString","coordinates":[[-103.6189,39.6736],[-103.6194,39.6758],[-103.6182,39.6769],[-103.6168,39.6757],[-103.617,39.6782],[-103.6181,39.6794],[-103.6167,39.6798],[-103.6182,39.6803],[-103.6181,39.6822],[-103.619,39.6824],[-103.6189,39.6834],[-103.6178,39.6838],[-103.6199,39.684],[-103.6203,39.683],[-103.6211,39.6837],[-103.6207,39.6846],[-103.6197,39.6844],[-103.6198,39.6859]]},"properties":{"name":"West Fork Plum Bush Creek","display_name":"West Fork Plum Bush Creek","source_name":"West Fork Plum Bush Creek","state":"CO","atlas_class":"named_natural_stream_detail","huc8":"10190013","huc8Name":"Beaver","lineageKey":"statewideContext","lineage":"statewideContext","historic":"statewideContext","current":"statewideContext","recovery":"statewideContext","lineageLabel":"Statewide Colorado hydrography context","atlas_context":"statewide_hydrography_context"}},{"type":"Feature","geometry":{"type":"LineString","coordinates":[[-103.6169,39.6683],[-103.6162,39.6684],[-103.619,39.6705],[-103.6185,39.6722],[-103.6173,39.6721],[-103.6189,39.6736]]},"properties":{"name":"West Fork Plum Bush Creek","display_name":"West Fork Plum Bush Creek","source_name":"West Fork Plum Bush Creek","state":"CO","atlas_class":"named_natural_stream_detail","huc8":"10190013","huc8Name":"Beaver","lineageKey":"statewideContext","lineage":"statewideContext","historic":"statewideContext","current":"statewideContext","recovery":"statewideContext","lineageLabel":"Statewide Colorado hydrography context","atlas_context":"statewide_hydrography_context"}},{"type":"Feature","geometry":{"type":"LineString","coordinates":[[-103.6188,39.6236],[-103.618,39.6293]]},"properties":{"name":"West Fork Plum Bush Creek","display_name":"West Fork Plum Bush Creek","source_name":"West Fork Plum Bush Creek","state":"CO","atlas_class":"named_natural_stream_detail","huc8":"10190013","huc8Name":"Beaver","lineageKey":"statewideContext","lineage":"statewideContext","historic":"statewideContext","current":"statewideContext","recovery":"statewideContext","lineageLabel":"Statewide Colorado hydrography context","atlas_context":"statewide_hydrography_context"}},{"type":"Feature","geometry":{"type":"LineString","coordinates":[[-103.6237,39.6128],[-103.6211,39.6227],[-103.6201,39.6232]]},"properties":{"name":"West Fork Plum Bush Creek","display_name":"West Fork Plum Bush Creek","source_name":"West Fork Plum Bush Creek","state":"CO","atlas_class":"named_natural_stream_detail","huc8":"10190013","huc8Name":"Beaver","lineageKey":"statewideContext","lineage":"statewideContext","historic":"statewideContext","current":"statewideContext","recovery":"statewideContext","lineageLabel":"Statewide Colorado hydrography context","atlas_context":"statewide_hydrography_context"}},{"type":"Feature","geometry":{"type":"LineString","coordinates":[[-103.6633,39.5983],[-103.6625,39.5987],[-103.6632,39.6024]]},"properties":{"name":"Middlemist Creek","display_name":"Middlemist Creek","source_name":"Middlemist Creek","state":"CO","atlas_class":"named_natural_stream_detail","huc8":"10190013","huc8Name":"Beaver","lineageKey":"statewideContext","lineage":"statewideContext","historic":"statewideContext","current":"statewideContext","recovery":"statewideContext","lineageLabel":"Statewide Colorado hydrography context","atlas_context":"statewide_hydrography_context"}},{"type":"Feature","geometry":{"type":"LineString","coordinates":[[-103.6232,39.6908],[-103.6232,39.6914]]},"properties":{"name":"West Fork Plum Bush Creek","display_name":"West Fork Plum Bush Creek","source_name":"West Fork Plum Bush Creek","state":"CO","atlas_class":"named_natural_stream_detail","huc8":"10190013","huc8Name":"Beaver","lineageKey":"statewideContext","lineage":"statewideContext","historic":"statewideContext","current":"statewideContext","recovery":"statewideContext","lineageLabel":"Statewide Colorado hydrography context","atlas_context":"statewide_hydrography_context"}},{"type":"Feature","geometry":{"type":"LineString","coordinates":[[-103.62,39.6863],[-103.6201,39.6864]]},"properties":{"name":"West Fork Plum Bush Creek","display_name":"West Fork Plum Bush Creek","source_name":"West Fork Plum Bush Creek","state":"CO","atlas_class":"named_natural_stream_detail","huc8":"10190013","huc8Name":"Beaver","lineageKey":"statewideContext","lineage":"statewideContext","historic":"statewideContext","current":"statewideContext","recovery":"statewideContext","lineageLabel":"Statewide Colorado hydrography context","atlas_context":"statewide_hydrography_context"}},{"type":"Feature","geometry":{"type":"LineString","coordinates":[[-103.797,39.6834],[-103.7959,39.6832],[-103.7957,39.6819],[-103.7948,39.6823]]},"properties":{"name":"Cottonwood Creek","display_name":"Cottonwood Creek","source_name":"Cottonwood Creek","state":"CO","atlas_class":"named_natural_stream_detail","huc8":"10190013","huc8Name":"Beaver","lineageKey":"statewideContext","lineage":"statewideContext","historic":"statewideContext","current":"statewideContext","recovery":"statewideContext","lineageLabel":"Statewide Colorado hydrography context","atlas_context":"statewide_hydrography_context"}},{"type":"Feature","geometry":{"type":"LineString","coordinates":[[-103.7113,39.7076],[-103.714,39.7098],[-103.7125,39.7135],[-103.7134,39.7147]]},"properties":{"name":"Beaver Creek","display_name":"Beaver Creek","source_name":"Beaver Creek","state":"CO","atlas_class":"named_natural_stream_detail","huc8":"10190013","huc8Name":"Beaver","lineageKey":"statewideContext","lineage":"statewideContext","historic":"statewideContext","current":"statewideContext","recovery":"statewideContext","lineageLabel":"Statewide Colorado hydrography context","atlas_context":"statewide_hydrography_context"}},{"type":"Feature","geometry":{"type":"LineString","coordinates":[[-103.7134,39.7147],[-103.7102,39.7156],[-103.7088,39.7142],[-103.7078,39.7148],[-103.7081,39.7156]]},"properties":{"name":"Beaver Creek","display_name":"Beaver Creek","source_name":"Beaver Creek","state":"CO","atlas_class":"named_natural_stream_detail","huc8":"10190013","huc8Name":"Beaver","lineageKey":"statewideContext","lineage":"statewideContext","historic":"statewideContext","current":"statewideContext","recovery":"statewideContext","lineageLabel":"Statewide Colorado hydrography context","atlas_context":"statewide_hydrography_context"}},{"type":"Feature","geometry":{"type":"LineString","coordinates":[[-103.7236,39.7907],[-103.7239,39.7908]]},"properties":{"name":"Wetzel Creek","display_name":"Wetzel Creek","source_name":"Wetzel Creek","state":"CO","atlas_class":"named_natural_stream_detail","huc8":"10190013","huc8Name":"Beaver","lineageKey":"statewideContext","lineage":"statewideContext","historic":"statewideContext","current":"statewideContext","recovery":"statewideContext","lineageLabel":"Statewide Colorado hydrography context","atlas_context":"statewide_hydrography_context"}},{"type":"Feature","geometry":{"type":"LineString","coordinates":[[-103.7699,39.6429],[-103.7662,39.6457],[-103.7663,39.6472],[-103.7643,39.6482],[-103.7651,39.6496],[-103.7608,39.6501],[-103.7614,39.6506],[-103.7602,39.6511],[-103.7611,39.653]]},"properties":{"name":"Rattlesnake Creek","display_name":"Rattlesnake Creek","source_name":"Rattlesnake Creek","state":"CO","atlas_class":"named_natural_stream_detail","huc8":"10190013","huc8Name":"Beaver","lineageKey":"statewideContext","lineage":"statewideContext","historic":"statewideContext","current":"statewideContext","recovery":"statewideContext","lineageLabel":"Statewide Colorado hydrography context","atlas_context":"statewide_hydrography_context"}},{"type":"Feature","geometry":{"type":"LineString","coordinates":[[-103.6181,39.6624],[-103.6176,39.6634],[-103.6188,39.664],[-103.617,39.6642]]},"properties":{"name":"West Fork Plum Bush Creek","display_name":"West Fork Plum Bush Creek","source_name":"West Fork Plum Bush Creek","state":"CO","atlas_class":"named_natural_stream_detail","huc8":"10190013","huc8Name":"Beaver","lineageKey":"statewideContext","lineage":"statewideContext","historic":"statewideContext","current":"statewideContext","recovery":"statewideContext","lineageLabel":"Statewide Colorado hydrography context","atlas_context":"statewide_hydrography_context"}},{"type":"Feature","geometry":{"type":"LineString","coordinates":[[-103.6232,39.6896],[-103.6233,39.6897]]},"properties":{"name":"West Fork Plum Bush Creek","display_name":"West Fork Plum Bush Creek","source_name":"West Fork Plum Bush Creek","state":"CO","atlas_class":"named_natural_stream_detail","huc8":"10190013","huc8Name":"Beaver","lineageKey":"statewideContext","lineage":"statewideContext","historic":"statewideContext","current":"statewideContext","recovery":"statewideContext","lineageLabel":"Statewide Colorado hydrography context","atlas_context":"statewide_hydrography_context"}},{"type":"Feature","geometry":{"type":"LineString","coordinates":[[-103.6209,39.725],[-103.62,39.7248],[-103.62,39.726],[-103.6186,39.7271],[-103.6195,39.7281],[-103.6181,39.7288]]},"properties":{"name":"West Fork Plum Bush Creek","display_name":"West Fork Plum Bush Creek","source_name":"West Fork Plum Bush Creek","state":"CO","atlas_class":"named_natural_stream_detail","huc8":"10190013","huc8Name":"Beaver","lineageKey":"statewideContext","lineage":"statewideContext","historic":"statewideContext","current":"statewideContext","recovery":"statewideContext","lineageLabel":"Statewide Colorado hydrography context","atlas_context":"statewide_hydrography_context"}},{"type":"Feature","geometry":{"type":"LineString","coordinates":[[-103.6187,39.6376],[-103.6177,39.6387]]},"properties":{"name":"West Fork Plum Bush Creek","display_name":"West Fork Plum Bush Creek","source_name":"West Fork Plum Bush Creek","state":"CO","atlas_class":"named_natural_stream_detail","huc8":"10190013","huc8Name":"Beaver","lineageKey":"statewideContext","lineage":"statewideContext","historic":"statewideContext","current":"statewideContext","recovery":"statewideContext","lineageLabel":"Statewide Colorado hydrography context","atlas_context":"statewide_hydrography_context"}},{"type":"Feature","geometry":{"type":"LineString","coordinates":[[-103.6244,39.6099],[-103.6243,39.6108]]},"properties":{"name":"West Fork Plum Bush Creek","display_name":"West Fork Plum Bush Creek","source_name":"West Fork Plum Bush Creek","state":"CO","atlas_class":"named_natural_stream_detail","huc8":"10190013","huc8Name":"Beaver","lineageKey":"statewideContext","lineage":"statewideContext","historic":"statewideContext","current":"statewideContext","recovery":"statewideContext","lineageLabel":"Statewide Colorado hydrography context","atlas_context":"statewide_hydrography_context"}},{"type":"Feature","geometry":{"type":"LineString","coordinates":[[-103.7352,39.6666],[-103.7337,39.6672],[-103.7343,39.6688],[-103.7373,39.6699],[-103.7356,39.6704],[-103.7354,39.6713],[-103.7333,39.6713],[-103.7337,39.672],[-103.7318,39.6728],[-103.7333,39.6739],[-103.7313,39.6748],[-103.7329,39.6756],[-103.7335,39.6745],[-103.7347,39.6749],[-103.7363,39.6737]]},"properties":{"name":"Beaver Creek","display_name":"Beaver Creek","source_name":"Beaver Creek","state":"CO","atlas_class":"named_natural_stream_detail","huc8":"10190013","huc8Name":"Beaver","lineageKey":"statewideContext","lineage":"statewideContext","historic":"statewideContext","current":"statewideContext","recovery":"statewideContext","lineageLabel":"Statewide Colorado hydrography context","atlas_context":"statewide_hydrography_context"}},{"type":"Feature","geometry":{"type":"LineString","coordinates":[[-103.7364,39.6738],[-103.7369,39.6763],[-103.7349,39.676],[-103.7351,39.6771],[-103.7321,39.6784],[-103.7338,39.6791],[-103.7355,39.6787],[-103.7351,39.6803],[-103.7307,39.6801]]},"properties":{"name":"Beaver Creek","display_name":"Beaver Creek","source_name":"Beaver Creek","state":"CO","atlas_class":"named_natural_stream_detail","huc8":"10190013","huc8Name":"Beaver","lineageKey":"statewideContext","lineage":"statewideContext","historic":"statewideContext","current":"statewideContext","recovery":"statewideContext","lineageLabel":"Statewide Colorado hydrography context","atlas_context":"statewide_hydrography_context"}},{"type":"Feature","geometry":{"type":"LineString","coordinates":[[-103.6831,39.7599],[-103.6845,39.7608],[-103.6834,39.763],[-103.6807,39.7633],[-103.6828,39.7641],[-103.6803,39.7644],[-103.6761,39.7632],[-103.6752,39.7647]]},"properties":{"name":"Beaver Creek","display_name":"Beaver Creek","source_name":"Beaver Creek","state":"CO","atlas_class":"named_natural_stream_detail","huc8":"10190013","huc8Name":"Beaver","lineageKey":"statewideContext","lineage":"statewideContext","historic":"statewideContext","current":"statewideContext","recovery":"statewideContext","lineageLabel":"Statewide Colorado hydrography context","atlas_context":"statewide_hydrography_context"}},{"type":"Feature","geometry":{"type":"LineString","coordinates":[[-103.618,39.6293],[-103.6182,39.6311]]},"properties":{"name":"West Fork Plum Bush Creek","display_name":"West Fork Plum Bush Creek","source_name":"West Fork Plum Bush Creek","state":"CO","atlas_class":"named_natural_stream_detail","huc8":"10190013","huc8Name":"Beaver","lineageKey":"statewideContext","lineage":"statewideContext","historic":"statewideContext","current":"statewideContext","recovery":"statewideContext","lineageLabel":"Statewide Colorado hydrography context","atlas_context":"statewide_hydrography_context"}},{"type":"Feature","geometry":{"type":"LineString","coordinates":[[-103.6197,39.6473],[-103.6198,39.6482],[-103.6181,39.6482],[-103.618,39.6495],[-103.6172,39.6496]]},"properties":{"name":"West Fork Plum Bush Creek","display_name":"West Fork Plum Bush Creek","source_name":"West Fork Plum Bush Creek","state":"CO","atlas_class":"named_natural_stream_detail","huc8":"10190013","huc8Name":"Beaver","lineageKey":"statewideContext","lineage":"statewideContext","historic":"statewideContext","current":"statewideContext","recovery":"statewideContext","lineageLabel":"Statewide Colorado hydrography context","atlas_context":"statewide_hydrography_context"}},{"type":"Feature","geometry":{"type":"LineString","coordinates":[[-103.6752,39.7647],[-103.6755,39.7664],[-103.6734,39.768],[-103.6715,39.7679],[-103.6699,39.7663],[-103.668,39.7678],[-103.669,39.7693]]},"properties":{"name":"Beaver Creek","display_name":"Beaver Creek","source_name":"Beaver Creek","state":"CO","atlas_class":"named_natural_stream_detail","huc8":"10190013","huc8Name":"Beaver","lineageKey":"statewideContext","lineage":"statewideContext","historic":"statewideContext","current":"statewideContext","recovery":"statewideContext","lineageLabel":"Statewide Colorado hydrography context","atlas_context":"statewide_hydrography_context"}},{"type":"Feature","geometry":{"type":"LineString","coordinates":[[-103.755,39.5975],[-103.7544,39.5982],[-103.7564,39.6004],[-103.754,39.5996],[-103.7532,39.6004],[-103.7542,39.6016],[-103.7557,39.6016],[-103.7548,39.6024],[-103.7527,39.6022],[-103.752,39.6034],[-103.7517,39.6064],[-103.7527,39.6079],[-103.7485,39.6081],[-103.7496,39.6111],[-103.753,39.6108]]},"properties":{"name":"Beaver Creek","display_name":"Beaver Creek","source_name":"Beaver Creek","state":"CO","atlas_class":"named_natural_stream_detail","huc8":"10190013","huc8Name":"Beaver","lineageKey":"statewideContext","lineage":"statewideContext","historic":"statewideContext","current":"statewideContext","recovery":"statewideContext","lineageLabel":"Statewide Colorado hydrography context","atlas_context":"statewide_hydrography_context"}},{"type":"Feature","geometry":{"type":"LineString","coordinates":[[-103.6181,39.7288],[-103.6169,39.7297]]},"properties":{"name":"West Fork Plum Bush Creek","display_name":"West Fork Plum Bush Creek","source_name":"West Fork Plum Bush Creek","state":"CO","atlas_class":"named_natural_stream_detail","huc8":"10190013","huc8Name":"Beaver","lineageKey":"statewideContext","lineage":"statewideContext","historic":"statewideContext","current":"statewideContext","recovery":"statewideContext","lineageLabel":"Statewide Colorado hydrography context","atlas_context":"statewide_hydrography_context"}},{"type":"Feature","geometry":{"type":"LineString","coordinates":[[-103.7677,39.7353],[-103.767,39.7354],[-103.7675,39.7366],[-103.7641,39.7376]]},"properties":{"name":"Wetzel Creek","display_name":"Wetzel Creek","source_name":"Wetzel Creek","state":"CO","atlas_class":"named_natural_stream_detail","huc8":"10190013","huc8Name":"Beaver","lineageKey":"statewideContext","lineage":"statewideContext","historic":"statewideContext","current":"statewideContext","recovery":"statewideContext","lineageLabel":"Statewide Colorado hydrography context","atlas_context":"statewide_hydrography_context"}},{"type":"Feature","geometry":{"type":"LineString","coordinates":[[-103.764,39.7373],[-103.7633,39.7369]]},"properties":{"name":"Wetzel Creek","display_name":"Wetzel Creek","source_name":"Wetzel Creek","state":"CO","atlas_class":"named_natural_stream_detail","huc8":"10190013","huc8Name":"Beaver","lineageKey":"statewideContext","lineage":"statewideContext","historic":"statewideContext","current":"statewideContext","recovery":"statewideContext","lineageLabel":"Statewide Colorado hydrography context","atlas_context":"statewide_hydrography_context"}},{"type":"Feature","geometry":{"type":"LineString","coordinates":[[-103.7334,39.7862],[-103.7313,39.7874],[-103.7299,39.7864],[-103.7309,39.7855],[-103.7297,39.7848],[-103.7291,39.7853]]},"properties":{"name":"Wetzel Creek","display_name":"Wetzel Creek","source_name":"Wetzel Creek","state":"CO","atlas_class":"named_natural_stream_detail","huc8":"10190013","huc8Name":"Beaver","lineageKey":"statewideContext","lineage":"statewideContext","historic":"statewideContext","current":"statewideContext","recovery":"statewideContext","lineageLabel":"Statewide Colorado hydrography context","atlas_context":"statewide_hydrography_context"}},{"type":"Feature","geometry":{"type":"LineString","coordinates":[[-103.7562,39.7414],[-103.7546,39.7419]]},"properties":{"name":"Wetzel Creek","display_name":"Wetzel Creek","source_name":"Wetzel Creek","state":"CO","atlas_class":"named_natural_stream_detail","huc8":"10190013","huc8Name":"Beaver","lineageKey":"statewideContext","lineage":"statewideContext","historic":"statewideContext","current":"statewideContext","recovery":"statewideContext","lineageLabel":"Statewide Colorado hydrography context","atlas_context":"statewide_hydrography_context"}},{"type":"Feature","geometry":{"type":"LineString","coordinates":[[-103.681,39.6885],[-103.6824,39.6897],[-103.6845,39.6885],[-103.686,39.6899]]},"properties":{"name":"Middlemist Creek","display_name":"Middlemist Creek","source_name":"Middlemist Creek","state":"CO","atlas_class":"named_natural_stream_detail","huc8":"10190013","huc8Name":"Beaver","lineageKey":"statewideContext","lineage":"statewideContext","historic":"statewideContext","current":"statewideContext","recovery":"statewideContext","lineageLabel":"Statewide Colorado hydrography context","atlas_context":"statewide_hydrography_context"}},{"type":"Feature","geometry":{"type":"LineString","coordinates":[[-103.7772,39.6405],[-103.7759,39.6399],[-103.7745,39.6405],[-103.7757,39.6429]]},"properties":{"name":"Rattlesnake Creek","display_name":"Rattlesnake Creek","source_name":"Rattlesnake Creek","state":"CO","atlas_class":"named_natural_stream_detail","huc8":"10190013","huc8Name":"Beaver","lineageKey":"statewideContext","lineage":"statewideContext","historic":"statewideContext","current":"statewideContext","recovery":"statewideContext","lineageLabel":"Statewide Colorado hydrography context","atlas_context":"statewide_hydrography_context"}},{"type":"Feature","geometry":{"type":"LineString","coordinates":[[-103.7875,39.686],[-103.7866,39.6857],[-103.7854,39.6872],[-103.7839,39.686],[-103.7826,39.6862],[-103.7822,39.6875],[-103.7805,39.6873],[-103.7814,39.6889]]},"properties":{"name":"Cottonwood Creek","display_name":"Cottonwood Creek","source_name":"Cottonwood Creek","state":"CO","atlas_class":"named_natural_stream_detail","huc8":"10190013","huc8Name":"Beaver","lineageKey":"statewideContext","lineage":"statewideContext","historic":"statewideContext","current":"statewideContext","recovery":"statewideContext","lineageLabel":"Statewide Colorado hydrography context","atlas_context":"statewide_hydrography_context"}},{"type":"Feature","geometry":{"type":"LineString","coordinates":[[-103.7878,39.7327],[-103.7863,39.7337],[-103.7846,39.7367]]},"properties":{"name":"Wetzel Creek","display_name":"Wetzel Creek","source_name":"Wetzel Creek","state":"CO","atlas_class":"named_natural_stream_detail","huc8":"10190013","huc8Name":"Beaver","lineageKey":"statewideContext","lineage":"statewideContext","historic":"statewideContext","current":"statewideContext","recovery":"statewideContext","lineageLabel":"Statewide Colorado hydrography context","atlas_context":"statewide_hydrography_context"}},{"type":"Feature","geometry":{"type":"LineString","coordinates":[[-103.7774,39.6401],[-103.7772,39.6405]]},"properties":{"name":"Rattlesnake Creek","display_name":"Rattlesnake Creek","source_name":"Rattlesnake Creek","state":"CO","atlas_class":"named_natural_stream_detail","huc8":"10190013","huc8Name":"Beaver","lineageKey":"statewideContext","lineage":"statewideContext","historic":"statewideContext","current":"statewideContext","recovery":"statewideContext","lineageLabel":"Statewide Colorado hydrography context","atlas_context":"statewide_hydrography_context"}},{"type":"Feature","geometry":{"type":"LineString","coordinates":[[-103.6941,39.6956],[-103.6906,39.697]]},"properties":{"name":"Middlemist Creek","display_name":"Middlemist Creek","source_name":"Middlemist Creek","state":"CO","atlas_class":"named_natural_stream_detail","huc8":"10190013","huc8Name":"Beaver","lineageKey":"statewideContext","lineage":"statewideContext","historic":"statewideContext","current":"statewideContext","recovery":"statewideContext","lineageLabel":"Statewide Colorado hydrography context","atlas_context":"statewide_hydrography_context"}},{"type":"Feature","geometry":{"type":"LineString","coordinates":[[-103.686,39.6899],[-103.6882,39.6905],[-103.6872,39.6889],[-103.6881,39.6878],[-103.691,39.6899],[-103.6932,39.6896],[-103.6924,39.6918]]},"properties":{"name":"Middlemist Creek","display_name":"Middlemist Creek","source_name":"Middlemist Creek","state":"CO","atlas_class":"named_natural_stream_detail","huc8":"10190013","huc8Name":"Beaver","lineageKey":"statewideContext","lineage":"statewideContext","historic":"statewideContext","current":"statewideContext","recovery":"statewideContext","lineageLabel":"Statewide Colorado hydrography context","atlas_context":"statewide_hydrography_context"}},{"type":"Feature","geometry":{"type":"LineString","coordinates":[[-103.67,39.6625],[-103.6694,39.6646],[-103.667,39.6659],[-103.667,39.6674]]},"properties":{"name":"Middlemist Creek","display_name":"Middlemist Creek","source_name":"Middlemist Creek","state":"CO","atlas_class":"named_natural_stream_detail","huc8":"10190013","huc8Name":"Beaver","lineageKey":"statewideContext","lineage":"statewideContext","historic":"statewideContext","current":"statewideContext","recovery":"statewideContext","lineageLabel":"Statewide Colorado hydrography context","atlas_context":"statewide_hydrography_context"}},{"type":"Feature","geometry":{"type":"LineString","coordinates":[[-103.6831,39.6816],[-103.6822,39.6825],[-103.6845,39.6837],[-103.6825,39.6851],[-103.6831,39.6861],[-103.681,39.6885]]},"properties":{"name":"Middlemist Creek","display_name":"Middlemist Creek","source_name":"Middlemist Creek","state":"CO","atlas_class":"named_natural_stream_detail","huc8":"10190013","huc8Name":"Beaver","lineageKey":"statewideContext","lineage":"statewideContext","historic":"statewideContext","current":"statewideContext","recovery":"statewideContext","lineageLabel":"Statewide Colorado hydrography context","atlas_context":"statewide_hydrography_context"}},{"type":"Feature","geometry":{"type":"LineString","coordinates":[[-103.7291,39.7853],[-103.7285,39.7861],[-103.7275,39.7856],[-103.7271,39.787],[-103.7263,39.7867],[-103.7274,39.7876],[-103.7264,39.7886],[-103.7254,39.7882],[-103.7265,39.7893],[-103.7248,39.7898]]},"properties":{"name":"Wetzel Creek","display_name":"Wetzel Creek","source_name":"Wetzel Creek","state":"CO","atlas_class":"named_natural_stream_detail","huc8":"10190013","huc8Name":"Beaver","lineageKey":"statewideContext","lineage":"statewideContext","historic":"statewideContext","current":"statewideContext","recovery":"statewideContext","lineageLabel":"Statewide Colorado hydrography context","atlas_context":"statewide_hydrography_context"}},{"type":"Feature","geometry":{"type":"LineString","coordinates":[[-103.6923,39.6935],[-103.6939,39.6948]]},"properties":{"name":"Middlemist Creek","display_name":"Middlemist Creek","source_name":"Middlemist Creek","state":"CO","atlas_class":"named_natural_stream_detail","huc8":"10190013","huc8Name":"Beaver","lineageKey":"statewideContext","lineage":"statewideContext","historic":"statewideContext","current":"statewideContext","recovery":"statewideContext","lineageLabel":"Statewide Colorado hydrography context","atlas_context":"statewide_hydrography_context"}},{"type":"Feature","geometry":{"type":"LineString","coordinates":[[-103.7533,39.7463],[-103.7527,39.7467],[-103.7534,39.7473],[-103.7514,39.7493],[-103.7522,39.7501],[-103.7501,39.7515],[-103.7507,39.7518],[-103.7496,39.7532],[-103.75,39.754],[-103.7475,39.7542]]},"properties":{"name":"Wetzel Creek","display_name":"Wetzel Creek","source_name":"Wetzel Creek","state":"CO","atlas_class":"named_natural_stream_detail","huc8":"10190013","huc8Name":"Beaver","lineageKey":"statewideContext","lineage":"statewideContext","historic":"statewideContext","current":"statewideContext","recovery":"statewideContext","lineageLabel":"Statewide Colorado hydrography context","atlas_context":"statewide_hydrography_context"}},{"type":"Feature","geometry":{"type":"LineString","coordinates":[[-103.6708,39.5939],[-103.6673,39.5994],[-103.6657,39.6001],[-103.6633,39.5983]]},"properties":{"name":"Middlemist Creek","display_name":"Middlemist Creek","source_name":"Middlemist Creek","state":"CO","atlas_class":"named_natural_stream_detail","huc8":"10190013","huc8Name":"Beaver","lineageKey":"statewideContext","lineage":"statewideContext","historic":"statewideContext","current":"statewideContext","recovery":"statewideContext","lineageLabel":"Statewide Colorado hydrography context","atlas_context":"statewide_hydrography_context"}},{"type":"Feature","geometry":{"type":"LineString","coordinates":[[-103.6655,39.658],[-103.6637,39.6599],[-103.6621,39.6595]]},"properties":{"name":"Middlemist Creek","display_name":"Middlemist Creek","source_name":"Middlemist Creek","state":"CO","atlas_class":"named_natural_stream_detail","huc8":"10190013","huc8Name":"Beaver","lineageKey":"statewideContext","lineage":"statewideContext","historic":"statewideContext","current":"statewideContext","recovery":"statewideContext","lineageLabel":"Statewide Colorado hydrography context","atlas_context":"statewide_hydrography_context"}},{"type":"Feature","geometry":{"type":"LineString","coordinates":[[-103.7629,39.688],[-103.7611,39.6878],[-103.7607,39.6891],[-103.7602,39.6868],[-103.758,39.6878],[-103.7583,39.6887],[-103.7576,39.6889]]},"properties":{"name":"Cottonwood Creek","display_name":"Cottonwood Creek","source_name":"Cottonwood Creek","state":"CO","atlas_class":"named_natural_stream_detail","huc8":"10190013","huc8Name":"Beaver","lineageKey":"statewideContext","lineage":"statewideContext","historic":"statewideContext","current":"statewideContext","recovery":"statewideContext","lineageLabel":"Statewide Colorado hydrography context","atlas_context":"statewide_hydrography_context"}},{"type":"Feature","geometry":{"type":"LineString","coordinates":[[-103.7363,39.6737],[-103.7364,39.6738]]},"properties":{"name":"Beaver Creek","display_name":"Beaver Creek","source_name":"Beaver Creek","state":"CO","atlas_class":"named_natural_stream_detail","huc8":"10190013","huc8Name":"Beaver","lineageKey":"statewideContext","lineage":"statewideContext","historic":"statewideContext","current":"statewideContext","recovery":"statewideContext","lineageLabel":"Statewide Colorado hydrography context","atlas_context":"statewide_hydrography_context"}},{"type":"Feature","geometry":{"type":"LineString","coordinates":[[-103.7397,39.7636],[-103.7387,39.7633],[-103.738,39.7651],[-103.7365,39.7645],[-103.736,39.7651]]},"properties":{"name":"Wetzel Creek","display_name":"Wetzel Creek","source_name":"Wetzel Creek","state":"CO","atlas_class":"named_natural_stream_detail","huc8":"10190013","huc8Name":"Beaver","lineageKey":"statewideContext","lineage":"statewideContext","historic":"statewideContext","current":"statewideContext","recovery":"statewideContext","lineageLabel":"Statewide Colorado hydrography context","atlas_context":"statewide_hydrography_context"}},{"type":"Feature","geometry":{"type":"LineString","coordinates":[[-103.8023,39.6205],[-103.8019,39.6226],[-103.8026,39.6241],[-103.8,39.6251],[-103.7967,39.6248]]},"properties":{"name":"Rattlesnake Creek","display_name":"Rattlesnake Creek","source_name":"Rattlesnake Creek","state":"CO","atlas_class":"named_natural_stream_detail","huc8":"10190013","huc8Name":"Beaver","lineageKey":"statewideContext","lineage":"statewideContext","historic":"statewideContext","current":"statewideContext","recovery":"statewideContext","lineageLabel":"Statewide Colorado hydrography context","atlas_context":"statewide_hydrography_context"}},{"type":"Feature","geometry":{"type":"LineString","coordinates":[[-103.7967,39.6248],[-103.7959,39.6253],[-103.7944,39.6241]]},"properties":{"name":"Rattlesnake Creek","display_name":"Rattlesnake Creek","source_name":"Rattlesnake Creek","state":"CO","atlas_class":"named_natural_stream_detail","huc8":"10190013","huc8Name":"Beaver","lineageKey":"statewideContext","lineage":"statewideContext","historic":"statewideContext","current":"statewideContext","recovery":"statewideContext","lineageLabel":"Statewide Colorado hydrography context","atlas_context":"statewide_hydrography_context"}},{"type":"Feature","geometry":{"type":"LineString","coordinates":[[-103.678,39.6744],[-103.6788,39.6782],[-103.6817,39.6783],[-103.681,39.6764],[-103.6817,39.6755],[-103.6843,39.6775],[-103.6823,39.6798],[-103.6831,39.6816]]},"properties":{"name":"Middlemist Creek","display_name":"Middlemist Creek","source_name":"Middlemist Creek","state":"CO","atlas_class":"named_natural_stream_detail","huc8":"10190013","huc8Name":"Beaver","lineageKey":"statewideContext","lineage":"statewideContext","historic":"statewideContext","current":"statewideContext","recovery":"statewideContext","lineageLabel":"Statewide Colorado hydrography context","atlas_context":"statewide_hydrography_context"}},{"type":"Feature","geometry":{"type":"LineString","coordinates":[[-103.6814,39.7324],[-103.6807,39.733],[-103.6838,39.7337],[-103.6826,39.7352],[-103.6853,39.7372],[-103.6847,39.7391],[-103.6853,39.7411],[-103.6885,39.7411],[-103.6855,39.7442],[-103.6818,39.7451],[-103.6838,39.7467],[-103.6826,39.7471],[-103.6821,39.7494],[-103.6846,39.7495],[-103.6852,39.7507],[-103.6834,39.7501],[-103.6823,39.7514],[-103.6801,39.7518],[-103.6805,39.7548],[-103.679,39.755],[-103.6803,39.7559],[-103.6809,39.7595],[-103.6831,39.7599]]},"properties":{"name":"Beaver Creek","display_name":"Beaver Creek","source_name":"Beaver Creek","state":"CO","atlas_class":"named_natural_stream_detail","huc8":"10190013","huc8Name":"Beaver","lineageKey":"statewideContext","lineage":"statewideContext","historic":"statewideContext","current":"statewideContext","recovery":"statewideContext","lineageLabel":"Statewide Colorado hydrography context","atlas_context":"statewide_hydrography_context"}},{"type":"Feature","geometry":{"type":"LineString","coordinates":[[-103.7338,39.6273],[-103.7328,39.6282],[-103.7354,39.6295],[-103.7359,39.6318],[-103.734,39.6322],[-103.7343,39.634],[-103.7362,39.634],[-103.7337,39.6352],[-103.7339,39.6362],[-103.7366,39.6361],[-103.7346,39.6389],[-103.7361,39.6411],[-103.7379,39.6395],[-103.7391,39.6403],[-103.7372,39.6417],[-103.738,39.6424],[-103.737,39.6433],[-103.7344,39.6421],[-103.734,39.6449],[-103.7329,39.645],[-103.7331,39.6441],[-103.7322,39.644]]},"properties":{"name":"Beaver Creek","display_name":"Beaver Creek","source_name":"Beaver Creek","state":"CO","atlas_class":"named_natural_stream_detail","huc8":"10190013","huc8Name":"Beaver","lineageKey":"statewideContext","lineage":"statewideContext","historic":"statewideContext","current":"statewideContext","recovery":"statewideContext","lineageLabel":"Statewide Colorado hydrography context","atlas_context":"statewide_hydrography_context"}},{"type":"Feature","geometry":{"type":"LineString","coordinates":[[-103.7322,39.644],[-103.7335,39.6492],[-103.7361,39.6499],[-103.7342,39.6507],[-103.7349,39.6535],[-103.7334,39.6545],[-103.7357,39.655],[-103.7363,39.6562]]},"properties":{"name":"Beaver Creek","display_name":"Beaver Creek","source_name":"Beaver Creek","state":"CO","atlas_class":"named_natural_stream_detail","huc8":"10190013","huc8Name":"Beaver","lineageKey":"statewideContext","lineage":"statewideContext","historic":"statewideContext","current":"statewideContext","recovery":"statewideContext","lineageLabel":"Statewide Colorado hydrography context","atlas_context":"statewide_hydrography_context"}},{"type":"Feature","geometry":{"type":"LineString","coordinates":[[-103.7948,39.6823],[-103.7947,39.6839],[-103.7928,39.6847],[-103.7941,39.6857],[-103.7939,39.6866],[-103.791,39.6861]]},"properties":{"name":"Cottonwood Creek","display_name":"Cottonwood Creek","source_name":"Cottonwood Creek","state":"CO","atlas_class":"named_natural_stream_detail","huc8":"10190013","huc8Name":"Beaver","lineageKey":"statewideContext","lineage":"statewideContext","historic":"statewideContext","current":"statewideContext","recovery":"statewideContext","lineageLabel":"Statewide Colorado hydrography context","atlas_context":"statewide_hydrography_context"}},{"type":"Feature","geometry":{"type":"LineString","coordinates":[[-103.7814,39.6889],[-103.7785,39.6896],[-103.779,39.6891],[-103.7775,39.6879],[-103.7778,39.6897],[-103.7771,39.6899]]},"properties":{"name":"Cottonwood Creek","display_name":"Cottonwood Creek","source_name":"Cottonwood Creek","state":"CO","atlas_class":"named_natural_stream_detail","huc8":"10190013","huc8Name":"Beaver","lineageKey":"statewideContext","lineage":"statewideContext","historic":"statewideContext","current":"statewideContext","recovery":"statewideContext","lineageLabel":"Statewide Colorado hydrography context","atlas_context":"statewide_hydrography_context"}},{"type":"Feature","geometry":{"type":"LineString","coordinates":[[-103.6183,39.6323],[-103.6179,39.6352],[-103.6194,39.637],[-103.6187,39.6376]]},"properties":{"name":"West Fork Plum Bush Creek","display_name":"West Fork Plum Bush Creek","source_name":"West Fork Plum Bush Creek","state":"CO","atlas_class":"named_natural_stream_detail","huc8":"10190013","huc8Name":"Beaver","lineageKey":"statewideContext","lineage":"statewideContext","historic":"statewideContext","current":"statewideContext","recovery":"statewideContext","lineageLabel":"Statewide Colorado hydrography context","atlas_context":"statewide_hydrography_context"}},{"type":"Feature","geometry":{"type":"LineString","coordinates":[[-103.6154,39.6493],[-103.6152,39.6505],[-103.6174,39.6525],[-103.6161,39.6546],[-103.6182,39.6579],[-103.6169,39.6592],[-103.6182,39.6599],[-103.6181,39.6613],[-103.6165,39.6615],[-103.6181,39.6624]]},"properties":{"name":"West Fork Plum Bush Creek","display_name":"West Fork Plum Bush Creek","source_name":"West Fork Plum Bush Creek","state":"CO","atlas_class":"named_natural_stream_detail","huc8":"10190013","huc8Name":"Beaver","lineageKey":"statewideContext","lineage":"statewideContext","historic":"statewideContext","current":"statewideContext","recovery":"statewideContext","lineageLabel":"Statewide Colorado hydrography context","atlas_context":"statewide_hydrography_context"}},{"type":"Feature","geometry":{"type":"LineString","coordinates":[[-103.6165,39.7316],[-103.6161,39.7325],[-103.6147,39.7322],[-103.6153,39.734],[-103.6128,39.7356],[-103.6134,39.7387]]},"properties":{"name":"West Fork Plum Bush Creek","display_name":"West Fork Plum Bush Creek","source_name":"West Fork Plum Bush Creek","state":"CO","atlas_class":"named_natural_stream_detail","huc8":"10190013","huc8Name":"Beaver","lineageKey":"statewideContext","lineage":"statewideContext","historic":"statewideContext","current":"statewideContext","recovery":"statewideContext","lineageLabel":"Statewide Colorado hydrography context","atlas_context":"statewide_hydrography_context"}},{"type":"Feature","geometry":{"type":"LineString","coordinates":[[-103.6122,39.7413],[-103.6122,39.7425],[-103.6105,39.7426],[-103.612,39.7446]]},"properties":{"name":"West Fork Plum Bush Creek","display_name":"West Fork Plum Bush Creek","source_name":"West Fork Plum Bush Creek","state":"CO","atlas_class":"named_natural_stream_detail","huc8":"10190013","huc8Name":"Beaver","lineageKey":"statewideContext","lineage":"statewideContext","historic":"statewideContext","current":"statewideContext","recovery":"statewideContext","lineageLabel":"Statewide Colorado hydrography context","atlas_context":"statewide_hydrography_context"}}]}