{"type":"FeatureCollection","metadata":{"source":"C:\\ct-atlas-data\\processed\\geojson\\interpreted\\colorado_named_natural_streams_complete_v1.geojson","type":"colorado-natural-stream-detail-tile-v2","tile_size_degrees":0.2,"x":-521,"y":202,"bounds":{"west":-104.2,"south":40.4,"east":-104,"north":40.6}},"features":[{"type":"Feature","geometry":{"type":"LineString","coordinates":[[-104.0257,40.5371],[-104.0019,40.5198],[-103.9925,40.5176],[-103.9906,40.518]]},"properties":{"name":"Wildcat Creek","display_name":"Wildcat Creek","source_name":"Wildcat Creek","state":"CO","atlas_class":"named_natural_stream_detail","huc8":"10190012","huc8Name":"Middle South Platte-Sterling","lineageKey":"statewideContext","lineage":"statewideContext","historic":"statewideContext","current":"statewideContext","recovery":"statewideContext","lineageLabel":"Statewide Colorado hydrography context","atlas_context":"statewide_hydrography_context"}}]}