{"type":"FeatureCollection","metadata":{"source":"C:\\ct-atlas-data\\processed\\geojson\\interpreted\\colorado_named_natural_streams_complete_v1.geojson","type":"colorado-natural-stream-detail-tile-v2","tile_size_degrees":0.2,"x":-521,"y":184,"bounds":{"west":-104.2,"south":36.8,"east":-104,"north":37}},"features":[{"type":"Feature","geometry":{"type":"LineString","coordinates":[[-104.1381,36.9999],[-104.1352,37.001]]},"properties":{"name":"Rito Azul","display_name":"Rito Azul","source_name":"Rito Azul","state":"CO","atlas_class":"named_natural_stream_detail","huc8":"11020010","huc8Name":"Purgatoire","lineageKey":"yellowfin","lineage":"yellowfin","historic":"yellowfin","current":"yellowfin","recovery":"recoveryWatch","lineageLabel":"Yellowfin / Arkansas headwaters historical form","atlas_context":"cutthroat_lineage_context"}},{"type":"Feature","geometry":{"type":"LineString","coordinates":[[-104.163,36.9959],[-104.1619,36.9967],[-104.1575,36.9968],[-104.1519,36.9993]]},"properties":{"name":"Cadilloso Arroyo","display_name":"Cadilloso Arroyo","source_name":"Cadilloso Arroyo","state":"CO","atlas_class":"named_natural_stream_detail","huc8":"11020010","huc8Name":"Purgatoire","lineageKey":"yellowfin","lineage":"yellowfin","historic":"yellowfin","current":"yellowfin","recovery":"recoveryWatch","lineageLabel":"Yellowfin / Arkansas headwaters historical form","atlas_context":"cutthroat_lineage_context"}},{"type":"Feature","geometry":{"type":"LineString","coordinates":[[-104.0403,36.996],[-104.0398,36.9974],[-104.0407,37],[-104.0399,37.0032],[-104.042,37.005]]},"properties":{"name":"Salazar Arroyo","display_name":"Salazar Arroyo","source_name":"Salazar Arroyo","state":"CO","atlas_class":"named_natural_stream_detail","huc8":"11020010","huc8Name":"Purgatoire","lineageKey":"yellowfin","lineage":"yellowfin","historic":"yellowfin","current":"yellowfin","recovery":"recoveryWatch","lineageLabel":"Yellowfin / Arkansas headwaters historical form","atlas_context":"cutthroat_lineage_context"}},{"type":"Feature","geometry":{"type":"LineString","coordinates":[[-104.1495,36.9953],[-104.1381,36.9999]]},"properties":{"name":"Rito Azul","display_name":"Rito Azul","source_name":"Rito Azul","state":"CO","atlas_class":"named_natural_stream_detail","huc8":"11020010","huc8Name":"Purgatoire","lineageKey":"yellowfin","lineage":"yellowfin","historic":"yellowfin","current":"yellowfin","recovery":"recoveryWatch","lineageLabel":"Yellowfin / Arkansas headwaters historical form","atlas_context":"cutthroat_lineage_context"}},{"type":"Feature","geometry":{"type":"LineString","coordinates":[[-104.1757,36.9951],[-104.1743,36.9985],[-104.1753,37]]},"properties":{"name":"Rito Seco","display_name":"Rito Seco","source_name":"Rito Seco","state":"CO","atlas_class":"named_natural_stream_detail","huc8":"11020010","huc8Name":"Purgatoire","lineageKey":"yellowfin","lineage":"yellowfin","historic":"yellowfin","current":"yellowfin","recovery":"recoveryWatch","lineageLabel":"Yellowfin / Arkansas headwaters historical form","atlas_context":"cutthroat_lineage_context"}},{"type":"Feature","geometry":{"type":"LineString","coordinates":[[-104.1515,36.9995],[-104.1498,37.0014]]},"properties":{"name":"Cadilloso Arroyo","display_name":"Cadilloso Arroyo","source_name":"Cadilloso Arroyo","state":"CO","atlas_class":"named_natural_stream_detail","huc8":"11020010","huc8Name":"Purgatoire","lineageKey":"yellowfin","lineage":"yellowfin","historic":"yellowfin","current":"yellowfin","recovery":"recoveryWatch","lineageLabel":"Yellowfin / Arkansas headwaters historical form","atlas_context":"cutthroat_lineage_context"}},{"type":"Feature","geometry":{"type":"LineString","coordinates":[[-104.0957,36.9957],[-104.0951,37],[-104.0934,37.0016],[-104.0941,37.0023],[-104.093,37.0027],[-104.0937,37.0034],[-104.0922,37.0036],[-104.0931,37.0057],[-104.0903,37.0089]]},"properties":{"name":"Trinchera Creek","display_name":"Trinchera Creek","source_name":"Trinchera Creek","state":"CO","atlas_class":"named_natural_stream_detail","huc8":"11020010","huc8Name":"Purgatoire","lineageKey":"yellowfin","lineage":"yellowfin","historic":"yellowfin","current":"yellowfin","recovery":"recoveryWatch","lineageLabel":"Yellowfin / Arkansas headwaters historical form","atlas_context":"cutthroat_lineage_context"}}]}