{"type":"FeatureCollection","metadata":{"source":"C:\\ct-atlas-data\\processed\\geojson\\interpreted\\colorado_named_natural_streams_complete_v1.geojson","type":"colorado-natural-stream-detail-tile-v2","tile_size_degrees":0.2,"x":-540,"y":191,"bounds":{"west":-108,"south":38.2,"east":-107.8,"north":38.4}},"features":[{"type":"Feature","geometry":{"type":"LineString","coordinates":[[-108.0022,38.3273],[-107.9985,38.3303]]},"properties":{"name":"Middle Fork Spring Creek","display_name":"Middle Fork Spring Creek","source_name":"Middle Fork Spring Creek","state":"CO","atlas_class":"named_natural_stream_detail","huc8":"14020006","huc8Name":"Uncompahgre","lineageKey":"coloradoRiver","lineage":"coloradoRiver","historic":"coloradoRiver","current":"coloradoRiver","recovery":"recoveryWatch","lineageLabel":"Colorado River green lineage","atlas_context":"cutthroat_lineage_context"}},{"type":"Feature","geometry":{"type":"LineString","coordinates":[[-107.9954,38.306],[-107.9947,38.311],[-107.9979,38.3182],[-107.9985,38.3303]]},"properties":{"name":"East Fork Spring Creek","display_name":"East Fork Spring Creek","source_name":"East Fork Spring Creek","state":"CO","atlas_class":"named_natural_stream_detail","huc8":"14020006","huc8Name":"Uncompahgre","lineageKey":"coloradoRiver","lineage":"coloradoRiver","historic":"coloradoRiver","current":"coloradoRiver","recovery":"recoveryWatch","lineageLabel":"Colorado River green lineage","atlas_context":"cutthroat_lineage_context"}},{"type":"Feature","geometry":{"type":"LineString","coordinates":[[-107.9356,38.382],[-107.927,38.393],[-107.923,38.3953],[-107.9208,38.3977],[-107.9186,38.4009],[-107.9156,38.4093]]},"properties":{"name":"Tappan Creek","display_name":"Tappan Creek","source_name":"Tappan Creek","state":"CO","atlas_class":"named_natural_stream_detail","huc8":"14020006","huc8Name":"Uncompahgre","lineageKey":"coloradoRiver","lineage":"coloradoRiver","historic":"coloradoRiver","current":"coloradoRiver","recovery":"recoveryWatch","lineageLabel":"Colorado River green lineage","atlas_context":"cutthroat_lineage_context"}},{"type":"Feature","geometry":{"type":"LineString","coordinates":[[-107.9526,38.3837],[-107.9504,38.3875],[-107.949,38.3876],[-107.947,38.3892],[-107.9469,38.3905],[-107.9453,38.3905]]},"properties":{"name":"Spring Creek","display_name":"Spring Creek","source_name":"Spring Creek","state":"CO","atlas_class":"named_natural_stream_detail","huc8":"14020006","huc8Name":"Uncompahgre","lineageKey":"coloradoRiver","lineage":"coloradoRiver","historic":"coloradoRiver","current":"coloradoRiver","recovery":"recoveryWatch","lineageLabel":"Colorado River green lineage","atlas_context":"cutthroat_lineage_context"}},{"type":"Feature","geometry":{"type":"LineString","coordinates":[[-107.9436,38.3965],[-107.9412,38.3983],[-107.9423,38.4001],[-107.9424,38.4015],[-107.9413,38.4022],[-107.9422,38.4042]]},"properties":{"name":"Spring Creek","display_name":"Spring Creek","source_name":"Spring Creek","state":"CO","atlas_class":"named_natural_stream_detail","huc8":"14020006","huc8Name":"Uncompahgre","lineageKey":"coloradoRiver","lineage":"coloradoRiver","historic":"coloradoRiver","current":"coloradoRiver","recovery":"recoveryWatch","lineageLabel":"Colorado River green lineage","atlas_context":"cutthroat_lineage_context"}},{"type":"Feature","geometry":{"type":"LineString","coordinates":[[-107.8204,38.2272],[-107.8179,38.2282]]},"properties":{"name":"McKenzie Creek","display_name":"McKenzie Creek","source_name":"McKenzie Creek","state":"CO","atlas_class":"named_natural_stream_detail","huc8":"14020006","huc8Name":"Uncompahgre","lineageKey":"coloradoRiver","lineage":"coloradoRiver","historic":"coloradoRiver","current":"coloradoRiver","recovery":"recoveryWatch","lineageLabel":"Colorado River green lineage","atlas_context":"cutthroat_lineage_context"}},{"type":"Feature","geometry":{"type":"LineString","coordinates":[[-107.8094,38.2223],[-107.8063,38.2239],[-107.8056,38.2257],[-107.8031,38.2272]]},"properties":{"name":"Fisher Creek","display_name":"Fisher Creek","source_name":"Fisher Creek","state":"CO","atlas_class":"named_natural_stream_detail","huc8":"14020006","huc8Name":"Uncompahgre","lineageKey":"coloradoRiver","lineage":"coloradoRiver","historic":"coloradoRiver","current":"coloradoRiver","recovery":"recoveryWatch","lineageLabel":"Colorado River green lineage","atlas_context":"cutthroat_lineage_context"}},{"type":"Feature","geometry":{"type":"LineString","coordinates":[[-107.8266,38.3594],[-107.8266,38.3628]]},"properties":{"name":"Horsefly Creek","display_name":"Horsefly Creek","source_name":"Horsefly Creek","state":"CO","atlas_class":"named_natural_stream_detail","huc8":"14020006","huc8Name":"Uncompahgre","lineageKey":"coloradoRiver","lineage":"coloradoRiver","historic":"coloradoRiver","current":"coloradoRiver","recovery":"recoveryWatch","lineageLabel":"Colorado River green lineage","atlas_context":"cutthroat_lineage_context"}},{"type":"Feature","geometry":{"type":"LineString","coordinates":[[-107.8639,38.2475],[-107.8606,38.2498]]},"properties":{"name":"East Fork Horsefly Creek","display_name":"East Fork Horsefly Creek","source_name":"East Fork Horsefly Creek","state":"CO","atlas_class":"named_natural_stream_detail","huc8":"14020006","huc8Name":"Uncompahgre","lineageKey":"coloradoRiver","lineage":"coloradoRiver","historic":"coloradoRiver","current":"coloradoRiver","recovery":"recoveryWatch","lineageLabel":"Colorado River green lineage","atlas_context":"cutthroat_lineage_context"}},{"type":"Feature","geometry":{"type":"LineString","coordinates":[[-107.8619,38.2561],[-107.8637,38.2622],[-107.8659,38.2665]]},"properties":{"name":"East Fork Horsefly Creek","display_name":"East Fork Horsefly Creek","source_name":"East Fork Horsefly Creek","state":"CO","atlas_class":"named_natural_stream_detail","huc8":"14020006","huc8Name":"Uncompahgre","lineageKey":"coloradoRiver","lineage":"coloradoRiver","historic":"coloradoRiver","current":"coloradoRiver","recovery":"recoveryWatch","lineageLabel":"Colorado River green lineage","atlas_context":"cutthroat_lineage_context"}},{"type":"Feature","geometry":{"type":"LineString","coordinates":[[-107.8623,38.374],[-107.8629,38.3766]]},"properties":{"name":"Dolores Creek","display_name":"Dolores Creek","source_name":"Dolores Creek","state":"CO","atlas_class":"named_natural_stream_detail","huc8":"14020006","huc8Name":"Uncompahgre","lineageKey":"coloradoRiver","lineage":"coloradoRiver","historic":"coloradoRiver","current":"coloradoRiver","recovery":"recoveryWatch","lineageLabel":"Colorado River green lineage","atlas_context":"cutthroat_lineage_context"}},{"type":"Feature","geometry":{"type":"LineString","coordinates":[[-107.8606,38.2498],[-107.8604,38.2537],[-107.8619,38.2561]]},"properties":{"name":"East Fork Horsefly Creek","display_name":"East Fork Horsefly Creek","source_name":"East Fork Horsefly Creek","state":"CO","atlas_class":"named_natural_stream_detail","huc8":"14020006","huc8Name":"Uncompahgre","lineageKey":"coloradoRiver","lineage":"coloradoRiver","historic":"coloradoRiver","current":"coloradoRiver","recovery":"recoveryWatch","lineageLabel":"Colorado River green lineage","atlas_context":"cutthroat_lineage_context"}},{"type":"Feature","geometry":{"type":"LineString","coordinates":[[-107.8477,38.2138],[-107.8475,38.2138]]},"properties":{"name":"McKenzie Creek","display_name":"McKenzie Creek","source_name":"McKenzie Creek","state":"CO","atlas_class":"named_natural_stream_detail","huc8":"14020006","huc8Name":"Uncompahgre","lineageKey":"coloradoRiver","lineage":"coloradoRiver","historic":"coloradoRiver","current":"coloradoRiver","recovery":"recoveryWatch","lineageLabel":"Colorado River green lineage","atlas_context":"cutthroat_lineage_context"}},{"type":"Feature","geometry":{"type":"LineString","coordinates":[[-107.8213,38.3407],[-107.8204,38.3428],[-107.8209,38.3447],[-107.8203,38.3475]]},"properties":{"name":"Horsefly Creek","display_name":"Horsefly Creek","source_name":"Horsefly Creek","state":"CO","atlas_class":"named_natural_stream_detail","huc8":"14020006","huc8Name":"Uncompahgre","lineageKey":"coloradoRiver","lineage":"coloradoRiver","historic":"coloradoRiver","current":"coloradoRiver","recovery":"recoveryWatch","lineageLabel":"Colorado River green lineage","atlas_context":"cutthroat_lineage_context"}},{"type":"Feature","geometry":{"type":"LineString","coordinates":[[-107.8203,38.3475],[-107.8237,38.3535],[-107.8229,38.3552],[-107.8266,38.3594]]},"properties":{"name":"Horsefly Creek","display_name":"Horsefly Creek","source_name":"Horsefly Creek","state":"CO","atlas_class":"named_natural_stream_detail","huc8":"14020006","huc8Name":"Uncompahgre","lineageKey":"coloradoRiver","lineage":"coloradoRiver","historic":"coloradoRiver","current":"coloradoRiver","recovery":"recoveryWatch","lineageLabel":"Colorado River green lineage","atlas_context":"cutthroat_lineage_context"}},{"type":"Feature","geometry":{"type":"LineString","coordinates":[[-107.8475,38.2138],[-107.8421,38.2162],[-107.8366,38.2207],[-107.8337,38.2209],[-107.8204,38.2272]]},"properties":{"name":"McKenzie Creek","display_name":"McKenzie Creek","source_name":"McKenzie Creek","state":"CO","atlas_class":"named_natural_stream_detail","huc8":"14020006","huc8Name":"Uncompahgre","lineageKey":"coloradoRiver","lineage":"coloradoRiver","historic":"coloradoRiver","current":"coloradoRiver","recovery":"recoveryWatch","lineageLabel":"Colorado River green lineage","atlas_context":"cutthroat_lineage_context"}},{"type":"Feature","geometry":{"type":"LineString","coordinates":[[-107.869,38.2774],[-107.8672,38.2787]]},"properties":{"name":"West Fork Horsefly Creek","display_name":"West Fork Horsefly Creek","source_name":"West Fork Horsefly Creek","state":"CO","atlas_class":"named_natural_stream_detail","huc8":"14020006","huc8Name":"Uncompahgre","lineageKey":"coloradoRiver","lineage":"coloradoRiver","historic":"coloradoRiver","current":"coloradoRiver","recovery":"recoveryWatch","lineageLabel":"Colorado River green lineage","atlas_context":"cutthroat_lineage_context"}},{"type":"Feature","geometry":{"type":"LineString","coordinates":[[-107.864,38.2466],[-107.8639,38.2475]]},"properties":{"name":"East Fork Horsefly Creek","display_name":"East Fork Horsefly Creek","source_name":"East Fork Horsefly Creek","state":"CO","atlas_class":"named_natural_stream_detail","huc8":"14020006","huc8Name":"Uncompahgre","lineageKey":"coloradoRiver","lineage":"coloradoRiver","historic":"coloradoRiver","current":"coloradoRiver","recovery":"recoveryWatch","lineageLabel":"Colorado River green lineage","atlas_context":"cutthroat_lineage_context"}},{"type":"Feature","geometry":{"type":"LineString","coordinates":[[-107.8642,38.378],[-107.8629,38.3786],[-107.8621,38.3838],[-107.8593,38.3846],[-107.8577,38.3879],[-107.8584,38.3955],[-107.8612,38.4]]},"properties":{"name":"Dolores Creek","display_name":"Dolores Creek","source_name":"Dolores Creek","state":"CO","atlas_class":"named_natural_stream_detail","huc8":"14020006","huc8Name":"Uncompahgre","lineageKey":"coloradoRiver","lineage":"coloradoRiver","historic":"coloradoRiver","current":"coloradoRiver","recovery":"recoveryWatch","lineageLabel":"Colorado River green lineage","atlas_context":"cutthroat_lineage_context"}},{"type":"Feature","geometry":{"type":"LineString","coordinates":[[-107.8266,38.3628],[-107.8256,38.3654],[-107.826,38.3692],[-107.8248,38.3724],[-107.8233,38.3739],[-107.824,38.3769],[-107.8321,38.387],[-107.8323,38.3883],[-107.8366,38.3907],[-107.8425,38.3988],[-107.8458,38.4024],[-107.8492,38.4042],[-107.8493,38.4063],[-107.8539,38.4108],[-107.854,38.4131],[-107.8584,38.4212],[-107.8574,38.423],[-107.8575,38.4255],[-107.8541,38.4255],[-107.854,38.4271]]},"properties":{"name":"Horsefly Creek","display_name":"Horsefly Creek","source_name":"Horsefly Creek","state":"CO","atlas_class":"named_natural_stream_detail","huc8":"14020006","huc8Name":"Uncompahgre","lineageKey":"coloradoRiver","lineage":"coloradoRiver","historic":"coloradoRiver","current":"coloradoRiver","recovery":"recoveryWatch","lineageLabel":"Colorado River green lineage","atlas_context":"cutthroat_lineage_context"}},{"type":"Feature","geometry":{"type":"LineString","coordinates":[[-107.871,38.2337],[-107.8703,38.2358],[-107.8671,38.2377]]},"properties":{"name":"East Fork Horsefly Creek","display_name":"East Fork Horsefly Creek","source_name":"East Fork Horsefly Creek","state":"CO","atlas_class":"named_natural_stream_detail","huc8":"14020006","huc8Name":"Uncompahgre","lineageKey":"coloradoRiver","lineage":"coloradoRiver","historic":"coloradoRiver","current":"coloradoRiver","recovery":"recoveryWatch","lineageLabel":"Colorado River green lineage","atlas_context":"cutthroat_lineage_context"}},{"type":"Feature","geometry":{"type":"LineString","coordinates":[[-107.8671,38.2377],[-107.8628,38.2441],[-107.864,38.2466]]},"properties":{"name":"East Fork Horsefly Creek","display_name":"East Fork Horsefly Creek","source_name":"East Fork Horsefly Creek","state":"CO","atlas_class":"named_natural_stream_detail","huc8":"14020006","huc8Name":"Uncompahgre","lineageKey":"coloradoRiver","lineage":"coloradoRiver","historic":"coloradoRiver","current":"coloradoRiver","recovery":"recoveryWatch","lineageLabel":"Colorado River green lineage","atlas_context":"cutthroat_lineage_context"}},{"type":"Feature","geometry":{"type":"LineString","coordinates":[[-107.8418,38.2043],[-107.8393,38.2064],[-107.8374,38.2099],[-107.8346,38.2107],[-107.8289,38.2147],[-107.8185,38.2188],[-107.8154,38.222],[-107.8125,38.2236],[-107.8094,38.2223]]},"properties":{"name":"Fisher Creek","display_name":"Fisher Creek","source_name":"Fisher Creek","state":"CO","atlas_class":"named_natural_stream_detail","huc8":"14020006","huc8Name":"Uncompahgre","lineageKey":"coloradoRiver","lineage":"coloradoRiver","historic":"coloradoRiver","current":"coloradoRiver","recovery":"recoveryWatch","lineageLabel":"Colorado River green lineage","atlas_context":"cutthroat_lineage_context"}},{"type":"Feature","geometry":{"type":"LineString","coordinates":[[-107.8672,38.2787],[-107.8663,38.2804],[-107.8635,38.2818],[-107.8617,38.2838],[-107.8509,38.2874],[-107.8498,38.2915],[-107.8461,38.2919],[-107.8467,38.2984],[-107.8435,38.2991],[-107.8419,38.3006],[-107.8424,38.3034],[-107.8413,38.305],[-107.8422,38.3073],[-107.8414,38.3088],[-107.8418,38.3105],[-107.8392,38.3128],[-107.8362,38.3182],[-107.8352,38.321],[-107.8359,38.3225],[-107.834,38.3242],[-107.8298,38.3253],[-107.8289,38.3278],[-107.8213,38.3334],[-107.8222,38.3342],[-107.8215,38.3353],[-107.8219,38.3364],[-107.8204,38.3369],[-107.8199,38.3393],[-107.8213,38.3407]]},"properties":{"name":"Horsefly Creek","display_name":"Horsefly Creek","source_name":"Horsefly Creek","state":"CO","atlas_class":"named_natural_stream_detail","huc8":"14020006","huc8Name":"Uncompahgre","lineageKey":"coloradoRiver","lineage":"coloradoRiver","historic":"coloradoRiver","current":"coloradoRiver","recovery":"recoveryWatch","lineageLabel":"Colorado River green lineage","atlas_context":"cutthroat_lineage_context"}},{"type":"Feature","geometry":{"type":"LineString","coordinates":[[-107.8666,38.2767],[-107.8672,38.2787]]},"properties":{"name":"East Fork Horsefly Creek","display_name":"East Fork Horsefly Creek","source_name":"East Fork Horsefly Creek","state":"CO","atlas_class":"named_natural_stream_detail","huc8":"14020006","huc8Name":"Uncompahgre","lineageKey":"coloradoRiver","lineage":"coloradoRiver","historic":"coloradoRiver","current":"coloradoRiver","recovery":"recoveryWatch","lineageLabel":"Colorado River green lineage","atlas_context":"cutthroat_lineage_context"}},{"type":"Feature","geometry":{"type":"LineString","coordinates":[[-107.8179,38.2282],[-107.8148,38.2306],[-107.8092,38.2329],[-107.8058,38.2387]]},"properties":{"name":"McKenzie Creek","display_name":"McKenzie Creek","source_name":"McKenzie Creek","state":"CO","atlas_class":"named_natural_stream_detail","huc8":"14020006","huc8Name":"Uncompahgre","lineageKey":"coloradoRiver","lineage":"coloradoRiver","historic":"coloradoRiver","current":"coloradoRiver","recovery":"recoveryWatch","lineageLabel":"Colorado River green lineage","atlas_context":"cutthroat_lineage_context"}},{"type":"Feature","geometry":{"type":"LineString","coordinates":[[-107.8932,38.1959],[-107.8853,38.1991],[-107.8817,38.2015],[-107.8788,38.2009],[-107.8742,38.2019]]},"properties":{"name":"Dipping Vat Creek","display_name":"Dipping Vat Creek","source_name":"Dipping Vat Creek","state":"CO","atlas_class":"named_natural_stream_detail","huc8":"14020006","huc8Name":"Uncompahgre","lineageKey":"coloradoRiver","lineage":"coloradoRiver","historic":"coloradoRiver","current":"coloradoRiver","recovery":"recoveryWatch","lineageLabel":"Colorado River green lineage","atlas_context":"cutthroat_lineage_context"}},{"type":"Feature","geometry":{"type":"LineString","coordinates":[[-107.8572,38.1923],[-107.8418,38.2043]]},"properties":{"name":"Fisher Creek","display_name":"Fisher Creek","source_name":"Fisher Creek","state":"CO","atlas_class":"named_natural_stream_detail","huc8":"14020006","huc8Name":"Uncompahgre","lineageKey":"coloradoRiver","lineage":"coloradoRiver","historic":"coloradoRiver","current":"coloradoRiver","recovery":"recoveryWatch","lineageLabel":"Colorado River green lineage","atlas_context":"cutthroat_lineage_context"}},{"type":"Feature","geometry":{"type":"LineString","coordinates":[[-107.9218,38.195],[-107.9161,38.1988],[-107.9111,38.2002],[-107.9013,38.2057]]},"properties":{"name":"East Fork Horsefly Creek","display_name":"East Fork Horsefly Creek","source_name":"East Fork Horsefly Creek","state":"CO","atlas_class":"named_natural_stream_detail","huc8":"14020006","huc8Name":"Uncompahgre","lineageKey":"coloradoRiver","lineage":"coloradoRiver","historic":"coloradoRiver","current":"coloradoRiver","recovery":"recoveryWatch","lineageLabel":"Colorado River green lineage","atlas_context":"cutthroat_lineage_context"}},{"type":"Feature","geometry":{"type":"LineString","coordinates":[[-107.9013,38.2057],[-107.8988,38.2065]]},"properties":{"name":"East Fork Horsefly Creek","display_name":"East Fork Horsefly Creek","source_name":"East Fork Horsefly Creek","state":"CO","atlas_class":"named_natural_stream_detail","huc8":"14020006","huc8Name":"Uncompahgre","lineageKey":"coloradoRiver","lineage":"coloradoRiver","historic":"coloradoRiver","current":"coloradoRiver","recovery":"recoveryWatch","lineageLabel":"Colorado River green lineage","atlas_context":"cutthroat_lineage_context"}},{"type":"Feature","geometry":{"type":"LineString","coordinates":[[-107.8855,38.1913],[-107.8824,38.1923],[-107.8781,38.1984],[-107.8742,38.2019]]},"properties":{"name":"McKenzie Creek","display_name":"McKenzie Creek","source_name":"McKenzie Creek","state":"CO","atlas_class":"named_natural_stream_detail","huc8":"14020006","huc8Name":"Uncompahgre","lineageKey":"coloradoRiver","lineage":"coloradoRiver","historic":"coloradoRiver","current":"coloradoRiver","recovery":"recoveryWatch","lineageLabel":"Colorado River green lineage","atlas_context":"cutthroat_lineage_context"}},{"type":"Feature","geometry":{"type":"LineString","coordinates":[[-107.8742,38.2019],[-107.8729,38.2043],[-107.8617,38.2123],[-107.8566,38.2136],[-107.8516,38.2166],[-107.85,38.2151]]},"properties":{"name":"McKenzie Creek","display_name":"McKenzie Creek","source_name":"McKenzie Creek","state":"CO","atlas_class":"named_natural_stream_detail","huc8":"14020006","huc8Name":"Uncompahgre","lineageKey":"coloradoRiver","lineage":"coloradoRiver","historic":"coloradoRiver","current":"coloradoRiver","recovery":"recoveryWatch","lineageLabel":"Colorado River green lineage","atlas_context":"cutthroat_lineage_context"}},{"type":"Feature","geometry":{"type":"LineString","coordinates":[[-107.85,38.2151],[-107.8481,38.2139]]},"properties":{"name":"McKenzie Creek","display_name":"McKenzie Creek","source_name":"McKenzie Creek","state":"CO","atlas_class":"named_natural_stream_detail","huc8":"14020006","huc8Name":"Uncompahgre","lineageKey":"coloradoRiver","lineage":"coloradoRiver","historic":"coloradoRiver","current":"coloradoRiver","recovery":"recoveryWatch","lineageLabel":"Colorado River green lineage","atlas_context":"cutthroat_lineage_context"}},{"type":"Feature","geometry":{"type":"LineString","coordinates":[[-107.9346,38.2786],[-107.9312,38.2822],[-107.9311,38.2884]]},"properties":{"name":"Dolores Creek","display_name":"Dolores Creek","source_name":"Dolores Creek","state":"CO","atlas_class":"named_natural_stream_detail","huc8":"14020006","huc8Name":"Uncompahgre","lineageKey":"coloradoRiver","lineage":"coloradoRiver","historic":"coloradoRiver","current":"coloradoRiver","recovery":"recoveryWatch","lineageLabel":"Colorado River green lineage","atlas_context":"cutthroat_lineage_context"}},{"type":"Feature","geometry":{"type":"LineString","coordinates":[[-107.9848,38.3467],[-107.9833,38.3489],[-107.9841,38.3504],[-107.9836,38.3523],[-107.9819,38.3541],[-107.981,38.3571],[-107.9782,38.3588],[-107.9755,38.359],[-107.9746,38.3609],[-107.9729,38.3611],[-107.9709,38.3659],[-107.9668,38.3677],[-107.9637,38.3726],[-107.9597,38.3744],[-107.9594,38.3763],[-107.9568,38.377],[-107.9571,38.38],[-107.9557,38.3808],[-107.9551,38.3802],[-107.9536,38.3815]]},"properties":{"name":"Spring Creek","display_name":"Spring Creek","source_name":"Spring Creek","state":"CO","atlas_class":"named_natural_stream_detail","huc8":"14020006","huc8Name":"Uncompahgre","lineageKey":"coloradoRiver","lineage":"coloradoRiver","historic":"coloradoRiver","current":"coloradoRiver","recovery":"recoveryWatch","lineageLabel":"Colorado River green lineage","atlas_context":"cutthroat_lineage_context"}},{"type":"Feature","geometry":{"type":"LineString","coordinates":[[-107.9059,38.3091],[-107.9033,38.31],[-107.8987,38.3157],[-107.8986,38.3214],[-107.895,38.3231],[-107.8956,38.3244],[-107.8951,38.3253],[-107.8848,38.3312]]},"properties":{"name":"Dolores Creek","display_name":"Dolores Creek","source_name":"Dolores Creek","state":"CO","atlas_class":"named_natural_stream_detail","huc8":"14020006","huc8Name":"Uncompahgre","lineageKey":"coloradoRiver","lineage":"coloradoRiver","historic":"coloradoRiver","current":"coloradoRiver","recovery":"recoveryWatch","lineageLabel":"Colorado River green lineage","atlas_context":"cutthroat_lineage_context"}},{"type":"Feature","geometry":{"type":"LineString","coordinates":[[-107.9515,38.2832],[-107.949,38.285],[-107.9461,38.289],[-107.9396,38.293],[-107.9309,38.3006],[-107.9294,38.3032],[-107.919,38.3114],[-107.9174,38.3157],[-107.9149,38.3189]]},"properties":{"name":"Happy Canyon Creek","display_name":"Happy Canyon Creek","source_name":"Happy Canyon Creek","state":"CO","atlas_class":"named_natural_stream_detail","huc8":"14020006","huc8Name":"Uncompahgre","lineageKey":"coloradoRiver","lineage":"coloradoRiver","historic":"coloradoRiver","current":"coloradoRiver","recovery":"recoveryWatch","lineageLabel":"Colorado River green lineage","atlas_context":"cutthroat_lineage_context"}},{"type":"Feature","geometry":{"type":"LineString","coordinates":[[-107.8801,38.2649],[-107.8684,38.2736],[-107.8679,38.2745],[-107.869,38.2774]]},"properties":{"name":"Beaver Dam Creek","display_name":"Beaver Dam Creek","source_name":"Beaver Dam Creek","state":"CO","atlas_class":"named_natural_stream_detail","huc8":"14020006","huc8Name":"Uncompahgre","lineageKey":"coloradoRiver","lineage":"coloradoRiver","historic":"coloradoRiver","current":"coloradoRiver","recovery":"recoveryWatch","lineageLabel":"Colorado River green lineage","atlas_context":"cutthroat_lineage_context"}},{"type":"Feature","geometry":{"type":"LineString","coordinates":[[-107.8966,38.264],[-107.8868,38.2704],[-107.8811,38.271],[-107.8788,38.2735],[-107.8764,38.2737],[-107.869,38.2774]]},"properties":{"name":"West Fork Horsefly Creek","display_name":"West Fork Horsefly Creek","source_name":"West Fork Horsefly Creek","state":"CO","atlas_class":"named_natural_stream_detail","huc8":"14020006","huc8Name":"Uncompahgre","lineageKey":"coloradoRiver","lineage":"coloradoRiver","historic":"coloradoRiver","current":"coloradoRiver","recovery":"recoveryWatch","lineageLabel":"Colorado River green lineage","atlas_context":"cutthroat_lineage_context"}},{"type":"Feature","geometry":{"type":"LineString","coordinates":[[-107.9439,38.3719],[-107.9395,38.3757],[-107.9355,38.3814]]},"properties":{"name":"Tappan Creek","display_name":"Tappan Creek","source_name":"Tappan Creek","state":"CO","atlas_class":"named_natural_stream_detail","huc8":"14020006","huc8Name":"Uncompahgre","lineageKey":"coloradoRiver","lineage":"coloradoRiver","historic":"coloradoRiver","current":"coloradoRiver","recovery":"recoveryWatch","lineageLabel":"Colorado River green lineage","atlas_context":"cutthroat_lineage_context"}},{"type":"Feature","geometry":{"type":"LineString","coordinates":[[-107.9593,38.2695],[-107.9588,38.2705]]},"properties":{"name":"Happy Canyon Creek","display_name":"Happy Canyon Creek","source_name":"Happy Canyon Creek","state":"CO","atlas_class":"named_natural_stream_detail","huc8":"14020006","huc8Name":"Uncompahgre","lineageKey":"coloradoRiver","lineage":"coloradoRiver","historic":"coloradoRiver","current":"coloradoRiver","recovery":"recoveryWatch","lineageLabel":"Colorado River green lineage","atlas_context":"cutthroat_lineage_context"}},{"type":"Feature","geometry":{"type":"LineString","coordinates":[[-107.9952,38.2602],[-107.9962,38.269]]},"properties":{"name":"East Fork Spring Creek","display_name":"East Fork Spring Creek","source_name":"East Fork Spring Creek","state":"CO","atlas_class":"named_natural_stream_detail","huc8":"14020006","huc8Name":"Uncompahgre","lineageKey":"coloradoRiver","lineage":"coloradoRiver","historic":"coloradoRiver","current":"coloradoRiver","recovery":"recoveryWatch","lineageLabel":"Colorado River green lineage","atlas_context":"cutthroat_lineage_context"}},{"type":"Feature","geometry":{"type":"LineString","coordinates":[[-107.9985,38.3303],[-107.9944,38.3366],[-107.9887,38.3426],[-107.9883,38.3442],[-107.9867,38.3445],[-107.9848,38.3467]]},"properties":{"name":"Spring Creek","display_name":"Spring Creek","source_name":"Spring Creek","state":"CO","atlas_class":"named_natural_stream_detail","huc8":"14020006","huc8Name":"Uncompahgre","lineageKey":"coloradoRiver","lineage":"coloradoRiver","historic":"coloradoRiver","current":"coloradoRiver","recovery":"recoveryWatch","lineageLabel":"Colorado River green lineage","atlas_context":"cutthroat_lineage_context"}},{"type":"Feature","geometry":{"type":"LineString","coordinates":[[-107.9358,38.2755],[-107.9346,38.2786]]},"properties":{"name":"Dolores Creek","display_name":"Dolores Creek","source_name":"Dolores Creek","state":"CO","atlas_class":"named_natural_stream_detail","huc8":"14020006","huc8Name":"Uncompahgre","lineageKey":"coloradoRiver","lineage":"coloradoRiver","historic":"coloradoRiver","current":"coloradoRiver","recovery":"recoveryWatch","lineageLabel":"Colorado River green lineage","atlas_context":"cutthroat_lineage_context"}},{"type":"Feature","geometry":{"type":"LineString","coordinates":[[-107.9536,38.3815],[-107.9526,38.3837]]},"properties":{"name":"Spring Creek","display_name":"Spring Creek","source_name":"Spring Creek","state":"CO","atlas_class":"named_natural_stream_detail","huc8":"14020006","huc8Name":"Uncompahgre","lineageKey":"coloradoRiver","lineage":"coloradoRiver","historic":"coloradoRiver","current":"coloradoRiver","recovery":"recoveryWatch","lineageLabel":"Colorado River green lineage","atlas_context":"cutthroat_lineage_context"}},{"type":"Feature","geometry":{"type":"LineString","coordinates":[[-107.9533,38.2804],[-107.9515,38.2832]]},"properties":{"name":"Happy Canyon Creek","display_name":"Happy Canyon Creek","source_name":"Happy Canyon Creek","state":"CO","atlas_class":"named_natural_stream_detail","huc8":"14020006","huc8Name":"Uncompahgre","lineageKey":"coloradoRiver","lineage":"coloradoRiver","historic":"coloradoRiver","current":"coloradoRiver","recovery":"recoveryWatch","lineageLabel":"Colorado River green lineage","atlas_context":"cutthroat_lineage_context"}},{"type":"Feature","geometry":{"type":"LineString","coordinates":[[-107.8659,38.2665],[-107.8658,38.2674],[-107.8674,38.2682],[-107.8676,38.2693],[-107.8638,38.2743],[-107.8666,38.2767]]},"properties":{"name":"East Fork Horsefly Creek","display_name":"East Fork Horsefly Creek","source_name":"East Fork Horsefly Creek","state":"CO","atlas_class":"named_natural_stream_detail","huc8":"14020006","huc8Name":"Uncompahgre","lineageKey":"coloradoRiver","lineage":"coloradoRiver","historic":"coloradoRiver","current":"coloradoRiver","recovery":"recoveryWatch","lineageLabel":"Colorado River green lineage","atlas_context":"cutthroat_lineage_context"}},{"type":"Feature","geometry":{"type":"LineString","coordinates":[[-107.9355,38.3814],[-107.9356,38.382]]},"properties":{"name":"Tappan Creek","display_name":"Tappan Creek","source_name":"Tappan Creek","state":"CO","atlas_class":"named_natural_stream_detail","huc8":"14020006","huc8Name":"Uncompahgre","lineageKey":"coloradoRiver","lineage":"coloradoRiver","historic":"coloradoRiver","current":"coloradoRiver","recovery":"recoveryWatch","lineageLabel":"Colorado River green lineage","atlas_context":"cutthroat_lineage_context"}},{"type":"Feature","geometry":{"type":"LineString","coordinates":[[-107.9311,38.2884],[-107.9293,38.2923],[-107.9203,38.2988],[-107.9094,38.3089],[-107.9075,38.31],[-107.9059,38.3091]]},"properties":{"name":"Dolores Creek","display_name":"Dolores Creek","source_name":"Dolores Creek","state":"CO","atlas_class":"named_natural_stream_detail","huc8":"14020006","huc8Name":"Uncompahgre","lineageKey":"coloradoRiver","lineage":"coloradoRiver","historic":"coloradoRiver","current":"coloradoRiver","recovery":"recoveryWatch","lineageLabel":"Colorado River green lineage","atlas_context":"cutthroat_lineage_context"}},{"type":"Feature","geometry":{"type":"LineString","coordinates":[[-107.9453,38.3905],[-107.9436,38.3965]]},"properties":{"name":"Spring Creek","display_name":"Spring Creek","source_name":"Spring Creek","state":"CO","atlas_class":"named_natural_stream_detail","huc8":"14020006","huc8Name":"Uncompahgre","lineageKey":"coloradoRiver","lineage":"coloradoRiver","historic":"coloradoRiver","current":"coloradoRiver","recovery":"recoveryWatch","lineageLabel":"Colorado River green lineage","atlas_context":"cutthroat_lineage_context"}},{"type":"Feature","geometry":{"type":"LineString","coordinates":[[-107.9954,38.3031],[-107.9954,38.306]]},"properties":{"name":"East Fork Spring Creek","display_name":"East Fork Spring Creek","source_name":"East Fork Spring Creek","state":"CO","atlas_class":"named_natural_stream_detail","huc8":"14020006","huc8Name":"Uncompahgre","lineageKey":"coloradoRiver","lineage":"coloradoRiver","historic":"coloradoRiver","current":"coloradoRiver","recovery":"recoveryWatch","lineageLabel":"Colorado River green lineage","atlas_context":"cutthroat_lineage_context"}},{"type":"Feature","geometry":{"type":"LineString","coordinates":[[-107.9043,38.3619],[-107.9043,38.364],[-107.9024,38.3645],[-107.9011,38.3665],[-107.8992,38.3755],[-107.8969,38.3806],[-107.8914,38.3843],[-107.8911,38.3876]]},"properties":{"name":"Happy Canyon Creek","display_name":"Happy Canyon Creek","source_name":"Happy Canyon Creek","state":"CO","atlas_class":"named_natural_stream_detail","huc8":"14020006","huc8Name":"Uncompahgre","lineageKey":"coloradoRiver","lineage":"coloradoRiver","historic":"coloradoRiver","current":"coloradoRiver","recovery":"recoveryWatch","lineageLabel":"Colorado River green lineage","atlas_context":"cutthroat_lineage_context"}},{"type":"Feature","geometry":{"type":"LineString","coordinates":[[-107.8907,38.2604],[-107.8846,38.2639],[-107.8806,38.2649]]},"properties":{"name":"Beaver Dam Creek","display_name":"Beaver Dam Creek","source_name":"Beaver Dam Creek","state":"CO","atlas_class":"named_natural_stream_detail","huc8":"14020006","huc8Name":"Uncompahgre","lineageKey":"coloradoRiver","lineage":"coloradoRiver","historic":"coloradoRiver","current":"coloradoRiver","recovery":"recoveryWatch","lineageLabel":"Colorado River green lineage","atlas_context":"cutthroat_lineage_context"}},{"type":"Feature","geometry":{"type":"LineString","coordinates":[[-107.9095,38.3347],[-107.9091,38.3381]]},"properties":{"name":"Happy Canyon Creek","display_name":"Happy Canyon Creek","source_name":"Happy Canyon Creek","state":"CO","atlas_class":"named_natural_stream_detail","huc8":"14020006","huc8Name":"Uncompahgre","lineageKey":"coloradoRiver","lineage":"coloradoRiver","historic":"coloradoRiver","current":"coloradoRiver","recovery":"recoveryWatch","lineageLabel":"Colorado River green lineage","atlas_context":"cutthroat_lineage_context"}},{"type":"Feature","geometry":{"type":"LineString","coordinates":[[-107.9091,38.3381],[-107.9084,38.3427]]},"properties":{"name":"Happy Canyon Creek","display_name":"Happy Canyon Creek","source_name":"Happy Canyon Creek","state":"CO","atlas_class":"named_natural_stream_detail","huc8":"14020006","huc8Name":"Uncompahgre","lineageKey":"coloradoRiver","lineage":"coloradoRiver","historic":"coloradoRiver","current":"coloradoRiver","recovery":"recoveryWatch","lineageLabel":"Colorado River green lineage","atlas_context":"cutthroat_lineage_context"}},{"type":"Feature","geometry":{"type":"LineString","coordinates":[[-107.9084,38.2604],[-107.902,38.2622]]},"properties":{"name":"West Fork Horsefly Creek","display_name":"West Fork Horsefly Creek","source_name":"West Fork Horsefly Creek","state":"CO","atlas_class":"named_natural_stream_detail","huc8":"14020006","huc8Name":"Uncompahgre","lineageKey":"coloradoRiver","lineage":"coloradoRiver","historic":"coloradoRiver","current":"coloradoRiver","recovery":"recoveryWatch","lineageLabel":"Colorado River green lineage","atlas_context":"cutthroat_lineage_context"}},{"type":"Feature","geometry":{"type":"LineString","coordinates":[[-107.902,38.2622],[-107.8999,38.2621],[-107.8966,38.264]]},"properties":{"name":"West Fork Horsefly Creek","display_name":"West Fork Horsefly Creek","source_name":"West Fork Horsefly Creek","state":"CO","atlas_class":"named_natural_stream_detail","huc8":"14020006","huc8Name":"Uncompahgre","lineageKey":"coloradoRiver","lineage":"coloradoRiver","historic":"coloradoRiver","current":"coloradoRiver","recovery":"recoveryWatch","lineageLabel":"Colorado River green lineage","atlas_context":"cutthroat_lineage_context"}},{"type":"Feature","geometry":{"type":"LineString","coordinates":[[-107.8738,38.2613],[-107.8717,38.2637],[-107.8659,38.2665]]},"properties":{"name":"Cottonwood Creek","display_name":"Cottonwood Creek","source_name":"Cottonwood Creek","state":"CO","atlas_class":"named_natural_stream_detail","huc8":"14020006","huc8Name":"Uncompahgre","lineageKey":"coloradoRiver","lineage":"coloradoRiver","historic":"coloradoRiver","current":"coloradoRiver","recovery":"recoveryWatch","lineageLabel":"Colorado River green lineage","atlas_context":"cutthroat_lineage_context"}},{"type":"Feature","geometry":{"type":"LineString","coordinates":[[-107.864,38.3778],[-107.8642,38.378]]},"properties":{"name":"Dolores Creek","display_name":"Dolores Creek","source_name":"Dolores Creek","state":"CO","atlas_class":"named_natural_stream_detail","huc8":"14020006","huc8Name":"Uncompahgre","lineageKey":"coloradoRiver","lineage":"coloradoRiver","historic":"coloradoRiver","current":"coloradoRiver","recovery":"recoveryWatch","lineageLabel":"Colorado River green lineage","atlas_context":"cutthroat_lineage_context"}},{"type":"Feature","geometry":{"type":"LineString","coordinates":[[-107.8911,38.3876],[-107.8883,38.3914]]},"properties":{"name":"Happy Canyon Creek","display_name":"Happy Canyon Creek","source_name":"Happy Canyon Creek","state":"CO","atlas_class":"named_natural_stream_detail","huc8":"14020006","huc8Name":"Uncompahgre","lineageKey":"coloradoRiver","lineage":"coloradoRiver","historic":"coloradoRiver","current":"coloradoRiver","recovery":"recoveryWatch","lineageLabel":"Colorado River green lineage","atlas_context":"cutthroat_lineage_context"}},{"type":"Feature","geometry":{"type":"LineString","coordinates":[[-107.9149,38.3189],[-107.9101,38.3264],[-107.909,38.3309],[-107.9095,38.3347]]},"properties":{"name":"Happy Canyon Creek","display_name":"Happy Canyon Creek","source_name":"Happy Canyon Creek","state":"CO","atlas_class":"named_natural_stream_detail","huc8":"14020006","huc8Name":"Uncompahgre","lineageKey":"coloradoRiver","lineage":"coloradoRiver","historic":"coloradoRiver","current":"coloradoRiver","recovery":"recoveryWatch","lineageLabel":"Colorado River green lineage","atlas_context":"cutthroat_lineage_context"}},{"type":"Feature","geometry":{"type":"LineString","coordinates":[[-107.9084,38.3427],[-107.9081,38.346],[-107.9059,38.3492],[-107.903,38.3577],[-107.9043,38.3619]]},"properties":{"name":"Happy Canyon Creek","display_name":"Happy Canyon Creek","source_name":"Happy Canyon Creek","state":"CO","atlas_class":"named_natural_stream_detail","huc8":"14020006","huc8Name":"Uncompahgre","lineageKey":"coloradoRiver","lineage":"coloradoRiver","historic":"coloradoRiver","current":"coloradoRiver","recovery":"recoveryWatch","lineageLabel":"Colorado River green lineage","atlas_context":"cutthroat_lineage_context"}},{"type":"Feature","geometry":{"type":"LineString","coordinates":[[-107.9569,38.2749],[-107.9533,38.2804]]},"properties":{"name":"Happy Canyon Creek","display_name":"Happy Canyon Creek","source_name":"Happy Canyon Creek","state":"CO","atlas_class":"named_natural_stream_detail","huc8":"14020006","huc8Name":"Uncompahgre","lineageKey":"coloradoRiver","lineage":"coloradoRiver","historic":"coloradoRiver","current":"coloradoRiver","recovery":"recoveryWatch","lineageLabel":"Colorado River green lineage","atlas_context":"cutthroat_lineage_context"}},{"type":"Feature","geometry":{"type":"LineString","coordinates":[[-107.8848,38.3312],[-107.879,38.3377],[-107.8771,38.3381],[-107.8707,38.3439],[-107.869,38.3472],[-107.8645,38.3512],[-107.8651,38.3557],[-107.8634,38.3589],[-107.8619,38.3591],[-107.8626,38.3604],[-107.8585,38.365],[-107.8574,38.3674],[-107.8585,38.3706],[-107.8623,38.374]]},"properties":{"name":"Dolores Creek","display_name":"Dolores Creek","source_name":"Dolores Creek","state":"CO","atlas_class":"named_natural_stream_detail","huc8":"14020006","huc8Name":"Uncompahgre","lineageKey":"coloradoRiver","lineage":"coloradoRiver","historic":"coloradoRiver","current":"coloradoRiver","recovery":"recoveryWatch","lineageLabel":"Colorado River green lineage","atlas_context":"cutthroat_lineage_context"}},{"type":"Feature","geometry":{"type":"LineString","coordinates":[[-107.9404,38.2585],[-107.9362,38.2691],[-107.9358,38.2755]]},"properties":{"name":"Dolores Creek","display_name":"Dolores Creek","source_name":"Dolores Creek","state":"CO","atlas_class":"named_natural_stream_detail","huc8":"14020006","huc8Name":"Uncompahgre","lineageKey":"coloradoRiver","lineage":"coloradoRiver","historic":"coloradoRiver","current":"coloradoRiver","recovery":"recoveryWatch","lineageLabel":"Colorado River green lineage","atlas_context":"cutthroat_lineage_context"}},{"type":"Feature","geometry":{"type":"LineString","coordinates":[[-107.9624,38.2611],[-107.9621,38.2641],[-107.9593,38.2695]]},"properties":{"name":"Happy Canyon Creek","display_name":"Happy Canyon Creek","source_name":"Happy Canyon Creek","state":"CO","atlas_class":"named_natural_stream_detail","huc8":"14020006","huc8Name":"Uncompahgre","lineageKey":"coloradoRiver","lineage":"coloradoRiver","historic":"coloradoRiver","current":"coloradoRiver","recovery":"recoveryWatch","lineageLabel":"Colorado River green lineage","atlas_context":"cutthroat_lineage_context"}},{"type":"Feature","geometry":{"type":"LineString","coordinates":[[-107.9588,38.2705],[-107.9569,38.2749]]},"properties":{"name":"Happy Canyon Creek","display_name":"Happy Canyon Creek","source_name":"Happy Canyon Creek","state":"CO","atlas_class":"named_natural_stream_detail","huc8":"14020006","huc8Name":"Uncompahgre","lineageKey":"coloradoRiver","lineage":"coloradoRiver","historic":"coloradoRiver","current":"coloradoRiver","recovery":"recoveryWatch","lineageLabel":"Colorado River green lineage","atlas_context":"cutthroat_lineage_context"}},{"type":"Feature","geometry":{"type":"LineString","coordinates":[[-107.9123,38.2277],[-107.9129,38.2293],[-107.9115,38.2313],[-107.9089,38.233],[-107.9046,38.2385],[-107.9009,38.24],[-107.8997,38.2424]]},"properties":{"name":"Cottonwood Creek","display_name":"Cottonwood Creek","source_name":"Cottonwood Creek","state":"CO","atlas_class":"named_natural_stream_detail","huc8":"14020006","huc8Name":"Uncompahgre","lineageKey":"coloradoRiver","lineage":"coloradoRiver","historic":"coloradoRiver","current":"coloradoRiver","recovery":"recoveryWatch","lineageLabel":"Colorado River green lineage","atlas_context":"cutthroat_lineage_context"}},{"type":"Feature","geometry":{"type":"LineString","coordinates":[[-107.9572,38.2261],[-107.9545,38.2269],[-107.9525,38.2287]]},"properties":{"name":"West Fork Horsefly Creek","display_name":"West Fork Horsefly Creek","source_name":"West Fork Horsefly Creek","state":"CO","atlas_class":"named_natural_stream_detail","huc8":"14020006","huc8Name":"Uncompahgre","lineageKey":"coloradoRiver","lineage":"coloradoRiver","historic":"coloradoRiver","current":"coloradoRiver","recovery":"recoveryWatch","lineageLabel":"Colorado River green lineage","atlas_context":"cutthroat_lineage_context"}},{"type":"Feature","geometry":{"type":"LineString","coordinates":[[-107.9605,38.2381],[-107.959,38.2406],[-107.9562,38.2428],[-107.9544,38.2484],[-107.951,38.2505],[-107.9473,38.2551],[-107.9413,38.2573]]},"properties":{"name":"Dolores Creek","display_name":"Dolores Creek","source_name":"Dolores Creek","state":"CO","atlas_class":"named_natural_stream_detail","huc8":"14020006","huc8Name":"Uncompahgre","lineageKey":"coloradoRiver","lineage":"coloradoRiver","historic":"coloradoRiver","current":"coloradoRiver","recovery":"recoveryWatch","lineageLabel":"Colorado River green lineage","atlas_context":"cutthroat_lineage_context"}},{"type":"Feature","geometry":{"type":"LineString","coordinates":[[-107.9425,38.2404],[-107.9361,38.2444],[-107.9319,38.2455],[-107.9215,38.252],[-107.9159,38.257],[-107.9084,38.2604]]},"properties":{"name":"West Fork Horsefly Creek","display_name":"West Fork Horsefly Creek","source_name":"West Fork Horsefly Creek","state":"CO","atlas_class":"named_natural_stream_detail","huc8":"14020006","huc8Name":"Uncompahgre","lineageKey":"coloradoRiver","lineage":"coloradoRiver","historic":"coloradoRiver","current":"coloradoRiver","recovery":"recoveryWatch","lineageLabel":"Colorado River green lineage","atlas_context":"cutthroat_lineage_context"}},{"type":"Feature","geometry":{"type":"LineString","coordinates":[[-107.8866,38.2173],[-107.8745,38.2253],[-107.8743,38.228],[-107.871,38.2337]]},"properties":{"name":"East Fork Horsefly Creek","display_name":"East Fork Horsefly Creek","source_name":"East Fork Horsefly Creek","state":"CO","atlas_class":"named_natural_stream_detail","huc8":"14020006","huc8Name":"Uncompahgre","lineageKey":"coloradoRiver","lineage":"coloradoRiver","historic":"coloradoRiver","current":"coloradoRiver","recovery":"recoveryWatch","lineageLabel":"Colorado River green lineage","atlas_context":"cutthroat_lineage_context"}},{"type":"Feature","geometry":{"type":"LineString","coordinates":[[-107.9569,38.2212],[-107.9572,38.2261]]},"properties":{"name":"West Fork Horsefly Creek","display_name":"West Fork Horsefly Creek","source_name":"West Fork Horsefly Creek","state":"CO","atlas_class":"named_natural_stream_detail","huc8":"14020006","huc8Name":"Uncompahgre","lineageKey":"coloradoRiver","lineage":"coloradoRiver","historic":"coloradoRiver","current":"coloradoRiver","recovery":"recoveryWatch","lineageLabel":"Colorado River green lineage","atlas_context":"cutthroat_lineage_context"}},{"type":"Feature","geometry":{"type":"LineString","coordinates":[[-107.9654,38.2437],[-107.9624,38.2483],[-107.9618,38.2519],[-107.9624,38.253]]},"properties":{"name":"Happy Canyon Creek","display_name":"Happy Canyon Creek","source_name":"Happy Canyon Creek","state":"CO","atlas_class":"named_natural_stream_detail","huc8":"14020006","huc8Name":"Uncompahgre","lineageKey":"coloradoRiver","lineage":"coloradoRiver","historic":"coloradoRiver","current":"coloradoRiver","recovery":"recoveryWatch","lineageLabel":"Colorado River green lineage","atlas_context":"cutthroat_lineage_context"}},{"type":"Feature","geometry":{"type":"LineString","coordinates":[[-107.9,38.2424],[-107.9005,38.2449],[-107.8996,38.2468],[-107.8952,38.2491],[-107.8898,38.2547],[-107.8834,38.2569],[-107.8816,38.2591],[-107.8774,38.2603],[-107.8766,38.2615],[-107.8738,38.2613]]},"properties":{"name":"Cottonwood Creek","display_name":"Cottonwood Creek","source_name":"Cottonwood Creek","state":"CO","atlas_class":"named_natural_stream_detail","huc8":"14020006","huc8Name":"Uncompahgre","lineageKey":"coloradoRiver","lineage":"coloradoRiver","historic":"coloradoRiver","current":"coloradoRiver","recovery":"recoveryWatch","lineageLabel":"Colorado River green lineage","atlas_context":"cutthroat_lineage_context"}},{"type":"Feature","geometry":{"type":"LineString","coordinates":[[-107.9624,38.253],[-107.9609,38.2594],[-107.9624,38.2611]]},"properties":{"name":"Happy Canyon Creek","display_name":"Happy Canyon Creek","source_name":"Happy Canyon Creek","state":"CO","atlas_class":"named_natural_stream_detail","huc8":"14020006","huc8Name":"Uncompahgre","lineageKey":"coloradoRiver","lineage":"coloradoRiver","historic":"coloradoRiver","current":"coloradoRiver","recovery":"recoveryWatch","lineageLabel":"Colorado River green lineage","atlas_context":"cutthroat_lineage_context"}},{"type":"Feature","geometry":{"type":"LineString","coordinates":[[-107.9218,38.2186],[-107.9129,38.2253]]},"properties":{"name":"Cottonwood Creek","display_name":"Cottonwood Creek","source_name":"Cottonwood Creek","state":"CO","atlas_class":"named_natural_stream_detail","huc8":"14020006","huc8Name":"Uncompahgre","lineageKey":"coloradoRiver","lineage":"coloradoRiver","historic":"coloradoRiver","current":"coloradoRiver","recovery":"recoveryWatch","lineageLabel":"Colorado River green lineage","atlas_context":"cutthroat_lineage_context"}},{"type":"Feature","geometry":{"type":"LineString","coordinates":[[-107.8987,38.2559],[-107.891,38.2602]]},"properties":{"name":"Beaver Dam Creek","display_name":"Beaver Dam Creek","source_name":"Beaver Dam Creek","state":"CO","atlas_class":"named_natural_stream_detail","huc8":"14020006","huc8Name":"Uncompahgre","lineageKey":"coloradoRiver","lineage":"coloradoRiver","historic":"coloradoRiver","current":"coloradoRiver","recovery":"recoveryWatch","lineageLabel":"Colorado River green lineage","atlas_context":"cutthroat_lineage_context"}},{"type":"Feature","geometry":{"type":"LineString","coordinates":[[-107.9646,38.2351],[-107.9608,38.2378]]},"properties":{"name":"Dolores Creek","display_name":"Dolores Creek","source_name":"Dolores Creek","state":"CO","atlas_class":"named_natural_stream_detail","huc8":"14020006","huc8Name":"Uncompahgre","lineageKey":"coloradoRiver","lineage":"coloradoRiver","historic":"coloradoRiver","current":"coloradoRiver","recovery":"recoveryWatch","lineageLabel":"Colorado River green lineage","atlas_context":"cutthroat_lineage_context"}},{"type":"Feature","geometry":{"type":"LineString","coordinates":[[-107.9741,38.236],[-107.9692,38.24],[-107.9672,38.2404]]},"properties":{"name":"Happy Canyon Creek","display_name":"Happy Canyon Creek","source_name":"Happy Canyon Creek","state":"CO","atlas_class":"named_natural_stream_detail","huc8":"14020006","huc8Name":"Uncompahgre","lineageKey":"coloradoRiver","lineage":"coloradoRiver","historic":"coloradoRiver","current":"coloradoRiver","recovery":"recoveryWatch","lineageLabel":"Colorado River green lineage","atlas_context":"cutthroat_lineage_context"}},{"type":"Feature","geometry":{"type":"LineString","coordinates":[[-107.9129,38.2253],[-107.9123,38.2277]]},"properties":{"name":"Cottonwood Creek","display_name":"Cottonwood Creek","source_name":"Cottonwood Creek","state":"CO","atlas_class":"named_natural_stream_detail","huc8":"14020006","huc8Name":"Uncompahgre","lineageKey":"coloradoRiver","lineage":"coloradoRiver","historic":"coloradoRiver","current":"coloradoRiver","recovery":"recoveryWatch","lineageLabel":"Colorado River green lineage","atlas_context":"cutthroat_lineage_context"}},{"type":"Feature","geometry":{"type":"LineString","coordinates":[[-107.9413,38.2573],[-107.9409,38.2577]]},"properties":{"name":"Dolores Creek","display_name":"Dolores Creek","source_name":"Dolores Creek","state":"CO","atlas_class":"named_natural_stream_detail","huc8":"14020006","huc8Name":"Uncompahgre","lineageKey":"coloradoRiver","lineage":"coloradoRiver","historic":"coloradoRiver","current":"coloradoRiver","recovery":"recoveryWatch","lineageLabel":"Colorado River green lineage","atlas_context":"cutthroat_lineage_context"}},{"type":"Feature","geometry":{"type":"LineString","coordinates":[[-107.9672,38.2404],[-107.9654,38.2435]]},"properties":{"name":"Happy Canyon Creek","display_name":"Happy Canyon Creek","source_name":"Happy Canyon Creek","state":"CO","atlas_class":"named_natural_stream_detail","huc8":"14020006","huc8Name":"Uncompahgre","lineageKey":"coloradoRiver","lineage":"coloradoRiver","historic":"coloradoRiver","current":"coloradoRiver","recovery":"recoveryWatch","lineageLabel":"Colorado River green lineage","atlas_context":"cutthroat_lineage_context"}},{"type":"Feature","geometry":{"type":"LineString","coordinates":[[-107.9297,38.2155],[-107.9218,38.2186]]},"properties":{"name":"Cottonwood Creek","display_name":"Cottonwood Creek","source_name":"Cottonwood Creek","state":"CO","atlas_class":"named_natural_stream_detail","huc8":"14020006","huc8Name":"Uncompahgre","lineageKey":"coloradoRiver","lineage":"coloradoRiver","historic":"coloradoRiver","current":"coloradoRiver","recovery":"recoveryWatch","lineageLabel":"Colorado River green lineage","atlas_context":"cutthroat_lineage_context"}},{"type":"Feature","geometry":{"type":"LineString","coordinates":[[-107.9525,38.2287],[-107.9465,38.2341],[-107.9433,38.238],[-107.9425,38.2404]]},"properties":{"name":"West Fork Horsefly Creek","display_name":"West Fork Horsefly Creek","source_name":"West Fork Horsefly Creek","state":"CO","atlas_class":"named_natural_stream_detail","huc8":"14020006","huc8Name":"Uncompahgre","lineageKey":"coloradoRiver","lineage":"coloradoRiver","historic":"coloradoRiver","current":"coloradoRiver","recovery":"recoveryWatch","lineageLabel":"Colorado River green lineage","atlas_context":"cutthroat_lineage_context"}},{"type":"Feature","geometry":{"type":"LineString","coordinates":[[-107.8988,38.2065],[-107.8943,38.2087],[-107.8866,38.2173]]},"properties":{"name":"East Fork Horsefly Creek","display_name":"East Fork Horsefly Creek","source_name":"East Fork Horsefly Creek","state":"CO","atlas_class":"named_natural_stream_detail","huc8":"14020006","huc8Name":"Uncompahgre","lineageKey":"coloradoRiver","lineage":"coloradoRiver","historic":"coloradoRiver","current":"coloradoRiver","recovery":"recoveryWatch","lineageLabel":"Colorado River green lineage","atlas_context":"cutthroat_lineage_context"}},{"type":"Feature","geometry":{"type":"LineString","coordinates":[[-107.8612,38.4],[-107.8631,38.4018]]},"properties":{"name":"Dolores Creek","display_name":"Dolores Creek","source_name":"Dolores Creek","state":"CO","atlas_class":"named_natural_stream_detail","huc8":"14020006","huc8Name":"Uncompahgre","lineageKey":"coloradoRiver","lineage":"coloradoRiver","historic":"coloradoRiver","current":"coloradoRiver","recovery":"recoveryWatch","lineageLabel":"Colorado River green lineage","atlas_context":"cutthroat_lineage_context"}},{"type":"Feature","geometry":{"type":"LineString","coordinates":[[-107.8883,38.3914],[-107.8879,38.3931],[-107.8896,38.3961],[-107.8933,38.3984],[-107.8929,38.4009],[-107.8945,38.4039],[-107.894,38.4055]]},"properties":{"name":"Happy Canyon Creek","display_name":"Happy Canyon Creek","source_name":"Happy Canyon Creek","state":"CO","atlas_class":"named_natural_stream_detail","huc8":"14020006","huc8Name":"Uncompahgre","lineageKey":"coloradoRiver","lineage":"coloradoRiver","historic":"coloradoRiver","current":"coloradoRiver","recovery":"recoveryWatch","lineageLabel":"Colorado River green lineage","atlas_context":"cutthroat_lineage_context"}},{"type":"Feature","geometry":{"type":"LineString","coordinates":[[-107.9944,38.2575],[-107.9952,38.2602]]},"properties":{"name":"East Fork Spring Creek","display_name":"East Fork Spring Creek","source_name":"East Fork Spring Creek","state":"CO","atlas_class":"named_natural_stream_detail","huc8":"14020006","huc8Name":"Uncompahgre","lineageKey":"coloradoRiver","lineage":"coloradoRiver","historic":"coloradoRiver","current":"coloradoRiver","recovery":"recoveryWatch","lineageLabel":"Colorado River green lineage","atlas_context":"cutthroat_lineage_context"}},{"type":"Feature","geometry":{"type":"LineString","coordinates":[[-107.9962,38.269],[-107.9979,38.2747],[-108.0025,38.2738],[-108.0057,38.2768]]},"properties":{"name":"East Fork Spring Creek","display_name":"East Fork Spring Creek","source_name":"East Fork Spring Creek","state":"CO","atlas_class":"named_natural_stream_detail","huc8":"14020006","huc8Name":"Uncompahgre","lineageKey":"coloradoRiver","lineage":"coloradoRiver","historic":"coloradoRiver","current":"coloradoRiver","recovery":"recoveryWatch","lineageLabel":"Colorado River green lineage","atlas_context":"cutthroat_lineage_context"}},{"type":"Feature","geometry":{"type":"LineString","coordinates":[[-107.9935,38.2516],[-107.9944,38.2575]]},"properties":{"name":"East Fork Spring Creek","display_name":"East Fork Spring Creek","source_name":"East Fork Spring Creek","state":"CO","atlas_class":"named_natural_stream_detail","huc8":"14020006","huc8Name":"Uncompahgre","lineageKey":"coloradoRiver","lineage":"coloradoRiver","historic":"coloradoRiver","current":"coloradoRiver","recovery":"recoveryWatch","lineageLabel":"Colorado River green lineage","atlas_context":"cutthroat_lineage_context"}},{"type":"Feature","geometry":{"type":"LineString","coordinates":[[-107.9982,38.2911],[-107.9954,38.296],[-107.9954,38.3031]]},"properties":{"name":"East Fork Spring Creek","display_name":"East Fork Spring Creek","source_name":"East Fork Spring Creek","state":"CO","atlas_class":"named_natural_stream_detail","huc8":"14020006","huc8Name":"Uncompahgre","lineageKey":"coloradoRiver","lineage":"coloradoRiver","historic":"coloradoRiver","current":"coloradoRiver","recovery":"recoveryWatch","lineageLabel":"Colorado River green lineage","atlas_context":"cutthroat_lineage_context"}},{"type":"Feature","geometry":{"type":"LineString","coordinates":[[-108.0051,38.2417],[-108.0002,38.2439],[-107.9935,38.2516]]},"properties":{"name":"East Fork Spring Creek","display_name":"East Fork Spring Creek","source_name":"East Fork Spring Creek","state":"CO","atlas_class":"named_natural_stream_detail","huc8":"14020006","huc8Name":"Uncompahgre","lineageKey":"coloradoRiver","lineage":"coloradoRiver","historic":"coloradoRiver","current":"coloradoRiver","recovery":"recoveryWatch","lineageLabel":"Colorado River green lineage","atlas_context":"cutthroat_lineage_context"}},{"type":"Feature","geometry":{"type":"LineString","coordinates":[[-108.002,38.2854],[-107.9982,38.2911]]},"properties":{"name":"East Fork Spring Creek","display_name":"East Fork Spring Creek","source_name":"East Fork Spring Creek","state":"CO","atlas_class":"named_natural_stream_detail","huc8":"14020006","huc8Name":"Uncompahgre","lineageKey":"coloradoRiver","lineage":"coloradoRiver","historic":"coloradoRiver","current":"coloradoRiver","recovery":"recoveryWatch","lineageLabel":"Colorado River green lineage","atlas_context":"cutthroat_lineage_context"}},{"type":"Feature","geometry":{"type":"LineString","coordinates":[[-107.8058,38.2387],[-107.7975,38.2446],[-107.785,38.2514]]},"properties":{"name":"McKenzie Creek","display_name":"McKenzie Creek","source_name":"McKenzie Creek","state":"CO","atlas_class":"named_natural_stream_detail","huc8":"14020006","huc8Name":"Uncompahgre","lineageKey":"coloradoRiver","lineage":"coloradoRiver","historic":"coloradoRiver","current":"coloradoRiver","recovery":"recoveryWatch","lineageLabel":"Colorado River green lineage","atlas_context":"cutthroat_lineage_context"}},{"type":"Feature","geometry":{"type":"LineString","coordinates":[[-107.8031,38.2272],[-107.7989,38.2311]]},"properties":{"name":"Fisher Creek","display_name":"Fisher Creek","source_name":"Fisher Creek","state":"CO","atlas_class":"named_natural_stream_detail","huc8":"14020006","huc8Name":"Uncompahgre","lineageKey":"coloradoRiver","lineage":"coloradoRiver","historic":"coloradoRiver","current":"coloradoRiver","recovery":"recoveryWatch","lineageLabel":"Colorado River green lineage","atlas_context":"cutthroat_lineage_context"}},{"type":"Feature","geometry":{"type":"LineString","coordinates":[[-107.9971,38.2204],[-107.9941,38.211],[-107.9964,38.2073]]},"properties":{"name":"Johnson Creek","display_name":"Johnson Creek","source_name":"Johnson Creek","state":"CO","atlas_class":"named_natural_stream_detail","huc8":"14030003","huc8Name":"San Miguel","lineageKey":"coloradoRiver","lineage":"coloradoRiver","historic":"coloradoRiver","current":"coloradoRiver","recovery":"recoveryWatch","lineageLabel":"Colorado River green lineage","atlas_context":"cutthroat_lineage_context"}},{"type":"Feature","geometry":{"type":"LineString","coordinates":[[-107.9912,38.2013],[-107.9938,38.2024],[-107.9991,38.2006],[-108.0064,38.2014]]},"properties":{"name":"Horsefly Creek","display_name":"Horsefly Creek","source_name":"Horsefly Creek","state":"CO","atlas_class":"named_natural_stream_detail","huc8":"14030003","huc8Name":"San Miguel","lineageKey":"coloradoRiver","lineage":"coloradoRiver","historic":"coloradoRiver","current":"coloradoRiver","recovery":"recoveryWatch","lineageLabel":"Colorado River green lineage","atlas_context":"cutthroat_lineage_context"}},{"type":"Feature","geometry":{"type":"LineString","coordinates":[[-107.9983,38.2057],[-108.0037,38.205],[-108.0066,38.2033]]},"properties":{"name":"North Fork Horsefly Creek","display_name":"North Fork Horsefly Creek","source_name":"North Fork Horsefly Creek","state":"CO","atlas_class":"named_natural_stream_detail","huc8":"14030003","huc8Name":"San Miguel","lineageKey":"coloradoRiver","lineage":"coloradoRiver","historic":"coloradoRiver","current":"coloradoRiver","recovery":"recoveryWatch","lineageLabel":"Colorado River green lineage","atlas_context":"cutthroat_lineage_context"}},{"type":"Feature","geometry":{"type":"LineString","coordinates":[[-107.9974,38.2059],[-107.9983,38.2057]]},"properties":{"name":"North Fork Horsefly Creek","display_name":"North Fork Horsefly Creek","source_name":"North Fork Horsefly Creek","state":"CO","atlas_class":"named_natural_stream_detail","huc8":"14030003","huc8Name":"San Miguel","lineageKey":"coloradoRiver","lineage":"coloradoRiver","historic":"coloradoRiver","current":"coloradoRiver","recovery":"recoveryWatch","lineageLabel":"Colorado River green lineage","atlas_context":"cutthroat_lineage_context"}},{"type":"Feature","geometry":{"type":"LineString","coordinates":[[-107.9991,38.2329],[-107.9987,38.2328]]},"properties":{"name":"Johnson Creek","display_name":"Johnson Creek","source_name":"Johnson Creek","state":"CO","atlas_class":"named_natural_stream_detail","huc8":"14030003","huc8Name":"San Miguel","lineageKey":"coloradoRiver","lineage":"coloradoRiver","historic":"coloradoRiver","current":"coloradoRiver","recovery":"recoveryWatch","lineageLabel":"Colorado River green lineage","atlas_context":"cutthroat_lineage_context"}},{"type":"Feature","geometry":{"type":"LineString","coordinates":[[-107.9947,38.2264],[-107.9971,38.2204]]},"properties":{"name":"Johnson Creek","display_name":"Johnson Creek","source_name":"Johnson Creek","state":"CO","atlas_class":"named_natural_stream_detail","huc8":"14030003","huc8Name":"San Miguel","lineageKey":"coloradoRiver","lineage":"coloradoRiver","historic":"coloradoRiver","current":"coloradoRiver","recovery":"recoveryWatch","lineageLabel":"Colorado River green lineage","atlas_context":"cutthroat_lineage_context"}},{"type":"Feature","geometry":{"type":"LineString","coordinates":[[-107.995,38.2312],[-107.9947,38.2264]]},"properties":{"name":"Johnson Creek","display_name":"Johnson Creek","source_name":"Johnson Creek","state":"CO","atlas_class":"named_natural_stream_detail","huc8":"14030003","huc8Name":"San Miguel","lineageKey":"coloradoRiver","lineage":"coloradoRiver","historic":"coloradoRiver","current":"coloradoRiver","recovery":"recoveryWatch","lineageLabel":"Colorado River green lineage","atlas_context":"cutthroat_lineage_context"}},{"type":"Feature","geometry":{"type":"LineString","coordinates":[[-107.9705,38.224],[-107.9721,38.2216],[-107.9836,38.2166],[-107.989,38.2108]]},"properties":{"name":"North Fork Horsefly Creek","display_name":"North Fork Horsefly Creek","source_name":"North Fork Horsefly Creek","state":"CO","atlas_class":"named_natural_stream_detail","huc8":"14030003","huc8Name":"San Miguel","lineageKey":"coloradoRiver","lineage":"coloradoRiver","historic":"coloradoRiver","current":"coloradoRiver","recovery":"recoveryWatch","lineageLabel":"Colorado River green lineage","atlas_context":"cutthroat_lineage_context"}},{"type":"Feature","geometry":{"type":"LineString","coordinates":[[-107.9983,38.2327],[-107.9981,38.2327]]},"properties":{"name":"Johnson Creek","display_name":"Johnson Creek","source_name":"Johnson Creek","state":"CO","atlas_class":"named_natural_stream_detail","huc8":"14030003","huc8Name":"San Miguel","lineageKey":"coloradoRiver","lineage":"coloradoRiver","historic":"coloradoRiver","current":"coloradoRiver","recovery":"recoveryWatch","lineageLabel":"Colorado River green lineage","atlas_context":"cutthroat_lineage_context"}},{"type":"Feature","geometry":{"type":"LineString","coordinates":[[-107.9979,38.2326],[-107.995,38.2312]]},"properties":{"name":"Johnson Creek","display_name":"Johnson Creek","source_name":"Johnson Creek","state":"CO","atlas_class":"named_natural_stream_detail","huc8":"14030003","huc8Name":"San Miguel","lineageKey":"coloradoRiver","lineage":"coloradoRiver","historic":"coloradoRiver","current":"coloradoRiver","recovery":"recoveryWatch","lineageLabel":"Colorado River green lineage","atlas_context":"cutthroat_lineage_context"}},{"type":"Feature","geometry":{"type":"LineString","coordinates":[[-107.9964,38.2073],[-107.9974,38.2059]]},"properties":{"name":"Johnson Creek","display_name":"Johnson Creek","source_name":"Johnson Creek","state":"CO","atlas_class":"named_natural_stream_detail","huc8":"14030003","huc8Name":"San Miguel","lineageKey":"coloradoRiver","lineage":"coloradoRiver","historic":"coloradoRiver","current":"coloradoRiver","recovery":"recoveryWatch","lineageLabel":"Colorado River green lineage","atlas_context":"cutthroat_lineage_context"}},{"type":"Feature","geometry":{"type":"LineString","coordinates":[[-107.9823,38.2007],[-107.9886,38.2002],[-107.9912,38.2013]]},"properties":{"name":"Horsefly Creek","display_name":"Horsefly Creek","source_name":"Horsefly Creek","state":"CO","atlas_class":"named_natural_stream_detail","huc8":"14030003","huc8Name":"San Miguel","lineageKey":"coloradoRiver","lineage":"coloradoRiver","historic":"coloradoRiver","current":"coloradoRiver","recovery":"recoveryWatch","lineageLabel":"Colorado River green lineage","atlas_context":"cutthroat_lineage_context"}},{"type":"Feature","geometry":{"type":"LineString","coordinates":[[-107.9775,38.2007],[-107.9778,38.2005]]},"properties":{"name":"Horsefly Creek","display_name":"Horsefly Creek","source_name":"Horsefly Creek","state":"CO","atlas_class":"named_natural_stream_detail","huc8":"14030003","huc8Name":"San Miguel","lineageKey":"coloradoRiver","lineage":"coloradoRiver","historic":"coloradoRiver","current":"coloradoRiver","recovery":"recoveryWatch","lineageLabel":"Colorado River green lineage","atlas_context":"cutthroat_lineage_context"}},{"type":"Feature","geometry":{"type":"LineString","coordinates":[[-107.9722,38.2034],[-107.9755,38.2029],[-107.9775,38.2007]]},"properties":{"name":"Horsefly Creek","display_name":"Horsefly Creek","source_name":"Horsefly Creek","state":"CO","atlas_class":"named_natural_stream_detail","huc8":"14030003","huc8Name":"San Miguel","lineageKey":"coloradoRiver","lineage":"coloradoRiver","historic":"coloradoRiver","current":"coloradoRiver","recovery":"recoveryWatch","lineageLabel":"Colorado River green lineage","atlas_context":"cutthroat_lineage_context"}},{"type":"Feature","geometry":{"type":"LineString","coordinates":[[-107.989,38.2108],[-107.991,38.2105],[-107.9953,38.2066],[-107.9974,38.2059]]},"properties":{"name":"North Fork Horsefly Creek","display_name":"North Fork Horsefly Creek","source_name":"North Fork Horsefly Creek","state":"CO","atlas_class":"named_natural_stream_detail","huc8":"14030003","huc8Name":"San Miguel","lineageKey":"coloradoRiver","lineage":"coloradoRiver","historic":"coloradoRiver","current":"coloradoRiver","recovery":"recoveryWatch","lineageLabel":"Colorado River green lineage","atlas_context":"cutthroat_lineage_context"}},{"type":"Feature","geometry":{"type":"LineString","coordinates":[[-107.9583,38.1977],[-107.9615,38.198],[-107.9677,38.2024],[-107.9722,38.2034]]},"properties":{"name":"Horsefly Creek","display_name":"Horsefly Creek","source_name":"Horsefly Creek","state":"CO","atlas_class":"named_natural_stream_detail","huc8":"14030003","huc8Name":"San Miguel","lineageKey":"coloradoRiver","lineage":"coloradoRiver","historic":"coloradoRiver","current":"coloradoRiver","recovery":"recoveryWatch","lineageLabel":"Colorado River green lineage","atlas_context":"cutthroat_lineage_context"}},{"type":"Feature","geometry":{"type":"LineString","coordinates":[[-107.9778,38.2005],[-107.978,38.2]]},"properties":{"name":"Horsefly Creek","display_name":"Horsefly Creek","source_name":"Horsefly Creek","state":"CO","atlas_class":"named_natural_stream_detail","huc8":"14030003","huc8Name":"San Miguel","lineageKey":"coloradoRiver","lineage":"coloradoRiver","historic":"coloradoRiver","current":"coloradoRiver","recovery":"recoveryWatch","lineageLabel":"Colorado River green lineage","atlas_context":"cutthroat_lineage_context"}},{"type":"Feature","geometry":{"type":"LineString","coordinates":[[-107.981,38.1988],[-107.9823,38.2007]]},"properties":{"name":"Horsefly Creek","display_name":"Horsefly Creek","source_name":"Horsefly Creek","state":"CO","atlas_class":"named_natural_stream_detail","huc8":"14030003","huc8Name":"San Miguel","lineageKey":"coloradoRiver","lineage":"coloradoRiver","historic":"coloradoRiver","current":"coloradoRiver","recovery":"recoveryWatch","lineageLabel":"Colorado River green lineage","atlas_context":"cutthroat_lineage_context"}}]}