{"type":"FeatureCollection","metadata":{"source":"C:\\ct-atlas-data\\processed\\geojson\\interpreted\\colorado_named_natural_streams_complete_v1.geojson","type":"colorado-natural-stream-detail-tile-v2","tile_size_degrees":0.2,"x":-519,"y":191,"bounds":{"west":-103.8,"south":38.2,"east":-103.6,"north":38.4}},"features":[{"type":"Feature","geometry":{"type":"LineString","coordinates":[[-103.6705,38.38],[-103.6693,38.3794],[-103.6697,38.3784],[-103.6718,38.3738],[-103.6749,38.3701],[-103.6727,38.3671],[-103.6695,38.3675],[-103.6684,38.3666]]},"properties":{"name":"Horse Creek","display_name":"Horse Creek","source_name":"Horse Creek","state":"CO","atlas_class":"named_natural_stream_detail","huc8":"11020008","huc8Name":"Horse","lineageKey":"statewideContext","lineage":"statewideContext","historic":"statewideContext","current":"statewideContext","recovery":"statewideContext","lineageLabel":"Statewide Colorado hydrography context","atlas_context":"statewide_hydrography_context"}},{"type":"Feature","geometry":{"type":"LineString","coordinates":[[-103.8008,38.3991],[-103.8002,38.3983],[-103.7984,38.3989],[-103.7984,38.3976],[-103.7959,38.3974],[-103.7962,38.396],[-103.7949,38.3944],[-103.7905,38.3943],[-103.7889,38.3933],[-103.7879,38.3938],[-103.7855,38.3905],[-103.7806,38.3893],[-103.7762,38.3847],[-103.7703,38.382],[-103.7697,38.3797],[-103.7654,38.3794],[-103.7648,38.377],[-103.7632,38.3774],[-103.7615,38.376],[-103.7601,38.3763],[-103.7599,38.3743],[-103.7581,38.3733],[-103.7565,38.3732],[-103.7561,38.3742],[-103.7545,38.3724],[-103.7534,38.3734],[-103.7493,38.3726]]},"properties":{"name":"Breckenridge Creek","display_name":"Breckenridge Creek","source_name":"Breckenridge Creek","state":"CO","atlas_class":"named_natural_stream_detail","huc8":"11020008","huc8Name":"Horse","lineageKey":"statewideContext","lineage":"statewideContext","historic":"statewideContext","current":"statewideContext","recovery":"statewideContext","lineageLabel":"Statewide Colorado hydrography context","atlas_context":"statewide_hydrography_context"}},{"type":"Feature","geometry":{"type":"LineString","coordinates":[[-103.6684,38.3666],[-103.6745,38.3632],[-103.6737,38.3595],[-103.6755,38.356],[-103.6753,38.3533],[-103.6731,38.3502],[-103.674,38.3492],[-103.6773,38.3485],[-103.678,38.3473],[-103.676,38.3432],[-103.6774,38.3374],[-103.6765,38.3323]]},"properties":{"name":"Horse Creek","display_name":"Horse Creek","source_name":"Horse Creek","state":"CO","atlas_class":"named_natural_stream_detail","huc8":"11020008","huc8Name":"Horse","lineageKey":"statewideContext","lineage":"statewideContext","historic":"statewideContext","current":"statewideContext","recovery":"statewideContext","lineageLabel":"Statewide Colorado hydrography context","atlas_context":"statewide_hydrography_context"}},{"type":"Feature","geometry":{"type":"LineString","coordinates":[[-103.6542,38.2619],[-103.6528,38.2603],[-103.6463,38.2598],[-103.6414,38.254],[-103.6377,38.2524]]},"properties":{"name":"Horse Creek","display_name":"Horse Creek","source_name":"Horse Creek","state":"CO","atlas_class":"named_natural_stream_detail","huc8":"11020008","huc8Name":"Horse","lineageKey":"statewideContext","lineage":"statewideContext","historic":"statewideContext","current":"statewideContext","recovery":"statewideContext","lineageLabel":"Statewide Colorado hydrography context","atlas_context":"statewide_hydrography_context"}},{"type":"Feature","geometry":{"type":"LineString","coordinates":[[-103.7627,38.4023],[-103.7611,38.3974],[-103.759,38.3956],[-103.7585,38.3927],[-103.7568,38.3923],[-103.7563,38.3912]]},"properties":{"name":"Lone Tree Creek","display_name":"Lone Tree Creek","source_name":"Lone Tree Creek","state":"CO","atlas_class":"named_natural_stream_detail","huc8":"11020008","huc8Name":"Horse","lineageKey":"statewideContext","lineage":"statewideContext","historic":"statewideContext","current":"statewideContext","recovery":"statewideContext","lineageLabel":"Statewide Colorado hydrography context","atlas_context":"statewide_hydrography_context"}},{"type":"Feature","geometry":{"type":"LineString","coordinates":[[-103.7563,38.3912],[-103.7568,38.3891],[-103.7553,38.3882],[-103.7542,38.3862]]},"properties":{"name":"Lone Tree Creek","display_name":"Lone Tree Creek","source_name":"Lone Tree Creek","state":"CO","atlas_class":"named_natural_stream_detail","huc8":"11020008","huc8Name":"Horse","lineageKey":"statewideContext","lineage":"statewideContext","historic":"statewideContext","current":"statewideContext","recovery":"statewideContext","lineageLabel":"Statewide Colorado hydrography context","atlas_context":"statewide_hydrography_context"}},{"type":"Feature","geometry":{"type":"LineString","coordinates":[[-103.7542,38.3862],[-103.7534,38.3859],[-103.7546,38.3846],[-103.7531,38.3839],[-103.752,38.3816],[-103.7529,38.38],[-103.7538,38.3801],[-103.7539,38.3786]]},"properties":{"name":"Lone Tree Creek","display_name":"Lone Tree Creek","source_name":"Lone Tree Creek","state":"CO","atlas_class":"named_natural_stream_detail","huc8":"11020008","huc8Name":"Horse","lineageKey":"statewideContext","lineage":"statewideContext","historic":"statewideContext","current":"statewideContext","recovery":"statewideContext","lineageLabel":"Statewide Colorado hydrography context","atlas_context":"statewide_hydrography_context"}},{"type":"Feature","geometry":{"type":"LineString","coordinates":[[-103.737,38.3934],[-103.7377,38.3925],[-103.7364,38.3918],[-103.7383,38.3898],[-103.738,38.3887],[-103.739,38.3873],[-103.7385,38.3861],[-103.7395,38.386],[-103.7393,38.3846],[-103.7406,38.3826],[-103.7408,38.379],[-103.7395,38.3785],[-103.7415,38.3765],[-103.74,38.3753],[-103.7423,38.3742],[-103.7412,38.3729],[-103.7419,38.3725],[-103.7411,38.3712],[-103.742,38.3707],[-103.7402,38.3701],[-103.7408,38.3693]]},"properties":{"name":"Dead Horse Creek","display_name":"Dead Horse Creek","source_name":"Dead Horse Creek","state":"CO","atlas_class":"named_natural_stream_detail","huc8":"11020008","huc8Name":"Horse","lineageKey":"statewideContext","lineage":"statewideContext","historic":"statewideContext","current":"statewideContext","recovery":"statewideContext","lineageLabel":"Statewide Colorado hydrography context","atlas_context":"statewide_hydrography_context"}},{"type":"Feature","geometry":{"type":"LineString","coordinates":[[-103.7002,38.3371],[-103.6986,38.3363]]},"properties":{"name":"Breckenridge Creek","display_name":"Breckenridge Creek","source_name":"Breckenridge Creek","state":"CO","atlas_class":"named_natural_stream_detail","huc8":"11020008","huc8Name":"Horse","lineageKey":"statewideContext","lineage":"statewideContext","historic":"statewideContext","current":"statewideContext","recovery":"statewideContext","lineageLabel":"Statewide Colorado hydrography context","atlas_context":"statewide_hydrography_context"}},{"type":"Feature","geometry":{"type":"LineString","coordinates":[[-103.6708,38.3848],[-103.6723,38.3844],[-103.673,38.3833],[-103.6706,38.38]]},"properties":{"name":"Horse Creek","display_name":"Horse Creek","source_name":"Horse Creek","state":"CO","atlas_class":"named_natural_stream_detail","huc8":"11020008","huc8Name":"Horse","lineageKey":"statewideContext","lineage":"statewideContext","historic":"statewideContext","current":"statewideContext","recovery":"statewideContext","lineageLabel":"Statewide Colorado hydrography context","atlas_context":"statewide_hydrography_context"}},{"type":"Feature","geometry":{"type":"LineString","coordinates":[[-103.625,38.2315],[-103.6215,38.2311],[-103.62,38.23],[-103.6164,38.2241],[-103.6155,38.2208],[-103.6117,38.2165],[-103.6112,38.2141],[-103.6063,38.2123],[-103.6041,38.2019],[-103.5977,38.1989],[-103.5921,38.2019],[-103.5874,38.201],[-103.5843,38.1967],[-103.5834,38.1921],[-103.5802,38.1904],[-103.5766,38.1904],[-103.567,38.194],[-103.5656,38.1933],[-103.5657,38.1917]]},"properties":{"name":"Horse Creek","display_name":"Horse Creek","source_name":"Horse Creek","state":"CO","atlas_class":"named_natural_stream_detail","huc8":"11020008","huc8Name":"Horse","lineageKey":"statewideContext","lineage":"statewideContext","historic":"statewideContext","current":"statewideContext","recovery":"statewideContext","lineageLabel":"Statewide Colorado hydrography context","atlas_context":"statewide_hydrography_context"}},{"type":"Feature","geometry":{"type":"LineString","coordinates":[[-103.6349,38.2505],[-103.6316,38.2474],[-103.6324,38.2446]]},"properties":{"name":"Horse Creek","display_name":"Horse Creek","source_name":"Horse Creek","state":"CO","atlas_class":"named_natural_stream_detail","huc8":"11020008","huc8Name":"Horse","lineageKey":"statewideContext","lineage":"statewideContext","historic":"statewideContext","current":"statewideContext","recovery":"statewideContext","lineageLabel":"Statewide Colorado hydrography context","atlas_context":"statewide_hydrography_context"}},{"type":"Feature","geometry":{"type":"LineString","coordinates":[[-103.6377,38.2524],[-103.6349,38.2505]]},"properties":{"name":"Horse Creek","display_name":"Horse Creek","source_name":"Horse Creek","state":"CO","atlas_class":"named_natural_stream_detail","huc8":"11020008","huc8Name":"Horse","lineageKey":"statewideContext","lineage":"statewideContext","historic":"statewideContext","current":"statewideContext","recovery":"statewideContext","lineageLabel":"Statewide Colorado hydrography context","atlas_context":"statewide_hydrography_context"}},{"type":"Feature","geometry":{"type":"LineString","coordinates":[[-103.7203,38.3546],[-103.7106,38.3544],[-103.7101,38.3533],[-103.7113,38.349],[-103.707,38.3485],[-103.706,38.3474],[-103.7065,38.3456],[-103.7052,38.3448],[-103.7031,38.3455],[-103.7017,38.3451],[-103.7009,38.3441],[-103.7011,38.3389],[-103.7002,38.3371]]},"properties":{"name":"Breckenridge Creek","display_name":"Breckenridge Creek","source_name":"Breckenridge Creek","state":"CO","atlas_class":"named_natural_stream_detail","huc8":"11020008","huc8Name":"Horse","lineageKey":"statewideContext","lineage":"statewideContext","historic":"statewideContext","current":"statewideContext","recovery":"statewideContext","lineageLabel":"Statewide Colorado hydrography context","atlas_context":"statewide_hydrography_context"}},{"type":"Feature","geometry":{"type":"LineString","coordinates":[[-103.7204,38.3564],[-103.7203,38.3546]]},"properties":{"name":"Breckenridge Creek","display_name":"Breckenridge Creek","source_name":"Breckenridge Creek","state":"CO","atlas_class":"named_natural_stream_detail","huc8":"11020008","huc8Name":"Horse","lineageKey":"statewideContext","lineage":"statewideContext","historic":"statewideContext","current":"statewideContext","recovery":"statewideContext","lineageLabel":"Statewide Colorado hydrography context","atlas_context":"statewide_hydrography_context"}},{"type":"Feature","geometry":{"type":"LineString","coordinates":[[-103.7493,38.3726],[-103.7478,38.3719],[-103.7454,38.3729],[-103.7441,38.372],[-103.7444,38.371],[-103.743,38.3714],[-103.7408,38.3693]]},"properties":{"name":"Breckenridge Creek","display_name":"Breckenridge Creek","source_name":"Breckenridge Creek","state":"CO","atlas_class":"named_natural_stream_detail","huc8":"11020008","huc8Name":"Horse","lineageKey":"statewideContext","lineage":"statewideContext","historic":"statewideContext","current":"statewideContext","recovery":"statewideContext","lineageLabel":"Statewide Colorado hydrography context","atlas_context":"statewide_hydrography_context"}},{"type":"Feature","geometry":{"type":"LineString","coordinates":[[-103.6986,38.3363],[-103.6953,38.3365],[-103.6937,38.3354],[-103.6927,38.3337],[-103.695,38.3307],[-103.6868,38.3271],[-103.6865,38.3261],[-103.688,38.3248],[-103.6879,38.3223],[-103.6814,38.3192],[-103.6821,38.3101],[-103.681,38.3081],[-103.6783,38.306]]},"properties":{"name":"Breckenridge Creek","display_name":"Breckenridge Creek","source_name":"Breckenridge Creek","state":"CO","atlas_class":"named_natural_stream_detail","huc8":"11020008","huc8Name":"Horse","lineageKey":"statewideContext","lineage":"statewideContext","historic":"statewideContext","current":"statewideContext","recovery":"statewideContext","lineageLabel":"Statewide Colorado hydrography context","atlas_context":"statewide_hydrography_context"}},{"type":"Feature","geometry":{"type":"LineString","coordinates":[[-103.7539,38.3786],[-103.7509,38.3784],[-103.7493,38.3771],[-103.7504,38.375],[-103.7491,38.3741],[-103.7493,38.3726]]},"properties":{"name":"Lone Tree Creek","display_name":"Lone Tree Creek","source_name":"Lone Tree Creek","state":"CO","atlas_class":"named_natural_stream_detail","huc8":"11020008","huc8Name":"Horse","lineageKey":"statewideContext","lineage":"statewideContext","historic":"statewideContext","current":"statewideContext","recovery":"statewideContext","lineageLabel":"Statewide Colorado hydrography context","atlas_context":"statewide_hydrography_context"}},{"type":"Feature","geometry":{"type":"LineString","coordinates":[[-103.845,38.2091],[-103.8458,38.2083],[-103.8446,38.2068],[-103.8427,38.2074],[-103.8431,38.2062],[-103.8425,38.2057],[-103.8384,38.2049],[-103.8311,38.1981],[-103.8287,38.1977],[-103.8288,38.1987],[-103.828,38.1989],[-103.8256,38.1981],[-103.8215,38.1949],[-103.8144,38.1942],[-103.8035,38.1884],[-103.7978,38.182]]},"properties":{"name":"Bob Creek","display_name":"Bob Creek","source_name":"Bob Creek","state":"CO","atlas_class":"named_natural_stream_detail","huc8":"11020005","huc8Name":"Upper Arkansas-Lake Meredith","lineageKey":"statewideContext","lineage":"statewideContext","historic":"statewideContext","current":"statewideContext","recovery":"statewideContext","lineageLabel":"Statewide Colorado hydrography context","atlas_context":"statewide_hydrography_context"}},{"type":"Feature","geometry":{"type":"LineString","coordinates":[[-103.6804,38.2938],[-103.6798,38.2923]]},"properties":{"name":"Horse Creek","display_name":"Horse Creek","source_name":"Horse Creek","state":"CO","atlas_class":"named_natural_stream_detail","huc8":"11020008","huc8Name":"Horse","lineageKey":"statewideContext","lineage":"statewideContext","historic":"statewideContext","current":"statewideContext","recovery":"statewideContext","lineageLabel":"Statewide Colorado hydrography context","atlas_context":"statewide_hydrography_context"}},{"type":"Feature","geometry":{"type":"LineString","coordinates":[[-103.7408,38.3693],[-103.7401,38.367],[-103.7376,38.3673],[-103.7392,38.3658],[-103.7373,38.3648],[-103.7337,38.3665],[-103.7329,38.3661],[-103.7333,38.3642],[-103.7317,38.3656],[-103.7317,38.3668],[-103.7298,38.3659],[-103.7261,38.3669],[-103.7256,38.3651],[-103.7199,38.3608],[-103.7196,38.3576],[-103.7204,38.3564]]},"properties":{"name":"Breckenridge Creek","display_name":"Breckenridge Creek","source_name":"Breckenridge Creek","state":"CO","atlas_class":"named_natural_stream_detail","huc8":"11020008","huc8Name":"Horse","lineageKey":"statewideContext","lineage":"statewideContext","historic":"statewideContext","current":"statewideContext","recovery":"statewideContext","lineageLabel":"Statewide Colorado hydrography context","atlas_context":"statewide_hydrography_context"}},{"type":"Feature","geometry":{"type":"LineString","coordinates":[[-103.6347,38.2385],[-103.6318,38.2323],[-103.6289,38.231],[-103.625,38.2315]]},"properties":{"name":"Horse Creek","display_name":"Horse Creek","source_name":"Horse Creek","state":"CO","atlas_class":"named_natural_stream_detail","huc8":"11020008","huc8Name":"Horse","lineageKey":"statewideContext","lineage":"statewideContext","historic":"statewideContext","current":"statewideContext","recovery":"statewideContext","lineageLabel":"Statewide Colorado hydrography context","atlas_context":"statewide_hydrography_context"}},{"type":"Feature","geometry":{"type":"LineString","coordinates":[[-103.7578,38.4508],[-103.7573,38.4488],[-103.7553,38.4475],[-103.7559,38.4411],[-103.7542,38.4391],[-103.7512,38.4378],[-103.7489,38.4335],[-103.7492,38.4276],[-103.7483,38.4239],[-103.7471,38.4225],[-103.7486,38.4169],[-103.7475,38.415],[-103.7483,38.4138],[-103.7467,38.4129],[-103.7461,38.411],[-103.7468,38.41],[-103.7467,38.407],[-103.7443,38.4058],[-103.745,38.4041],[-103.744,38.4041],[-103.7427,38.4029],[-103.7432,38.4025],[-103.741,38.4017],[-103.7412,38.401],[-103.7382,38.3989],[-103.7386,38.3974],[-103.7369,38.3954],[-103.737,38.3934]]},"properties":{"name":"Dead Horse Creek","display_name":"Dead Horse Creek","source_name":"Dead Horse Creek","state":"CO","atlas_class":"named_natural_stream_detail","huc8":"11020008","huc8Name":"Horse","lineageKey":"statewideContext","lineage":"statewideContext","historic":"statewideContext","current":"statewideContext","recovery":"statewideContext","lineageLabel":"Statewide Colorado hydrography context","atlas_context":"statewide_hydrography_context"}},{"type":"Feature","geometry":{"type":"LineString","coordinates":[[-103.6765,38.3323],[-103.6766,38.3303],[-103.6728,38.3208],[-103.6687,38.3186],[-103.6728,38.3152],[-103.6734,38.3116],[-103.6754,38.3099],[-103.6762,38.3066],[-103.6783,38.3058]]},"properties":{"name":"Horse Creek","display_name":"Horse Creek","source_name":"Horse Creek","state":"CO","atlas_class":"named_natural_stream_detail","huc8":"11020008","huc8Name":"Horse","lineageKey":"statewideContext","lineage":"statewideContext","historic":"statewideContext","current":"statewideContext","recovery":"statewideContext","lineageLabel":"Statewide Colorado hydrography context","atlas_context":"statewide_hydrography_context"}},{"type":"Feature","geometry":{"type":"LineString","coordinates":[[-103.6783,38.3058],[-103.6808,38.2952],[-103.6804,38.2938]]},"properties":{"name":"Horse Creek","display_name":"Horse Creek","source_name":"Horse Creek","state":"CO","atlas_class":"named_natural_stream_detail","huc8":"11020008","huc8Name":"Horse","lineageKey":"statewideContext","lineage":"statewideContext","historic":"statewideContext","current":"statewideContext","recovery":"statewideContext","lineageLabel":"Statewide Colorado hydrography context","atlas_context":"statewide_hydrography_context"}},{"type":"Feature","geometry":{"type":"LineString","coordinates":[[-103.7391,38.463],[-103.7388,38.4619],[-103.7371,38.4617],[-103.7357,38.4589],[-103.7337,38.4583],[-103.7347,38.456],[-103.7339,38.4532],[-103.7309,38.4514],[-103.7294,38.4481],[-103.7293,38.4443],[-103.7284,38.4439],[-103.7294,38.4426],[-103.7289,38.441],[-103.7298,38.4406],[-103.7287,38.4395],[-103.7294,38.4383],[-103.7286,38.4381],[-103.7306,38.4343],[-103.7305,38.4327],[-103.7315,38.4329],[-103.7311,38.4319],[-103.7319,38.4317],[-103.7312,38.4302],[-103.7318,38.427],[-103.7334,38.4259],[-103.7321,38.4251],[-103.7332,38.4233],[-103.7329,38.4198],[-103.7345,38.418],[-103.7333,38.4173],[-103.7339,38.4165],[-103.7332,38.4157],[-103.734,38.4154],[-103.7337,38.4118],[-103.7359,38.4102],[-103.7349,38.406],[-103.7372,38.4026],[-103.7364,38.4003],[-103.7368,38.3988],[-103.7353,38.3974],[-103.7366,38.3955],[-103.7361,38.3939],[-103.737,38.3934]]},"properties":{"name":"Pond Creek","display_name":"Pond Creek","source_name":"Pond Creek","state":"CO","atlas_class":"named_natural_stream_detail","huc8":"11020008","huc8Name":"Horse","lineageKey":"statewideContext","lineage":"statewideContext","historic":"statewideContext","current":"statewideContext","recovery":"statewideContext","lineageLabel":"Statewide Colorado hydrography context","atlas_context":"statewide_hydrography_context"}},{"type":"Feature","geometry":{"type":"LineString","coordinates":[[-103.6672,38.3901],[-103.6658,38.3881],[-103.6666,38.3854],[-103.6708,38.3848]]},"properties":{"name":"Horse Creek","display_name":"Horse Creek","source_name":"Horse Creek","state":"CO","atlas_class":"named_natural_stream_detail","huc8":"11020008","huc8Name":"Horse","lineageKey":"statewideContext","lineage":"statewideContext","historic":"statewideContext","current":"statewideContext","recovery":"statewideContext","lineageLabel":"Statewide Colorado hydrography context","atlas_context":"statewide_hydrography_context"}},{"type":"Feature","geometry":{"type":"LineString","coordinates":[[-103.6783,38.306],[-103.6783,38.3058]]},"properties":{"name":"Breckenridge Creek","display_name":"Breckenridge Creek","source_name":"Breckenridge Creek","state":"CO","atlas_class":"named_natural_stream_detail","huc8":"11020008","huc8Name":"Horse","lineageKey":"statewideContext","lineage":"statewideContext","historic":"statewideContext","current":"statewideContext","recovery":"statewideContext","lineageLabel":"Statewide Colorado hydrography context","atlas_context":"statewide_hydrography_context"}},{"type":"Feature","geometry":{"type":"LineString","coordinates":[[-103.6793,38.4159],[-103.6733,38.4138],[-103.6712,38.411],[-103.6721,38.4094],[-103.6754,38.4077],[-103.6786,38.4043],[-103.6783,38.4016],[-103.6741,38.3998],[-103.6748,38.3986],[-103.6774,38.399],[-103.6794,38.3984],[-103.6785,38.395],[-103.6768,38.3937],[-103.6729,38.3932],[-103.6716,38.3918],[-103.6677,38.3902]]},"properties":{"name":"Horse Creek","display_name":"Horse Creek","source_name":"Horse Creek","state":"CO","atlas_class":"named_natural_stream_detail","huc8":"11020008","huc8Name":"Horse","lineageKey":"statewideContext","lineage":"statewideContext","historic":"statewideContext","current":"statewideContext","recovery":"statewideContext","lineageLabel":"Statewide Colorado hydrography context","atlas_context":"statewide_hydrography_context"}},{"type":"Feature","geometry":{"type":"LineString","coordinates":[[-103.6798,38.2923],[-103.6768,38.2867],[-103.6743,38.2858],[-103.6683,38.2807],[-103.6603,38.2765],[-103.6591,38.275],[-103.6587,38.2716],[-103.6556,38.2724],[-103.6536,38.271],[-103.6532,38.2689],[-103.6546,38.2647],[-103.6542,38.2619]]},"properties":{"name":"Horse Creek","display_name":"Horse Creek","source_name":"Horse Creek","state":"CO","atlas_class":"named_natural_stream_detail","huc8":"11020008","huc8Name":"Horse","lineageKey":"statewideContext","lineage":"statewideContext","historic":"statewideContext","current":"statewideContext","recovery":"statewideContext","lineageLabel":"Statewide Colorado hydrography context","atlas_context":"statewide_hydrography_context"}},{"type":"Feature","geometry":{"type":"LineString","coordinates":[[-103.8516,38.4305],[-103.8488,38.4306],[-103.8433,38.429],[-103.8396,38.4259],[-103.836,38.4248],[-103.8325,38.4267],[-103.825,38.4224],[-103.819,38.4173],[-103.8183,38.4146],[-103.8163,38.4123],[-103.812,38.4108],[-103.8123,38.4089],[-103.811,38.4075],[-103.8082,38.4057],[-103.8047,38.4056],[-103.8041,38.4045],[-103.8047,38.4035],[-103.8034,38.4019],[-103.8008,38.4016],[-103.8015,38.4005],[-103.8,38.3999],[-103.8008,38.3991]]},"properties":{"name":"Breckenridge Creek","display_name":"Breckenridge Creek","source_name":"Breckenridge Creek","state":"CO","atlas_class":"named_natural_stream_detail","huc8":"11020008","huc8Name":"Horse","lineageKey":"statewideContext","lineage":"statewideContext","historic":"statewideContext","current":"statewideContext","recovery":"statewideContext","lineageLabel":"Statewide Colorado hydrography context","atlas_context":"statewide_hydrography_context"}},{"type":"Feature","geometry":{"type":"LineString","coordinates":[[-103.6677,38.3902],[-103.6672,38.3901]]},"properties":{"name":"Horse Creek","display_name":"Horse Creek","source_name":"Horse Creek","state":"CO","atlas_class":"named_natural_stream_detail","huc8":"11020008","huc8Name":"Horse","lineageKey":"statewideContext","lineage":"statewideContext","historic":"statewideContext","current":"statewideContext","recovery":"statewideContext","lineageLabel":"Statewide Colorado hydrography context","atlas_context":"statewide_hydrography_context"}},{"type":"Feature","geometry":{"type":"LineString","coordinates":[[-103.6324,38.2446],[-103.6344,38.2414],[-103.6347,38.2385]]},"properties":{"name":"Horse Creek","display_name":"Horse Creek","source_name":"Horse Creek","state":"CO","atlas_class":"named_natural_stream_detail","huc8":"11020008","huc8Name":"Horse","lineageKey":"statewideContext","lineage":"statewideContext","historic":"statewideContext","current":"statewideContext","recovery":"statewideContext","lineageLabel":"Statewide Colorado hydrography context","atlas_context":"statewide_hydrography_context"}}]}