{"type":"FeatureCollection","metadata":{"source":"C:\\ct-atlas-data\\processed\\geojson\\interpreted\\colorado_named_natural_streams_complete_v1.geojson","type":"colorado-natural-stream-detail-tile-v2","tile_size_degrees":0.2,"x":-521,"y":187,"bounds":{"west":-104.2,"south":37.4,"east":-104,"north":37.6}},"features":[{"type":"Feature","geometry":{"type":"LineString","coordinates":[[-104.2152,37.4064],[-104.2112,37.4088],[-104.211,37.4101],[-104.2085,37.4106],[-104.205,37.4094],[-104.2021,37.4104],[-104.2015,37.4095],[-104.1965,37.4085],[-104.1931,37.4095],[-104.1911,37.4083],[-104.187,37.4098],[-104.1831,37.4095],[-104.1827,37.4106]]},"properties":{"name":"Van Bremer Arroyo","display_name":"Van Bremer Arroyo","source_name":"Van Bremer Arroyo","state":"CO","atlas_class":"named_natural_stream_detail","huc8":"11020010","huc8Name":"Purgatoire","lineageKey":"yellowfin","lineage":"yellowfin","historic":"yellowfin","current":"yellowfin","recovery":"recoveryWatch","lineageLabel":"Yellowfin / Arkansas headwaters historical form","atlas_context":"cutthroat_lineage_context"}},{"type":"Feature","geometry":{"type":"LineString","coordinates":[[-104.1429,37.4024],[-104.1411,37.4026],[-104.141,37.4019],[-104.1339,37.3996],[-104.1317,37.4013],[-104.1289,37.4018]]},"properties":{"name":"Van Bremer Arroyo","display_name":"Van Bremer Arroyo","source_name":"Van Bremer Arroyo","state":"CO","atlas_class":"named_natural_stream_detail","huc8":"11020010","huc8Name":"Purgatoire","lineageKey":"yellowfin","lineage":"yellowfin","historic":"yellowfin","current":"yellowfin","recovery":"recoveryWatch","lineageLabel":"Yellowfin / Arkansas headwaters historical form","atlas_context":"cutthroat_lineage_context"}},{"type":"Feature","geometry":{"type":"LineString","coordinates":[[-104.006,37.4352],[-104.0032,37.4325]]},"properties":{"name":"Burke Arroyo","display_name":"Burke Arroyo","source_name":"Burke Arroyo","state":"CO","atlas_class":"named_natural_stream_detail","huc8":"11020010","huc8Name":"Purgatoire","lineageKey":"yellowfin","lineage":"yellowfin","historic":"yellowfin","current":"yellowfin","recovery":"recoveryWatch","lineageLabel":"Yellowfin / Arkansas headwaters historical form","atlas_context":"cutthroat_lineage_context"}},{"type":"Feature","geometry":{"type":"LineString","coordinates":[[-104.0596,37.4662],[-104.0595,37.4662]]},"properties":{"name":"Taylor Arroyo","display_name":"Taylor Arroyo","source_name":"Taylor Arroyo","state":"CO","atlas_class":"named_natural_stream_detail","huc8":"11020010","huc8Name":"Purgatoire","lineageKey":"yellowfin","lineage":"yellowfin","historic":"yellowfin","current":"yellowfin","recovery":"recoveryWatch","lineageLabel":"Yellowfin / Arkansas headwaters historical form","atlas_context":"cutthroat_lineage_context"}},{"type":"Feature","geometry":{"type":"LineString","coordinates":[[-104.0595,37.4662],[-104.0569,37.4648],[-104.0567,37.4654],[-104.0511,37.4655],[-104.0502,37.467],[-104.0471,37.4666],[-104.0469,37.4657],[-104.0453,37.4652],[-104.0451,37.4659],[-104.0417,37.4662]]},"properties":{"name":"Taylor Arroyo","display_name":"Taylor Arroyo","source_name":"Taylor Arroyo","state":"CO","atlas_class":"named_natural_stream_detail","huc8":"11020010","huc8Name":"Purgatoire","lineageKey":"yellowfin","lineage":"yellowfin","historic":"yellowfin","current":"yellowfin","recovery":"recoveryWatch","lineageLabel":"Yellowfin / Arkansas headwaters historical form","atlas_context":"cutthroat_lineage_context"}},{"type":"Feature","geometry":{"type":"LineString","coordinates":[[-104.0417,37.4662],[-104.0407,37.4659]]},"properties":{"name":"Taylor Arroyo","display_name":"Taylor Arroyo","source_name":"Taylor Arroyo","state":"CO","atlas_class":"named_natural_stream_detail","huc8":"11020010","huc8Name":"Purgatoire","lineageKey":"yellowfin","lineage":"yellowfin","historic":"yellowfin","current":"yellowfin","recovery":"recoveryWatch","lineageLabel":"Yellowfin / Arkansas headwaters historical form","atlas_context":"cutthroat_lineage_context"}},{"type":"Feature","geometry":{"type":"LineString","coordinates":[[-104.0371,37.4657],[-104.0351,37.4665],[-104.0345,37.4659],[-104.0332,37.4674],[-104.0281,37.4674],[-104.0266,37.47],[-104.0275,37.4701],[-104.0259,37.4712],[-104.023,37.4702],[-104.0212,37.4707]]},"properties":{"name":"Taylor Arroyo","display_name":"Taylor Arroyo","source_name":"Taylor Arroyo","state":"CO","atlas_class":"named_natural_stream_detail","huc8":"11020010","huc8Name":"Purgatoire","lineageKey":"yellowfin","lineage":"yellowfin","historic":"yellowfin","current":"yellowfin","recovery":"recoveryWatch","lineageLabel":"Yellowfin / Arkansas headwaters historical form","atlas_context":"cutthroat_lineage_context"}},{"type":"Feature","geometry":{"type":"LineString","coordinates":[[-104.098,37.5612],[-104.0929,37.5633]]},"properties":{"name":"Timpas Creek","display_name":"Timpas Creek","source_name":"Timpas Creek","state":"CO","atlas_class":"named_natural_stream_detail","huc8":"11020005","huc8Name":"Upper Arkansas-Lake Meredith","lineageKey":"statewideContext","lineage":"statewideContext","historic":"statewideContext","current":"statewideContext","recovery":"statewideContext","lineageLabel":"Statewide Colorado hydrography context","atlas_context":"statewide_hydrography_context"}},{"type":"Feature","geometry":{"type":"LineString","coordinates":[[-104.0929,37.5633],[-104.0921,37.5641],[-104.0928,37.5652],[-104.0922,37.5677]]},"properties":{"name":"Timpas Creek","display_name":"Timpas Creek","source_name":"Timpas Creek","state":"CO","atlas_class":"named_natural_stream_detail","huc8":"11020005","huc8Name":"Upper Arkansas-Lake Meredith","lineageKey":"statewideContext","lineage":"statewideContext","historic":"statewideContext","current":"statewideContext","recovery":"statewideContext","lineageLabel":"Statewide Colorado hydrography context","atlas_context":"statewide_hydrography_context"}},{"type":"Feature","geometry":{"type":"LineString","coordinates":[[-104.0529,37.4336],[-104.0506,37.4332],[-104.0482,37.4339]]},"properties":{"name":"Burke Arroyo","display_name":"Burke Arroyo","source_name":"Burke Arroyo","state":"CO","atlas_class":"named_natural_stream_detail","huc8":"11020010","huc8Name":"Purgatoire","lineageKey":"yellowfin","lineage":"yellowfin","historic":"yellowfin","current":"yellowfin","recovery":"recoveryWatch","lineageLabel":"Yellowfin / Arkansas headwaters historical form","atlas_context":"cutthroat_lineage_context"}},{"type":"Feature","geometry":{"type":"LineString","coordinates":[[-104.0258,37.5478],[-104.0262,37.5499],[-104.0254,37.551]]},"properties":{"name":"Big Arroyo","display_name":"Big Arroyo","source_name":"Big Arroyo","state":"CO","atlas_class":"named_natural_stream_detail","huc8":"11020005","huc8Name":"Upper Arkansas-Lake Meredith","lineageKey":"statewideContext","lineage":"statewideContext","historic":"statewideContext","current":"statewideContext","recovery":"statewideContext","lineageLabel":"Statewide Colorado hydrography context","atlas_context":"statewide_hydrography_context"}},{"type":"Feature","geometry":{"type":"LineString","coordinates":[[-104.0735,37.4723],[-104.0714,37.4726]]},"properties":{"name":"Taylor Arroyo","display_name":"Taylor Arroyo","source_name":"Taylor Arroyo","state":"CO","atlas_class":"named_natural_stream_detail","huc8":"11020010","huc8Name":"Purgatoire","lineageKey":"yellowfin","lineage":"yellowfin","historic":"yellowfin","current":"yellowfin","recovery":"recoveryWatch","lineageLabel":"Yellowfin / Arkansas headwaters historical form","atlas_context":"cutthroat_lineage_context"}},{"type":"Feature","geometry":{"type":"LineString","coordinates":[[-104.0763,37.5152],[-104.0736,37.5154]]},"properties":{"name":"Big Arroyo","display_name":"Big Arroyo","source_name":"Big Arroyo","state":"CO","atlas_class":"named_natural_stream_detail","huc8":"11020005","huc8Name":"Upper Arkansas-Lake Meredith","lineageKey":"statewideContext","lineage":"statewideContext","historic":"statewideContext","current":"statewideContext","recovery":"statewideContext","lineageLabel":"Statewide Colorado hydrography context","atlas_context":"statewide_hydrography_context"}},{"type":"Feature","geometry":{"type":"LineString","coordinates":[[-104.0194,37.4338],[-104.0138,37.4358],[-104.0124,37.437],[-104.0085,37.4372],[-104.006,37.4352]]},"properties":{"name":"Burke Arroyo","display_name":"Burke Arroyo","source_name":"Burke Arroyo","state":"CO","atlas_class":"named_natural_stream_detail","huc8":"11020010","huc8Name":"Purgatoire","lineageKey":"yellowfin","lineage":"yellowfin","historic":"yellowfin","current":"yellowfin","recovery":"recoveryWatch","lineageLabel":"Yellowfin / Arkansas headwaters historical form","atlas_context":"cutthroat_lineage_context"}},{"type":"Feature","geometry":{"type":"LineString","coordinates":[[-104.0682,37.4422],[-104.0654,37.4373],[-104.0627,37.4354]]},"properties":{"name":"Burke Arroyo","display_name":"Burke Arroyo","source_name":"Burke Arroyo","state":"CO","atlas_class":"named_natural_stream_detail","huc8":"11020010","huc8Name":"Purgatoire","lineageKey":"yellowfin","lineage":"yellowfin","historic":"yellowfin","current":"yellowfin","recovery":"recoveryWatch","lineageLabel":"Yellowfin / Arkansas headwaters historical form","atlas_context":"cutthroat_lineage_context"}},{"type":"Feature","geometry":{"type":"LineString","coordinates":[[-104.0194,37.5745],[-104.0194,37.5756],[-104.0186,37.5755],[-104.0189,37.5767],[-104.0202,37.5772],[-104.0203,37.5799],[-104.0231,37.5808]]},"properties":{"name":"Big Arroyo","display_name":"Big Arroyo","source_name":"Big Arroyo","state":"CO","atlas_class":"named_natural_stream_detail","huc8":"11020005","huc8Name":"Upper Arkansas-Lake Meredith","lineageKey":"statewideContext","lineage":"statewideContext","historic":"statewideContext","current":"statewideContext","recovery":"statewideContext","lineageLabel":"Statewide Colorado hydrography context","atlas_context":"statewide_hydrography_context"}},{"type":"Feature","geometry":{"type":"LineString","coordinates":[[-104.0231,37.5808],[-104.0234,37.5822],[-104.0225,37.5827]]},"properties":{"name":"Big Arroyo","display_name":"Big Arroyo","source_name":"Big Arroyo","state":"CO","atlas_class":"named_natural_stream_detail","huc8":"11020005","huc8Name":"Upper Arkansas-Lake Meredith","lineageKey":"statewideContext","lineage":"statewideContext","historic":"statewideContext","current":"statewideContext","recovery":"statewideContext","lineageLabel":"Statewide Colorado hydrography context","atlas_context":"statewide_hydrography_context"}},{"type":"Feature","geometry":{"type":"LineString","coordinates":[[-104.048,37.5871],[-104.0491,37.5875],[-104.0493,37.5896],[-104.0481,37.5914]]},"properties":{"name":"Timpas Creek","display_name":"Timpas Creek","source_name":"Timpas Creek","state":"CO","atlas_class":"named_natural_stream_detail","huc8":"11020005","huc8Name":"Upper Arkansas-Lake Meredith","lineageKey":"statewideContext","lineage":"statewideContext","historic":"statewideContext","current":"statewideContext","recovery":"statewideContext","lineageLabel":"Statewide Colorado hydrography context","atlas_context":"statewide_hydrography_context"}},{"type":"Feature","geometry":{"type":"LineString","coordinates":[[-104.0299,37.5305],[-104.029,37.533],[-104.028,37.5333]]},"properties":{"name":"Big Arroyo","display_name":"Big Arroyo","source_name":"Big Arroyo","state":"CO","atlas_class":"named_natural_stream_detail","huc8":"11020005","huc8Name":"Upper Arkansas-Lake Meredith","lineageKey":"statewideContext","lineage":"statewideContext","historic":"statewideContext","current":"statewideContext","recovery":"statewideContext","lineageLabel":"Statewide Colorado hydrography context","atlas_context":"statewide_hydrography_context"}},{"type":"Feature","geometry":{"type":"LineString","coordinates":[[-104.0255,37.5876],[-104.0268,37.5895],[-104.0287,37.5896],[-104.03,37.591],[-104.03,37.5936],[-104.0322,37.5939],[-104.0338,37.5975],[-104.0366,37.5989],[-104.0345,37.5991],[-104.0354,37.6003]]},"properties":{"name":"Big Arroyo","display_name":"Big Arroyo","source_name":"Big Arroyo","state":"CO","atlas_class":"named_natural_stream_detail","huc8":"11020005","huc8Name":"Upper Arkansas-Lake Meredith","lineageKey":"statewideContext","lineage":"statewideContext","historic":"statewideContext","current":"statewideContext","recovery":"statewideContext","lineageLabel":"Statewide Colorado hydrography context","atlas_context":"statewide_hydrography_context"}},{"type":"Feature","geometry":{"type":"LineString","coordinates":[[-104.0225,37.5827],[-104.0239,37.5833],[-104.0241,37.5821],[-104.0256,37.5835],[-104.0252,37.5847],[-104.0267,37.586],[-104.0255,37.5876]]},"properties":{"name":"Big Arroyo","display_name":"Big Arroyo","source_name":"Big Arroyo","state":"CO","atlas_class":"named_natural_stream_detail","huc8":"11020005","huc8Name":"Upper Arkansas-Lake Meredith","lineageKey":"statewideContext","lineage":"statewideContext","historic":"statewideContext","current":"statewideContext","recovery":"statewideContext","lineageLabel":"Statewide Colorado hydrography context","atlas_context":"statewide_hydrography_context"}},{"type":"Feature","geometry":{"type":"LineString","coordinates":[[-104.0898,37.503],[-104.088,37.5039]]},"properties":{"name":"Big Arroyo","display_name":"Big Arroyo","source_name":"Big Arroyo","state":"CO","atlas_class":"named_natural_stream_detail","huc8":"11020005","huc8Name":"Upper Arkansas-Lake Meredith","lineageKey":"statewideContext","lineage":"statewideContext","historic":"statewideContext","current":"statewideContext","recovery":"statewideContext","lineageLabel":"Statewide Colorado hydrography context","atlas_context":"statewide_hydrography_context"}},{"type":"Feature","geometry":{"type":"LineString","coordinates":[[-104.0869,37.4686],[-104.0829,37.4684],[-104.0744,37.4711]]},"properties":{"name":"Taylor Arroyo","display_name":"Taylor Arroyo","source_name":"Taylor Arroyo","state":"CO","atlas_class":"named_natural_stream_detail","huc8":"11020010","huc8Name":"Purgatoire","lineageKey":"yellowfin","lineage":"yellowfin","historic":"yellowfin","current":"yellowfin","recovery":"recoveryWatch","lineageLabel":"Yellowfin / Arkansas headwaters historical form","atlas_context":"cutthroat_lineage_context"}},{"type":"Feature","geometry":{"type":"LineString","coordinates":[[-104.0756,37.5734],[-104.0726,37.5741],[-104.0712,37.5759],[-104.0688,37.5766]]},"properties":{"name":"Timpas Creek","display_name":"Timpas Creek","source_name":"Timpas Creek","state":"CO","atlas_class":"named_natural_stream_detail","huc8":"11020005","huc8Name":"Upper Arkansas-Lake Meredith","lineageKey":"statewideContext","lineage":"statewideContext","historic":"statewideContext","current":"statewideContext","recovery":"statewideContext","lineageLabel":"Statewide Colorado hydrography context","atlas_context":"statewide_hydrography_context"}},{"type":"Feature","geometry":{"type":"LineString","coordinates":[[-104.1433,37.5263],[-104.1416,37.5287],[-104.1395,37.5288],[-104.1375,37.5309],[-104.1367,37.5308],[-104.1355,37.5337],[-104.1332,37.5338],[-104.1334,37.5351],[-104.1292,37.5353],[-104.1289,37.5364],[-104.1275,37.5372]]},"properties":{"name":"Timpas Creek","display_name":"Timpas Creek","source_name":"Timpas Creek","state":"CO","atlas_class":"named_natural_stream_detail","huc8":"11020005","huc8Name":"Upper Arkansas-Lake Meredith","lineageKey":"statewideContext","lineage":"statewideContext","historic":"statewideContext","current":"statewideContext","recovery":"statewideContext","lineageLabel":"Statewide Colorado hydrography context","atlas_context":"statewide_hydrography_context"}},{"type":"Feature","geometry":{"type":"LineString","coordinates":[[-104.1356,37.5044],[-104.1356,37.5064]]},"properties":{"name":"Timpas Creek","display_name":"Timpas Creek","source_name":"Timpas Creek","state":"CO","atlas_class":"named_natural_stream_detail","huc8":"11020005","huc8Name":"Upper Arkansas-Lake Meredith","lineageKey":"statewideContext","lineage":"statewideContext","historic":"statewideContext","current":"statewideContext","recovery":"statewideContext","lineageLabel":"Statewide Colorado hydrography context","atlas_context":"statewide_hydrography_context"}},{"type":"Feature","geometry":{"type":"LineString","coordinates":[[-104.1341,37.5116],[-104.1349,37.5119],[-104.1354,37.5143],[-104.1384,37.5171]]},"properties":{"name":"Timpas Creek","display_name":"Timpas Creek","source_name":"Timpas Creek","state":"CO","atlas_class":"named_natural_stream_detail","huc8":"11020005","huc8Name":"Upper Arkansas-Lake Meredith","lineageKey":"statewideContext","lineage":"statewideContext","historic":"statewideContext","current":"statewideContext","recovery":"statewideContext","lineageLabel":"Statewide Colorado hydrography context","atlas_context":"statewide_hydrography_context"}},{"type":"Feature","geometry":{"type":"LineString","coordinates":[[-104.1324,37.5],[-104.1341,37.5005],[-104.1355,37.5026]]},"properties":{"name":"Timpas Creek","display_name":"Timpas Creek","source_name":"Timpas Creek","state":"CO","atlas_class":"named_natural_stream_detail","huc8":"11020005","huc8Name":"Upper Arkansas-Lake Meredith","lineageKey":"statewideContext","lineage":"statewideContext","historic":"statewideContext","current":"statewideContext","recovery":"statewideContext","lineageLabel":"Statewide Colorado hydrography context","atlas_context":"statewide_hydrography_context"}},{"type":"Feature","geometry":{"type":"LineString","coordinates":[[-104.0254,37.551],[-104.0232,37.5542],[-104.0214,37.5546]]},"properties":{"name":"Big Arroyo","display_name":"Big Arroyo","source_name":"Big Arroyo","state":"CO","atlas_class":"named_natural_stream_detail","huc8":"11020005","huc8Name":"Upper Arkansas-Lake Meredith","lineageKey":"statewideContext","lineage":"statewideContext","historic":"statewideContext","current":"statewideContext","recovery":"statewideContext","lineageLabel":"Statewide Colorado hydrography context","atlas_context":"statewide_hydrography_context"}},{"type":"Feature","geometry":{"type":"LineString","coordinates":[[-104.0214,37.5546],[-104.0179,37.5556],[-104.0182,37.5583],[-104.015,37.5604],[-104.0127,37.564]]},"properties":{"name":"Big Arroyo","display_name":"Big Arroyo","source_name":"Big Arroyo","state":"CO","atlas_class":"named_natural_stream_detail","huc8":"11020005","huc8Name":"Upper Arkansas-Lake Meredith","lineageKey":"statewideContext","lineage":"statewideContext","historic":"statewideContext","current":"statewideContext","recovery":"statewideContext","lineageLabel":"Statewide Colorado hydrography context","atlas_context":"statewide_hydrography_context"}},{"type":"Feature","geometry":{"type":"LineString","coordinates":[[-104.0212,37.4707],[-104.0207,37.47],[-104.0195,37.4703],[-104.0186,37.4726],[-104.0153,37.4725],[-104.0148,37.4735],[-104.0125,37.473],[-104.0115,37.4718],[-104.0114,37.4729],[-104.0092,37.473],[-104.0077,37.4723],[-104.0067,37.4728],[-104.0051,37.4717],[-104.0051,37.4724],[-104.0034,37.4714],[-104.0013,37.4711],[-104.001,37.4719],[-103.999,37.4713]]},"properties":{"name":"Taylor Arroyo","display_name":"Taylor Arroyo","source_name":"Taylor Arroyo","state":"CO","atlas_class":"named_natural_stream_detail","huc8":"11020010","huc8Name":"Purgatoire","lineageKey":"yellowfin","lineage":"yellowfin","historic":"yellowfin","current":"yellowfin","recovery":"recoveryWatch","lineageLabel":"Yellowfin / Arkansas headwaters historical form","atlas_context":"cutthroat_lineage_context"}},{"type":"Feature","geometry":{"type":"LineString","coordinates":[[-104.1348,37.5083],[-104.1341,37.5116]]},"properties":{"name":"Timpas Creek","display_name":"Timpas Creek","source_name":"Timpas Creek","state":"CO","atlas_class":"named_natural_stream_detail","huc8":"11020005","huc8Name":"Upper Arkansas-Lake Meredith","lineageKey":"statewideContext","lineage":"statewideContext","historic":"statewideContext","current":"statewideContext","recovery":"statewideContext","lineageLabel":"Statewide Colorado hydrography context","atlas_context":"statewide_hydrography_context"}},{"type":"Feature","geometry":{"type":"LineString","coordinates":[[-104.0318,37.4343],[-104.0298,37.4353],[-104.026,37.4338]]},"properties":{"name":"Burke Arroyo","display_name":"Burke Arroyo","source_name":"Burke Arroyo","state":"CO","atlas_class":"named_natural_stream_detail","huc8":"11020010","huc8Name":"Purgatoire","lineageKey":"yellowfin","lineage":"yellowfin","historic":"yellowfin","current":"yellowfin","recovery":"recoveryWatch","lineageLabel":"Yellowfin / Arkansas headwaters historical form","atlas_context":"cutthroat_lineage_context"}},{"type":"Feature","geometry":{"type":"LineString","coordinates":[[-104.1631,37.4104],[-104.16,37.4087],[-104.1587,37.4066],[-104.1569,37.4066],[-104.1552,37.4052],[-104.1494,37.4034]]},"properties":{"name":"Van Bremer Arroyo","display_name":"Van Bremer Arroyo","source_name":"Van Bremer Arroyo","state":"CO","atlas_class":"named_natural_stream_detail","huc8":"11020010","huc8Name":"Purgatoire","lineageKey":"yellowfin","lineage":"yellowfin","historic":"yellowfin","current":"yellowfin","recovery":"recoveryWatch","lineageLabel":"Yellowfin / Arkansas headwaters historical form","atlas_context":"cutthroat_lineage_context"}},{"type":"Feature","geometry":{"type":"LineString","coordinates":[[-104.0383,37.5257],[-104.0373,37.5263],[-104.0381,37.5286],[-104.0367,37.5287]]},"properties":{"name":"Big Arroyo","display_name":"Big Arroyo","source_name":"Big Arroyo","state":"CO","atlas_class":"named_natural_stream_detail","huc8":"11020005","huc8Name":"Upper Arkansas-Lake Meredith","lineageKey":"statewideContext","lineage":"statewideContext","historic":"statewideContext","current":"statewideContext","recovery":"statewideContext","lineageLabel":"Statewide Colorado hydrography context","atlas_context":"statewide_hydrography_context"}},{"type":"Feature","geometry":{"type":"LineString","coordinates":[[-104.0264,37.5437],[-104.0264,37.5439]]},"properties":{"name":"Big Arroyo","display_name":"Big Arroyo","source_name":"Big Arroyo","state":"CO","atlas_class":"named_natural_stream_detail","huc8":"11020005","huc8Name":"Upper Arkansas-Lake Meredith","lineageKey":"statewideContext","lineage":"statewideContext","historic":"statewideContext","current":"statewideContext","recovery":"statewideContext","lineageLabel":"Statewide Colorado hydrography context","atlas_context":"statewide_hydrography_context"}},{"type":"Feature","geometry":{"type":"LineString","coordinates":[[-104.0568,37.4338],[-104.0555,37.433]]},"properties":{"name":"Burke Arroyo","display_name":"Burke Arroyo","source_name":"Burke Arroyo","state":"CO","atlas_class":"named_natural_stream_detail","huc8":"11020010","huc8Name":"Purgatoire","lineageKey":"yellowfin","lineage":"yellowfin","historic":"yellowfin","current":"yellowfin","recovery":"recoveryWatch","lineageLabel":"Yellowfin / Arkansas headwaters historical form","atlas_context":"cutthroat_lineage_context"}},{"type":"Feature","geometry":{"type":"LineString","coordinates":[[-104.0265,37.5409],[-104.0252,37.5416],[-104.0264,37.5437]]},"properties":{"name":"Big Arroyo","display_name":"Big Arroyo","source_name":"Big Arroyo","state":"CO","atlas_class":"named_natural_stream_detail","huc8":"11020005","huc8Name":"Upper Arkansas-Lake Meredith","lineageKey":"statewideContext","lineage":"statewideContext","historic":"statewideContext","current":"statewideContext","recovery":"statewideContext","lineageLabel":"Statewide Colorado hydrography context","atlas_context":"statewide_hydrography_context"}},{"type":"Feature","geometry":{"type":"LineString","coordinates":[[-104.1265,37.5399],[-104.1262,37.542],[-104.1246,37.5422],[-104.1245,37.5442],[-104.1223,37.5433],[-104.1192,37.5441]]},"properties":{"name":"Timpas Creek","display_name":"Timpas Creek","source_name":"Timpas Creek","state":"CO","atlas_class":"named_natural_stream_detail","huc8":"11020005","huc8Name":"Upper Arkansas-Lake Meredith","lineageKey":"statewideContext","lineage":"statewideContext","historic":"statewideContext","current":"statewideContext","recovery":"statewideContext","lineageLabel":"Statewide Colorado hydrography context","atlas_context":"statewide_hydrography_context"}},{"type":"Feature","geometry":{"type":"LineString","coordinates":[[-104.0258,37.5381],[-104.0249,37.5393],[-104.0265,37.5409]]},"properties":{"name":"Big Arroyo","display_name":"Big Arroyo","source_name":"Big Arroyo","state":"CO","atlas_class":"named_natural_stream_detail","huc8":"11020005","huc8Name":"Upper Arkansas-Lake Meredith","lineageKey":"statewideContext","lineage":"statewideContext","historic":"statewideContext","current":"statewideContext","recovery":"statewideContext","lineageLabel":"Statewide Colorado hydrography context","atlas_context":"statewide_hydrography_context"}},{"type":"Feature","geometry":{"type":"LineString","coordinates":[[-104.0833,37.512],[-104.0812,37.5138],[-104.0763,37.5152]]},"properties":{"name":"Big Arroyo","display_name":"Big Arroyo","source_name":"Big Arroyo","state":"CO","atlas_class":"named_natural_stream_detail","huc8":"11020005","huc8Name":"Upper Arkansas-Lake Meredith","lineageKey":"statewideContext","lineage":"statewideContext","historic":"statewideContext","current":"statewideContext","recovery":"statewideContext","lineageLabel":"Statewide Colorado hydrography context","atlas_context":"statewide_hydrography_context"}},{"type":"Feature","geometry":{"type":"LineString","coordinates":[[-104.0736,37.5154],[-104.0721,37.5163],[-104.0677,37.5155],[-104.0645,37.5163],[-104.0603,37.515]]},"properties":{"name":"Big Arroyo","display_name":"Big Arroyo","source_name":"Big Arroyo","state":"CO","atlas_class":"named_natural_stream_detail","huc8":"11020005","huc8Name":"Upper Arkansas-Lake Meredith","lineageKey":"statewideContext","lineage":"statewideContext","historic":"statewideContext","current":"statewideContext","recovery":"statewideContext","lineageLabel":"Statewide Colorado hydrography context","atlas_context":"statewide_hydrography_context"}},{"type":"Feature","geometry":{"type":"LineString","coordinates":[[-104.0264,37.5445],[-104.0264,37.545]]},"properties":{"name":"Big Arroyo","display_name":"Big Arroyo","source_name":"Big Arroyo","state":"CO","atlas_class":"named_natural_stream_detail","huc8":"11020005","huc8Name":"Upper Arkansas-Lake Meredith","lineageKey":"statewideContext","lineage":"statewideContext","historic":"statewideContext","current":"statewideContext","recovery":"statewideContext","lineageLabel":"Statewide Colorado hydrography context","atlas_context":"statewide_hydrography_context"}},{"type":"Feature","geometry":{"type":"LineString","coordinates":[[-104.0998,37.5603],[-104.098,37.5612]]},"properties":{"name":"Timpas Creek","display_name":"Timpas Creek","source_name":"Timpas Creek","state":"CO","atlas_class":"named_natural_stream_detail","huc8":"11020005","huc8Name":"Upper Arkansas-Lake Meredith","lineageKey":"statewideContext","lineage":"statewideContext","historic":"statewideContext","current":"statewideContext","recovery":"statewideContext","lineageLabel":"Statewide Colorado hydrography context","atlas_context":"statewide_hydrography_context"}},{"type":"Feature","geometry":{"type":"LineString","coordinates":[[-104.0922,37.5677],[-104.0909,37.5696],[-104.0884,37.5686],[-104.0821,37.5725],[-104.0756,37.5734]]},"properties":{"name":"Timpas Creek","display_name":"Timpas Creek","source_name":"Timpas Creek","state":"CO","atlas_class":"named_natural_stream_detail","huc8":"11020005","huc8Name":"Upper Arkansas-Lake Meredith","lineageKey":"statewideContext","lineage":"statewideContext","historic":"statewideContext","current":"statewideContext","recovery":"statewideContext","lineageLabel":"Statewide Colorado hydrography context","atlas_context":"statewide_hydrography_context"}},{"type":"Feature","geometry":{"type":"LineString","coordinates":[[-104.0367,37.5287],[-104.033,37.5289],[-104.0321,37.5302],[-104.0299,37.5305]]},"properties":{"name":"Big Arroyo","display_name":"Big Arroyo","source_name":"Big Arroyo","state":"CO","atlas_class":"named_natural_stream_detail","huc8":"11020005","huc8Name":"Upper Arkansas-Lake Meredith","lineageKey":"statewideContext","lineage":"statewideContext","historic":"statewideContext","current":"statewideContext","recovery":"statewideContext","lineageLabel":"Statewide Colorado hydrography context","atlas_context":"statewide_hydrography_context"}},{"type":"Feature","geometry":{"type":"LineString","coordinates":[[-104.0886,37.5078],[-104.0868,37.5108],[-104.0846,37.5116]]},"properties":{"name":"Big Arroyo","display_name":"Big Arroyo","source_name":"Big Arroyo","state":"CO","atlas_class":"named_natural_stream_detail","huc8":"11020005","huc8Name":"Upper Arkansas-Lake Meredith","lineageKey":"statewideContext","lineage":"statewideContext","historic":"statewideContext","current":"statewideContext","recovery":"statewideContext","lineageLabel":"Statewide Colorado hydrography context","atlas_context":"statewide_hydrography_context"}},{"type":"Feature","geometry":{"type":"LineString","coordinates":[[-104.1827,37.4106],[-104.1781,37.4111],[-104.1763,37.4099],[-104.1741,37.4107],[-104.1698,37.4096],[-104.1672,37.4108],[-104.1631,37.4104]]},"properties":{"name":"Van Bremer Arroyo","display_name":"Van Bremer Arroyo","source_name":"Van Bremer Arroyo","state":"CO","atlas_class":"named_natural_stream_detail","huc8":"11020010","huc8Name":"Purgatoire","lineageKey":"yellowfin","lineage":"yellowfin","historic":"yellowfin","current":"yellowfin","recovery":"recoveryWatch","lineageLabel":"Yellowfin / Arkansas headwaters historical form","atlas_context":"cutthroat_lineage_context"}},{"type":"Feature","geometry":{"type":"LineString","coordinates":[[-104.0688,37.5766],[-104.0609,37.5793],[-104.0588,37.5823]]},"properties":{"name":"Timpas Creek","display_name":"Timpas Creek","source_name":"Timpas Creek","state":"CO","atlas_class":"named_natural_stream_detail","huc8":"11020005","huc8Name":"Upper Arkansas-Lake Meredith","lineageKey":"statewideContext","lineage":"statewideContext","historic":"statewideContext","current":"statewideContext","recovery":"statewideContext","lineageLabel":"Statewide Colorado hydrography context","atlas_context":"statewide_hydrography_context"}},{"type":"Feature","geometry":{"type":"LineString","coordinates":[[-104.0555,37.433],[-104.0529,37.4336]]},"properties":{"name":"Burke Arroyo","display_name":"Burke Arroyo","source_name":"Burke Arroyo","state":"CO","atlas_class":"named_natural_stream_detail","huc8":"11020010","huc8Name":"Purgatoire","lineageKey":"yellowfin","lineage":"yellowfin","historic":"yellowfin","current":"yellowfin","recovery":"recoveryWatch","lineageLabel":"Yellowfin / Arkansas headwaters historical form","atlas_context":"cutthroat_lineage_context"}},{"type":"Feature","geometry":{"type":"LineString","coordinates":[[-104.1153,37.5479],[-104.1126,37.5509],[-104.1126,37.5541],[-104.1088,37.5554],[-104.1051,37.5584],[-104.0998,37.5603]]},"properties":{"name":"Timpas Creek","display_name":"Timpas Creek","source_name":"Timpas Creek","state":"CO","atlas_class":"named_natural_stream_detail","huc8":"11020005","huc8Name":"Upper Arkansas-Lake Meredith","lineageKey":"statewideContext","lineage":"statewideContext","historic":"statewideContext","current":"statewideContext","recovery":"statewideContext","lineageLabel":"Statewide Colorado hydrography context","atlas_context":"statewide_hydrography_context"}},{"type":"Feature","geometry":{"type":"LineString","coordinates":[[-104.0744,37.4711],[-104.0735,37.4723]]},"properties":{"name":"Taylor Arroyo","display_name":"Taylor Arroyo","source_name":"Taylor Arroyo","state":"CO","atlas_class":"named_natural_stream_detail","huc8":"11020010","huc8Name":"Purgatoire","lineageKey":"yellowfin","lineage":"yellowfin","historic":"yellowfin","current":"yellowfin","recovery":"recoveryWatch","lineageLabel":"Yellowfin / Arkansas headwaters historical form","atlas_context":"cutthroat_lineage_context"}},{"type":"Feature","geometry":{"type":"LineString","coordinates":[[-104.0714,37.4726],[-104.0653,37.4717]]},"properties":{"name":"Taylor Arroyo","display_name":"Taylor Arroyo","source_name":"Taylor Arroyo","state":"CO","atlas_class":"named_natural_stream_detail","huc8":"11020010","huc8Name":"Purgatoire","lineageKey":"yellowfin","lineage":"yellowfin","historic":"yellowfin","current":"yellowfin","recovery":"recoveryWatch","lineageLabel":"Yellowfin / Arkansas headwaters historical form","atlas_context":"cutthroat_lineage_context"}},{"type":"Feature","geometry":{"type":"LineString","coordinates":[[-104.0588,37.5823],[-104.0536,37.5846]]},"properties":{"name":"Timpas Creek","display_name":"Timpas Creek","source_name":"Timpas Creek","state":"CO","atlas_class":"named_natural_stream_detail","huc8":"11020005","huc8Name":"Upper Arkansas-Lake Meredith","lineageKey":"statewideContext","lineage":"statewideContext","historic":"statewideContext","current":"statewideContext","recovery":"statewideContext","lineageLabel":"Statewide Colorado hydrography context","atlas_context":"statewide_hydrography_context"}},{"type":"Feature","geometry":{"type":"LineString","coordinates":[[-104.0536,37.5846],[-104.0512,37.5846],[-104.048,37.5871]]},"properties":{"name":"Timpas Creek","display_name":"Timpas Creek","source_name":"Timpas Creek","state":"CO","atlas_class":"named_natural_stream_detail","huc8":"11020005","huc8Name":"Upper Arkansas-Lake Meredith","lineageKey":"statewideContext","lineage":"statewideContext","historic":"statewideContext","current":"statewideContext","recovery":"statewideContext","lineageLabel":"Statewide Colorado hydrography context","atlas_context":"statewide_hydrography_context"}},{"type":"Feature","geometry":{"type":"LineString","coordinates":[[-104.0481,37.5914],[-104.0468,37.5918],[-104.0469,37.594],[-104.0453,37.5933],[-104.0442,37.5954],[-104.0431,37.5954],[-104.0409,37.5981],[-104.0382,37.5985],[-104.038,37.6014],[-104.0354,37.6003]]},"properties":{"name":"Timpas Creek","display_name":"Timpas Creek","source_name":"Timpas Creek","state":"CO","atlas_class":"named_natural_stream_detail","huc8":"11020005","huc8Name":"Upper Arkansas-Lake Meredith","lineageKey":"statewideContext","lineage":"statewideContext","historic":"statewideContext","current":"statewideContext","recovery":"statewideContext","lineageLabel":"Statewide Colorado hydrography context","atlas_context":"statewide_hydrography_context"}},{"type":"Feature","geometry":{"type":"LineString","coordinates":[[-104.1431,37.5242],[-104.1423,37.5255],[-104.1433,37.5263]]},"properties":{"name":"Timpas Creek","display_name":"Timpas Creek","source_name":"Timpas Creek","state":"CO","atlas_class":"named_natural_stream_detail","huc8":"11020005","huc8Name":"Upper Arkansas-Lake Meredith","lineageKey":"statewideContext","lineage":"statewideContext","historic":"statewideContext","current":"statewideContext","recovery":"statewideContext","lineageLabel":"Statewide Colorado hydrography context","atlas_context":"statewide_hydrography_context"}},{"type":"Feature","geometry":{"type":"LineString","coordinates":[[-104.0603,37.515],[-104.0582,37.5151],[-104.0572,37.5185],[-104.0547,37.5178],[-104.0526,37.5184],[-104.0527,37.5201]]},"properties":{"name":"Big Arroyo","display_name":"Big Arroyo","source_name":"Big Arroyo","state":"CO","atlas_class":"named_natural_stream_detail","huc8":"11020005","huc8Name":"Upper Arkansas-Lake Meredith","lineageKey":"statewideContext","lineage":"statewideContext","historic":"statewideContext","current":"statewideContext","recovery":"statewideContext","lineageLabel":"Statewide Colorado hydrography context","atlas_context":"statewide_hydrography_context"}},{"type":"Feature","geometry":{"type":"LineString","coordinates":[[-104.015,37.5723],[-104.0173,37.5728],[-104.0175,37.574],[-104.0194,37.5745]]},"properties":{"name":"Big Arroyo","display_name":"Big Arroyo","source_name":"Big Arroyo","state":"CO","atlas_class":"named_natural_stream_detail","huc8":"11020005","huc8Name":"Upper Arkansas-Lake Meredith","lineageKey":"statewideContext","lineage":"statewideContext","historic":"statewideContext","current":"statewideContext","recovery":"statewideContext","lineageLabel":"Statewide Colorado hydrography context","atlas_context":"statewide_hydrography_context"}},{"type":"Feature","geometry":{"type":"LineString","coordinates":[[-104.1965,37.5703],[-104.2021,37.5711]]},"properties":{"name":"Bates Lake Arroyo","display_name":"Bates Lake Arroyo","source_name":"Bates Lake Arroyo","state":"CO","atlas_class":"named_natural_stream_detail","huc8":"11020007","huc8Name":"Apishapa","lineageKey":"statewideContext","lineage":"statewideContext","historic":"statewideContext","current":"statewideContext","recovery":"statewideContext","lineageLabel":"Statewide Colorado hydrography context","atlas_context":"statewide_hydrography_context"}},{"type":"Feature","geometry":{"type":"LineString","coordinates":[[-104.1936,37.5707],[-104.1965,37.5703]]},"properties":{"name":"Bates Lake Arroyo","display_name":"Bates Lake Arroyo","source_name":"Bates Lake Arroyo","state":"CO","atlas_class":"named_natural_stream_detail","huc8":"11020007","huc8Name":"Apishapa","lineageKey":"statewideContext","lineage":"statewideContext","historic":"statewideContext","current":"statewideContext","recovery":"statewideContext","lineageLabel":"Statewide Colorado hydrography context","atlas_context":"statewide_hydrography_context"}},{"type":"Feature","geometry":{"type":"LineString","coordinates":[[-104.0882,37.5048],[-104.0886,37.5078]]},"properties":{"name":"Big Arroyo","display_name":"Big Arroyo","source_name":"Big Arroyo","state":"CO","atlas_class":"named_natural_stream_detail","huc8":"11020005","huc8Name":"Upper Arkansas-Lake Meredith","lineageKey":"statewideContext","lineage":"statewideContext","historic":"statewideContext","current":"statewideContext","recovery":"statewideContext","lineageLabel":"Statewide Colorado hydrography context","atlas_context":"statewide_hydrography_context"}},{"type":"Feature","geometry":{"type":"LineString","coordinates":[[-104.0372,37.435],[-104.0342,37.4344],[-104.0332,37.4351],[-104.0318,37.4343]]},"properties":{"name":"Burke Arroyo","display_name":"Burke Arroyo","source_name":"Burke Arroyo","state":"CO","atlas_class":"named_natural_stream_detail","huc8":"11020010","huc8Name":"Purgatoire","lineageKey":"yellowfin","lineage":"yellowfin","historic":"yellowfin","current":"yellowfin","recovery":"recoveryWatch","lineageLabel":"Yellowfin / Arkansas headwaters historical form","atlas_context":"cutthroat_lineage_context"}},{"type":"Feature","geometry":{"type":"LineString","coordinates":[[-104.026,37.4338],[-104.0227,37.4348],[-104.0194,37.4338]]},"properties":{"name":"Burke Arroyo","display_name":"Burke Arroyo","source_name":"Burke Arroyo","state":"CO","atlas_class":"named_natural_stream_detail","huc8":"11020010","huc8Name":"Purgatoire","lineageKey":"yellowfin","lineage":"yellowfin","historic":"yellowfin","current":"yellowfin","recovery":"recoveryWatch","lineageLabel":"Yellowfin / Arkansas headwaters historical form","atlas_context":"cutthroat_lineage_context"}},{"type":"Feature","geometry":{"type":"LineString","coordinates":[[-104.0264,37.545],[-104.0258,37.5478]]},"properties":{"name":"Big Arroyo","display_name":"Big Arroyo","source_name":"Big Arroyo","state":"CO","atlas_class":"named_natural_stream_detail","huc8":"11020005","huc8Name":"Upper Arkansas-Lake Meredith","lineageKey":"statewideContext","lineage":"statewideContext","historic":"statewideContext","current":"statewideContext","recovery":"statewideContext","lineageLabel":"Statewide Colorado hydrography context","atlas_context":"statewide_hydrography_context"}},{"type":"Feature","geometry":{"type":"LineString","coordinates":[[-104.0879,37.5044],[-104.0882,37.5048]]},"properties":{"name":"Big Arroyo","display_name":"Big Arroyo","source_name":"Big Arroyo","state":"CO","atlas_class":"named_natural_stream_detail","huc8":"11020005","huc8Name":"Upper Arkansas-Lake Meredith","lineageKey":"statewideContext","lineage":"statewideContext","historic":"statewideContext","current":"statewideContext","recovery":"statewideContext","lineageLabel":"Statewide Colorado hydrography context","atlas_context":"statewide_hydrography_context"}},{"type":"Feature","geometry":{"type":"LineString","coordinates":[[-104.1494,37.4034],[-104.1477,37.4035],[-104.145,37.4018],[-104.1429,37.4024]]},"properties":{"name":"Van Bremer Arroyo","display_name":"Van Bremer Arroyo","source_name":"Van Bremer Arroyo","state":"CO","atlas_class":"named_natural_stream_detail","huc8":"11020010","huc8Name":"Purgatoire","lineageKey":"yellowfin","lineage":"yellowfin","historic":"yellowfin","current":"yellowfin","recovery":"recoveryWatch","lineageLabel":"Yellowfin / Arkansas headwaters historical form","atlas_context":"cutthroat_lineage_context"}},{"type":"Feature","geometry":{"type":"LineString","coordinates":[[-104.1847,37.5675],[-104.187,37.5702],[-104.1919,37.5707]]},"properties":{"name":"Bates Lake Arroyo","display_name":"Bates Lake Arroyo","source_name":"Bates Lake Arroyo","state":"CO","atlas_class":"named_natural_stream_detail","huc8":"11020007","huc8Name":"Apishapa","lineageKey":"statewideContext","lineage":"statewideContext","historic":"statewideContext","current":"statewideContext","recovery":"statewideContext","lineageLabel":"Statewide Colorado hydrography context","atlas_context":"statewide_hydrography_context"}},{"type":"Feature","geometry":{"type":"LineString","coordinates":[[-104.1036,37.4663],[-104.0993,37.4677]]},"properties":{"name":"Taylor Arroyo","display_name":"Taylor Arroyo","source_name":"Taylor Arroyo","state":"CO","atlas_class":"named_natural_stream_detail","huc8":"11020010","huc8Name":"Purgatoire","lineageKey":"yellowfin","lineage":"yellowfin","historic":"yellowfin","current":"yellowfin","recovery":"recoveryWatch","lineageLabel":"Yellowfin / Arkansas headwaters historical form","atlas_context":"cutthroat_lineage_context"}},{"type":"Feature","geometry":{"type":"LineString","coordinates":[[-104.0986,37.468],[-104.0923,37.4692],[-104.0875,37.4687]]},"properties":{"name":"Taylor Arroyo","display_name":"Taylor Arroyo","source_name":"Taylor Arroyo","state":"CO","atlas_class":"named_natural_stream_detail","huc8":"11020010","huc8Name":"Purgatoire","lineageKey":"yellowfin","lineage":"yellowfin","historic":"yellowfin","current":"yellowfin","recovery":"recoveryWatch","lineageLabel":"Yellowfin / Arkansas headwaters historical form","atlas_context":"cutthroat_lineage_context"}},{"type":"Feature","geometry":{"type":"LineString","coordinates":[[-104.108,37.489],[-104.1014,37.4967],[-104.0995,37.4976]]},"properties":{"name":"Big Arroyo","display_name":"Big Arroyo","source_name":"Big Arroyo","state":"CO","atlas_class":"named_natural_stream_detail","huc8":"11020005","huc8Name":"Upper Arkansas-Lake Meredith","lineageKey":"statewideContext","lineage":"statewideContext","historic":"statewideContext","current":"statewideContext","recovery":"statewideContext","lineageLabel":"Statewide Colorado hydrography context","atlas_context":"statewide_hydrography_context"}},{"type":"Feature","geometry":{"type":"LineString","coordinates":[[-104.0995,37.4976],[-104.0944,37.4982],[-104.0902,37.5029]]},"properties":{"name":"Big Arroyo","display_name":"Big Arroyo","source_name":"Big Arroyo","state":"CO","atlas_class":"named_natural_stream_detail","huc8":"11020005","huc8Name":"Upper Arkansas-Lake Meredith","lineageKey":"statewideContext","lineage":"statewideContext","historic":"statewideContext","current":"statewideContext","recovery":"statewideContext","lineageLabel":"Statewide Colorado hydrography context","atlas_context":"statewide_hydrography_context"}},{"type":"Feature","geometry":{"type":"LineString","coordinates":[[-104.0588,37.4338],[-104.0568,37.4338]]},"properties":{"name":"Burke Arroyo","display_name":"Burke Arroyo","source_name":"Burke Arroyo","state":"CO","atlas_class":"named_natural_stream_detail","huc8":"11020010","huc8Name":"Purgatoire","lineageKey":"yellowfin","lineage":"yellowfin","historic":"yellowfin","current":"yellowfin","recovery":"recoveryWatch","lineageLabel":"Yellowfin / Arkansas headwaters historical form","atlas_context":"cutthroat_lineage_context"}},{"type":"Feature","geometry":{"type":"LineString","coordinates":[[-104.0653,37.4717],[-104.0608,37.4684],[-104.0592,37.4682],[-104.0597,37.4675],[-104.0589,37.4666],[-104.0596,37.4662]]},"properties":{"name":"Taylor Arroyo","display_name":"Taylor Arroyo","source_name":"Taylor Arroyo","state":"CO","atlas_class":"named_natural_stream_detail","huc8":"11020010","huc8Name":"Purgatoire","lineageKey":"yellowfin","lineage":"yellowfin","historic":"yellowfin","current":"yellowfin","recovery":"recoveryWatch","lineageLabel":"Yellowfin / Arkansas headwaters historical form","atlas_context":"cutthroat_lineage_context"}},{"type":"Feature","geometry":{"type":"LineString","coordinates":[[-104.1352,37.5072],[-104.1348,37.5083]]},"properties":{"name":"Timpas Creek","display_name":"Timpas Creek","source_name":"Timpas Creek","state":"CO","atlas_class":"named_natural_stream_detail","huc8":"11020005","huc8Name":"Upper Arkansas-Lake Meredith","lineageKey":"statewideContext","lineage":"statewideContext","historic":"statewideContext","current":"statewideContext","recovery":"statewideContext","lineageLabel":"Statewide Colorado hydrography context","atlas_context":"statewide_hydrography_context"}},{"type":"Feature","geometry":{"type":"LineString","coordinates":[[-104.1388,37.5196],[-104.1394,37.5214],[-104.1423,37.5228],[-104.1431,37.5242]]},"properties":{"name":"Timpas Creek","display_name":"Timpas Creek","source_name":"Timpas Creek","state":"CO","atlas_class":"named_natural_stream_detail","huc8":"11020005","huc8Name":"Upper Arkansas-Lake Meredith","lineageKey":"statewideContext","lineage":"statewideContext","historic":"statewideContext","current":"statewideContext","recovery":"statewideContext","lineageLabel":"Statewide Colorado hydrography context","atlas_context":"statewide_hydrography_context"}},{"type":"Feature","geometry":{"type":"LineString","coordinates":[[-104.1384,37.5171],[-104.1388,37.5196]]},"properties":{"name":"Timpas Creek","display_name":"Timpas Creek","source_name":"Timpas Creek","state":"CO","atlas_class":"named_natural_stream_detail","huc8":"11020005","huc8Name":"Upper Arkansas-Lake Meredith","lineageKey":"statewideContext","lineage":"statewideContext","historic":"statewideContext","current":"statewideContext","recovery":"statewideContext","lineageLabel":"Statewide Colorado hydrography context","atlas_context":"statewide_hydrography_context"}},{"type":"Feature","geometry":{"type":"LineString","coordinates":[[-104.1289,37.4018],[-104.129,37.401],[-104.122,37.4007],[-104.121,37.3994],[-104.1198,37.4001],[-104.1182,37.3994]]},"properties":{"name":"Van Bremer Arroyo","display_name":"Van Bremer Arroyo","source_name":"Van Bremer Arroyo","state":"CO","atlas_class":"named_natural_stream_detail","huc8":"11020010","huc8Name":"Purgatoire","lineageKey":"yellowfin","lineage":"yellowfin","historic":"yellowfin","current":"yellowfin","recovery":"recoveryWatch","lineageLabel":"Yellowfin / Arkansas headwaters historical form","atlas_context":"cutthroat_lineage_context"}},{"type":"Feature","geometry":{"type":"LineString","coordinates":[[-104.0277,37.5359],[-104.0274,37.5379],[-104.0263,37.5387],[-104.0258,37.5381]]},"properties":{"name":"Big Arroyo","display_name":"Big Arroyo","source_name":"Big Arroyo","state":"CO","atlas_class":"named_natural_stream_detail","huc8":"11020005","huc8Name":"Upper Arkansas-Lake Meredith","lineageKey":"statewideContext","lineage":"statewideContext","historic":"statewideContext","current":"statewideContext","recovery":"statewideContext","lineageLabel":"Statewide Colorado hydrography context","atlas_context":"statewide_hydrography_context"}},{"type":"Feature","geometry":{"type":"LineString","coordinates":[[-104.0471,37.521],[-104.0452,37.522]]},"properties":{"name":"Big Arroyo","display_name":"Big Arroyo","source_name":"Big Arroyo","state":"CO","atlas_class":"named_natural_stream_detail","huc8":"11020005","huc8Name":"Upper Arkansas-Lake Meredith","lineageKey":"statewideContext","lineage":"statewideContext","historic":"statewideContext","current":"statewideContext","recovery":"statewideContext","lineageLabel":"Statewide Colorado hydrography context","atlas_context":"statewide_hydrography_context"}},{"type":"Feature","geometry":{"type":"LineString","coordinates":[[-104.1275,37.5372],[-104.1265,37.5399]]},"properties":{"name":"Timpas Creek","display_name":"Timpas Creek","source_name":"Timpas Creek","state":"CO","atlas_class":"named_natural_stream_detail","huc8":"11020005","huc8Name":"Upper Arkansas-Lake Meredith","lineageKey":"statewideContext","lineage":"statewideContext","historic":"statewideContext","current":"statewideContext","recovery":"statewideContext","lineageLabel":"Statewide Colorado hydrography context","atlas_context":"statewide_hydrography_context"}},{"type":"Feature","geometry":{"type":"LineString","coordinates":[[-104.1192,37.5441],[-104.119,37.546],[-104.1156,37.547],[-104.1153,37.5479]]},"properties":{"name":"Timpas Creek","display_name":"Timpas Creek","source_name":"Timpas Creek","state":"CO","atlas_class":"named_natural_stream_detail","huc8":"11020005","huc8Name":"Upper Arkansas-Lake Meredith","lineageKey":"statewideContext","lineage":"statewideContext","historic":"statewideContext","current":"statewideContext","recovery":"statewideContext","lineageLabel":"Statewide Colorado hydrography context","atlas_context":"statewide_hydrography_context"}},{"type":"Feature","geometry":{"type":"LineString","coordinates":[[-104.0407,37.4659],[-104.0371,37.4657]]},"properties":{"name":"Taylor Arroyo","display_name":"Taylor Arroyo","source_name":"Taylor Arroyo","state":"CO","atlas_class":"named_natural_stream_detail","huc8":"11020010","huc8Name":"Purgatoire","lineageKey":"yellowfin","lineage":"yellowfin","historic":"yellowfin","current":"yellowfin","recovery":"recoveryWatch","lineageLabel":"Yellowfin / Arkansas headwaters historical form","atlas_context":"cutthroat_lineage_context"}},{"type":"Feature","geometry":{"type":"LineString","coordinates":[[-104.0452,37.522],[-104.0443,37.5226],[-104.0427,37.5221],[-104.0404,37.5248],[-104.039,37.5245],[-104.0383,37.5257]]},"properties":{"name":"Big Arroyo","display_name":"Big Arroyo","source_name":"Big Arroyo","state":"CO","atlas_class":"named_natural_stream_detail","huc8":"11020005","huc8Name":"Upper Arkansas-Lake Meredith","lineageKey":"statewideContext","lineage":"statewideContext","historic":"statewideContext","current":"statewideContext","recovery":"statewideContext","lineageLabel":"Statewide Colorado hydrography context","atlas_context":"statewide_hydrography_context"}},{"type":"Feature","geometry":{"type":"LineString","coordinates":[[-104.028,37.5333],[-104.0272,37.5352],[-104.0277,37.5359]]},"properties":{"name":"Big Arroyo","display_name":"Big Arroyo","source_name":"Big Arroyo","state":"CO","atlas_class":"named_natural_stream_detail","huc8":"11020005","huc8Name":"Upper Arkansas-Lake Meredith","lineageKey":"statewideContext","lineage":"statewideContext","historic":"statewideContext","current":"statewideContext","recovery":"statewideContext","lineageLabel":"Statewide Colorado hydrography context","atlas_context":"statewide_hydrography_context"}},{"type":"Feature","geometry":{"type":"LineString","coordinates":[[-104.0032,37.4325],[-103.9996,37.4333],[-103.9972,37.4328],[-103.9967,37.4307]]},"properties":{"name":"Burke Arroyo","display_name":"Burke Arroyo","source_name":"Burke Arroyo","state":"CO","atlas_class":"named_natural_stream_detail","huc8":"11020010","huc8Name":"Purgatoire","lineageKey":"yellowfin","lineage":"yellowfin","historic":"yellowfin","current":"yellowfin","recovery":"recoveryWatch","lineageLabel":"Yellowfin / Arkansas headwaters historical form","atlas_context":"cutthroat_lineage_context"}},{"type":"Feature","geometry":{"type":"LineString","coordinates":[[-104.1012,37.4785],[-104.1093,37.4852],[-104.1095,37.4865],[-104.1083,37.4887]]},"properties":{"name":"Big Arroyo","display_name":"Big Arroyo","source_name":"Big Arroyo","state":"CO","atlas_class":"named_natural_stream_detail","huc8":"11020005","huc8Name":"Upper Arkansas-Lake Meredith","lineageKey":"statewideContext","lineage":"statewideContext","historic":"statewideContext","current":"statewideContext","recovery":"statewideContext","lineageLabel":"Statewide Colorado hydrography context","atlas_context":"statewide_hydrography_context"}},{"type":"Feature","geometry":{"type":"LineString","coordinates":[[-104.0461,37.4338],[-104.0452,37.4334]]},"properties":{"name":"Burke Arroyo","display_name":"Burke Arroyo","source_name":"Burke Arroyo","state":"CO","atlas_class":"named_natural_stream_detail","huc8":"11020010","huc8Name":"Purgatoire","lineageKey":"yellowfin","lineage":"yellowfin","historic":"yellowfin","current":"yellowfin","recovery":"recoveryWatch","lineageLabel":"Yellowfin / Arkansas headwaters historical form","atlas_context":"cutthroat_lineage_context"}},{"type":"Feature","geometry":{"type":"LineString","coordinates":[[-104.0452,37.4334],[-104.0397,37.4356]]},"properties":{"name":"Burke Arroyo","display_name":"Burke Arroyo","source_name":"Burke Arroyo","state":"CO","atlas_class":"named_natural_stream_detail","huc8":"11020010","huc8Name":"Purgatoire","lineageKey":"yellowfin","lineage":"yellowfin","historic":"yellowfin","current":"yellowfin","recovery":"recoveryWatch","lineageLabel":"Yellowfin / Arkansas headwaters historical form","atlas_context":"cutthroat_lineage_context"}},{"type":"Feature","geometry":{"type":"LineString","coordinates":[[-104.0397,37.4356],[-104.0372,37.435]]},"properties":{"name":"Burke Arroyo","display_name":"Burke Arroyo","source_name":"Burke Arroyo","state":"CO","atlas_class":"named_natural_stream_detail","huc8":"11020010","huc8Name":"Purgatoire","lineageKey":"yellowfin","lineage":"yellowfin","historic":"yellowfin","current":"yellowfin","recovery":"recoveryWatch","lineageLabel":"Yellowfin / Arkansas headwaters historical form","atlas_context":"cutthroat_lineage_context"}},{"type":"Feature","geometry":{"type":"LineString","coordinates":[[-104.0618,37.4351],[-104.0588,37.4338]]},"properties":{"name":"Burke Arroyo","display_name":"Burke Arroyo","source_name":"Burke Arroyo","state":"CO","atlas_class":"named_natural_stream_detail","huc8":"11020010","huc8Name":"Purgatoire","lineageKey":"yellowfin","lineage":"yellowfin","historic":"yellowfin","current":"yellowfin","recovery":"recoveryWatch","lineageLabel":"Yellowfin / Arkansas headwaters historical form","atlas_context":"cutthroat_lineage_context"}},{"type":"Feature","geometry":{"type":"LineString","coordinates":[[-104.0127,37.564],[-104.0142,37.567],[-104.0157,37.566],[-104.0155,37.5672],[-104.0175,37.5679],[-104.015,37.5723]]},"properties":{"name":"Big Arroyo","display_name":"Big Arroyo","source_name":"Big Arroyo","state":"CO","atlas_class":"named_natural_stream_detail","huc8":"11020005","huc8Name":"Upper Arkansas-Lake Meredith","lineageKey":"statewideContext","lineage":"statewideContext","historic":"statewideContext","current":"statewideContext","recovery":"statewideContext","lineageLabel":"Statewide Colorado hydrography context","atlas_context":"statewide_hydrography_context"}},{"type":"Feature","geometry":{"type":"LineString","coordinates":[[-104.0527,37.5201],[-104.0483,37.5201],[-104.0471,37.521]]},"properties":{"name":"Big Arroyo","display_name":"Big Arroyo","source_name":"Big Arroyo","state":"CO","atlas_class":"named_natural_stream_detail","huc8":"11020005","huc8Name":"Upper Arkansas-Lake Meredith","lineageKey":"statewideContext","lineage":"statewideContext","historic":"statewideContext","current":"statewideContext","recovery":"statewideContext","lineageLabel":"Statewide Colorado hydrography context","atlas_context":"statewide_hydrography_context"}}]}