{"type":"FeatureCollection","metadata":{"source":"C:\\ct-atlas-data\\processed\\geojson\\interpreted\\colorado_named_natural_streams_complete_v1.geojson","type":"colorado-natural-stream-detail-tile-v2","tile_size_degrees":0.2,"x":-544,"y":185,"bounds":{"west":-108.8,"south":37,"east":-108.6,"north":37.2}},"features":[{"type":"Feature","geometry":{"type":"LineString","coordinates":[[-108.728,37.0346],[-108.7293,37.0357],[-108.7306,37.0346]]},"properties":{"name":"Mancos River","display_name":"Mancos River","source_name":"Mancos River","state":"CO","atlas_class":"named_natural_stream_detail","huc8":"14080107","huc8Name":"Mancos","lineageKey":"sanJuan","lineage":"sanJuan","historic":"sanJuan","current":"sanJuan","recovery":"recoveryWatch","lineageLabel":"San Juan lineage","atlas_context":"cutthroat_lineage_context"}},{"type":"Feature","geometry":{"type":"LineString","coordinates":[[-108.7485,37.0224],[-108.7515,37.0224],[-108.7531,37.0239],[-108.7541,37.0231],[-108.7545,37.021]]},"properties":{"name":"Mancos River","display_name":"Mancos River","source_name":"Mancos River","state":"CO","atlas_class":"named_natural_stream_detail","huc8":"14080107","huc8Name":"Mancos","lineageKey":"sanJuan","lineage":"sanJuan","historic":"sanJuan","current":"sanJuan","recovery":"recoveryWatch","lineageLabel":"San Juan lineage","atlas_context":"cutthroat_lineage_context"}},{"type":"Feature","geometry":{"type":"LineString","coordinates":[[-108.725,37.0349],[-108.728,37.0346]]},"properties":{"name":"Mancos River","display_name":"Mancos River","source_name":"Mancos River","state":"CO","atlas_class":"named_natural_stream_detail","huc8":"14080107","huc8Name":"Mancos","lineageKey":"sanJuan","lineage":"sanJuan","historic":"sanJuan","current":"sanJuan","recovery":"recoveryWatch","lineageLabel":"San Juan lineage","atlas_context":"cutthroat_lineage_context"}},{"type":"Feature","geometry":{"type":"LineString","coordinates":[[-108.7438,37.0269],[-108.7456,37.0271],[-108.7471,37.0262],[-108.7468,37.0251],[-108.7502,37.0247],[-108.7512,37.0237],[-108.7485,37.0224]]},"properties":{"name":"Mancos River","display_name":"Mancos River","source_name":"Mancos River","state":"CO","atlas_class":"named_natural_stream_detail","huc8":"14080107","huc8Name":"Mancos","lineageKey":"sanJuan","lineage":"sanJuan","historic":"sanJuan","current":"sanJuan","recovery":"recoveryWatch","lineageLabel":"San Juan lineage","atlas_context":"cutthroat_lineage_context"}},{"type":"Feature","geometry":{"type":"LineString","coordinates":[[-108.7357,37.0348],[-108.7359,37.0333],[-108.7392,37.0317],[-108.7392,37.0302]]},"properties":{"name":"Mancos River","display_name":"Mancos River","source_name":"Mancos River","state":"CO","atlas_class":"named_natural_stream_detail","huc8":"14080107","huc8Name":"Mancos","lineageKey":"sanJuan","lineage":"sanJuan","historic":"sanJuan","current":"sanJuan","recovery":"recoveryWatch","lineageLabel":"San Juan lineage","atlas_context":"cutthroat_lineage_context"}},{"type":"Feature","geometry":{"type":"LineString","coordinates":[[-108.722,37.0378],[-108.7232,37.0381],[-108.725,37.0349]]},"properties":{"name":"Mancos River","display_name":"Mancos River","source_name":"Mancos River","state":"CO","atlas_class":"named_natural_stream_detail","huc8":"14080107","huc8Name":"Mancos","lineageKey":"sanJuan","lineage":"sanJuan","historic":"sanJuan","current":"sanJuan","recovery":"recoveryWatch","lineageLabel":"San Juan lineage","atlas_context":"cutthroat_lineage_context"}},{"type":"Feature","geometry":{"type":"LineString","coordinates":[[-108.7325,37.0341],[-108.7357,37.0348]]},"properties":{"name":"Mancos River","display_name":"Mancos River","source_name":"Mancos River","state":"CO","atlas_class":"named_natural_stream_detail","huc8":"14080107","huc8Name":"Mancos","lineageKey":"sanJuan","lineage":"sanJuan","historic":"sanJuan","current":"sanJuan","recovery":"recoveryWatch","lineageLabel":"San Juan lineage","atlas_context":"cutthroat_lineage_context"}},{"type":"Feature","geometry":{"type":"LineString","coordinates":[[-108.7392,37.0302],[-108.7397,37.0293]]},"properties":{"name":"Mancos River","display_name":"Mancos River","source_name":"Mancos River","state":"CO","atlas_class":"named_natural_stream_detail","huc8":"14080107","huc8Name":"Mancos","lineageKey":"sanJuan","lineage":"sanJuan","historic":"sanJuan","current":"sanJuan","recovery":"recoveryWatch","lineageLabel":"San Juan lineage","atlas_context":"cutthroat_lineage_context"}},{"type":"Feature","geometry":{"type":"LineString","coordinates":[[-108.7397,37.0293],[-108.7411,37.0277],[-108.7436,37.0269]]},"properties":{"name":"Mancos River","display_name":"Mancos River","source_name":"Mancos River","state":"CO","atlas_class":"named_natural_stream_detail","huc8":"14080107","huc8Name":"Mancos","lineageKey":"sanJuan","lineage":"sanJuan","historic":"sanJuan","current":"sanJuan","recovery":"recoveryWatch","lineageLabel":"San Juan lineage","atlas_context":"cutthroat_lineage_context"}},{"type":"Feature","geometry":{"type":"LineString","coordinates":[[-108.7306,37.0346],[-108.7319,37.0358],[-108.7325,37.0341]]},"properties":{"name":"Mancos River","display_name":"Mancos River","source_name":"Mancos River","state":"CO","atlas_class":"named_natural_stream_detail","huc8":"14080107","huc8Name":"Mancos","lineageKey":"sanJuan","lineage":"sanJuan","historic":"sanJuan","current":"sanJuan","recovery":"recoveryWatch","lineageLabel":"San Juan lineage","atlas_context":"cutthroat_lineage_context"}},{"type":"Feature","geometry":{"type":"LineString","coordinates":[[-108.7095,37.042],[-108.712,37.0404]]},"properties":{"name":"Mancos River","display_name":"Mancos River","source_name":"Mancos River","state":"CO","atlas_class":"named_natural_stream_detail","huc8":"14080107","huc8Name":"Mancos","lineageKey":"sanJuan","lineage":"sanJuan","historic":"sanJuan","current":"sanJuan","recovery":"recoveryWatch","lineageLabel":"San Juan lineage","atlas_context":"cutthroat_lineage_context"}},{"type":"Feature","geometry":{"type":"LineString","coordinates":[[-108.7197,37.0402],[-108.7202,37.0392],[-108.7214,37.0393],[-108.722,37.0378]]},"properties":{"name":"Mancos River","display_name":"Mancos River","source_name":"Mancos River","state":"CO","atlas_class":"named_natural_stream_detail","huc8":"14080107","huc8Name":"Mancos","lineageKey":"sanJuan","lineage":"sanJuan","historic":"sanJuan","current":"sanJuan","recovery":"recoveryWatch","lineageLabel":"San Juan lineage","atlas_context":"cutthroat_lineage_context"}},{"type":"Feature","geometry":{"type":"LineString","coordinates":[[-108.7436,37.0269],[-108.7438,37.0269]]},"properties":{"name":"Mancos River","display_name":"Mancos River","source_name":"Mancos River","state":"CO","atlas_class":"named_natural_stream_detail","huc8":"14080107","huc8Name":"Mancos","lineageKey":"sanJuan","lineage":"sanJuan","historic":"sanJuan","current":"sanJuan","recovery":"recoveryWatch","lineageLabel":"San Juan lineage","atlas_context":"cutthroat_lineage_context"}},{"type":"Feature","geometry":{"type":"LineString","coordinates":[[-108.7873,37.0232],[-108.7894,37.0229],[-108.7881,37.0217],[-108.7907,37.0218],[-108.7907,37.0196],[-108.7928,37.0197],[-108.7926,37.0212]]},"properties":{"name":"Navajo Wash","display_name":"Navajo Wash","source_name":"Navajo Wash","state":"CO","atlas_class":"named_natural_stream_detail","huc8":"14080107","huc8Name":"Mancos","lineageKey":"sanJuan","lineage":"sanJuan","historic":"sanJuan","current":"sanJuan","recovery":"recoveryWatch","lineageLabel":"San Juan lineage","atlas_context":"cutthroat_lineage_context"}},{"type":"Feature","geometry":{"type":"LineString","coordinates":[[-108.7904,37.0143],[-108.7917,37.015],[-108.7903,37.0167],[-108.7929,37.0175],[-108.7942,37.02]]},"properties":{"name":"Mancos River","display_name":"Mancos River","source_name":"Mancos River","state":"CO","atlas_class":"named_natural_stream_detail","huc8":"14080107","huc8Name":"Mancos","lineageKey":"sanJuan","lineage":"sanJuan","historic":"sanJuan","current":"sanJuan","recovery":"recoveryWatch","lineageLabel":"San Juan lineage","atlas_context":"cutthroat_lineage_context"}},{"type":"Feature","geometry":{"type":"LineString","coordinates":[[-108.7733,37.032],[-108.7742,37.031]]},"properties":{"name":"Navajo Wash","display_name":"Navajo Wash","source_name":"Navajo Wash","state":"CO","atlas_class":"named_natural_stream_detail","huc8":"14080107","huc8Name":"Mancos","lineageKey":"sanJuan","lineage":"sanJuan","historic":"sanJuan","current":"sanJuan","recovery":"recoveryWatch","lineageLabel":"San Juan lineage","atlas_context":"cutthroat_lineage_context"}},{"type":"Feature","geometry":{"type":"LineString","coordinates":[[-108.7729,37.0339],[-108.7742,37.0329],[-108.7733,37.032]]},"properties":{"name":"Navajo Wash","display_name":"Navajo Wash","source_name":"Navajo Wash","state":"CO","atlas_class":"named_natural_stream_detail","huc8":"14080107","huc8Name":"Mancos","lineageKey":"sanJuan","lineage":"sanJuan","historic":"sanJuan","current":"sanJuan","recovery":"recoveryWatch","lineageLabel":"San Juan lineage","atlas_context":"cutthroat_lineage_context"}},{"type":"Feature","geometry":{"type":"LineString","coordinates":[[-108.7926,37.0212],[-108.7942,37.02]]},"properties":{"name":"Navajo Wash","display_name":"Navajo Wash","source_name":"Navajo Wash","state":"CO","atlas_class":"named_natural_stream_detail","huc8":"14080107","huc8Name":"Mancos","lineageKey":"sanJuan","lineage":"sanJuan","historic":"sanJuan","current":"sanJuan","recovery":"recoveryWatch","lineageLabel":"San Juan lineage","atlas_context":"cutthroat_lineage_context"}},{"type":"Feature","geometry":{"type":"LineString","coordinates":[[-108.7942,37.02],[-108.7947,37.0218],[-108.7985,37.0198],[-108.8018,37.0218],[-108.8018,37.0237],[-108.8026,37.0242],[-108.8048,37.0226],[-108.8039,37.0218],[-108.805,37.0201],[-108.807,37.0199],[-108.8105,37.0211],[-108.8108,37.02],[-108.8091,37.0189],[-108.8107,37.0173],[-108.8096,37.0165]]},"properties":{"name":"Mancos River","display_name":"Mancos River","source_name":"Mancos River","state":"CO","atlas_class":"named_natural_stream_detail","huc8":"14080107","huc8Name":"Mancos","lineageKey":"sanJuan","lineage":"sanJuan","historic":"sanJuan","current":"sanJuan","recovery":"recoveryWatch","lineageLabel":"San Juan lineage","atlas_context":"cutthroat_lineage_context"}},{"type":"Feature","geometry":{"type":"LineString","coordinates":[[-108.7782,37.0281],[-108.7793,37.0271],[-108.7783,37.0264],[-108.7791,37.0256],[-108.7829,37.0253],[-108.7828,37.0237],[-108.7836,37.0233],[-108.7854,37.0241],[-108.7873,37.0232]]},"properties":{"name":"Navajo Wash","display_name":"Navajo Wash","source_name":"Navajo Wash","state":"CO","atlas_class":"named_natural_stream_detail","huc8":"14080107","huc8Name":"Mancos","lineageKey":"sanJuan","lineage":"sanJuan","historic":"sanJuan","current":"sanJuan","recovery":"recoveryWatch","lineageLabel":"San Juan lineage","atlas_context":"cutthroat_lineage_context"}},{"type":"Feature","geometry":{"type":"LineString","coordinates":[[-108.7634,37.0185],[-108.7672,37.019],[-108.7675,37.0177],[-108.7687,37.0185],[-108.7701,37.0183],[-108.7693,37.0169],[-108.7705,37.0162]]},"properties":{"name":"Mancos River","display_name":"Mancos River","source_name":"Mancos River","state":"CO","atlas_class":"named_natural_stream_detail","huc8":"14080107","huc8Name":"Mancos","lineageKey":"sanJuan","lineage":"sanJuan","historic":"sanJuan","current":"sanJuan","recovery":"recoveryWatch","lineageLabel":"San Juan lineage","atlas_context":"cutthroat_lineage_context"}},{"type":"Feature","geometry":{"type":"LineString","coordinates":[[-108.7704,37.0364],[-108.7704,37.035],[-108.7721,37.0352],[-108.7729,37.0339]]},"properties":{"name":"Navajo Wash","display_name":"Navajo Wash","source_name":"Navajo Wash","state":"CO","atlas_class":"named_natural_stream_detail","huc8":"14080107","huc8Name":"Mancos","lineageKey":"sanJuan","lineage":"sanJuan","historic":"sanJuan","current":"sanJuan","recovery":"recoveryWatch","lineageLabel":"San Juan lineage","atlas_context":"cutthroat_lineage_context"}},{"type":"Feature","geometry":{"type":"LineString","coordinates":[[-108.7742,37.031],[-108.7769,37.0296],[-108.7767,37.0285],[-108.7782,37.0281]]},"properties":{"name":"Navajo Wash","display_name":"Navajo Wash","source_name":"Navajo Wash","state":"CO","atlas_class":"named_natural_stream_detail","huc8":"14080107","huc8Name":"Mancos","lineageKey":"sanJuan","lineage":"sanJuan","historic":"sanJuan","current":"sanJuan","recovery":"recoveryWatch","lineageLabel":"San Juan lineage","atlas_context":"cutthroat_lineage_context"}},{"type":"Feature","geometry":{"type":"LineString","coordinates":[[-108.7688,37.0377],[-108.7704,37.0364]]},"properties":{"name":"Navajo Wash","display_name":"Navajo Wash","source_name":"Navajo Wash","state":"CO","atlas_class":"named_natural_stream_detail","huc8":"14080107","huc8Name":"Mancos","lineageKey":"sanJuan","lineage":"sanJuan","historic":"sanJuan","current":"sanJuan","recovery":"recoveryWatch","lineageLabel":"San Juan lineage","atlas_context":"cutthroat_lineage_context"}},{"type":"Feature","geometry":{"type":"LineString","coordinates":[[-108.7754,37.0183],[-108.7769,37.0178],[-108.7761,37.0168],[-108.7768,37.0163],[-108.7792,37.0176],[-108.7803,37.0165],[-108.7812,37.0168]]},"properties":{"name":"Mancos River","display_name":"Mancos River","source_name":"Mancos River","state":"CO","atlas_class":"named_natural_stream_detail","huc8":"14080107","huc8Name":"Mancos","lineageKey":"sanJuan","lineage":"sanJuan","historic":"sanJuan","current":"sanJuan","recovery":"recoveryWatch","lineageLabel":"San Juan lineage","atlas_context":"cutthroat_lineage_context"}},{"type":"Feature","geometry":{"type":"LineString","coordinates":[[-108.7812,37.0168],[-108.7814,37.0177],[-108.7835,37.0175],[-108.783,37.0164],[-108.7861,37.0168],[-108.7855,37.0153]]},"properties":{"name":"Mancos River","display_name":"Mancos River","source_name":"Mancos River","state":"CO","atlas_class":"named_natural_stream_detail","huc8":"14080107","huc8Name":"Mancos","lineageKey":"sanJuan","lineage":"sanJuan","historic":"sanJuan","current":"sanJuan","recovery":"recoveryWatch","lineageLabel":"San Juan lineage","atlas_context":"cutthroat_lineage_context"}},{"type":"Feature","geometry":{"type":"LineString","coordinates":[[-108.7855,37.0153],[-108.7864,37.0149],[-108.7878,37.0165],[-108.7904,37.0143]]},"properties":{"name":"Mancos River","display_name":"Mancos River","source_name":"Mancos River","state":"CO","atlas_class":"named_natural_stream_detail","huc8":"14080107","huc8Name":"Mancos","lineageKey":"sanJuan","lineage":"sanJuan","historic":"sanJuan","current":"sanJuan","recovery":"recoveryWatch","lineageLabel":"San Juan lineage","atlas_context":"cutthroat_lineage_context"}},{"type":"Feature","geometry":{"type":"LineString","coordinates":[[-108.7659,37.0446],[-108.7656,37.0439],[-108.7675,37.0427],[-108.7674,37.0419]]},"properties":{"name":"Navajo Wash","display_name":"Navajo Wash","source_name":"Navajo Wash","state":"CO","atlas_class":"named_natural_stream_detail","huc8":"14080107","huc8Name":"Mancos","lineageKey":"sanJuan","lineage":"sanJuan","historic":"sanJuan","current":"sanJuan","recovery":"recoveryWatch","lineageLabel":"San Juan lineage","atlas_context":"cutthroat_lineage_context"}},{"type":"Feature","geometry":{"type":"LineString","coordinates":[[-108.7705,37.0162],[-108.7715,37.0152],[-108.7731,37.0167],[-108.7747,37.0168],[-108.7754,37.0183]]},"properties":{"name":"Mancos River","display_name":"Mancos River","source_name":"Mancos River","state":"CO","atlas_class":"named_natural_stream_detail","huc8":"14080107","huc8Name":"Mancos","lineageKey":"sanJuan","lineage":"sanJuan","historic":"sanJuan","current":"sanJuan","recovery":"recoveryWatch","lineageLabel":"San Juan lineage","atlas_context":"cutthroat_lineage_context"}},{"type":"Feature","geometry":{"type":"LineString","coordinates":[[-108.7545,37.021],[-108.7595,37.0187],[-108.7634,37.0185]]},"properties":{"name":"Mancos River","display_name":"Mancos River","source_name":"Mancos River","state":"CO","atlas_class":"named_natural_stream_detail","huc8":"14080107","huc8Name":"Mancos","lineageKey":"sanJuan","lineage":"sanJuan","historic":"sanJuan","current":"sanJuan","recovery":"recoveryWatch","lineageLabel":"San Juan lineage","atlas_context":"cutthroat_lineage_context"}},{"type":"Feature","geometry":{"type":"LineString","coordinates":[[-108.7223,37.1445],[-108.7229,37.1427],[-108.7244,37.1422],[-108.724,37.1404]]},"properties":{"name":"Navajo Wash","display_name":"Navajo Wash","source_name":"Navajo Wash","state":"CO","atlas_class":"named_natural_stream_detail","huc8":"14080107","huc8Name":"Mancos","lineageKey":"sanJuan","lineage":"sanJuan","historic":"sanJuan","current":"sanJuan","recovery":"recoveryWatch","lineageLabel":"San Juan lineage","atlas_context":"cutthroat_lineage_context"}},{"type":"Feature","geometry":{"type":"LineString","coordinates":[[-108.724,37.1404],[-108.7253,37.1392],[-108.7249,37.1382]]},"properties":{"name":"Navajo Wash","display_name":"Navajo Wash","source_name":"Navajo Wash","state":"CO","atlas_class":"named_natural_stream_detail","huc8":"14080107","huc8Name":"Mancos","lineageKey":"sanJuan","lineage":"sanJuan","historic":"sanJuan","current":"sanJuan","recovery":"recoveryWatch","lineageLabel":"San Juan lineage","atlas_context":"cutthroat_lineage_context"}},{"type":"Feature","geometry":{"type":"LineString","coordinates":[[-108.6992,37.1848],[-108.7001,37.1834]]},"properties":{"name":"Navajo Wash","display_name":"Navajo Wash","source_name":"Navajo Wash","state":"CO","atlas_class":"named_natural_stream_detail","huc8":"14080107","huc8Name":"Mancos","lineageKey":"sanJuan","lineage":"sanJuan","historic":"sanJuan","current":"sanJuan","recovery":"recoveryWatch","lineageLabel":"San Juan lineage","atlas_context":"cutthroat_lineage_context"}},{"type":"Feature","geometry":{"type":"LineString","coordinates":[[-108.7148,37.1554],[-108.7165,37.1549],[-108.7171,37.1534],[-108.7194,37.153]]},"properties":{"name":"Navajo Wash","display_name":"Navajo Wash","source_name":"Navajo Wash","state":"CO","atlas_class":"named_natural_stream_detail","huc8":"14080107","huc8Name":"Mancos","lineageKey":"sanJuan","lineage":"sanJuan","historic":"sanJuan","current":"sanJuan","recovery":"recoveryWatch","lineageLabel":"San Juan lineage","atlas_context":"cutthroat_lineage_context"}},{"type":"Feature","geometry":{"type":"LineString","coordinates":[[-108.6982,37.2001],[-108.6978,37.1975],[-108.6964,37.1975],[-108.6975,37.1964],[-108.6972,37.195]]},"properties":{"name":"Navajo Wash","display_name":"Navajo Wash","source_name":"Navajo Wash","state":"CO","atlas_class":"named_natural_stream_detail","huc8":"14080107","huc8Name":"Mancos","lineageKey":"sanJuan","lineage":"sanJuan","historic":"sanJuan","current":"sanJuan","recovery":"recoveryWatch","lineageLabel":"San Juan lineage","atlas_context":"cutthroat_lineage_context"}},{"type":"Feature","geometry":{"type":"LineString","coordinates":[[-108.7001,37.1834],[-108.7025,37.1799],[-108.7039,37.1706],[-108.7033,37.1696],[-108.7042,37.1688],[-108.7031,37.1682],[-108.7036,37.1662]]},"properties":{"name":"Navajo Wash","display_name":"Navajo Wash","source_name":"Navajo Wash","state":"CO","atlas_class":"named_natural_stream_detail","huc8":"14080107","huc8Name":"Mancos","lineageKey":"sanJuan","lineage":"sanJuan","historic":"sanJuan","current":"sanJuan","recovery":"recoveryWatch","lineageLabel":"San Juan lineage","atlas_context":"cutthroat_lineage_context"}},{"type":"Feature","geometry":{"type":"LineString","coordinates":[[-108.7194,37.153],[-108.7205,37.1521],[-108.7204,37.1507],[-108.7195,37.1501],[-108.7203,37.1495],[-108.72,37.1475],[-108.7209,37.1473],[-108.7206,37.1456]]},"properties":{"name":"Navajo Wash","display_name":"Navajo Wash","source_name":"Navajo Wash","state":"CO","atlas_class":"named_natural_stream_detail","huc8":"14080107","huc8Name":"Mancos","lineageKey":"sanJuan","lineage":"sanJuan","historic":"sanJuan","current":"sanJuan","recovery":"recoveryWatch","lineageLabel":"San Juan lineage","atlas_context":"cutthroat_lineage_context"}},{"type":"Feature","geometry":{"type":"LineString","coordinates":[[-108.7036,37.1662],[-108.7043,37.1638],[-108.709,37.1631]]},"properties":{"name":"Navajo Wash","display_name":"Navajo Wash","source_name":"Navajo Wash","state":"CO","atlas_class":"named_natural_stream_detail","huc8":"14080107","huc8Name":"Mancos","lineageKey":"sanJuan","lineage":"sanJuan","historic":"sanJuan","current":"sanJuan","recovery":"recoveryWatch","lineageLabel":"San Juan lineage","atlas_context":"cutthroat_lineage_context"}},{"type":"Feature","geometry":{"type":"LineString","coordinates":[[-108.7297,37.1792],[-108.731,37.1758],[-108.7294,37.171]]},"properties":{"name":"Cottonwood Wash","display_name":"Cottonwood Wash","source_name":"Cottonwood Wash","state":"CO","atlas_class":"named_natural_stream_detail","huc8":"14080107","huc8Name":"Mancos","lineageKey":"sanJuan","lineage":"sanJuan","historic":"sanJuan","current":"sanJuan","recovery":"recoveryWatch","lineageLabel":"San Juan lineage","atlas_context":"cutthroat_lineage_context"}},{"type":"Feature","geometry":{"type":"LineString","coordinates":[[-108.709,37.1631],[-108.7148,37.1554]]},"properties":{"name":"Navajo Wash","display_name":"Navajo Wash","source_name":"Navajo Wash","state":"CO","atlas_class":"named_natural_stream_detail","huc8":"14080107","huc8Name":"Mancos","lineageKey":"sanJuan","lineage":"sanJuan","historic":"sanJuan","current":"sanJuan","recovery":"recoveryWatch","lineageLabel":"San Juan lineage","atlas_context":"cutthroat_lineage_context"}},{"type":"Feature","geometry":{"type":"LineString","coordinates":[[-108.727,37.16],[-108.7261,37.1591],[-108.7265,37.1577],[-108.723,37.1533],[-108.7231,37.1502],[-108.7217,37.1462],[-108.7223,37.1445]]},"properties":{"name":"Cottonwood Wash","display_name":"Cottonwood Wash","source_name":"Cottonwood Wash","state":"CO","atlas_class":"named_natural_stream_detail","huc8":"14080107","huc8Name":"Mancos","lineageKey":"sanJuan","lineage":"sanJuan","historic":"sanJuan","current":"sanJuan","recovery":"recoveryWatch","lineageLabel":"San Juan lineage","atlas_context":"cutthroat_lineage_context"}},{"type":"Feature","geometry":{"type":"LineString","coordinates":[[-108.7206,37.1456],[-108.7215,37.1449]]},"properties":{"name":"Navajo Wash","display_name":"Navajo Wash","source_name":"Navajo Wash","state":"CO","atlas_class":"named_natural_stream_detail","huc8":"14080107","huc8Name":"Mancos","lineageKey":"sanJuan","lineage":"sanJuan","historic":"sanJuan","current":"sanJuan","recovery":"recoveryWatch","lineageLabel":"San Juan lineage","atlas_context":"cutthroat_lineage_context"}},{"type":"Feature","geometry":{"type":"LineString","coordinates":[[-108.6972,37.1925],[-108.6986,37.1885],[-108.6973,37.1876],[-108.6975,37.1865],[-108.6992,37.1848]]},"properties":{"name":"Navajo Wash","display_name":"Navajo Wash","source_name":"Navajo Wash","state":"CO","atlas_class":"named_natural_stream_detail","huc8":"14080107","huc8Name":"Mancos","lineageKey":"sanJuan","lineage":"sanJuan","historic":"sanJuan","current":"sanJuan","recovery":"recoveryWatch","lineageLabel":"San Juan lineage","atlas_context":"cutthroat_lineage_context"}},{"type":"Feature","geometry":{"type":"LineString","coordinates":[[-108.6972,37.195],[-108.6978,37.1931],[-108.6972,37.1925]]},"properties":{"name":"Navajo Wash","display_name":"Navajo Wash","source_name":"Navajo Wash","state":"CO","atlas_class":"named_natural_stream_detail","huc8":"14080107","huc8Name":"Mancos","lineageKey":"sanJuan","lineage":"sanJuan","historic":"sanJuan","current":"sanJuan","recovery":"recoveryWatch","lineageLabel":"San Juan lineage","atlas_context":"cutthroat_lineage_context"}},{"type":"Feature","geometry":{"type":"LineString","coordinates":[[-108.5976,37.0566],[-108.5989,37.0573],[-108.5998,37.056],[-108.6009,37.057],[-108.6024,37.0567],[-108.6045,37.0583],[-108.605,37.0579]]},"properties":{"name":"Mancos River","display_name":"Mancos River","source_name":"Mancos River","state":"CO","atlas_class":"named_natural_stream_detail","huc8":"14080107","huc8Name":"Mancos","lineageKey":"sanJuan","lineage":"sanJuan","historic":"sanJuan","current":"sanJuan","recovery":"recoveryWatch","lineageLabel":"San Juan lineage","atlas_context":"cutthroat_lineage_context"}},{"type":"Feature","geometry":{"type":"LineString","coordinates":[[-108.6159,37.0622],[-108.6186,37.0617]]},"properties":{"name":"Mancos River","display_name":"Mancos River","source_name":"Mancos River","state":"CO","atlas_class":"named_natural_stream_detail","huc8":"14080107","huc8Name":"Mancos","lineageKey":"sanJuan","lineage":"sanJuan","historic":"sanJuan","current":"sanJuan","recovery":"recoveryWatch","lineageLabel":"San Juan lineage","atlas_context":"cutthroat_lineage_context"}},{"type":"Feature","geometry":{"type":"LineString","coordinates":[[-108.6205,37.0639],[-108.6236,37.0646],[-108.623,37.0659],[-108.6246,37.0658],[-108.6253,37.0644],[-108.6269,37.0649],[-108.6276,37.0636],[-108.6289,37.0644],[-108.6299,37.064]]},"properties":{"name":"Mancos River","display_name":"Mancos River","source_name":"Mancos River","state":"CO","atlas_class":"named_natural_stream_detail","huc8":"14080107","huc8Name":"Mancos","lineageKey":"sanJuan","lineage":"sanJuan","historic":"sanJuan","current":"sanJuan","recovery":"recoveryWatch","lineageLabel":"San Juan lineage","atlas_context":"cutthroat_lineage_context"}},{"type":"Feature","geometry":{"type":"LineString","coordinates":[[-108.6111,37.0594],[-108.6132,37.0587],[-108.6148,37.0622],[-108.6159,37.0622]]},"properties":{"name":"Mancos River","display_name":"Mancos River","source_name":"Mancos River","state":"CO","atlas_class":"named_natural_stream_detail","huc8":"14080107","huc8Name":"Mancos","lineageKey":"sanJuan","lineage":"sanJuan","historic":"sanJuan","current":"sanJuan","recovery":"recoveryWatch","lineageLabel":"San Juan lineage","atlas_context":"cutthroat_lineage_context"}},{"type":"Feature","geometry":{"type":"LineString","coordinates":[[-108.605,37.0579],[-108.6076,37.0591],[-108.6077,37.0579],[-108.6103,37.0583],[-108.6111,37.0594]]},"properties":{"name":"Mancos River","display_name":"Mancos River","source_name":"Mancos River","state":"CO","atlas_class":"named_natural_stream_detail","huc8":"14080107","huc8Name":"Mancos","lineageKey":"sanJuan","lineage":"sanJuan","historic":"sanJuan","current":"sanJuan","recovery":"recoveryWatch","lineageLabel":"San Juan lineage","atlas_context":"cutthroat_lineage_context"}},{"type":"Feature","geometry":{"type":"LineString","coordinates":[[-108.6186,37.0617],[-108.6192,37.0624],[-108.6174,37.0636]]},"properties":{"name":"Mancos River","display_name":"Mancos River","source_name":"Mancos River","state":"CO","atlas_class":"named_natural_stream_detail","huc8":"14080107","huc8Name":"Mancos","lineageKey":"sanJuan","lineage":"sanJuan","historic":"sanJuan","current":"sanJuan","recovery":"recoveryWatch","lineageLabel":"San Juan lineage","atlas_context":"cutthroat_lineage_context"}},{"type":"Feature","geometry":{"type":"LineString","coordinates":[[-108.6299,37.064],[-108.6307,37.0613],[-108.6323,37.0614]]},"properties":{"name":"Mancos River","display_name":"Mancos River","source_name":"Mancos River","state":"CO","atlas_class":"named_natural_stream_detail","huc8":"14080107","huc8Name":"Mancos","lineageKey":"sanJuan","lineage":"sanJuan","historic":"sanJuan","current":"sanJuan","recovery":"recoveryWatch","lineageLabel":"San Juan lineage","atlas_context":"cutthroat_lineage_context"}},{"type":"Feature","geometry":{"type":"LineString","coordinates":[[-108.6323,37.0614],[-108.6332,37.0603],[-108.6346,37.0608],[-108.6349,37.0596],[-108.6374,37.0606],[-108.6405,37.0596],[-108.6406,37.0605]]},"properties":{"name":"Mancos River","display_name":"Mancos River","source_name":"Mancos River","state":"CO","atlas_class":"named_natural_stream_detail","huc8":"14080107","huc8Name":"Mancos","lineageKey":"sanJuan","lineage":"sanJuan","historic":"sanJuan","current":"sanJuan","recovery":"recoveryWatch","lineageLabel":"San Juan lineage","atlas_context":"cutthroat_lineage_context"}},{"type":"Feature","geometry":{"type":"LineString","coordinates":[[-108.6174,37.0636],[-108.6194,37.0636],[-108.6197,37.0627],[-108.6205,37.0639]]},"properties":{"name":"Mancos River","display_name":"Mancos River","source_name":"Mancos River","state":"CO","atlas_class":"named_natural_stream_detail","huc8":"14080107","huc8Name":"Mancos","lineageKey":"sanJuan","lineage":"sanJuan","historic":"sanJuan","current":"sanJuan","recovery":"recoveryWatch","lineageLabel":"San Juan lineage","atlas_context":"cutthroat_lineage_context"}},{"type":"Feature","geometry":{"type":"LineString","coordinates":[[-108.6953,37.0458],[-108.6958,37.0447],[-108.6978,37.0453],[-108.6987,37.0445],[-108.6979,37.0443],[-108.6983,37.0439],[-108.7014,37.0443]]},"properties":{"name":"Mancos River","display_name":"Mancos River","source_name":"Mancos River","state":"CO","atlas_class":"named_natural_stream_detail","huc8":"14080107","huc8Name":"Mancos","lineageKey":"sanJuan","lineage":"sanJuan","historic":"sanJuan","current":"sanJuan","recovery":"recoveryWatch","lineageLabel":"San Juan lineage","atlas_context":"cutthroat_lineage_context"}},{"type":"Feature","geometry":{"type":"LineString","coordinates":[[-108.7503,37.0752],[-108.7509,37.0731]]},"properties":{"name":"Navajo Wash","display_name":"Navajo Wash","source_name":"Navajo Wash","state":"CO","atlas_class":"named_natural_stream_detail","huc8":"14080107","huc8Name":"Mancos","lineageKey":"sanJuan","lineage":"sanJuan","historic":"sanJuan","current":"sanJuan","recovery":"recoveryWatch","lineageLabel":"San Juan lineage","atlas_context":"cutthroat_lineage_context"}},{"type":"Feature","geometry":{"type":"LineString","coordinates":[[-108.7617,37.0521],[-108.762,37.0509],[-108.7652,37.049],[-108.7645,37.0464],[-108.7659,37.0446]]},"properties":{"name":"Navajo Wash","display_name":"Navajo Wash","source_name":"Navajo Wash","state":"CO","atlas_class":"named_natural_stream_detail","huc8":"14080107","huc8Name":"Mancos","lineageKey":"sanJuan","lineage":"sanJuan","historic":"sanJuan","current":"sanJuan","recovery":"recoveryWatch","lineageLabel":"San Juan lineage","atlas_context":"cutthroat_lineage_context"}},{"type":"Feature","geometry":{"type":"LineString","coordinates":[[-108.7574,37.0582],[-108.7572,37.0567],[-108.7583,37.056],[-108.7586,37.0542]]},"properties":{"name":"Navajo Wash","display_name":"Navajo Wash","source_name":"Navajo Wash","state":"CO","atlas_class":"named_natural_stream_detail","huc8":"14080107","huc8Name":"Mancos","lineageKey":"sanJuan","lineage":"sanJuan","historic":"sanJuan","current":"sanJuan","recovery":"recoveryWatch","lineageLabel":"San Juan lineage","atlas_context":"cutthroat_lineage_context"}},{"type":"Feature","geometry":{"type":"LineString","coordinates":[[-108.6792,37.0521],[-108.6811,37.0532],[-108.6829,37.0517],[-108.6847,37.0524],[-108.6844,37.0512],[-108.6867,37.0511],[-108.6876,37.0501]]},"properties":{"name":"Mancos River","display_name":"Mancos River","source_name":"Mancos River","state":"CO","atlas_class":"named_natural_stream_detail","huc8":"14080107","huc8Name":"Mancos","lineageKey":"sanJuan","lineage":"sanJuan","historic":"sanJuan","current":"sanJuan","recovery":"recoveryWatch","lineageLabel":"San Juan lineage","atlas_context":"cutthroat_lineage_context"}},{"type":"Feature","geometry":{"type":"LineString","coordinates":[[-108.7558,37.059],[-108.7574,37.0582]]},"properties":{"name":"Navajo Wash","display_name":"Navajo Wash","source_name":"Navajo Wash","state":"CO","atlas_class":"named_natural_stream_detail","huc8":"14080107","huc8Name":"Mancos","lineageKey":"sanJuan","lineage":"sanJuan","historic":"sanJuan","current":"sanJuan","recovery":"recoveryWatch","lineageLabel":"San Juan lineage","atlas_context":"cutthroat_lineage_context"}},{"type":"Feature","geometry":{"type":"LineString","coordinates":[[-108.7014,37.0443],[-108.7015,37.0436],[-108.7032,37.044],[-108.7029,37.0427],[-108.7017,37.0426],[-108.7028,37.0417],[-108.7068,37.0433]]},"properties":{"name":"Mancos River","display_name":"Mancos River","source_name":"Mancos River","state":"CO","atlas_class":"named_natural_stream_detail","huc8":"14080107","huc8Name":"Mancos","lineageKey":"sanJuan","lineage":"sanJuan","historic":"sanJuan","current":"sanJuan","recovery":"recoveryWatch","lineageLabel":"San Juan lineage","atlas_context":"cutthroat_lineage_context"}},{"type":"Feature","geometry":{"type":"LineString","coordinates":[[-108.6499,37.0607],[-108.6494,37.06],[-108.6506,37.0592],[-108.652,37.0601],[-108.6533,37.0594]]},"properties":{"name":"Mancos River","display_name":"Mancos River","source_name":"Mancos River","state":"CO","atlas_class":"named_natural_stream_detail","huc8":"14080107","huc8Name":"Mancos","lineageKey":"sanJuan","lineage":"sanJuan","historic":"sanJuan","current":"sanJuan","recovery":"recoveryWatch","lineageLabel":"San Juan lineage","atlas_context":"cutthroat_lineage_context"}},{"type":"Feature","geometry":{"type":"LineString","coordinates":[[-108.6729,37.0548],[-108.6756,37.056],[-108.676,37.0552],[-108.6748,37.0545],[-108.6782,37.0548]]},"properties":{"name":"Mancos River","display_name":"Mancos River","source_name":"Mancos River","state":"CO","atlas_class":"named_natural_stream_detail","huc8":"14080107","huc8Name":"Mancos","lineageKey":"sanJuan","lineage":"sanJuan","historic":"sanJuan","current":"sanJuan","recovery":"recoveryWatch","lineageLabel":"San Juan lineage","atlas_context":"cutthroat_lineage_context"}},{"type":"Feature","geometry":{"type":"LineString","coordinates":[[-108.7506,37.0773],[-108.7503,37.0752]]},"properties":{"name":"Navajo Wash","display_name":"Navajo Wash","source_name":"Navajo Wash","state":"CO","atlas_class":"named_natural_stream_detail","huc8":"14080107","huc8Name":"Mancos","lineageKey":"sanJuan","lineage":"sanJuan","historic":"sanJuan","current":"sanJuan","recovery":"recoveryWatch","lineageLabel":"San Juan lineage","atlas_context":"cutthroat_lineage_context"}},{"type":"Feature","geometry":{"type":"LineString","coordinates":[[-108.7586,37.0542],[-108.7588,37.0531],[-108.7617,37.0521]]},"properties":{"name":"Navajo Wash","display_name":"Navajo Wash","source_name":"Navajo Wash","state":"CO","atlas_class":"named_natural_stream_detail","huc8":"14080107","huc8Name":"Mancos","lineageKey":"sanJuan","lineage":"sanJuan","historic":"sanJuan","current":"sanJuan","recovery":"recoveryWatch","lineageLabel":"San Juan lineage","atlas_context":"cutthroat_lineage_context"}},{"type":"Feature","geometry":{"type":"LineString","coordinates":[[-108.7068,37.0433],[-108.7076,37.0436],[-108.7076,37.0425],[-108.7095,37.042]]},"properties":{"name":"Mancos River","display_name":"Mancos River","source_name":"Mancos River","state":"CO","atlas_class":"named_natural_stream_detail","huc8":"14080107","huc8Name":"Mancos","lineageKey":"sanJuan","lineage":"sanJuan","historic":"sanJuan","current":"sanJuan","recovery":"recoveryWatch","lineageLabel":"San Juan lineage","atlas_context":"cutthroat_lineage_context"}},{"type":"Feature","geometry":{"type":"LineString","coordinates":[[-108.6533,37.0594],[-108.655,37.059],[-108.656,37.0602],[-108.6565,37.0587],[-108.6555,37.0584],[-108.6566,37.0577],[-108.6551,37.0567],[-108.6572,37.0564],[-108.6576,37.0553]]},"properties":{"name":"Mancos River","display_name":"Mancos River","source_name":"Mancos River","state":"CO","atlas_class":"named_natural_stream_detail","huc8":"14080107","huc8Name":"Mancos","lineageKey":"sanJuan","lineage":"sanJuan","historic":"sanJuan","current":"sanJuan","recovery":"recoveryWatch","lineageLabel":"San Juan lineage","atlas_context":"cutthroat_lineage_context"}},{"type":"Feature","geometry":{"type":"LineString","coordinates":[[-108.7526,37.0828],[-108.7523,37.0818]]},"properties":{"name":"Navajo Wash","display_name":"Navajo Wash","source_name":"Navajo Wash","state":"CO","atlas_class":"named_natural_stream_detail","huc8":"14080107","huc8Name":"Mancos","lineageKey":"sanJuan","lineage":"sanJuan","historic":"sanJuan","current":"sanJuan","recovery":"recoveryWatch","lineageLabel":"San Juan lineage","atlas_context":"cutthroat_lineage_context"}},{"type":"Feature","geometry":{"type":"LineString","coordinates":[[-108.7674,37.0419],[-108.7652,37.0415],[-108.7685,37.0393],[-108.7688,37.0377]]},"properties":{"name":"Navajo Wash","display_name":"Navajo Wash","source_name":"Navajo Wash","state":"CO","atlas_class":"named_natural_stream_detail","huc8":"14080107","huc8Name":"Mancos","lineageKey":"sanJuan","lineage":"sanJuan","historic":"sanJuan","current":"sanJuan","recovery":"recoveryWatch","lineageLabel":"San Juan lineage","atlas_context":"cutthroat_lineage_context"}},{"type":"Feature","geometry":{"type":"LineString","coordinates":[[-108.6406,37.0605],[-108.6431,37.0616],[-108.6436,37.0612],[-108.6426,37.0612],[-108.6423,37.0597],[-108.6435,37.059],[-108.6444,37.0604],[-108.6458,37.0605],[-108.6468,37.0589],[-108.648,37.0611],[-108.6499,37.0607]]},"properties":{"name":"Mancos River","display_name":"Mancos River","source_name":"Mancos River","state":"CO","atlas_class":"named_natural_stream_detail","huc8":"14080107","huc8Name":"Mancos","lineageKey":"sanJuan","lineage":"sanJuan","historic":"sanJuan","current":"sanJuan","recovery":"recoveryWatch","lineageLabel":"San Juan lineage","atlas_context":"cutthroat_lineage_context"}},{"type":"Feature","geometry":{"type":"LineString","coordinates":[[-108.712,37.0404],[-108.7132,37.0401]]},"properties":{"name":"Mancos River","display_name":"Mancos River","source_name":"Mancos River","state":"CO","atlas_class":"named_natural_stream_detail","huc8":"14080107","huc8Name":"Mancos","lineageKey":"sanJuan","lineage":"sanJuan","historic":"sanJuan","current":"sanJuan","recovery":"recoveryWatch","lineageLabel":"San Juan lineage","atlas_context":"cutthroat_lineage_context"}},{"type":"Feature","geometry":{"type":"LineString","coordinates":[[-108.7509,37.0731],[-108.7523,37.0723],[-108.7514,37.071],[-108.7533,37.0707],[-108.7532,37.0675],[-108.7557,37.065],[-108.7556,37.0638]]},"properties":{"name":"Navajo Wash","display_name":"Navajo Wash","source_name":"Navajo Wash","state":"CO","atlas_class":"named_natural_stream_detail","huc8":"14080107","huc8Name":"Mancos","lineageKey":"sanJuan","lineage":"sanJuan","historic":"sanJuan","current":"sanJuan","recovery":"recoveryWatch","lineageLabel":"San Juan lineage","atlas_context":"cutthroat_lineage_context"}},{"type":"Feature","geometry":{"type":"LineString","coordinates":[[-108.7556,37.0638],[-108.7563,37.0615],[-108.7555,37.0605],[-108.7558,37.059]]},"properties":{"name":"Navajo Wash","display_name":"Navajo Wash","source_name":"Navajo Wash","state":"CO","atlas_class":"named_natural_stream_detail","huc8":"14080107","huc8Name":"Mancos","lineageKey":"sanJuan","lineage":"sanJuan","historic":"sanJuan","current":"sanJuan","recovery":"recoveryWatch","lineageLabel":"San Juan lineage","atlas_context":"cutthroat_lineage_context"}},{"type":"Feature","geometry":{"type":"LineString","coordinates":[[-108.6576,37.0553],[-108.6608,37.0552],[-108.6645,37.0574]]},"properties":{"name":"Mancos River","display_name":"Mancos River","source_name":"Mancos River","state":"CO","atlas_class":"named_natural_stream_detail","huc8":"14080107","huc8Name":"Mancos","lineageKey":"sanJuan","lineage":"sanJuan","historic":"sanJuan","current":"sanJuan","recovery":"recoveryWatch","lineageLabel":"San Juan lineage","atlas_context":"cutthroat_lineage_context"}},{"type":"Feature","geometry":{"type":"LineString","coordinates":[[-108.6645,37.0574],[-108.6678,37.056],[-108.6679,37.0578],[-108.6706,37.0568],[-108.6708,37.0559],[-108.6728,37.0566],[-108.6729,37.0548]]},"properties":{"name":"Mancos River","display_name":"Mancos River","source_name":"Mancos River","state":"CO","atlas_class":"named_natural_stream_detail","huc8":"14080107","huc8Name":"Mancos","lineageKey":"sanJuan","lineage":"sanJuan","historic":"sanJuan","current":"sanJuan","recovery":"recoveryWatch","lineageLabel":"San Juan lineage","atlas_context":"cutthroat_lineage_context"}},{"type":"Feature","geometry":{"type":"LineString","coordinates":[[-108.6876,37.0501],[-108.6882,37.0495],[-108.687,37.049],[-108.6868,37.0474],[-108.6905,37.0477],[-108.6899,37.0464],[-108.6931,37.0445],[-108.6939,37.0459],[-108.6959,37.0467],[-108.6953,37.0458]]},"properties":{"name":"Mancos River","display_name":"Mancos River","source_name":"Mancos River","state":"CO","atlas_class":"named_natural_stream_detail","huc8":"14080107","huc8Name":"Mancos","lineageKey":"sanJuan","lineage":"sanJuan","historic":"sanJuan","current":"sanJuan","recovery":"recoveryWatch","lineageLabel":"San Juan lineage","atlas_context":"cutthroat_lineage_context"}},{"type":"Feature","geometry":{"type":"LineString","coordinates":[[-108.7523,37.0818],[-108.7512,37.0809],[-108.7516,37.0782],[-108.7506,37.0773]]},"properties":{"name":"Navajo Wash","display_name":"Navajo Wash","source_name":"Navajo Wash","state":"CO","atlas_class":"named_natural_stream_detail","huc8":"14080107","huc8Name":"Mancos","lineageKey":"sanJuan","lineage":"sanJuan","historic":"sanJuan","current":"sanJuan","recovery":"recoveryWatch","lineageLabel":"San Juan lineage","atlas_context":"cutthroat_lineage_context"}},{"type":"Feature","geometry":{"type":"LineString","coordinates":[[-108.7132,37.0401],[-108.7178,37.0408],[-108.7188,37.0399],[-108.7197,37.0402]]},"properties":{"name":"Mancos River","display_name":"Mancos River","source_name":"Mancos River","state":"CO","atlas_class":"named_natural_stream_detail","huc8":"14080107","huc8Name":"Mancos","lineageKey":"sanJuan","lineage":"sanJuan","historic":"sanJuan","current":"sanJuan","recovery":"recoveryWatch","lineageLabel":"San Juan lineage","atlas_context":"cutthroat_lineage_context"}},{"type":"Feature","geometry":{"type":"LineString","coordinates":[[-108.6782,37.0548],[-108.6772,37.0529],[-108.6792,37.0521]]},"properties":{"name":"Mancos River","display_name":"Mancos River","source_name":"Mancos River","state":"CO","atlas_class":"named_natural_stream_detail","huc8":"14080107","huc8Name":"Mancos","lineageKey":"sanJuan","lineage":"sanJuan","historic":"sanJuan","current":"sanJuan","recovery":"recoveryWatch","lineageLabel":"San Juan lineage","atlas_context":"cutthroat_lineage_context"}},{"type":"Feature","geometry":{"type":"LineString","coordinates":[[-108.7445,37.1145],[-108.7463,37.112],[-108.7452,37.1099],[-108.7455,37.1082]]},"properties":{"name":"Navajo Wash","display_name":"Navajo Wash","source_name":"Navajo Wash","state":"CO","atlas_class":"named_natural_stream_detail","huc8":"14080107","huc8Name":"Mancos","lineageKey":"sanJuan","lineage":"sanJuan","historic":"sanJuan","current":"sanJuan","recovery":"recoveryWatch","lineageLabel":"San Juan lineage","atlas_context":"cutthroat_lineage_context"}},{"type":"Feature","geometry":{"type":"LineString","coordinates":[[-108.735,37.1236],[-108.7363,37.1226],[-108.7364,37.1213],[-108.738,37.1211],[-108.7385,37.1196],[-108.7394,37.1197],[-108.7399,37.1179],[-108.7404,37.1189],[-108.7421,37.1186],[-108.7418,37.1176],[-108.7428,37.1167]]},"properties":{"name":"Navajo Wash","display_name":"Navajo Wash","source_name":"Navajo Wash","state":"CO","atlas_class":"named_natural_stream_detail","huc8":"14080107","huc8Name":"Mancos","lineageKey":"sanJuan","lineage":"sanJuan","historic":"sanJuan","current":"sanJuan","recovery":"recoveryWatch","lineageLabel":"San Juan lineage","atlas_context":"cutthroat_lineage_context"}},{"type":"Feature","geometry":{"type":"LineString","coordinates":[[-108.7433,37.1155],[-108.7445,37.1145]]},"properties":{"name":"Navajo Wash","display_name":"Navajo Wash","source_name":"Navajo Wash","state":"CO","atlas_class":"named_natural_stream_detail","huc8":"14080107","huc8Name":"Mancos","lineageKey":"sanJuan","lineage":"sanJuan","historic":"sanJuan","current":"sanJuan","recovery":"recoveryWatch","lineageLabel":"San Juan lineage","atlas_context":"cutthroat_lineage_context"}},{"type":"Feature","geometry":{"type":"LineString","coordinates":[[-108.7453,37.1069],[-108.7443,37.1041],[-108.7447,37.1025],[-108.7424,37.1017],[-108.7425,37.1001],[-108.7466,37.0964],[-108.7467,37.0952],[-108.7485,37.0945],[-108.7485,37.0935],[-108.7495,37.0935]]},"properties":{"name":"Navajo Wash","display_name":"Navajo Wash","source_name":"Navajo Wash","state":"CO","atlas_class":"named_natural_stream_detail","huc8":"14080107","huc8Name":"Mancos","lineageKey":"sanJuan","lineage":"sanJuan","historic":"sanJuan","current":"sanJuan","recovery":"recoveryWatch","lineageLabel":"San Juan lineage","atlas_context":"cutthroat_lineage_context"}},{"type":"Feature","geometry":{"type":"LineString","coordinates":[[-108.7356,37.1256],[-108.7362,37.1248]]},"properties":{"name":"Navajo Wash","display_name":"Navajo Wash","source_name":"Navajo Wash","state":"CO","atlas_class":"named_natural_stream_detail","huc8":"14080107","huc8Name":"Mancos","lineageKey":"sanJuan","lineage":"sanJuan","historic":"sanJuan","current":"sanJuan","recovery":"recoveryWatch","lineageLabel":"San Juan lineage","atlas_context":"cutthroat_lineage_context"}},{"type":"Feature","geometry":{"type":"LineString","coordinates":[[-108.7362,37.1248],[-108.7358,37.1244]]},"properties":{"name":"Navajo Wash","display_name":"Navajo Wash","source_name":"Navajo Wash","state":"CO","atlas_class":"named_natural_stream_detail","huc8":"14080107","huc8Name":"Mancos","lineageKey":"sanJuan","lineage":"sanJuan","historic":"sanJuan","current":"sanJuan","recovery":"recoveryWatch","lineageLabel":"San Juan lineage","atlas_context":"cutthroat_lineage_context"}},{"type":"Feature","geometry":{"type":"LineString","coordinates":[[-108.7288,37.1641],[-108.7284,37.1626],[-108.7275,37.1626],[-108.727,37.16]]},"properties":{"name":"Cottonwood Wash","display_name":"Cottonwood Wash","source_name":"Cottonwood Wash","state":"CO","atlas_class":"named_natural_stream_detail","huc8":"14080107","huc8Name":"Mancos","lineageKey":"sanJuan","lineage":"sanJuan","historic":"sanJuan","current":"sanJuan","recovery":"recoveryWatch","lineageLabel":"San Juan lineage","atlas_context":"cutthroat_lineage_context"}},{"type":"Feature","geometry":{"type":"LineString","coordinates":[[-108.8006,37.1034],[-108.7979,37.0992]]},"properties":{"name":"Aztec Wash","display_name":"Aztec Wash","source_name":"Aztec Wash","state":"CO","atlas_class":"named_natural_stream_detail","huc8":"14080107","huc8Name":"Mancos","lineageKey":"sanJuan","lineage":"sanJuan","historic":"sanJuan","current":"sanJuan","recovery":"recoveryWatch","lineageLabel":"San Juan lineage","atlas_context":"cutthroat_lineage_context"}},{"type":"Feature","geometry":{"type":"LineString","coordinates":[[-108.7276,37.1847],[-108.7297,37.1792]]},"properties":{"name":"Cottonwood Wash","display_name":"Cottonwood Wash","source_name":"Cottonwood Wash","state":"CO","atlas_class":"named_natural_stream_detail","huc8":"14080107","huc8Name":"Mancos","lineageKey":"sanJuan","lineage":"sanJuan","historic":"sanJuan","current":"sanJuan","recovery":"recoveryWatch","lineageLabel":"San Juan lineage","atlas_context":"cutthroat_lineage_context"}},{"type":"Feature","geometry":{"type":"LineString","coordinates":[[-108.7487,37.0903],[-108.752,37.0876],[-108.7517,37.0864],[-108.7524,37.0858],[-108.7518,37.0846],[-108.753,37.0841],[-108.7526,37.0828]]},"properties":{"name":"Navajo Wash","display_name":"Navajo Wash","source_name":"Navajo Wash","state":"CO","atlas_class":"named_natural_stream_detail","huc8":"14080107","huc8Name":"Mancos","lineageKey":"sanJuan","lineage":"sanJuan","historic":"sanJuan","current":"sanJuan","recovery":"recoveryWatch","lineageLabel":"San Juan lineage","atlas_context":"cutthroat_lineage_context"}},{"type":"Feature","geometry":{"type":"LineString","coordinates":[[-108.7979,37.0992],[-108.7988,37.0964]]},"properties":{"name":"Aztec Wash","display_name":"Aztec Wash","source_name":"Aztec Wash","state":"CO","atlas_class":"named_natural_stream_detail","huc8":"14080107","huc8Name":"Mancos","lineageKey":"sanJuan","lineage":"sanJuan","historic":"sanJuan","current":"sanJuan","recovery":"recoveryWatch","lineageLabel":"San Juan lineage","atlas_context":"cutthroat_lineage_context"}},{"type":"Feature","geometry":{"type":"LineString","coordinates":[[-108.7314,37.1326],[-108.7321,37.131],[-108.7329,37.1312],[-108.7339,37.1299],[-108.7336,37.1285],[-108.7356,37.1256]]},"properties":{"name":"Navajo Wash","display_name":"Navajo Wash","source_name":"Navajo Wash","state":"CO","atlas_class":"named_natural_stream_detail","huc8":"14080107","huc8Name":"Mancos","lineageKey":"sanJuan","lineage":"sanJuan","historic":"sanJuan","current":"sanJuan","recovery":"recoveryWatch","lineageLabel":"San Juan lineage","atlas_context":"cutthroat_lineage_context"}},{"type":"Feature","geometry":{"type":"LineString","coordinates":[[-108.7988,37.0964],[-108.8012,37.0943],[-108.8025,37.0915],[-108.8083,37.0876]]},"properties":{"name":"Aztec Wash","display_name":"Aztec Wash","source_name":"Aztec Wash","state":"CO","atlas_class":"named_natural_stream_detail","huc8":"14080107","huc8Name":"Mancos","lineageKey":"sanJuan","lineage":"sanJuan","historic":"sanJuan","current":"sanJuan","recovery":"recoveryWatch","lineageLabel":"San Juan lineage","atlas_context":"cutthroat_lineage_context"}},{"type":"Feature","geometry":{"type":"LineString","coordinates":[[-108.7249,37.1382],[-108.726,37.1346],[-108.7291,37.1342],[-108.7294,37.133],[-108.7314,37.1326]]},"properties":{"name":"Navajo Wash","display_name":"Navajo Wash","source_name":"Navajo Wash","state":"CO","atlas_class":"named_natural_stream_detail","huc8":"14080107","huc8Name":"Mancos","lineageKey":"sanJuan","lineage":"sanJuan","historic":"sanJuan","current":"sanJuan","recovery":"recoveryWatch","lineageLabel":"San Juan lineage","atlas_context":"cutthroat_lineage_context"}},{"type":"Feature","geometry":{"type":"LineString","coordinates":[[-108.7455,37.1082],[-108.7453,37.1069]]},"properties":{"name":"Navajo Wash","display_name":"Navajo Wash","source_name":"Navajo Wash","state":"CO","atlas_class":"named_natural_stream_detail","huc8":"14080107","huc8Name":"Mancos","lineageKey":"sanJuan","lineage":"sanJuan","historic":"sanJuan","current":"sanJuan","recovery":"recoveryWatch","lineageLabel":"San Juan lineage","atlas_context":"cutthroat_lineage_context"}},{"type":"Feature","geometry":{"type":"LineString","coordinates":[[-108.7215,37.1449],[-108.7223,37.1445]]},"properties":{"name":"Navajo Wash","display_name":"Navajo Wash","source_name":"Navajo Wash","state":"CO","atlas_class":"named_natural_stream_detail","huc8":"14080107","huc8Name":"Mancos","lineageKey":"sanJuan","lineage":"sanJuan","historic":"sanJuan","current":"sanJuan","recovery":"recoveryWatch","lineageLabel":"San Juan lineage","atlas_context":"cutthroat_lineage_context"}},{"type":"Feature","geometry":{"type":"LineString","coordinates":[[-108.7294,37.171],[-108.7278,37.1664],[-108.7288,37.1641]]},"properties":{"name":"Cottonwood Wash","display_name":"Cottonwood Wash","source_name":"Cottonwood Wash","state":"CO","atlas_class":"named_natural_stream_detail","huc8":"14080107","huc8Name":"Mancos","lineageKey":"sanJuan","lineage":"sanJuan","historic":"sanJuan","current":"sanJuan","recovery":"recoveryWatch","lineageLabel":"San Juan lineage","atlas_context":"cutthroat_lineage_context"}},{"type":"Feature","geometry":{"type":"LineString","coordinates":[[-108.7495,37.0935],[-108.7487,37.0903]]},"properties":{"name":"Navajo Wash","display_name":"Navajo Wash","source_name":"Navajo Wash","state":"CO","atlas_class":"named_natural_stream_detail","huc8":"14080107","huc8Name":"Mancos","lineageKey":"sanJuan","lineage":"sanJuan","historic":"sanJuan","current":"sanJuan","recovery":"recoveryWatch","lineageLabel":"San Juan lineage","atlas_context":"cutthroat_lineage_context"}},{"type":"Feature","geometry":{"type":"LineString","coordinates":[[-108.7358,37.1244],[-108.735,37.1236]]},"properties":{"name":"Navajo Wash","display_name":"Navajo Wash","source_name":"Navajo Wash","state":"CO","atlas_class":"named_natural_stream_detail","huc8":"14080107","huc8Name":"Mancos","lineageKey":"sanJuan","lineage":"sanJuan","historic":"sanJuan","current":"sanJuan","recovery":"recoveryWatch","lineageLabel":"San Juan lineage","atlas_context":"cutthroat_lineage_context"}},{"type":"Feature","geometry":{"type":"LineString","coordinates":[[-108.7428,37.1167],[-108.7433,37.1155]]},"properties":{"name":"Navajo Wash","display_name":"Navajo Wash","source_name":"Navajo Wash","state":"CO","atlas_class":"named_natural_stream_detail","huc8":"14080107","huc8Name":"Mancos","lineageKey":"sanJuan","lineage":"sanJuan","historic":"sanJuan","current":"sanJuan","recovery":"recoveryWatch","lineageLabel":"San Juan lineage","atlas_context":"cutthroat_lineage_context"}},{"type":"Feature","geometry":{"type":"LineString","coordinates":[[-108.7274,37.2015],[-108.7256,37.1918],[-108.7276,37.1847]]},"properties":{"name":"Cottonwood Wash","display_name":"Cottonwood Wash","source_name":"Cottonwood Wash","state":"CO","atlas_class":"named_natural_stream_detail","huc8":"14080107","huc8Name":"Mancos","lineageKey":"sanJuan","lineage":"sanJuan","historic":"sanJuan","current":"sanJuan","recovery":"recoveryWatch","lineageLabel":"San Juan lineage","atlas_context":"cutthroat_lineage_context"}}]}