{"type":"FeatureCollection","metadata":{"source":"C:\\ct-atlas-data\\processed\\geojson\\interpreted\\colorado_named_natural_streams_complete_v1.geojson","type":"colorado-natural-stream-detail-tile-v2","tile_size_degrees":0.2,"x":-539,"y":194,"bounds":{"west":-107.8,"south":38.8,"east":-107.6,"north":39}},"features":[{"type":"Feature","geometry":{"type":"LineString","coordinates":[[-107.7503,38.8147],[-107.7447,38.8117],[-107.7424,38.8084],[-107.74,38.807]]},"properties":{"name":"Leroux Creek","display_name":"Leroux Creek","source_name":"Leroux Creek","state":"CO","atlas_class":"named_natural_stream_detail","huc8":"14020004","huc8Name":"North Fork Gunnison","lineageKey":"coloradoRiver","lineage":"coloradoRiver","historic":"coloradoRiver","current":"coloradoRiver","recovery":"recoveryWatch","lineageLabel":"Colorado River green lineage","atlas_context":"cutthroat_lineage_context"}},{"type":"Feature","geometry":{"type":"LineString","coordinates":[[-107.7375,38.8049],[-107.7321,38.7988],[-107.7305,38.7941],[-107.7305,38.7911]]},"properties":{"name":"Leroux Creek","display_name":"Leroux Creek","source_name":"Leroux Creek","state":"CO","atlas_class":"named_natural_stream_detail","huc8":"14020004","huc8Name":"North Fork Gunnison","lineageKey":"coloradoRiver","lineage":"coloradoRiver","historic":"coloradoRiver","current":"coloradoRiver","recovery":"recoveryWatch","lineageLabel":"Colorado River green lineage","atlas_context":"cutthroat_lineage_context"}},{"type":"Feature","geometry":{"type":"LineString","coordinates":[[-107.74,38.807],[-107.7375,38.8049]]},"properties":{"name":"Leroux Creek","display_name":"Leroux Creek","source_name":"Leroux Creek","state":"CO","atlas_class":"named_natural_stream_detail","huc8":"14020004","huc8Name":"North Fork Gunnison","lineageKey":"coloradoRiver","lineage":"coloradoRiver","historic":"coloradoRiver","current":"coloradoRiver","recovery":"recoveryWatch","lineageLabel":"Colorado River green lineage","atlas_context":"cutthroat_lineage_context"}},{"type":"Feature","geometry":{"type":"LineString","coordinates":[[-107.7233,38.9617],[-107.7299,38.96],[-107.7307,38.9588],[-107.7352,38.9566],[-107.7383,38.953]]},"properties":{"name":"Cow Creek","display_name":"Cow Creek","source_name":"Cow Creek","state":"CO","atlas_class":"named_natural_stream_detail","huc8":"14020004","huc8Name":"North Fork Gunnison","lineageKey":"coloradoRiver","lineage":"coloradoRiver","historic":"coloradoRiver","current":"coloradoRiver","recovery":"recoveryWatch","lineageLabel":"Colorado River green lineage","atlas_context":"cutthroat_lineage_context"}},{"type":"Feature","geometry":{"type":"LineString","coordinates":[[-107.6899,38.9317],[-107.686,38.9278],[-107.6852,38.9246]]},"properties":{"name":"West Roatcap Creek","display_name":"West Roatcap Creek","source_name":"West Roatcap Creek","state":"CO","atlas_class":"named_natural_stream_detail","huc8":"14020004","huc8Name":"North Fork Gunnison","lineageKey":"coloradoRiver","lineage":"coloradoRiver","historic":"coloradoRiver","current":"coloradoRiver","recovery":"recoveryWatch","lineageLabel":"Colorado River green lineage","atlas_context":"cutthroat_lineage_context"}},{"type":"Feature","geometry":{"type":"LineString","coordinates":[[-107.6676,38.9085],[-107.6665,38.9073],[-107.6625,38.9069],[-107.6593,38.9053]]},"properties":{"name":"West Roatcap Creek","display_name":"West Roatcap Creek","source_name":"West Roatcap Creek","state":"CO","atlas_class":"named_natural_stream_detail","huc8":"14020004","huc8Name":"North Fork Gunnison","lineageKey":"coloradoRiver","lineage":"coloradoRiver","historic":"coloradoRiver","current":"coloradoRiver","recovery":"recoveryWatch","lineageLabel":"Colorado River green lineage","atlas_context":"cutthroat_lineage_context"}},{"type":"Feature","geometry":{"type":"LineString","coordinates":[[-107.7604,38.9111],[-107.7624,38.9108]]},"properties":{"name":"Dever Creek","display_name":"Dever Creek","source_name":"Dever Creek","state":"CO","atlas_class":"named_natural_stream_detail","huc8":"14020004","huc8Name":"North Fork Gunnison","lineageKey":"coloradoRiver","lineage":"coloradoRiver","historic":"coloradoRiver","current":"coloradoRiver","recovery":"recoveryWatch","lineageLabel":"Colorado River green lineage","atlas_context":"cutthroat_lineage_context"}},{"type":"Feature","geometry":{"type":"LineString","coordinates":[[-107.6628,38.9708],[-107.656,38.9705],[-107.651,38.9721]]},"properties":{"name":"West Fork Terror Creek","display_name":"West Fork Terror Creek","source_name":"West Fork Terror Creek","state":"CO","atlas_class":"named_natural_stream_detail","huc8":"14020004","huc8Name":"North Fork Gunnison","lineageKey":"coloradoRiver","lineage":"coloradoRiver","historic":"coloradoRiver","current":"coloradoRiver","recovery":"recoveryWatch","lineageLabel":"Colorado River green lineage","atlas_context":"cutthroat_lineage_context"}},{"type":"Feature","geometry":{"type":"LineString","coordinates":[[-107.7517,38.9445],[-107.7552,38.9433]]},"properties":{"name":"Cow Creek","display_name":"Cow Creek","source_name":"Cow Creek","state":"CO","atlas_class":"named_natural_stream_detail","huc8":"14020004","huc8Name":"North Fork Gunnison","lineageKey":"coloradoRiver","lineage":"coloradoRiver","historic":"coloradoRiver","current":"coloradoRiver","recovery":"recoveryWatch","lineageLabel":"Colorado River green lineage","atlas_context":"cutthroat_lineage_context"}},{"type":"Feature","geometry":{"type":"LineString","coordinates":[[-107.7933,38.9253],[-107.794,38.923]]},"properties":{"name":"Leroux Creek","display_name":"Leroux Creek","source_name":"Leroux Creek","state":"CO","atlas_class":"named_natural_stream_detail","huc8":"14020004","huc8Name":"North Fork Gunnison","lineageKey":"coloradoRiver","lineage":"coloradoRiver","historic":"coloradoRiver","current":"coloradoRiver","recovery":"recoveryWatch","lineageLabel":"Colorado River green lineage","atlas_context":"cutthroat_lineage_context"}},{"type":"Feature","geometry":{"type":"LineString","coordinates":[[-107.7624,38.9108],[-107.7704,38.9064]]},"properties":{"name":"Dever Creek","display_name":"Dever Creek","source_name":"Dever Creek","state":"CO","atlas_class":"named_natural_stream_detail","huc8":"14020004","huc8Name":"North Fork Gunnison","lineageKey":"coloradoRiver","lineage":"coloradoRiver","historic":"coloradoRiver","current":"coloradoRiver","recovery":"recoveryWatch","lineageLabel":"Colorado River green lineage","atlas_context":"cutthroat_lineage_context"}},{"type":"Feature","geometry":{"type":"LineString","coordinates":[[-107.7321,38.97],[-107.7329,38.9678],[-107.7345,38.9671],[-107.736,38.9644]]},"properties":{"name":"West Leroux Creek","display_name":"West Leroux Creek","source_name":"West Leroux Creek","state":"CO","atlas_class":"named_natural_stream_detail","huc8":"14020004","huc8Name":"North Fork Gunnison","lineageKey":"coloradoRiver","lineage":"coloradoRiver","historic":"coloradoRiver","current":"coloradoRiver","recovery":"recoveryWatch","lineageLabel":"Colorado River green lineage","atlas_context":"cutthroat_lineage_context"}},{"type":"Feature","geometry":{"type":"LineString","coordinates":[[-107.7603,38.9425],[-107.7637,38.9422]]},"properties":{"name":"Cow Creek","display_name":"Cow Creek","source_name":"Cow Creek","state":"CO","atlas_class":"named_natural_stream_detail","huc8":"14020004","huc8Name":"North Fork Gunnison","lineageKey":"coloradoRiver","lineage":"coloradoRiver","historic":"coloradoRiver","current":"coloradoRiver","recovery":"recoveryWatch","lineageLabel":"Colorado River green lineage","atlas_context":"cutthroat_lineage_context"}},{"type":"Feature","geometry":{"type":"LineString","coordinates":[[-107.7752,38.9041],[-107.7773,38.9031]]},"properties":{"name":"Dever Creek","display_name":"Dever Creek","source_name":"Dever Creek","state":"CO","atlas_class":"named_natural_stream_detail","huc8":"14020004","huc8Name":"North Fork Gunnison","lineageKey":"coloradoRiver","lineage":"coloradoRiver","historic":"coloradoRiver","current":"coloradoRiver","recovery":"recoveryWatch","lineageLabel":"Colorado River green lineage","atlas_context":"cutthroat_lineage_context"}},{"type":"Feature","geometry":{"type":"LineString","coordinates":[[-107.746,38.9227],[-107.7461,38.9209],[-107.7482,38.9201],[-107.7492,38.9177]]},"properties":{"name":"Dever Creek","display_name":"Dever Creek","source_name":"Dever Creek","state":"CO","atlas_class":"named_natural_stream_detail","huc8":"14020004","huc8Name":"North Fork Gunnison","lineageKey":"coloradoRiver","lineage":"coloradoRiver","historic":"coloradoRiver","current":"coloradoRiver","recovery":"recoveryWatch","lineageLabel":"Colorado River green lineage","atlas_context":"cutthroat_lineage_context"}},{"type":"Feature","geometry":{"type":"LineString","coordinates":[[-107.7527,38.9144],[-107.7561,38.9117]]},"properties":{"name":"Dever Creek","display_name":"Dever Creek","source_name":"Dever Creek","state":"CO","atlas_class":"named_natural_stream_detail","huc8":"14020004","huc8Name":"North Fork Gunnison","lineageKey":"coloradoRiver","lineage":"coloradoRiver","historic":"coloradoRiver","current":"coloradoRiver","recovery":"recoveryWatch","lineageLabel":"Colorado River green lineage","atlas_context":"cutthroat_lineage_context"}},{"type":"Feature","geometry":{"type":"LineString","coordinates":[[-107.736,38.9644],[-107.7441,38.9602],[-107.7439,38.9584],[-107.7448,38.9582],[-107.7451,38.9568]]},"properties":{"name":"Leroux Creek","display_name":"Leroux Creek","source_name":"Leroux Creek","state":"CO","atlas_class":"named_natural_stream_detail","huc8":"14020004","huc8Name":"North Fork Gunnison","lineageKey":"coloradoRiver","lineage":"coloradoRiver","historic":"coloradoRiver","current":"coloradoRiver","recovery":"recoveryWatch","lineageLabel":"Colorado River green lineage","atlas_context":"cutthroat_lineage_context"}},{"type":"Feature","geometry":{"type":"LineString","coordinates":[[-107.7944,38.9219],[-107.7939,38.92],[-107.7955,38.9171]]},"properties":{"name":"Leroux Creek","display_name":"Leroux Creek","source_name":"Leroux Creek","state":"CO","atlas_class":"named_natural_stream_detail","huc8":"14020004","huc8Name":"North Fork Gunnison","lineageKey":"coloradoRiver","lineage":"coloradoRiver","historic":"coloradoRiver","current":"coloradoRiver","recovery":"recoveryWatch","lineageLabel":"Colorado River green lineage","atlas_context":"cutthroat_lineage_context"}},{"type":"Feature","geometry":{"type":"LineString","coordinates":[[-107.7296,38.9859],[-107.7278,38.9811],[-107.7291,38.9783]]},"properties":{"name":"West Leroux Creek","display_name":"West Leroux Creek","source_name":"West Leroux Creek","state":"CO","atlas_class":"named_natural_stream_detail","huc8":"14020004","huc8Name":"North Fork Gunnison","lineageKey":"coloradoRiver","lineage":"coloradoRiver","historic":"coloradoRiver","current":"coloradoRiver","recovery":"recoveryWatch","lineageLabel":"Colorado River green lineage","atlas_context":"cutthroat_lineage_context"}},{"type":"Feature","geometry":{"type":"LineString","coordinates":[[-107.7302,38.975],[-107.732,38.9707]]},"properties":{"name":"West Leroux Creek","display_name":"West Leroux Creek","source_name":"West Leroux Creek","state":"CO","atlas_class":"named_natural_stream_detail","huc8":"14020004","huc8Name":"North Fork Gunnison","lineageKey":"coloradoRiver","lineage":"coloradoRiver","historic":"coloradoRiver","current":"coloradoRiver","recovery":"recoveryWatch","lineageLabel":"Colorado River green lineage","atlas_context":"cutthroat_lineage_context"}},{"type":"Feature","geometry":{"type":"LineString","coordinates":[[-107.7565,38.9521],[-107.7599,38.9496],[-107.7597,38.9488],[-107.7619,38.9468]]},"properties":{"name":"Leroux Creek","display_name":"Leroux Creek","source_name":"Leroux Creek","state":"CO","atlas_class":"named_natural_stream_detail","huc8":"14020004","huc8Name":"North Fork Gunnison","lineageKey":"coloradoRiver","lineage":"coloradoRiver","historic":"coloradoRiver","current":"coloradoRiver","recovery":"recoveryWatch","lineageLabel":"Colorado River green lineage","atlas_context":"cutthroat_lineage_context"}},{"type":"Feature","geometry":{"type":"LineString","coordinates":[[-107.712,38.9843],[-107.713,38.9823],[-107.7161,38.9813]]},"properties":{"name":"East Leroux Creek","display_name":"East Leroux Creek","source_name":"East Leroux Creek","state":"CO","atlas_class":"named_natural_stream_detail","huc8":"14020004","huc8Name":"North Fork Gunnison","lineageKey":"coloradoRiver","lineage":"coloradoRiver","historic":"coloradoRiver","current":"coloradoRiver","recovery":"recoveryWatch","lineageLabel":"Colorado River green lineage","atlas_context":"cutthroat_lineage_context"}},{"type":"Feature","geometry":{"type":"LineString","coordinates":[[-107.7451,38.9568],[-107.7504,38.9545],[-107.7535,38.9543],[-107.7565,38.9521]]},"properties":{"name":"Leroux Creek","display_name":"Leroux Creek","source_name":"Leroux Creek","state":"CO","atlas_class":"named_natural_stream_detail","huc8":"14020004","huc8Name":"North Fork Gunnison","lineageKey":"coloradoRiver","lineage":"coloradoRiver","historic":"coloradoRiver","current":"coloradoRiver","recovery":"recoveryWatch","lineageLabel":"Colorado River green lineage","atlas_context":"cutthroat_lineage_context"}},{"type":"Feature","geometry":{"type":"LineString","coordinates":[[-107.7619,38.9468],[-107.7655,38.9446],[-107.767,38.9447],[-107.7674,38.9435],[-107.7687,38.9434],[-107.7709,38.9415],[-107.775,38.9405],[-107.7812,38.9371],[-107.7872,38.9359]]},"properties":{"name":"Leroux Creek","display_name":"Leroux Creek","source_name":"Leroux Creek","state":"CO","atlas_class":"named_natural_stream_detail","huc8":"14020004","huc8Name":"North Fork Gunnison","lineageKey":"coloradoRiver","lineage":"coloradoRiver","historic":"coloradoRiver","current":"coloradoRiver","recovery":"recoveryWatch","lineageLabel":"Colorado River green lineage","atlas_context":"cutthroat_lineage_context"}},{"type":"Feature","geometry":{"type":"LineString","coordinates":[[-107.7506,38.9449],[-107.7517,38.9445]]},"properties":{"name":"Cow Creek","display_name":"Cow Creek","source_name":"Cow Creek","state":"CO","atlas_class":"named_natural_stream_detail","huc8":"14020004","huc8Name":"North Fork Gunnison","lineageKey":"coloradoRiver","lineage":"coloradoRiver","historic":"coloradoRiver","current":"coloradoRiver","recovery":"recoveryWatch","lineageLabel":"Colorado River green lineage","atlas_context":"cutthroat_lineage_context"}},{"type":"Feature","geometry":{"type":"LineString","coordinates":[[-107.7013,38.9705],[-107.7046,38.9689],[-107.7073,38.9691],[-107.7099,38.9661],[-107.7102,38.9646]]},"properties":{"name":"Cow Creek","display_name":"Cow Creek","source_name":"Cow Creek","state":"CO","atlas_class":"named_natural_stream_detail","huc8":"14020004","huc8Name":"North Fork Gunnison","lineageKey":"coloradoRiver","lineage":"coloradoRiver","historic":"coloradoRiver","current":"coloradoRiver","recovery":"recoveryWatch","lineageLabel":"Colorado River green lineage","atlas_context":"cutthroat_lineage_context"}},{"type":"Feature","geometry":{"type":"LineString","coordinates":[[-107.7207,38.9804],[-107.7222,38.9789]]},"properties":{"name":"East Leroux Creek","display_name":"East Leroux Creek","source_name":"East Leroux Creek","state":"CO","atlas_class":"named_natural_stream_detail","huc8":"14020004","huc8Name":"North Fork Gunnison","lineageKey":"coloradoRiver","lineage":"coloradoRiver","historic":"coloradoRiver","current":"coloradoRiver","recovery":"recoveryWatch","lineageLabel":"Colorado River green lineage","atlas_context":"cutthroat_lineage_context"}},{"type":"Feature","geometry":{"type":"LineString","coordinates":[[-107.7637,38.9422],[-107.7672,38.9415],[-107.77,38.9392]]},"properties":{"name":"Cow Creek","display_name":"Cow Creek","source_name":"Cow Creek","state":"CO","atlas_class":"named_natural_stream_detail","huc8":"14020004","huc8Name":"North Fork Gunnison","lineageKey":"coloradoRiver","lineage":"coloradoRiver","historic":"coloradoRiver","current":"coloradoRiver","recovery":"recoveryWatch","lineageLabel":"Colorado River green lineage","atlas_context":"cutthroat_lineage_context"}},{"type":"Feature","geometry":{"type":"LineString","coordinates":[[-107.7219,38.9613],[-107.7233,38.9617]]},"properties":{"name":"Cow Creek","display_name":"Cow Creek","source_name":"Cow Creek","state":"CO","atlas_class":"named_natural_stream_detail","huc8":"14020004","huc8Name":"North Fork Gunnison","lineageKey":"coloradoRiver","lineage":"coloradoRiver","historic":"coloradoRiver","current":"coloradoRiver","recovery":"recoveryWatch","lineageLabel":"Colorado River green lineage","atlas_context":"cutthroat_lineage_context"}},{"type":"Feature","geometry":{"type":"LineString","coordinates":[[-107.7014,38.9421],[-107.6993,38.9383]]},"properties":{"name":"West Roatcap Creek","display_name":"West Roatcap Creek","source_name":"West Roatcap Creek","state":"CO","atlas_class":"named_natural_stream_detail","huc8":"14020004","huc8Name":"North Fork Gunnison","lineageKey":"coloradoRiver","lineage":"coloradoRiver","historic":"coloradoRiver","current":"coloradoRiver","recovery":"recoveryWatch","lineageLabel":"Colorado River green lineage","atlas_context":"cutthroat_lineage_context"}},{"type":"Feature","geometry":{"type":"LineString","coordinates":[[-107.7161,38.9813],[-107.7183,38.9814],[-107.7207,38.9804]]},"properties":{"name":"East Leroux Creek","display_name":"East Leroux Creek","source_name":"East Leroux Creek","state":"CO","atlas_class":"named_natural_stream_detail","huc8":"14020004","huc8Name":"North Fork Gunnison","lineageKey":"coloradoRiver","lineage":"coloradoRiver","historic":"coloradoRiver","current":"coloradoRiver","recovery":"recoveryWatch","lineageLabel":"Colorado River green lineage","atlas_context":"cutthroat_lineage_context"}},{"type":"Feature","geometry":{"type":"LineString","coordinates":[[-107.7886,39.0044],[-107.7903,39.0012],[-107.7901,38.9989]]},"properties":{"name":"Currant Creek","display_name":"Currant Creek","source_name":"Currant Creek","state":"CO","atlas_class":"named_natural_stream_detail","huc8":"14020005","huc8Name":"Lower Gunnison","lineageKey":"coloradoRiver","lineage":"coloradoRiver","historic":"coloradoRiver","current":"coloradoRiver","recovery":"recoveryWatch","lineageLabel":"Colorado River green lineage","atlas_context":"cutthroat_lineage_context"}},{"type":"Feature","geometry":{"type":"LineString","coordinates":[[-107.7937,38.9259],[-107.7933,38.9253]]},"properties":{"name":"Leroux Creek","display_name":"Leroux Creek","source_name":"Leroux Creek","state":"CO","atlas_class":"named_natural_stream_detail","huc8":"14020004","huc8Name":"North Fork Gunnison","lineageKey":"coloradoRiver","lineage":"coloradoRiver","historic":"coloradoRiver","current":"coloradoRiver","recovery":"recoveryWatch","lineageLabel":"Colorado River green lineage","atlas_context":"cutthroat_lineage_context"}},{"type":"Feature","geometry":{"type":"LineString","coordinates":[[-107.7777,38.8271],[-107.776,38.8245]]},"properties":{"name":"Leroux Creek","display_name":"Leroux Creek","source_name":"Leroux Creek","state":"CO","atlas_class":"named_natural_stream_detail","huc8":"14020004","huc8Name":"North Fork Gunnison","lineageKey":"coloradoRiver","lineage":"coloradoRiver","historic":"coloradoRiver","current":"coloradoRiver","recovery":"recoveryWatch","lineageLabel":"Colorado River green lineage","atlas_context":"cutthroat_lineage_context"}},{"type":"Feature","geometry":{"type":"LineString","coordinates":[[-107.776,38.8245],[-107.7735,38.8218],[-107.7644,38.8194],[-107.7623,38.82],[-107.7608,38.819],[-107.758,38.8193],[-107.7503,38.8147]]},"properties":{"name":"Leroux Creek","display_name":"Leroux Creek","source_name":"Leroux Creek","state":"CO","atlas_class":"named_natural_stream_detail","huc8":"14020004","huc8Name":"North Fork Gunnison","lineageKey":"coloradoRiver","lineage":"coloradoRiver","historic":"coloradoRiver","current":"coloradoRiver","recovery":"recoveryWatch","lineageLabel":"Colorado River green lineage","atlas_context":"cutthroat_lineage_context"}},{"type":"Feature","geometry":{"type":"LineString","coordinates":[[-107.7773,38.8289],[-107.7777,38.8271]]},"properties":{"name":"Leroux Creek","display_name":"Leroux Creek","source_name":"Leroux Creek","state":"CO","atlas_class":"named_natural_stream_detail","huc8":"14020004","huc8Name":"North Fork Gunnison","lineageKey":"coloradoRiver","lineage":"coloradoRiver","historic":"coloradoRiver","current":"coloradoRiver","recovery":"recoveryWatch","lineageLabel":"Colorado River green lineage","atlas_context":"cutthroat_lineage_context"}},{"type":"Feature","geometry":{"type":"LineString","coordinates":[[-107.7788,38.8388],[-107.7777,38.838],[-107.7767,38.8351]]},"properties":{"name":"Leroux Creek","display_name":"Leroux Creek","source_name":"Leroux Creek","state":"CO","atlas_class":"named_natural_stream_detail","huc8":"14020004","huc8Name":"North Fork Gunnison","lineageKey":"coloradoRiver","lineage":"coloradoRiver","historic":"coloradoRiver","current":"coloradoRiver","recovery":"recoveryWatch","lineageLabel":"Colorado River green lineage","atlas_context":"cutthroat_lineage_context"}},{"type":"Feature","geometry":{"type":"LineString","coordinates":[[-107.7767,38.8351],[-107.776,38.8301],[-107.7773,38.8289]]},"properties":{"name":"Leroux Creek","display_name":"Leroux Creek","source_name":"Leroux Creek","state":"CO","atlas_class":"named_natural_stream_detail","huc8":"14020004","huc8Name":"North Fork Gunnison","lineageKey":"coloradoRiver","lineage":"coloradoRiver","historic":"coloradoRiver","current":"coloradoRiver","recovery":"recoveryWatch","lineageLabel":"Colorado River green lineage","atlas_context":"cutthroat_lineage_context"}},{"type":"Feature","geometry":{"type":"LineString","coordinates":[[-107.7085,38.8409],[-107.7055,38.8367],[-107.7018,38.8335],[-107.6964,38.8307]]},"properties":{"name":"Jay Creek","display_name":"Jay Creek","source_name":"Jay Creek","state":"CO","atlas_class":"named_natural_stream_detail","huc8":"14020004","huc8Name":"North Fork Gunnison","lineageKey":"coloradoRiver","lineage":"coloradoRiver","historic":"coloradoRiver","current":"coloradoRiver","recovery":"recoveryWatch","lineageLabel":"Colorado River green lineage","atlas_context":"cutthroat_lineage_context"}},{"type":"Feature","geometry":{"type":"LineString","coordinates":[[-107.651,38.9721],[-107.646,38.9702],[-107.643,38.968]]},"properties":{"name":"West Fork Terror Creek","display_name":"West Fork Terror Creek","source_name":"West Fork Terror Creek","state":"CO","atlas_class":"named_natural_stream_detail","huc8":"14020004","huc8Name":"North Fork Gunnison","lineageKey":"coloradoRiver","lineage":"coloradoRiver","historic":"coloradoRiver","current":"coloradoRiver","recovery":"recoveryWatch","lineageLabel":"Colorado River green lineage","atlas_context":"cutthroat_lineage_context"}},{"type":"Feature","geometry":{"type":"LineString","coordinates":[[-107.643,38.968],[-107.6403,38.9669]]},"properties":{"name":"West Fork Terror Creek","display_name":"West Fork Terror Creek","source_name":"West Fork Terror Creek","state":"CO","atlas_class":"named_natural_stream_detail","huc8":"14020004","huc8Name":"North Fork Gunnison","lineageKey":"coloradoRiver","lineage":"coloradoRiver","historic":"coloradoRiver","current":"coloradoRiver","recovery":"recoveryWatch","lineageLabel":"Colorado River green lineage","atlas_context":"cutthroat_lineage_context"}},{"type":"Feature","geometry":{"type":"LineString","coordinates":[[-107.6341,38.9908],[-107.6349,38.9878]]},"properties":{"name":"Sink Creek","display_name":"Sink Creek","source_name":"Sink Creek","state":"CO","atlas_class":"named_natural_stream_detail","huc8":"14020004","huc8Name":"North Fork Gunnison","lineageKey":"coloradoRiver","lineage":"coloradoRiver","historic":"coloradoRiver","current":"coloradoRiver","recovery":"recoveryWatch","lineageLabel":"Colorado River green lineage","atlas_context":"cutthroat_lineage_context"}},{"type":"Feature","geometry":{"type":"LineString","coordinates":[[-107.6528,38.9882],[-107.6432,38.983],[-107.6402,38.9826]]},"properties":{"name":"Cunningham Creek","display_name":"Cunningham Creek","source_name":"Cunningham Creek","state":"CO","atlas_class":"named_natural_stream_detail","huc8":"14020004","huc8Name":"North Fork Gunnison","lineageKey":"coloradoRiver","lineage":"coloradoRiver","historic":"coloradoRiver","current":"coloradoRiver","recovery":"recoveryWatch","lineageLabel":"Colorado River green lineage","atlas_context":"cutthroat_lineage_context"}},{"type":"Feature","geometry":{"type":"LineString","coordinates":[[-107.6376,38.9809],[-107.6343,38.9771],[-107.6289,38.9734]]},"properties":{"name":"Cunningham Creek","display_name":"Cunningham Creek","source_name":"Cunningham Creek","state":"CO","atlas_class":"named_natural_stream_detail","huc8":"14020004","huc8Name":"North Fork Gunnison","lineageKey":"coloradoRiver","lineage":"coloradoRiver","historic":"coloradoRiver","current":"coloradoRiver","recovery":"recoveryWatch","lineageLabel":"Colorado River green lineage","atlas_context":"cutthroat_lineage_context"}},{"type":"Feature","geometry":{"type":"LineString","coordinates":[[-107.6586,38.9919],[-107.658,38.9904],[-107.6531,38.9883]]},"properties":{"name":"Cunningham Creek","display_name":"Cunningham Creek","source_name":"Cunningham Creek","state":"CO","atlas_class":"named_natural_stream_detail","huc8":"14020004","huc8Name":"North Fork Gunnison","lineageKey":"coloradoRiver","lineage":"coloradoRiver","historic":"coloradoRiver","current":"coloradoRiver","recovery":"recoveryWatch","lineageLabel":"Colorado River green lineage","atlas_context":"cutthroat_lineage_context"}},{"type":"Feature","geometry":{"type":"LineString","coordinates":[[-107.6403,38.9669],[-107.6364,38.9659]]},"properties":{"name":"West Fork Terror Creek","display_name":"West Fork Terror Creek","source_name":"West Fork Terror Creek","state":"CO","atlas_class":"named_natural_stream_detail","huc8":"14020004","huc8Name":"North Fork Gunnison","lineageKey":"coloradoRiver","lineage":"coloradoRiver","historic":"coloradoRiver","current":"coloradoRiver","recovery":"recoveryWatch","lineageLabel":"Colorado River green lineage","atlas_context":"cutthroat_lineage_context"}},{"type":"Feature","geometry":{"type":"LineString","coordinates":[[-107.6349,38.9878],[-107.6373,38.984],[-107.6376,38.9809]]},"properties":{"name":"Sink Creek","display_name":"Sink Creek","source_name":"Sink Creek","state":"CO","atlas_class":"named_natural_stream_detail","huc8":"14020004","huc8Name":"North Fork Gunnison","lineageKey":"coloradoRiver","lineage":"coloradoRiver","historic":"coloradoRiver","current":"coloradoRiver","recovery":"recoveryWatch","lineageLabel":"Colorado River green lineage","atlas_context":"cutthroat_lineage_context"}},{"type":"Feature","geometry":{"type":"LineString","coordinates":[[-107.6291,38.9652],[-107.6263,38.9643]]},"properties":{"name":"West Fork Terror Creek","display_name":"West Fork Terror Creek","source_name":"West Fork Terror Creek","state":"CO","atlas_class":"named_natural_stream_detail","huc8":"14020004","huc8Name":"North Fork Gunnison","lineageKey":"coloradoRiver","lineage":"coloradoRiver","historic":"coloradoRiver","current":"coloradoRiver","recovery":"recoveryWatch","lineageLabel":"Colorado River green lineage","atlas_context":"cutthroat_lineage_context"}},{"type":"Feature","geometry":{"type":"LineString","coordinates":[[-107.6402,38.9826],[-107.6376,38.9809]]},"properties":{"name":"Cunningham Creek","display_name":"Cunningham Creek","source_name":"Cunningham Creek","state":"CO","atlas_class":"named_natural_stream_detail","huc8":"14020004","huc8Name":"North Fork Gunnison","lineageKey":"coloradoRiver","lineage":"coloradoRiver","historic":"coloradoRiver","current":"coloradoRiver","recovery":"recoveryWatch","lineageLabel":"Colorado River green lineage","atlas_context":"cutthroat_lineage_context"}},{"type":"Feature","geometry":{"type":"LineString","coordinates":[[-107.649,38.9512],[-107.6488,38.9477]]},"properties":{"name":"East Roatcap Creek","display_name":"East Roatcap Creek","source_name":"East Roatcap Creek","state":"CO","atlas_class":"named_natural_stream_detail","huc8":"14020004","huc8Name":"North Fork Gunnison","lineageKey":"coloradoRiver","lineage":"coloradoRiver","historic":"coloradoRiver","current":"coloradoRiver","recovery":"recoveryWatch","lineageLabel":"Colorado River green lineage","atlas_context":"cutthroat_lineage_context"}},{"type":"Feature","geometry":{"type":"LineString","coordinates":[[-107.642,38.9174],[-107.6376,38.9111],[-107.6382,38.9047],[-107.6438,38.9007],[-107.6449,38.8982]]},"properties":{"name":"East Roatcap Creek","display_name":"East Roatcap Creek","source_name":"East Roatcap Creek","state":"CO","atlas_class":"named_natural_stream_detail","huc8":"14020004","huc8Name":"North Fork Gunnison","lineageKey":"coloradoRiver","lineage":"coloradoRiver","historic":"coloradoRiver","current":"coloradoRiver","recovery":"recoveryWatch","lineageLabel":"Colorado River green lineage","atlas_context":"cutthroat_lineage_context"}},{"type":"Feature","geometry":{"type":"LineString","coordinates":[[-107.6407,38.93],[-107.6426,38.9261]]},"properties":{"name":"East Roatcap Creek","display_name":"East Roatcap Creek","source_name":"East Roatcap Creek","state":"CO","atlas_class":"named_natural_stream_detail","huc8":"14020004","huc8Name":"North Fork Gunnison","lineageKey":"coloradoRiver","lineage":"coloradoRiver","historic":"coloradoRiver","current":"coloradoRiver","recovery":"recoveryWatch","lineageLabel":"Colorado River green lineage","atlas_context":"cutthroat_lineage_context"}},{"type":"Feature","geometry":{"type":"LineString","coordinates":[[-107.6426,38.9261],[-107.6435,38.9246],[-107.642,38.9174]]},"properties":{"name":"East Roatcap Creek","display_name":"East Roatcap Creek","source_name":"East Roatcap Creek","state":"CO","atlas_class":"named_natural_stream_detail","huc8":"14020004","huc8Name":"North Fork Gunnison","lineageKey":"coloradoRiver","lineage":"coloradoRiver","historic":"coloradoRiver","current":"coloradoRiver","recovery":"recoveryWatch","lineageLabel":"Colorado River green lineage","atlas_context":"cutthroat_lineage_context"}},{"type":"Feature","geometry":{"type":"LineString","coordinates":[[-107.6452,38.9401],[-107.6437,38.938],[-107.6429,38.9327],[-107.6407,38.93]]},"properties":{"name":"East Roatcap Creek","display_name":"East Roatcap Creek","source_name":"East Roatcap Creek","state":"CO","atlas_class":"named_natural_stream_detail","huc8":"14020004","huc8Name":"North Fork Gunnison","lineageKey":"coloradoRiver","lineage":"coloradoRiver","historic":"coloradoRiver","current":"coloradoRiver","recovery":"recoveryWatch","lineageLabel":"Colorado River green lineage","atlas_context":"cutthroat_lineage_context"}},{"type":"Feature","geometry":{"type":"LineString","coordinates":[[-107.6593,38.9053],[-107.6583,38.9045],[-107.6515,38.9034],[-107.6473,38.901],[-107.6449,38.8982]]},"properties":{"name":"West Roatcap Creek","display_name":"West Roatcap Creek","source_name":"West Roatcap Creek","state":"CO","atlas_class":"named_natural_stream_detail","huc8":"14020004","huc8Name":"North Fork Gunnison","lineageKey":"coloradoRiver","lineage":"coloradoRiver","historic":"coloradoRiver","current":"coloradoRiver","recovery":"recoveryWatch","lineageLabel":"Colorado River green lineage","atlas_context":"cutthroat_lineage_context"}},{"type":"Feature","geometry":{"type":"LineString","coordinates":[[-107.702,38.9479],[-107.7026,38.9457],[-107.7014,38.9421]]},"properties":{"name":"West Roatcap Creek","display_name":"West Roatcap Creek","source_name":"West Roatcap Creek","state":"CO","atlas_class":"named_natural_stream_detail","huc8":"14020004","huc8Name":"North Fork Gunnison","lineageKey":"coloradoRiver","lineage":"coloradoRiver","historic":"coloradoRiver","current":"coloradoRiver","recovery":"recoveryWatch","lineageLabel":"Colorado River green lineage","atlas_context":"cutthroat_lineage_context"}},{"type":"Feature","geometry":{"type":"LineString","coordinates":[[-107.6846,38.9241],[-107.6823,38.9217]]},"properties":{"name":"West Roatcap Creek","display_name":"West Roatcap Creek","source_name":"West Roatcap Creek","state":"CO","atlas_class":"named_natural_stream_detail","huc8":"14020004","huc8Name":"North Fork Gunnison","lineageKey":"coloradoRiver","lineage":"coloradoRiver","historic":"coloradoRiver","current":"coloradoRiver","recovery":"recoveryWatch","lineageLabel":"Colorado River green lineage","atlas_context":"cutthroat_lineage_context"}},{"type":"Feature","geometry":{"type":"LineString","coordinates":[[-107.7406,38.9331],[-107.7421,38.9264],[-107.746,38.9227]]},"properties":{"name":"Dever Creek","display_name":"Dever Creek","source_name":"Dever Creek","state":"CO","atlas_class":"named_natural_stream_detail","huc8":"14020004","huc8Name":"North Fork Gunnison","lineageKey":"coloradoRiver","lineage":"coloradoRiver","historic":"coloradoRiver","current":"coloradoRiver","recovery":"recoveryWatch","lineageLabel":"Colorado River green lineage","atlas_context":"cutthroat_lineage_context"}},{"type":"Feature","geometry":{"type":"LineString","coordinates":[[-107.7102,38.9646],[-107.7123,38.9633],[-107.7219,38.9613]]},"properties":{"name":"Cow Creek","display_name":"Cow Creek","source_name":"Cow Creek","state":"CO","atlas_class":"named_natural_stream_detail","huc8":"14020004","huc8Name":"North Fork Gunnison","lineageKey":"coloradoRiver","lineage":"coloradoRiver","historic":"coloradoRiver","current":"coloradoRiver","recovery":"recoveryWatch","lineageLabel":"Colorado River green lineage","atlas_context":"cutthroat_lineage_context"}},{"type":"Feature","geometry":{"type":"LineString","coordinates":[[-107.6931,38.9922],[-107.6983,38.9917]]},"properties":{"name":"Ellington Creek","display_name":"Ellington Creek","source_name":"Ellington Creek","state":"CO","atlas_class":"named_natural_stream_detail","huc8":"14020004","huc8Name":"North Fork Gunnison","lineageKey":"coloradoRiver","lineage":"coloradoRiver","historic":"coloradoRiver","current":"coloradoRiver","recovery":"recoveryWatch","lineageLabel":"Colorado River green lineage","atlas_context":"cutthroat_lineage_context"}},{"type":"Feature","geometry":{"type":"LineString","coordinates":[[-107.7963,38.9605],[-107.7978,38.9602]]},"properties":{"name":"Dry Creek","display_name":"Dry Creek","source_name":"Dry Creek","state":"CO","atlas_class":"named_natural_stream_detail","huc8":"14020005","huc8Name":"Lower Gunnison","lineageKey":"coloradoRiver","lineage":"coloradoRiver","historic":"coloradoRiver","current":"coloradoRiver","recovery":"recoveryWatch","lineageLabel":"Colorado River green lineage","atlas_context":"cutthroat_lineage_context"}},{"type":"Feature","geometry":{"type":"LineString","coordinates":[[-107.77,38.9392],[-107.7805,38.9319],[-107.7865,38.9313],[-107.7932,38.9254]]},"properties":{"name":"Cow Creek","display_name":"Cow Creek","source_name":"Cow Creek","state":"CO","atlas_class":"named_natural_stream_detail","huc8":"14020004","huc8Name":"North Fork Gunnison","lineageKey":"coloradoRiver","lineage":"coloradoRiver","historic":"coloradoRiver","current":"coloradoRiver","recovery":"recoveryWatch","lineageLabel":"Colorado River green lineage","atlas_context":"cutthroat_lineage_context"}},{"type":"Feature","geometry":{"type":"LineString","coordinates":[[-107.7306,38.9244],[-107.73,38.9253],[-107.7254,38.9246]]},"properties":{"name":"Jay Creek","display_name":"Jay Creek","source_name":"Jay Creek","state":"CO","atlas_class":"named_natural_stream_detail","huc8":"14020004","huc8Name":"North Fork Gunnison","lineageKey":"coloradoRiver","lineage":"coloradoRiver","historic":"coloradoRiver","current":"coloradoRiver","recovery":"recoveryWatch","lineageLabel":"Colorado River green lineage","atlas_context":"cutthroat_lineage_context"}},{"type":"Feature","geometry":{"type":"LineString","coordinates":[[-107.686,38.9957],[-107.6912,38.9956]]},"properties":{"name":"Ellington Creek","display_name":"Ellington Creek","source_name":"Ellington Creek","state":"CO","atlas_class":"named_natural_stream_detail","huc8":"14020004","huc8Name":"North Fork Gunnison","lineageKey":"coloradoRiver","lineage":"coloradoRiver","historic":"coloradoRiver","current":"coloradoRiver","recovery":"recoveryWatch","lineageLabel":"Colorado River green lineage","atlas_context":"cutthroat_lineage_context"}},{"type":"Feature","geometry":{"type":"LineString","coordinates":[[-107.6922,38.993],[-107.6927,38.9924]]},"properties":{"name":"Ellington Creek","display_name":"Ellington Creek","source_name":"Ellington Creek","state":"CO","atlas_class":"named_natural_stream_detail","huc8":"14020004","huc8Name":"North Fork Gunnison","lineageKey":"coloradoRiver","lineage":"coloradoRiver","historic":"coloradoRiver","current":"coloradoRiver","recovery":"recoveryWatch","lineageLabel":"Colorado River green lineage","atlas_context":"cutthroat_lineage_context"}},{"type":"Feature","geometry":{"type":"LineString","coordinates":[[-107.7921,38.9637],[-107.7939,38.9617]]},"properties":{"name":"Dry Creek","display_name":"Dry Creek","source_name":"Dry Creek","state":"CO","atlas_class":"named_natural_stream_detail","huc8":"14020005","huc8Name":"Lower Gunnison","lineageKey":"coloradoRiver","lineage":"coloradoRiver","historic":"coloradoRiver","current":"coloradoRiver","recovery":"recoveryWatch","lineageLabel":"Colorado River green lineage","atlas_context":"cutthroat_lineage_context"}},{"type":"Feature","geometry":{"type":"LineString","coordinates":[[-107.6678,38.9086],[-107.6676,38.9085]]},"properties":{"name":"West Roatcap Creek","display_name":"West Roatcap Creek","source_name":"West Roatcap Creek","state":"CO","atlas_class":"named_natural_stream_detail","huc8":"14020004","huc8Name":"North Fork Gunnison","lineageKey":"coloradoRiver","lineage":"coloradoRiver","historic":"coloradoRiver","current":"coloradoRiver","recovery":"recoveryWatch","lineageLabel":"Colorado River green lineage","atlas_context":"cutthroat_lineage_context"}},{"type":"Feature","geometry":{"type":"LineString","coordinates":[[-107.6696,38.9725],[-107.6676,38.9726],[-107.6642,38.9712]]},"properties":{"name":"West Fork Terror Creek","display_name":"West Fork Terror Creek","source_name":"West Fork Terror Creek","state":"CO","atlas_class":"named_natural_stream_detail","huc8":"14020004","huc8Name":"North Fork Gunnison","lineageKey":"coloradoRiver","lineage":"coloradoRiver","historic":"coloradoRiver","current":"coloradoRiver","recovery":"recoveryWatch","lineageLabel":"Colorado River green lineage","atlas_context":"cutthroat_lineage_context"}},{"type":"Feature","geometry":{"type":"LineString","coordinates":[[-107.7901,38.9654],[-107.7921,38.9637]]},"properties":{"name":"Dry Creek","display_name":"Dry Creek","source_name":"Dry Creek","state":"CO","atlas_class":"named_natural_stream_detail","huc8":"14020005","huc8Name":"Lower Gunnison","lineageKey":"coloradoRiver","lineage":"coloradoRiver","historic":"coloradoRiver","current":"coloradoRiver","recovery":"recoveryWatch","lineageLabel":"Colorado River green lineage","atlas_context":"cutthroat_lineage_context"}},{"type":"Feature","geometry":{"type":"LineString","coordinates":[[-107.7955,38.9171],[-107.796,38.9153],[-107.7985,38.9123],[-107.798,38.9099],[-107.7937,38.9051],[-107.794,38.9023],[-107.7951,38.9012],[-107.7944,38.8998],[-107.7954,38.8977],[-107.7949,38.8965]]},"properties":{"name":"Leroux Creek","display_name":"Leroux Creek","source_name":"Leroux Creek","state":"CO","atlas_class":"named_natural_stream_detail","huc8":"14020004","huc8Name":"North Fork Gunnison","lineageKey":"coloradoRiver","lineage":"coloradoRiver","historic":"coloradoRiver","current":"coloradoRiver","recovery":"recoveryWatch","lineageLabel":"Colorado River green lineage","atlas_context":"cutthroat_lineage_context"}},{"type":"Feature","geometry":{"type":"LineString","coordinates":[[-107.7173,38.9217],[-107.7122,38.9195]]},"properties":{"name":"Jay Creek","display_name":"Jay Creek","source_name":"Jay Creek","state":"CO","atlas_class":"named_natural_stream_detail","huc8":"14020004","huc8Name":"North Fork Gunnison","lineageKey":"coloradoRiver","lineage":"coloradoRiver","historic":"coloradoRiver","current":"coloradoRiver","recovery":"recoveryWatch","lineageLabel":"Colorado River green lineage","atlas_context":"cutthroat_lineage_context"}},{"type":"Feature","geometry":{"type":"LineString","coordinates":[[-107.673,38.9129],[-107.6678,38.9086]]},"properties":{"name":"West Roatcap Creek","display_name":"West Roatcap Creek","source_name":"West Roatcap Creek","state":"CO","atlas_class":"named_natural_stream_detail","huc8":"14020004","huc8Name":"North Fork Gunnison","lineageKey":"coloradoRiver","lineage":"coloradoRiver","historic":"coloradoRiver","current":"coloradoRiver","recovery":"recoveryWatch","lineageLabel":"Colorado River green lineage","atlas_context":"cutthroat_lineage_context"}},{"type":"Feature","geometry":{"type":"LineString","coordinates":[[-107.7254,38.9246],[-107.7221,38.9222],[-107.7173,38.9217]]},"properties":{"name":"Jay Creek","display_name":"Jay Creek","source_name":"Jay Creek","state":"CO","atlas_class":"named_natural_stream_detail","huc8":"14020004","huc8Name":"North Fork Gunnison","lineageKey":"coloradoRiver","lineage":"coloradoRiver","historic":"coloradoRiver","current":"coloradoRiver","recovery":"recoveryWatch","lineageLabel":"Colorado River green lineage","atlas_context":"cutthroat_lineage_context"}},{"type":"Feature","geometry":{"type":"LineString","coordinates":[[-107.7704,38.9064],[-107.7752,38.9041]]},"properties":{"name":"Dever Creek","display_name":"Dever Creek","source_name":"Dever Creek","state":"CO","atlas_class":"named_natural_stream_detail","huc8":"14020004","huc8Name":"North Fork Gunnison","lineageKey":"coloradoRiver","lineage":"coloradoRiver","historic":"coloradoRiver","current":"coloradoRiver","recovery":"recoveryWatch","lineageLabel":"Colorado River green lineage","atlas_context":"cutthroat_lineage_context"}},{"type":"Feature","geometry":{"type":"LineString","coordinates":[[-107.7806,38.8998],[-107.7831,38.8942],[-107.7848,38.8878]]},"properties":{"name":"Dever Creek","display_name":"Dever Creek","source_name":"Dever Creek","state":"CO","atlas_class":"named_natural_stream_detail","huc8":"14020004","huc8Name":"North Fork Gunnison","lineageKey":"coloradoRiver","lineage":"coloradoRiver","historic":"coloradoRiver","current":"coloradoRiver","recovery":"recoveryWatch","lineageLabel":"Colorado River green lineage","atlas_context":"cutthroat_lineage_context"}},{"type":"Feature","geometry":{"type":"LineString","coordinates":[[-107.794,38.923],[-107.7944,38.9219]]},"properties":{"name":"Leroux Creek","display_name":"Leroux Creek","source_name":"Leroux Creek","state":"CO","atlas_class":"named_natural_stream_detail","huc8":"14020004","huc8Name":"North Fork Gunnison","lineageKey":"coloradoRiver","lineage":"coloradoRiver","historic":"coloradoRiver","current":"coloradoRiver","recovery":"recoveryWatch","lineageLabel":"Colorado River green lineage","atlas_context":"cutthroat_lineage_context"}},{"type":"Feature","geometry":{"type":"LineString","coordinates":[[-107.7383,38.953],[-107.7457,38.95],[-107.7506,38.9449]]},"properties":{"name":"Cow Creek","display_name":"Cow Creek","source_name":"Cow Creek","state":"CO","atlas_class":"named_natural_stream_detail","huc8":"14020004","huc8Name":"North Fork Gunnison","lineageKey":"coloradoRiver","lineage":"coloradoRiver","historic":"coloradoRiver","current":"coloradoRiver","recovery":"recoveryWatch","lineageLabel":"Colorado River green lineage","atlas_context":"cutthroat_lineage_context"}},{"type":"Feature","geometry":{"type":"LineString","coordinates":[[-107.7222,38.9789],[-107.7266,38.9758],[-107.7303,38.9674],[-107.7335,38.9646],[-107.736,38.9644]]},"properties":{"name":"East Leroux Creek","display_name":"East Leroux Creek","source_name":"East Leroux Creek","state":"CO","atlas_class":"named_natural_stream_detail","huc8":"14020004","huc8Name":"North Fork Gunnison","lineageKey":"coloradoRiver","lineage":"coloradoRiver","historic":"coloradoRiver","current":"coloradoRiver","recovery":"recoveryWatch","lineageLabel":"Colorado River green lineage","atlas_context":"cutthroat_lineage_context"}},{"type":"Feature","geometry":{"type":"LineString","coordinates":[[-107.7122,38.9195],[-107.7123,38.9157],[-107.7101,38.9087],[-107.7104,38.905],[-107.707,38.8987],[-107.705,38.8971],[-107.7037,38.8935]]},"properties":{"name":"Jay Creek","display_name":"Jay Creek","source_name":"Jay Creek","state":"CO","atlas_class":"named_natural_stream_detail","huc8":"14020004","huc8Name":"North Fork Gunnison","lineageKey":"coloradoRiver","lineage":"coloradoRiver","historic":"coloradoRiver","current":"coloradoRiver","recovery":"recoveryWatch","lineageLabel":"Colorado River green lineage","atlas_context":"cutthroat_lineage_context"}},{"type":"Feature","geometry":{"type":"LineString","coordinates":[[-107.785,38.9749],[-107.7834,38.972],[-107.7854,38.9701]]},"properties":{"name":"Dry Creek","display_name":"Dry Creek","source_name":"Dry Creek","state":"CO","atlas_class":"named_natural_stream_detail","huc8":"14020005","huc8Name":"Lower Gunnison","lineageKey":"coloradoRiver","lineage":"coloradoRiver","historic":"coloradoRiver","current":"coloradoRiver","recovery":"recoveryWatch","lineageLabel":"Colorado River green lineage","atlas_context":"cutthroat_lineage_context"}},{"type":"Feature","geometry":{"type":"LineString","coordinates":[[-107.6609,39.0068],[-107.661,38.9979],[-107.6586,38.9919]]},"properties":{"name":"Cunningham Creek","display_name":"Cunningham Creek","source_name":"Cunningham Creek","state":"CO","atlas_class":"named_natural_stream_detail","huc8":"14020004","huc8Name":"North Fork Gunnison","lineageKey":"coloradoRiver","lineage":"coloradoRiver","historic":"coloradoRiver","current":"coloradoRiver","recovery":"recoveryWatch","lineageLabel":"Colorado River green lineage","atlas_context":"cutthroat_lineage_context"}},{"type":"Feature","geometry":{"type":"LineString","coordinates":[[-107.6912,38.9956],[-107.6922,38.993]]},"properties":{"name":"Ellington Creek","display_name":"Ellington Creek","source_name":"Ellington Creek","state":"CO","atlas_class":"named_natural_stream_detail","huc8":"14020004","huc8Name":"North Fork Gunnison","lineageKey":"coloradoRiver","lineage":"coloradoRiver","historic":"coloradoRiver","current":"coloradoRiver","recovery":"recoveryWatch","lineageLabel":"Colorado River green lineage","atlas_context":"cutthroat_lineage_context"}},{"type":"Feature","geometry":{"type":"LineString","coordinates":[[-107.7592,38.9112],[-107.7604,38.9111]]},"properties":{"name":"Dever Creek","display_name":"Dever Creek","source_name":"Dever Creek","state":"CO","atlas_class":"named_natural_stream_detail","huc8":"14020004","huc8Name":"North Fork Gunnison","lineageKey":"coloradoRiver","lineage":"coloradoRiver","historic":"coloradoRiver","current":"coloradoRiver","recovery":"recoveryWatch","lineageLabel":"Colorado River green lineage","atlas_context":"cutthroat_lineage_context"}},{"type":"Feature","geometry":{"type":"LineString","coordinates":[[-107.7924,38.9293],[-107.7937,38.9259]]},"properties":{"name":"Leroux Creek","display_name":"Leroux Creek","source_name":"Leroux Creek","state":"CO","atlas_class":"named_natural_stream_detail","huc8":"14020004","huc8Name":"North Fork Gunnison","lineageKey":"coloradoRiver","lineage":"coloradoRiver","historic":"coloradoRiver","current":"coloradoRiver","recovery":"recoveryWatch","lineageLabel":"Colorado River green lineage","atlas_context":"cutthroat_lineage_context"}},{"type":"Feature","geometry":{"type":"LineString","coordinates":[[-107.7949,38.8965],[-107.7928,38.8919],[-107.7924,38.8888],[-107.786,38.8814]]},"properties":{"name":"Leroux Creek","display_name":"Leroux Creek","source_name":"Leroux Creek","state":"CO","atlas_class":"named_natural_stream_detail","huc8":"14020004","huc8Name":"North Fork Gunnison","lineageKey":"coloradoRiver","lineage":"coloradoRiver","historic":"coloradoRiver","current":"coloradoRiver","recovery":"recoveryWatch","lineageLabel":"Colorado River green lineage","atlas_context":"cutthroat_lineage_context"}},{"type":"Feature","geometry":{"type":"LineString","coordinates":[[-107.7978,38.9602],[-107.8031,38.9589]]},"properties":{"name":"Dry Creek","display_name":"Dry Creek","source_name":"Dry Creek","state":"CO","atlas_class":"named_natural_stream_detail","huc8":"14020005","huc8Name":"Lower Gunnison","lineageKey":"coloradoRiver","lineage":"coloradoRiver","historic":"coloradoRiver","current":"coloradoRiver","recovery":"recoveryWatch","lineageLabel":"Colorado River green lineage","atlas_context":"cutthroat_lineage_context"}},{"type":"Feature","geometry":{"type":"LineString","coordinates":[[-107.7291,38.9783],[-107.7302,38.975]]},"properties":{"name":"West Leroux Creek","display_name":"West Leroux Creek","source_name":"West Leroux Creek","state":"CO","atlas_class":"named_natural_stream_detail","huc8":"14020004","huc8Name":"North Fork Gunnison","lineageKey":"coloradoRiver","lineage":"coloradoRiver","historic":"coloradoRiver","current":"coloradoRiver","recovery":"recoveryWatch","lineageLabel":"Colorado River green lineage","atlas_context":"cutthroat_lineage_context"}},{"type":"Feature","geometry":{"type":"LineString","coordinates":[[-107.7773,38.9031],[-107.7806,38.8998]]},"properties":{"name":"Dever Creek","display_name":"Dever Creek","source_name":"Dever Creek","state":"CO","atlas_class":"named_natural_stream_detail","huc8":"14020004","huc8Name":"North Fork Gunnison","lineageKey":"coloradoRiver","lineage":"coloradoRiver","historic":"coloradoRiver","current":"coloradoRiver","recovery":"recoveryWatch","lineageLabel":"Colorado River green lineage","atlas_context":"cutthroat_lineage_context"}},{"type":"Feature","geometry":{"type":"LineString","coordinates":[[-107.7352,39.0052],[-107.7336,39.0014],[-107.7314,38.9995],[-107.7318,38.9968],[-107.7304,38.9945],[-107.7311,38.9909],[-107.7297,38.9892],[-107.7296,38.9859]]},"properties":{"name":"West Leroux Creek","display_name":"West Leroux Creek","source_name":"West Leroux Creek","state":"CO","atlas_class":"named_natural_stream_detail","huc8":"14020004","huc8Name":"North Fork Gunnison","lineageKey":"coloradoRiver","lineage":"coloradoRiver","historic":"coloradoRiver","current":"coloradoRiver","recovery":"recoveryWatch","lineageLabel":"Colorado River green lineage","atlas_context":"cutthroat_lineage_context"}},{"type":"Feature","geometry":{"type":"LineString","coordinates":[[-107.7492,38.9177],[-107.7527,38.9144]]},"properties":{"name":"Dever Creek","display_name":"Dever Creek","source_name":"Dever Creek","state":"CO","atlas_class":"named_natural_stream_detail","huc8":"14020004","huc8Name":"North Fork Gunnison","lineageKey":"coloradoRiver","lineage":"coloradoRiver","historic":"coloradoRiver","current":"coloradoRiver","recovery":"recoveryWatch","lineageLabel":"Colorado River green lineage","atlas_context":"cutthroat_lineage_context"}},{"type":"Feature","geometry":{"type":"LineString","coordinates":[[-107.7007,38.9923],[-107.7051,38.9918],[-107.7075,38.9905]]},"properties":{"name":"Ellington Creek","display_name":"Ellington Creek","source_name":"Ellington Creek","state":"CO","atlas_class":"named_natural_stream_detail","huc8":"14020004","huc8Name":"North Fork Gunnison","lineageKey":"coloradoRiver","lineage":"coloradoRiver","historic":"coloradoRiver","current":"coloradoRiver","recovery":"recoveryWatch","lineageLabel":"Colorado River green lineage","atlas_context":"cutthroat_lineage_context"}},{"type":"Feature","geometry":{"type":"LineString","coordinates":[[-107.7872,38.9359],[-107.7886,38.934]]},"properties":{"name":"Leroux Creek","display_name":"Leroux Creek","source_name":"Leroux Creek","state":"CO","atlas_class":"named_natural_stream_detail","huc8":"14020004","huc8Name":"North Fork Gunnison","lineageKey":"coloradoRiver","lineage":"coloradoRiver","historic":"coloradoRiver","current":"coloradoRiver","recovery":"recoveryWatch","lineageLabel":"Colorado River green lineage","atlas_context":"cutthroat_lineage_context"}},{"type":"Feature","geometry":{"type":"LineString","coordinates":[[-107.6852,38.9246],[-107.6846,38.9241]]},"properties":{"name":"West Roatcap Creek","display_name":"West Roatcap Creek","source_name":"West Roatcap Creek","state":"CO","atlas_class":"named_natural_stream_detail","huc8":"14020004","huc8Name":"North Fork Gunnison","lineageKey":"coloradoRiver","lineage":"coloradoRiver","historic":"coloradoRiver","current":"coloradoRiver","recovery":"recoveryWatch","lineageLabel":"Colorado River green lineage","atlas_context":"cutthroat_lineage_context"}},{"type":"Feature","geometry":{"type":"LineString","coordinates":[[-107.7552,38.9433],[-107.7578,38.9435],[-107.7603,38.9425]]},"properties":{"name":"Cow Creek","display_name":"Cow Creek","source_name":"Cow Creek","state":"CO","atlas_class":"named_natural_stream_detail","huc8":"14020004","huc8Name":"North Fork Gunnison","lineageKey":"coloradoRiver","lineage":"coloradoRiver","historic":"coloradoRiver","current":"coloradoRiver","recovery":"recoveryWatch","lineageLabel":"Colorado River green lineage","atlas_context":"cutthroat_lineage_context"}},{"type":"Feature","geometry":{"type":"LineString","coordinates":[[-107.6991,38.9381],[-107.6899,38.9317]]},"properties":{"name":"West Roatcap Creek","display_name":"West Roatcap Creek","source_name":"West Roatcap Creek","state":"CO","atlas_class":"named_natural_stream_detail","huc8":"14020004","huc8Name":"North Fork Gunnison","lineageKey":"coloradoRiver","lineage":"coloradoRiver","historic":"coloradoRiver","current":"coloradoRiver","recovery":"recoveryWatch","lineageLabel":"Colorado River green lineage","atlas_context":"cutthroat_lineage_context"}},{"type":"Feature","geometry":{"type":"LineString","coordinates":[[-107.732,38.9707],[-107.7321,38.97]]},"properties":{"name":"West Leroux Creek","display_name":"West Leroux Creek","source_name":"West Leroux Creek","state":"CO","atlas_class":"named_natural_stream_detail","huc8":"14020004","huc8Name":"North Fork Gunnison","lineageKey":"coloradoRiver","lineage":"coloradoRiver","historic":"coloradoRiver","current":"coloradoRiver","recovery":"recoveryWatch","lineageLabel":"Colorado River green lineage","atlas_context":"cutthroat_lineage_context"}},{"type":"Feature","geometry":{"type":"LineString","coordinates":[[-107.7358,38.9417],[-107.739,38.9389],[-107.7404,38.936],[-107.7405,38.9335]]},"properties":{"name":"Dever Creek","display_name":"Dever Creek","source_name":"Dever Creek","state":"CO","atlas_class":"named_natural_stream_detail","huc8":"14020004","huc8Name":"North Fork Gunnison","lineageKey":"coloradoRiver","lineage":"coloradoRiver","historic":"coloradoRiver","current":"coloradoRiver","recovery":"recoveryWatch","lineageLabel":"Colorado River green lineage","atlas_context":"cutthroat_lineage_context"}},{"type":"Feature","geometry":{"type":"LineString","coordinates":[[-107.6823,38.9217],[-107.6786,38.9168],[-107.673,38.9129]]},"properties":{"name":"West Roatcap Creek","display_name":"West Roatcap Creek","source_name":"West Roatcap Creek","state":"CO","atlas_class":"named_natural_stream_detail","huc8":"14020004","huc8Name":"North Fork Gunnison","lineageKey":"coloradoRiver","lineage":"coloradoRiver","historic":"coloradoRiver","current":"coloradoRiver","recovery":"recoveryWatch","lineageLabel":"Colorado River green lineage","atlas_context":"cutthroat_lineage_context"}},{"type":"Feature","geometry":{"type":"LineString","coordinates":[[-107.7561,38.9117],[-107.7592,38.9112]]},"properties":{"name":"Dever Creek","display_name":"Dever Creek","source_name":"Dever Creek","state":"CO","atlas_class":"named_natural_stream_detail","huc8":"14020004","huc8Name":"North Fork Gunnison","lineageKey":"coloradoRiver","lineage":"coloradoRiver","historic":"coloradoRiver","current":"coloradoRiver","recovery":"recoveryWatch","lineageLabel":"Colorado River green lineage","atlas_context":"cutthroat_lineage_context"}},{"type":"Feature","geometry":{"type":"LineString","coordinates":[[-107.6713,38.9734],[-107.6696,38.9725]]},"properties":{"name":"West Fork Terror Creek","display_name":"West Fork Terror Creek","source_name":"West Fork Terror Creek","state":"CO","atlas_class":"named_natural_stream_detail","huc8":"14020004","huc8Name":"North Fork Gunnison","lineageKey":"coloradoRiver","lineage":"coloradoRiver","historic":"coloradoRiver","current":"coloradoRiver","recovery":"recoveryWatch","lineageLabel":"Colorado River green lineage","atlas_context":"cutthroat_lineage_context"}},{"type":"Feature","geometry":{"type":"LineString","coordinates":[[-107.7158,38.9953],[-107.717,38.993],[-107.7166,38.9903],[-107.7221,38.9846],[-107.7234,38.981],[-107.7222,38.9789]]},"properties":{"name":"Doughty Creek","display_name":"Doughty Creek","source_name":"Doughty Creek","state":"CO","atlas_class":"named_natural_stream_detail","huc8":"14020004","huc8Name":"North Fork Gunnison","lineageKey":"coloradoRiver","lineage":"coloradoRiver","historic":"coloradoRiver","current":"coloradoRiver","recovery":"recoveryWatch","lineageLabel":"Colorado River green lineage","atlas_context":"cutthroat_lineage_context"}},{"type":"Feature","geometry":{"type":"LineString","coordinates":[[-107.6993,38.9383],[-107.6991,38.9381]]},"properties":{"name":"West Roatcap Creek","display_name":"West Roatcap Creek","source_name":"West Roatcap Creek","state":"CO","atlas_class":"named_natural_stream_detail","huc8":"14020004","huc8Name":"North Fork Gunnison","lineageKey":"coloradoRiver","lineage":"coloradoRiver","historic":"coloradoRiver","current":"coloradoRiver","recovery":"recoveryWatch","lineageLabel":"Colorado River green lineage","atlas_context":"cutthroat_lineage_context"}},{"type":"Feature","geometry":{"type":"LineString","coordinates":[[-107.6983,38.9917],[-107.7007,38.9923]]},"properties":{"name":"Ellington Creek","display_name":"Ellington Creek","source_name":"Ellington Creek","state":"CO","atlas_class":"named_natural_stream_detail","huc8":"14020004","huc8Name":"North Fork Gunnison","lineageKey":"coloradoRiver","lineage":"coloradoRiver","historic":"coloradoRiver","current":"coloradoRiver","recovery":"recoveryWatch","lineageLabel":"Colorado River green lineage","atlas_context":"cutthroat_lineage_context"}},{"type":"Feature","geometry":{"type":"LineString","coordinates":[[-107.7077,39.0035],[-107.7076,39.0002],[-107.7122,38.9925],[-107.7105,38.9893],[-107.7124,38.986],[-107.712,38.9843]]},"properties":{"name":"East Leroux Creek","display_name":"East Leroux Creek","source_name":"East Leroux Creek","state":"CO","atlas_class":"named_natural_stream_detail","huc8":"14020004","huc8Name":"North Fork Gunnison","lineageKey":"coloradoRiver","lineage":"coloradoRiver","historic":"coloradoRiver","current":"coloradoRiver","recovery":"recoveryWatch","lineageLabel":"Colorado River green lineage","atlas_context":"cutthroat_lineage_context"}},{"type":"Feature","geometry":{"type":"LineString","coordinates":[[-107.6927,38.9924],[-107.6931,38.9922]]},"properties":{"name":"Ellington Creek","display_name":"Ellington Creek","source_name":"Ellington Creek","state":"CO","atlas_class":"named_natural_stream_detail","huc8":"14020004","huc8Name":"North Fork Gunnison","lineageKey":"coloradoRiver","lineage":"coloradoRiver","historic":"coloradoRiver","current":"coloradoRiver","recovery":"recoveryWatch","lineageLabel":"Colorado River green lineage","atlas_context":"cutthroat_lineage_context"}},{"type":"Feature","geometry":{"type":"LineString","coordinates":[[-107.7158,39],[-107.7157,38.9999]]},"properties":{"name":"Doughty Creek","display_name":"Doughty Creek","source_name":"Doughty Creek","state":"CO","atlas_class":"named_natural_stream_detail","huc8":"14020004","huc8Name":"North Fork Gunnison","lineageKey":"coloradoRiver","lineage":"coloradoRiver","historic":"coloradoRiver","current":"coloradoRiver","recovery":"recoveryWatch","lineageLabel":"Colorado River green lineage","atlas_context":"cutthroat_lineage_context"}},{"type":"Feature","geometry":{"type":"LineString","coordinates":[[-107.7159,38.9993],[-107.7158,38.9953]]},"properties":{"name":"Doughty Creek","display_name":"Doughty Creek","source_name":"Doughty Creek","state":"CO","atlas_class":"named_natural_stream_detail","huc8":"14020004","huc8Name":"North Fork Gunnison","lineageKey":"coloradoRiver","lineage":"coloradoRiver","historic":"coloradoRiver","current":"coloradoRiver","recovery":"recoveryWatch","lineageLabel":"Colorado River green lineage","atlas_context":"cutthroat_lineage_context"}},{"type":"Feature","geometry":{"type":"LineString","coordinates":[[-107.7034,38.8796],[-107.7035,38.8793]]},"properties":{"name":"Jay Creek","display_name":"Jay Creek","source_name":"Jay Creek","state":"CO","atlas_class":"named_natural_stream_detail","huc8":"14020004","huc8Name":"North Fork Gunnison","lineageKey":"coloradoRiver","lineage":"coloradoRiver","historic":"coloradoRiver","current":"coloradoRiver","recovery":"recoveryWatch","lineageLabel":"Colorado River green lineage","atlas_context":"cutthroat_lineage_context"}},{"type":"Feature","geometry":{"type":"LineString","coordinates":[[-107.7848,38.8878],[-107.7837,38.8849],[-107.7845,38.8824],[-107.786,38.8814]]},"properties":{"name":"Dever Creek","display_name":"Dever Creek","source_name":"Dever Creek","state":"CO","atlas_class":"named_natural_stream_detail","huc8":"14020004","huc8Name":"North Fork Gunnison","lineageKey":"coloradoRiver","lineage":"coloradoRiver","historic":"coloradoRiver","current":"coloradoRiver","recovery":"recoveryWatch","lineageLabel":"Colorado River green lineage","atlas_context":"cutthroat_lineage_context"}},{"type":"Feature","geometry":{"type":"LineString","coordinates":[[-107.7037,38.8935],[-107.7049,38.8888]]},"properties":{"name":"Jay Creek","display_name":"Jay Creek","source_name":"Jay Creek","state":"CO","atlas_class":"named_natural_stream_detail","huc8":"14020004","huc8Name":"North Fork Gunnison","lineageKey":"coloradoRiver","lineage":"coloradoRiver","historic":"coloradoRiver","current":"coloradoRiver","recovery":"recoveryWatch","lineageLabel":"Colorado River green lineage","atlas_context":"cutthroat_lineage_context"}},{"type":"Feature","geometry":{"type":"LineString","coordinates":[[-107.709,38.8592],[-107.7105,38.8552],[-107.7099,38.8495],[-107.7108,38.8443],[-107.7085,38.8409]]},"properties":{"name":"Jay Creek","display_name":"Jay Creek","source_name":"Jay Creek","state":"CO","atlas_class":"named_natural_stream_detail","huc8":"14020004","huc8Name":"North Fork Gunnison","lineageKey":"coloradoRiver","lineage":"coloradoRiver","historic":"coloradoRiver","current":"coloradoRiver","recovery":"recoveryWatch","lineageLabel":"Colorado River green lineage","atlas_context":"cutthroat_lineage_context"}},{"type":"Feature","geometry":{"type":"LineString","coordinates":[[-107.7049,38.8888],[-107.7034,38.8796]]},"properties":{"name":"Jay Creek","display_name":"Jay Creek","source_name":"Jay Creek","state":"CO","atlas_class":"named_natural_stream_detail","huc8":"14020004","huc8Name":"North Fork Gunnison","lineageKey":"coloradoRiver","lineage":"coloradoRiver","historic":"coloradoRiver","current":"coloradoRiver","recovery":"recoveryWatch","lineageLabel":"Colorado River green lineage","atlas_context":"cutthroat_lineage_context"}},{"type":"Feature","geometry":{"type":"LineString","coordinates":[[-107.7035,38.8793],[-107.7064,38.8769],[-107.7063,38.8744],[-107.7072,38.8729],[-107.7068,38.8706],[-107.7084,38.8665]]},"properties":{"name":"Jay Creek","display_name":"Jay Creek","source_name":"Jay Creek","state":"CO","atlas_class":"named_natural_stream_detail","huc8":"14020004","huc8Name":"North Fork Gunnison","lineageKey":"coloradoRiver","lineage":"coloradoRiver","historic":"coloradoRiver","current":"coloradoRiver","recovery":"recoveryWatch","lineageLabel":"Colorado River green lineage","atlas_context":"cutthroat_lineage_context"}},{"type":"Feature","geometry":{"type":"LineString","coordinates":[[-107.786,38.8814],[-107.7824,38.8729],[-107.7824,38.8672],[-107.7811,38.8657],[-107.7818,38.8634],[-107.7812,38.8622],[-107.7833,38.8573],[-107.7826,38.8524],[-107.7832,38.8488],[-107.7788,38.8388]]},"properties":{"name":"Leroux Creek","display_name":"Leroux Creek","source_name":"Leroux Creek","state":"CO","atlas_class":"named_natural_stream_detail","huc8":"14020004","huc8Name":"North Fork Gunnison","lineageKey":"coloradoRiver","lineage":"coloradoRiver","historic":"coloradoRiver","current":"coloradoRiver","recovery":"recoveryWatch","lineageLabel":"Colorado River green lineage","atlas_context":"cutthroat_lineage_context"}},{"type":"Feature","geometry":{"type":"LineString","coordinates":[[-107.7067,38.864],[-107.707,38.8621],[-107.709,38.8592]]},"properties":{"name":"Jay Creek","display_name":"Jay Creek","source_name":"Jay Creek","state":"CO","atlas_class":"named_natural_stream_detail","huc8":"14020004","huc8Name":"North Fork Gunnison","lineageKey":"coloradoRiver","lineage":"coloradoRiver","historic":"coloradoRiver","current":"coloradoRiver","recovery":"recoveryWatch","lineageLabel":"Colorado River green lineage","atlas_context":"cutthroat_lineage_context"}},{"type":"Feature","geometry":{"type":"LineString","coordinates":[[-107.7084,38.8665],[-107.7067,38.864]]},"properties":{"name":"Jay Creek","display_name":"Jay Creek","source_name":"Jay Creek","state":"CO","atlas_class":"named_natural_stream_detail","huc8":"14020004","huc8Name":"North Fork Gunnison","lineageKey":"coloradoRiver","lineage":"coloradoRiver","historic":"coloradoRiver","current":"coloradoRiver","recovery":"recoveryWatch","lineageLabel":"Colorado River green lineage","atlas_context":"cutthroat_lineage_context"}},{"type":"Feature","geometry":{"type":"LineString","coordinates":[[-107.6356,38.8324],[-107.6402,38.8293]]},"properties":{"name":"Bell Creek","display_name":"Bell Creek","source_name":"Bell Creek","state":"CO","atlas_class":"named_natural_stream_detail","huc8":"14020004","huc8Name":"North Fork Gunnison","lineageKey":"coloradoRiver","lineage":"coloradoRiver","historic":"coloradoRiver","current":"coloradoRiver","recovery":"recoveryWatch","lineageLabel":"Colorado River green lineage","atlas_context":"cutthroat_lineage_context"}},{"type":"Feature","geometry":{"type":"LineString","coordinates":[[-107.6269,38.8362],[-107.6305,38.8372],[-107.6332,38.8353]]},"properties":{"name":"Bell Creek","display_name":"Bell Creek","source_name":"Bell Creek","state":"CO","atlas_class":"named_natural_stream_detail","huc8":"14020004","huc8Name":"North Fork Gunnison","lineageKey":"coloradoRiver","lineage":"coloradoRiver","historic":"coloradoRiver","current":"coloradoRiver","recovery":"recoveryWatch","lineageLabel":"Colorado River green lineage","atlas_context":"cutthroat_lineage_context"}},{"type":"Feature","geometry":{"type":"LineString","coordinates":[[-107.5917,38.8154],[-107.5989,38.8205],[-107.6015,38.8246]]},"properties":{"name":"Bell Creek","display_name":"Bell Creek","source_name":"Bell Creek","state":"CO","atlas_class":"named_natural_stream_detail","huc8":"14020004","huc8Name":"North Fork Gunnison","lineageKey":"coloradoRiver","lineage":"coloradoRiver","historic":"coloradoRiver","current":"coloradoRiver","recovery":"recoveryWatch","lineageLabel":"Colorado River green lineage","atlas_context":"cutthroat_lineage_context"}},{"type":"Feature","geometry":{"type":"LineString","coordinates":[[-107.6402,38.8293],[-107.6471,38.8255]]},"properties":{"name":"Bell Creek","display_name":"Bell Creek","source_name":"Bell Creek","state":"CO","atlas_class":"named_natural_stream_detail","huc8":"14020004","huc8Name":"North Fork Gunnison","lineageKey":"coloradoRiver","lineage":"coloradoRiver","historic":"coloradoRiver","current":"coloradoRiver","recovery":"recoveryWatch","lineageLabel":"Colorado River green lineage","atlas_context":"cutthroat_lineage_context"}},{"type":"Feature","geometry":{"type":"LineString","coordinates":[[-107.6471,38.8255],[-107.6516,38.8247],[-107.6582,38.8254],[-107.6667,38.8234]]},"properties":{"name":"Bell Creek","display_name":"Bell Creek","source_name":"Bell Creek","state":"CO","atlas_class":"named_natural_stream_detail","huc8":"14020004","huc8Name":"North Fork Gunnison","lineageKey":"coloradoRiver","lineage":"coloradoRiver","historic":"coloradoRiver","current":"coloradoRiver","recovery":"recoveryWatch","lineageLabel":"Colorado River green lineage","atlas_context":"cutthroat_lineage_context"}},{"type":"Feature","geometry":{"type":"LineString","coordinates":[[-107.6667,38.8234],[-107.6714,38.8228]]},"properties":{"name":"Bell Creek","display_name":"Bell Creek","source_name":"Bell Creek","state":"CO","atlas_class":"named_natural_stream_detail","huc8":"14020004","huc8Name":"North Fork Gunnison","lineageKey":"coloradoRiver","lineage":"coloradoRiver","historic":"coloradoRiver","current":"coloradoRiver","recovery":"recoveryWatch","lineageLabel":"Colorado River green lineage","atlas_context":"cutthroat_lineage_context"}},{"type":"Feature","geometry":{"type":"LineString","coordinates":[[-107.6236,38.8469],[-107.6307,38.8491],[-107.6337,38.8487],[-107.6357,38.8496],[-107.6398,38.8482],[-107.6428,38.8486],[-107.644,38.8477]]},"properties":{"name":"Reynolds Creek","display_name":"Reynolds Creek","source_name":"Reynolds Creek","state":"CO","atlas_class":"named_natural_stream_detail","huc8":"14020004","huc8Name":"North Fork Gunnison","lineageKey":"coloradoRiver","lineage":"coloradoRiver","historic":"coloradoRiver","current":"coloradoRiver","recovery":"recoveryWatch","lineageLabel":"Colorado River green lineage","atlas_context":"cutthroat_lineage_context"}},{"type":"Feature","geometry":{"type":"LineString","coordinates":[[-107.6332,38.8353],[-107.6339,38.8336],[-107.6356,38.8324]]},"properties":{"name":"Bell Creek","display_name":"Bell Creek","source_name":"Bell Creek","state":"CO","atlas_class":"named_natural_stream_detail","huc8":"14020004","huc8Name":"North Fork Gunnison","lineageKey":"coloradoRiver","lineage":"coloradoRiver","historic":"coloradoRiver","current":"coloradoRiver","recovery":"recoveryWatch","lineageLabel":"Colorado River green lineage","atlas_context":"cutthroat_lineage_context"}},{"type":"Feature","geometry":{"type":"LineString","coordinates":[[-107.6041,38.8539],[-107.6061,38.8528],[-107.608,38.8529]]},"properties":{"name":"German Creek","display_name":"German Creek","source_name":"German Creek","state":"CO","atlas_class":"named_natural_stream_detail","huc8":"14020004","huc8Name":"North Fork Gunnison","lineageKey":"coloradoRiver","lineage":"coloradoRiver","historic":"coloradoRiver","current":"coloradoRiver","recovery":"recoveryWatch","lineageLabel":"Colorado River green lineage","atlas_context":"cutthroat_lineage_context"}},{"type":"Feature","geometry":{"type":"LineString","coordinates":[[-107.6231,38.8627],[-107.6206,38.8623],[-107.6209,38.8605]]},"properties":{"name":"Roatcap Creek","display_name":"Roatcap Creek","source_name":"Roatcap Creek","state":"CO","atlas_class":"named_natural_stream_detail","huc8":"14020004","huc8Name":"North Fork Gunnison","lineageKey":"coloradoRiver","lineage":"coloradoRiver","historic":"coloradoRiver","current":"coloradoRiver","recovery":"recoveryWatch","lineageLabel":"Colorado River green lineage","atlas_context":"cutthroat_lineage_context"}},{"type":"Feature","geometry":{"type":"LineString","coordinates":[[-107.6049,38.8445],[-107.6163,38.847],[-107.6236,38.8469]]},"properties":{"name":"Reynolds Creek","display_name":"Reynolds Creek","source_name":"Reynolds Creek","state":"CO","atlas_class":"named_natural_stream_detail","huc8":"14020004","huc8Name":"North Fork Gunnison","lineageKey":"coloradoRiver","lineage":"coloradoRiver","historic":"coloradoRiver","current":"coloradoRiver","recovery":"recoveryWatch","lineageLabel":"Colorado River green lineage","atlas_context":"cutthroat_lineage_context"}},{"type":"Feature","geometry":{"type":"LineString","coordinates":[[-107.5926,38.8404],[-107.6049,38.8445]]},"properties":{"name":"Reynolds Creek","display_name":"Reynolds Creek","source_name":"Reynolds Creek","state":"CO","atlas_class":"named_natural_stream_detail","huc8":"14020004","huc8Name":"North Fork Gunnison","lineageKey":"coloradoRiver","lineage":"coloradoRiver","historic":"coloradoRiver","current":"coloradoRiver","recovery":"recoveryWatch","lineageLabel":"Colorado River green lineage","atlas_context":"cutthroat_lineage_context"}},{"type":"Feature","geometry":{"type":"LineString","coordinates":[[-107.6194,38.8358],[-107.6269,38.8362]]},"properties":{"name":"Bell Creek","display_name":"Bell Creek","source_name":"Bell Creek","state":"CO","atlas_class":"named_natural_stream_detail","huc8":"14020004","huc8Name":"North Fork Gunnison","lineageKey":"coloradoRiver","lineage":"coloradoRiver","historic":"coloradoRiver","current":"coloradoRiver","recovery":"recoveryWatch","lineageLabel":"Colorado River green lineage","atlas_context":"cutthroat_lineage_context"}},{"type":"Feature","geometry":{"type":"LineString","coordinates":[[-107.6714,38.8228],[-107.6763,38.8234],[-107.6789,38.8221]]},"properties":{"name":"Bell Creek","display_name":"Bell Creek","source_name":"Bell Creek","state":"CO","atlas_class":"named_natural_stream_detail","huc8":"14020004","huc8Name":"North Fork Gunnison","lineageKey":"coloradoRiver","lineage":"coloradoRiver","historic":"coloradoRiver","current":"coloradoRiver","recovery":"recoveryWatch","lineageLabel":"Colorado River green lineage","atlas_context":"cutthroat_lineage_context"}},{"type":"Feature","geometry":{"type":"LineString","coordinates":[[-107.6015,38.8246],[-107.6051,38.8306],[-107.61,38.8328]]},"properties":{"name":"Bell Creek","display_name":"Bell Creek","source_name":"Bell Creek","state":"CO","atlas_class":"named_natural_stream_detail","huc8":"14020004","huc8Name":"North Fork Gunnison","lineageKey":"coloradoRiver","lineage":"coloradoRiver","historic":"coloradoRiver","current":"coloradoRiver","recovery":"recoveryWatch","lineageLabel":"Colorado River green lineage","atlas_context":"cutthroat_lineage_context"}},{"type":"Feature","geometry":{"type":"LineString","coordinates":[[-107.6103,38.8329],[-107.6152,38.8355],[-107.6194,38.8358]]},"properties":{"name":"Bell Creek","display_name":"Bell Creek","source_name":"Bell Creek","state":"CO","atlas_class":"named_natural_stream_detail","huc8":"14020004","huc8Name":"North Fork Gunnison","lineageKey":"coloradoRiver","lineage":"coloradoRiver","historic":"coloradoRiver","current":"coloradoRiver","recovery":"recoveryWatch","lineageLabel":"Colorado River green lineage","atlas_context":"cutthroat_lineage_context"}},{"type":"Feature","geometry":{"type":"LineString","coordinates":[[-107.6775,38.7986],[-107.6794,38.8016]]},"properties":{"name":"Cottonwood Creek","display_name":"Cottonwood Creek","source_name":"Cottonwood Creek","state":"CO","atlas_class":"named_natural_stream_detail","huc8":"14020004","huc8Name":"North Fork Gunnison","lineageKey":"coloradoRiver","lineage":"coloradoRiver","historic":"coloradoRiver","current":"coloradoRiver","recovery":"recoveryWatch","lineageLabel":"Colorado River green lineage","atlas_context":"cutthroat_lineage_context"}},{"type":"Feature","geometry":{"type":"LineString","coordinates":[[-107.7939,38.9617],[-107.7963,38.9605]]},"properties":{"name":"Dry Creek","display_name":"Dry Creek","source_name":"Dry Creek","state":"CO","atlas_class":"named_natural_stream_detail","huc8":"14020005","huc8Name":"Lower Gunnison","lineageKey":"coloradoRiver","lineage":"coloradoRiver","historic":"coloradoRiver","current":"coloradoRiver","recovery":"recoveryWatch","lineageLabel":"Colorado River green lineage","atlas_context":"cutthroat_lineage_context"}},{"type":"Feature","geometry":{"type":"LineString","coordinates":[[-107.7932,38.9254],[-107.7933,38.9253]]},"properties":{"name":"Cow Creek","display_name":"Cow Creek","source_name":"Cow Creek","state":"CO","atlas_class":"named_natural_stream_detail","huc8":"14020004","huc8Name":"North Fork Gunnison","lineageKey":"coloradoRiver","lineage":"coloradoRiver","historic":"coloradoRiver","current":"coloradoRiver","recovery":"recoveryWatch","lineageLabel":"Colorado River green lineage","atlas_context":"cutthroat_lineage_context"}},{"type":"Feature","geometry":{"type":"LineString","coordinates":[[-107.7854,38.9701],[-107.7901,38.9654]]},"properties":{"name":"Dry Creek","display_name":"Dry Creek","source_name":"Dry Creek","state":"CO","atlas_class":"named_natural_stream_detail","huc8":"14020005","huc8Name":"Lower Gunnison","lineageKey":"coloradoRiver","lineage":"coloradoRiver","historic":"coloradoRiver","current":"coloradoRiver","recovery":"recoveryWatch","lineageLabel":"Colorado River green lineage","atlas_context":"cutthroat_lineage_context"}},{"type":"Feature","geometry":{"type":"LineString","coordinates":[[-107.7901,38.9989],[-107.7999,38.9944],[-107.8036,38.9905]]},"properties":{"name":"Currant Creek","display_name":"Currant Creek","source_name":"Currant Creek","state":"CO","atlas_class":"named_natural_stream_detail","huc8":"14020005","huc8Name":"Lower Gunnison","lineageKey":"coloradoRiver","lineage":"coloradoRiver","historic":"coloradoRiver","current":"coloradoRiver","recovery":"recoveryWatch","lineageLabel":"Colorado River green lineage","atlas_context":"cutthroat_lineage_context"}},{"type":"Feature","geometry":{"type":"LineString","coordinates":[[-107.7886,38.934],[-107.7924,38.9293]]},"properties":{"name":"Leroux Creek","display_name":"Leroux Creek","source_name":"Leroux Creek","state":"CO","atlas_class":"named_natural_stream_detail","huc8":"14020004","huc8Name":"North Fork Gunnison","lineageKey":"coloradoRiver","lineage":"coloradoRiver","historic":"coloradoRiver","current":"coloradoRiver","recovery":"recoveryWatch","lineageLabel":"Colorado River green lineage","atlas_context":"cutthroat_lineage_context"}},{"type":"Feature","geometry":{"type":"LineString","coordinates":[[-107.5853,38.8523],[-107.5887,38.854],[-107.5953,38.8549],[-107.6019,38.8549],[-107.6038,38.854]]},"properties":{"name":"German Creek","display_name":"German Creek","source_name":"German Creek","state":"CO","atlas_class":"named_natural_stream_detail","huc8":"14020004","huc8Name":"North Fork Gunnison","lineageKey":"coloradoRiver","lineage":"coloradoRiver","historic":"coloradoRiver","current":"coloradoRiver","recovery":"recoveryWatch","lineageLabel":"Colorado River green lineage","atlas_context":"cutthroat_lineage_context"}},{"type":"Feature","geometry":{"type":"LineString","coordinates":[[-107.6964,38.8307],[-107.6945,38.8299],[-107.6902,38.824],[-107.6899,38.8205],[-107.6905,38.8183]]},"properties":{"name":"Jay Creek","display_name":"Jay Creek","source_name":"Jay Creek","state":"CO","atlas_class":"named_natural_stream_detail","huc8":"14020004","huc8Name":"North Fork Gunnison","lineageKey":"coloradoRiver","lineage":"coloradoRiver","historic":"coloradoRiver","current":"coloradoRiver","recovery":"recoveryWatch","lineageLabel":"Colorado River green lineage","atlas_context":"cutthroat_lineage_context"}},{"type":"Feature","geometry":{"type":"LineString","coordinates":[[-107.6794,38.8016],[-107.6805,38.8035]]},"properties":{"name":"Cottonwood Creek","display_name":"Cottonwood Creek","source_name":"Cottonwood Creek","state":"CO","atlas_class":"named_natural_stream_detail","huc8":"14020004","huc8Name":"North Fork Gunnison","lineageKey":"coloradoRiver","lineage":"coloradoRiver","historic":"coloradoRiver","current":"coloradoRiver","recovery":"recoveryWatch","lineageLabel":"Colorado River green lineage","atlas_context":"cutthroat_lineage_context"}},{"type":"Feature","geometry":{"type":"LineString","coordinates":[[-107.6805,38.8035],[-107.6823,38.8037],[-107.6841,38.8054]]},"properties":{"name":"Cottonwood Creek","display_name":"Cottonwood Creek","source_name":"Cottonwood Creek","state":"CO","atlas_class":"named_natural_stream_detail","huc8":"14020004","huc8Name":"North Fork Gunnison","lineageKey":"coloradoRiver","lineage":"coloradoRiver","historic":"coloradoRiver","current":"coloradoRiver","recovery":"recoveryWatch","lineageLabel":"Colorado River green lineage","atlas_context":"cutthroat_lineage_context"}},{"type":"Feature","geometry":{"type":"LineString","coordinates":[[-107.6841,38.8054],[-107.6905,38.8068],[-107.6927,38.8083],[-107.693,38.8105],[-107.6955,38.8095],[-107.6973,38.8103]]},"properties":{"name":"Cottonwood Creek","display_name":"Cottonwood Creek","source_name":"Cottonwood Creek","state":"CO","atlas_class":"named_natural_stream_detail","huc8":"14020004","huc8Name":"North Fork Gunnison","lineageKey":"coloradoRiver","lineage":"coloradoRiver","historic":"coloradoRiver","current":"coloradoRiver","recovery":"recoveryWatch","lineageLabel":"Colorado River green lineage","atlas_context":"cutthroat_lineage_context"}},{"type":"Feature","geometry":{"type":"LineString","coordinates":[[-107.6081,38.9587],[-107.6069,38.9583]]},"properties":{"name":"West Fork Terror Creek","display_name":"West Fork Terror Creek","source_name":"West Fork Terror Creek","state":"CO","atlas_class":"named_natural_stream_detail","huc8":"14020004","huc8Name":"North Fork Gunnison","lineageKey":"coloradoRiver","lineage":"coloradoRiver","historic":"coloradoRiver","current":"coloradoRiver","recovery":"recoveryWatch","lineageLabel":"Colorado River green lineage","atlas_context":"cutthroat_lineage_context"}},{"type":"Feature","geometry":{"type":"LineString","coordinates":[[-107.6069,38.9583],[-107.6049,38.9574]]},"properties":{"name":"West Fork Terror Creek","display_name":"West Fork Terror Creek","source_name":"West Fork Terror Creek","state":"CO","atlas_class":"named_natural_stream_detail","huc8":"14020004","huc8Name":"North Fork Gunnison","lineageKey":"coloradoRiver","lineage":"coloradoRiver","historic":"coloradoRiver","current":"coloradoRiver","recovery":"recoveryWatch","lineageLabel":"Colorado River green lineage","atlas_context":"cutthroat_lineage_context"}},{"type":"Feature","geometry":{"type":"LineString","coordinates":[[-107.6001,38.957],[-107.5933,38.957]]},"properties":{"name":"West Fork Terror Creek","display_name":"West Fork Terror Creek","source_name":"West Fork Terror Creek","state":"CO","atlas_class":"named_natural_stream_detail","huc8":"14020004","huc8Name":"North Fork Gunnison","lineageKey":"coloradoRiver","lineage":"coloradoRiver","historic":"coloradoRiver","current":"coloradoRiver","recovery":"recoveryWatch","lineageLabel":"Colorado River green lineage","atlas_context":"cutthroat_lineage_context"}},{"type":"Feature","geometry":{"type":"LineString","coordinates":[[-107.604,38.9573],[-107.6032,38.9573]]},"properties":{"name":"West Fork Terror Creek","display_name":"West Fork Terror Creek","source_name":"West Fork Terror Creek","state":"CO","atlas_class":"named_natural_stream_detail","huc8":"14020004","huc8Name":"North Fork Gunnison","lineageKey":"coloradoRiver","lineage":"coloradoRiver","historic":"coloradoRiver","current":"coloradoRiver","recovery":"recoveryWatch","lineageLabel":"Colorado River green lineage","atlas_context":"cutthroat_lineage_context"}},{"type":"Feature","geometry":{"type":"LineString","coordinates":[[-107.6364,38.9659],[-107.6299,38.9651]]},"properties":{"name":"West Fork Terror Creek","display_name":"West Fork Terror Creek","source_name":"West Fork Terror Creek","state":"CO","atlas_class":"named_natural_stream_detail","huc8":"14020004","huc8Name":"North Fork Gunnison","lineageKey":"coloradoRiver","lineage":"coloradoRiver","historic":"coloradoRiver","current":"coloradoRiver","recovery":"recoveryWatch","lineageLabel":"Colorado River green lineage","atlas_context":"cutthroat_lineage_context"}},{"type":"Feature","geometry":{"type":"LineString","coordinates":[[-107.6642,38.9712],[-107.6633,38.9708]]},"properties":{"name":"West Fork Terror Creek","display_name":"West Fork Terror Creek","source_name":"West Fork Terror Creek","state":"CO","atlas_class":"named_natural_stream_detail","huc8":"14020004","huc8Name":"North Fork Gunnison","lineageKey":"coloradoRiver","lineage":"coloradoRiver","historic":"coloradoRiver","current":"coloradoRiver","recovery":"recoveryWatch","lineageLabel":"Colorado River green lineage","atlas_context":"cutthroat_lineage_context"}},{"type":"Feature","geometry":{"type":"LineString","coordinates":[[-107.6299,38.9651],[-107.6291,38.9652]]},"properties":{"name":"West Fork Terror Creek","display_name":"West Fork Terror Creek","source_name":"West Fork Terror Creek","state":"CO","atlas_class":"named_natural_stream_detail","huc8":"14020004","huc8Name":"North Fork Gunnison","lineageKey":"coloradoRiver","lineage":"coloradoRiver","historic":"coloradoRiver","current":"coloradoRiver","recovery":"recoveryWatch","lineageLabel":"Colorado River green lineage","atlas_context":"cutthroat_lineage_context"}},{"type":"Feature","geometry":{"type":"LineString","coordinates":[[-107.6289,38.9734],[-107.6276,38.9703]]},"properties":{"name":"Cunningham Creek","display_name":"Cunningham Creek","source_name":"Cunningham Creek","state":"CO","atlas_class":"named_natural_stream_detail","huc8":"14020004","huc8Name":"North Fork Gunnison","lineageKey":"coloradoRiver","lineage":"coloradoRiver","historic":"coloradoRiver","current":"coloradoRiver","recovery":"recoveryWatch","lineageLabel":"Colorado River green lineage","atlas_context":"cutthroat_lineage_context"}},{"type":"Feature","geometry":{"type":"LineString","coordinates":[[-107.6336,38.9954],[-107.6342,38.9912]]},"properties":{"name":"Sink Creek","display_name":"Sink Creek","source_name":"Sink Creek","state":"CO","atlas_class":"named_natural_stream_detail","huc8":"14020004","huc8Name":"North Fork Gunnison","lineageKey":"coloradoRiver","lineage":"coloradoRiver","historic":"coloradoRiver","current":"coloradoRiver","recovery":"recoveryWatch","lineageLabel":"Colorado River green lineage","atlas_context":"cutthroat_lineage_context"}},{"type":"Feature","geometry":{"type":"LineString","coordinates":[[-107.6276,38.9703],[-107.6276,38.9696]]},"properties":{"name":"Cunningham Creek","display_name":"Cunningham Creek","source_name":"Cunningham Creek","state":"CO","atlas_class":"named_natural_stream_detail","huc8":"14020004","huc8Name":"North Fork Gunnison","lineageKey":"coloradoRiver","lineage":"coloradoRiver","historic":"coloradoRiver","current":"coloradoRiver","recovery":"recoveryWatch","lineageLabel":"Colorado River green lineage","atlas_context":"cutthroat_lineage_context"}},{"type":"Feature","geometry":{"type":"LineString","coordinates":[[-107.6276,38.9696],[-107.6275,38.9661],[-107.6263,38.9643]]},"properties":{"name":"Cunningham Creek","display_name":"Cunningham Creek","source_name":"Cunningham Creek","state":"CO","atlas_class":"named_natural_stream_detail","huc8":"14020004","huc8Name":"North Fork Gunnison","lineageKey":"coloradoRiver","lineage":"coloradoRiver","historic":"coloradoRiver","current":"coloradoRiver","recovery":"recoveryWatch","lineageLabel":"Colorado River green lineage","atlas_context":"cutthroat_lineage_context"}},{"type":"Feature","geometry":{"type":"LineString","coordinates":[[-107.6486,38.9474],[-107.6452,38.9401]]},"properties":{"name":"East Roatcap Creek","display_name":"East Roatcap Creek","source_name":"East Roatcap Creek","state":"CO","atlas_class":"named_natural_stream_detail","huc8":"14020004","huc8Name":"North Fork Gunnison","lineageKey":"coloradoRiver","lineage":"coloradoRiver","historic":"coloradoRiver","current":"coloradoRiver","recovery":"recoveryWatch","lineageLabel":"Colorado River green lineage","atlas_context":"cutthroat_lineage_context"}},{"type":"Feature","geometry":{"type":"LineString","coordinates":[[-107.678,38.9961],[-107.686,38.9957]]},"properties":{"name":"Ellington Creek","display_name":"Ellington Creek","source_name":"Ellington Creek","state":"CO","atlas_class":"named_natural_stream_detail","huc8":"14020004","huc8Name":"North Fork Gunnison","lineageKey":"coloradoRiver","lineage":"coloradoRiver","historic":"coloradoRiver","current":"coloradoRiver","recovery":"recoveryWatch","lineageLabel":"Colorado River green lineage","atlas_context":"cutthroat_lineage_context"}},{"type":"Feature","geometry":{"type":"LineString","coordinates":[[-107.6123,38.9596],[-107.6083,38.9586]]},"properties":{"name":"West Fork Terror Creek","display_name":"West Fork Terror Creek","source_name":"West Fork Terror Creek","state":"CO","atlas_class":"named_natural_stream_detail","huc8":"14020004","huc8Name":"North Fork Gunnison","lineageKey":"coloradoRiver","lineage":"coloradoRiver","historic":"coloradoRiver","current":"coloradoRiver","recovery":"recoveryWatch","lineageLabel":"Colorado River green lineage","atlas_context":"cutthroat_lineage_context"}},{"type":"Feature","geometry":{"type":"LineString","coordinates":[[-107.6032,38.9573],[-107.6001,38.957]]},"properties":{"name":"West Fork Terror Creek","display_name":"West Fork Terror Creek","source_name":"West Fork Terror Creek","state":"CO","atlas_class":"named_natural_stream_detail","huc8":"14020004","huc8Name":"North Fork Gunnison","lineageKey":"coloradoRiver","lineage":"coloradoRiver","historic":"coloradoRiver","current":"coloradoRiver","recovery":"recoveryWatch","lineageLabel":"Colorado River green lineage","atlas_context":"cutthroat_lineage_context"}},{"type":"Feature","geometry":{"type":"LineString","coordinates":[[-107.6193,38.961],[-107.6123,38.9596]]},"properties":{"name":"West Fork Terror Creek","display_name":"West Fork Terror Creek","source_name":"West Fork Terror Creek","state":"CO","atlas_class":"named_natural_stream_detail","huc8":"14020004","huc8Name":"North Fork Gunnison","lineageKey":"coloradoRiver","lineage":"coloradoRiver","historic":"coloradoRiver","current":"coloradoRiver","recovery":"recoveryWatch","lineageLabel":"Colorado River green lineage","atlas_context":"cutthroat_lineage_context"}},{"type":"Feature","geometry":{"type":"LineString","coordinates":[[-107.6263,38.9643],[-107.6213,38.9612],[-107.6193,38.961]]},"properties":{"name":"West Fork Terror Creek","display_name":"West Fork Terror Creek","source_name":"West Fork Terror Creek","state":"CO","atlas_class":"named_natural_stream_detail","huc8":"14020004","huc8Name":"North Fork Gunnison","lineageKey":"coloradoRiver","lineage":"coloradoRiver","historic":"coloradoRiver","current":"coloradoRiver","recovery":"recoveryWatch","lineageLabel":"Colorado River green lineage","atlas_context":"cutthroat_lineage_context"}},{"type":"Feature","geometry":{"type":"LineString","coordinates":[[-107.6049,38.9574],[-107.604,38.9573]]},"properties":{"name":"West Fork Terror Creek","display_name":"West Fork Terror Creek","source_name":"West Fork Terror Creek","state":"CO","atlas_class":"named_natural_stream_detail","huc8":"14020004","huc8Name":"North Fork Gunnison","lineageKey":"coloradoRiver","lineage":"coloradoRiver","historic":"coloradoRiver","current":"coloradoRiver","recovery":"recoveryWatch","lineageLabel":"Colorado River green lineage","atlas_context":"cutthroat_lineage_context"}},{"type":"Feature","geometry":{"type":"LineString","coordinates":[[-107.6083,38.9586],[-107.6081,38.9587]]},"properties":{"name":"West Fork Terror Creek","display_name":"West Fork Terror Creek","source_name":"West Fork Terror Creek","state":"CO","atlas_class":"named_natural_stream_detail","huc8":"14020004","huc8Name":"North Fork Gunnison","lineageKey":"coloradoRiver","lineage":"coloradoRiver","historic":"coloradoRiver","current":"coloradoRiver","recovery":"recoveryWatch","lineageLabel":"Colorado River green lineage","atlas_context":"cutthroat_lineage_context"}}]}