{"type":"FeatureCollection","metadata":{"source":"C:\\ct-atlas-data\\processed\\geojson\\interpreted\\colorado_named_natural_streams_complete_v1.geojson","type":"colorado-natural-stream-detail-tile-v2","tile_size_degrees":0.2,"x":-511,"y":200,"bounds":{"west":-102.2,"south":40,"east":-102,"north":40.2}},"features":[{"type":"Feature","geometry":{"type":"LineString","coordinates":[[-102.1973,40.0694],[-102.1981,40.0711]]},"properties":{"name":"Olive Creek","display_name":"Olive Creek","source_name":"Olive Creek","state":"CO","atlas_class":"named_natural_stream_detail","huc8":"10250002","huc8Name":"North Fork Republican","lineageKey":"statewideContext","lineage":"statewideContext","historic":"statewideContext","current":"statewideContext","recovery":"statewideContext","lineageLabel":"Statewide Colorado hydrography context","atlas_context":"statewide_hydrography_context"}},{"type":"Feature","geometry":{"type":"LineString","coordinates":[[-102.1898,40.096],[-102.1894,40.0956]]},"properties":{"name":"Hayes Creek","display_name":"Hayes Creek","source_name":"Hayes Creek","state":"CO","atlas_class":"named_natural_stream_detail","huc8":"10250002","huc8Name":"North Fork Republican","lineageKey":"statewideContext","lineage":"statewideContext","historic":"statewideContext","current":"statewideContext","recovery":"statewideContext","lineageLabel":"Statewide Colorado hydrography context","atlas_context":"statewide_hydrography_context"}},{"type":"Feature","geometry":{"type":"LineString","coordinates":[[-102.1901,40.0962],[-102.1898,40.096]]},"properties":{"name":"Hayes Creek","display_name":"Hayes Creek","source_name":"Hayes Creek","state":"CO","atlas_class":"named_natural_stream_detail","huc8":"10250002","huc8Name":"North Fork Republican","lineageKey":"statewideContext","lineage":"statewideContext","historic":"statewideContext","current":"statewideContext","recovery":"statewideContext","lineageLabel":"Statewide Colorado hydrography context","atlas_context":"statewide_hydrography_context"}},{"type":"Feature","geometry":{"type":"LineString","coordinates":[[-102.0852,40.0831],[-102.0845,40.0832],[-102.084,40.0816],[-102.0831,40.0819],[-102.0779,40.0798],[-102.0775,40.0787]]},"properties":{"name":"Rush Creek","display_name":"Rush Creek","source_name":"Rush Creek","state":"CO","atlas_class":"named_natural_stream_detail","huc8":"10250002","huc8Name":"North Fork Republican","lineageKey":"statewideContext","lineage":"statewideContext","historic":"statewideContext","current":"statewideContext","recovery":"statewideContext","lineageLabel":"Statewide Colorado hydrography context","atlas_context":"statewide_hydrography_context"}},{"type":"Feature","geometry":{"type":"LineString","coordinates":[[-102.1912,40.0986],[-102.1895,40.098],[-102.1902,40.097]]},"properties":{"name":"Hayes Creek","display_name":"Hayes Creek","source_name":"Hayes Creek","state":"CO","atlas_class":"named_natural_stream_detail","huc8":"10250002","huc8Name":"North Fork Republican","lineageKey":"statewideContext","lineage":"statewideContext","historic":"statewideContext","current":"statewideContext","recovery":"statewideContext","lineageLabel":"Statewide Colorado hydrography context","atlas_context":"statewide_hydrography_context"}},{"type":"Feature","geometry":{"type":"LineString","coordinates":[[-102.1685,40.087],[-102.1667,40.0873],[-102.1669,40.0885],[-102.1651,40.0882],[-102.1649,40.0893],[-102.1633,40.0881],[-102.1628,40.0895],[-102.1618,40.0881],[-102.1619,40.0867]]},"properties":{"name":"North Fork Republican River","display_name":"North Fork Republican River","source_name":"North Fork Republican River","state":"CO","atlas_class":"named_natural_stream_detail","huc8":"10250002","huc8Name":"North Fork Republican","lineageKey":"statewideContext","lineage":"statewideContext","historic":"statewideContext","current":"statewideContext","recovery":"statewideContext","lineageLabel":"Statewide Colorado hydrography context","atlas_context":"statewide_hydrography_context"}},{"type":"Feature","geometry":{"type":"LineString","coordinates":[[-102.148,40.0895],[-102.1454,40.0884],[-102.1454,40.0872]]},"properties":{"name":"Bloom Creek","display_name":"Bloom Creek","source_name":"Bloom Creek","state":"CO","atlas_class":"named_natural_stream_detail","huc8":"10250002","huc8Name":"North Fork Republican","lineageKey":"statewideContext","lineage":"statewideContext","historic":"statewideContext","current":"statewideContext","recovery":"statewideContext","lineageLabel":"Statewide Colorado hydrography context","atlas_context":"statewide_hydrography_context"}},{"type":"Feature","geometry":{"type":"LineString","coordinates":[[-102.09,40.0881],[-102.0904,40.0867],[-102.088,40.0842]]},"properties":{"name":"Rush Creek","display_name":"Rush Creek","source_name":"Rush Creek","state":"CO","atlas_class":"named_natural_stream_detail","huc8":"10250002","huc8Name":"North Fork Republican","lineageKey":"statewideContext","lineage":"statewideContext","historic":"statewideContext","current":"statewideContext","recovery":"statewideContext","lineageLabel":"Statewide Colorado hydrography context","atlas_context":"statewide_hydrography_context"}},{"type":"Feature","geometry":{"type":"LineString","coordinates":[[-102.1845,40.0866],[-102.1826,40.0873],[-102.1818,40.0862],[-102.1806,40.0862],[-102.1806,40.0854],[-102.1795,40.0857]]},"properties":{"name":"North Fork Republican River","display_name":"North Fork Republican River","source_name":"North Fork Republican River","state":"CO","atlas_class":"named_natural_stream_detail","huc8":"10250002","huc8Name":"North Fork Republican","lineageKey":"statewideContext","lineage":"statewideContext","historic":"statewideContext","current":"statewideContext","recovery":"statewideContext","lineageLabel":"Statewide Colorado hydrography context","atlas_context":"statewide_hydrography_context"}},{"type":"Feature","geometry":{"type":"LineString","coordinates":[[-102.1133,40.0812],[-102.1128,40.0818]]},"properties":{"name":"North Fork Republican River","display_name":"North Fork Republican River","source_name":"North Fork Republican River","state":"CO","atlas_class":"named_natural_stream_detail","huc8":"10250002","huc8Name":"North Fork Republican","lineageKey":"statewideContext","lineage":"statewideContext","historic":"statewideContext","current":"statewideContext","recovery":"statewideContext","lineageLabel":"Statewide Colorado hydrography context","atlas_context":"statewide_hydrography_context"}},{"type":"Feature","geometry":{"type":"LineString","coordinates":[[-102.1128,40.0818],[-102.1104,40.0822]]},"properties":{"name":"North Fork Republican River","display_name":"North Fork Republican River","source_name":"North Fork Republican River","state":"CO","atlas_class":"named_natural_stream_detail","huc8":"10250002","huc8Name":"North Fork Republican","lineageKey":"statewideContext","lineage":"statewideContext","historic":"statewideContext","current":"statewideContext","recovery":"statewideContext","lineageLabel":"Statewide Colorado hydrography context","atlas_context":"statewide_hydrography_context"}},{"type":"Feature","geometry":{"type":"LineString","coordinates":[[-102.0937,40.0963],[-102.0926,40.0958],[-102.0931,40.0945],[-102.0923,40.0933]]},"properties":{"name":"Rush Creek","display_name":"Rush Creek","source_name":"Rush Creek","state":"CO","atlas_class":"named_natural_stream_detail","huc8":"10250002","huc8Name":"North Fork Republican","lineageKey":"statewideContext","lineage":"statewideContext","historic":"statewideContext","current":"statewideContext","recovery":"statewideContext","lineageLabel":"Statewide Colorado hydrography context","atlas_context":"statewide_hydrography_context"}},{"type":"Feature","geometry":{"type":"LineString","coordinates":[[-102.1454,40.0872],[-102.1432,40.087],[-102.1433,40.0885],[-102.1421,40.0888],[-102.1392,40.0856]]},"properties":{"name":"North Fork Republican River","display_name":"North Fork Republican River","source_name":"North Fork Republican River","state":"CO","atlas_class":"named_natural_stream_detail","huc8":"10250002","huc8Name":"North Fork Republican","lineageKey":"statewideContext","lineage":"statewideContext","historic":"statewideContext","current":"statewideContext","recovery":"statewideContext","lineageLabel":"Statewide Colorado hydrography context","atlas_context":"statewide_hydrography_context"}},{"type":"Feature","geometry":{"type":"LineString","coordinates":[[-102.1104,40.0822],[-102.1077,40.0814]]},"properties":{"name":"North Fork Republican River","display_name":"North Fork Republican River","source_name":"North Fork Republican River","state":"CO","atlas_class":"named_natural_stream_detail","huc8":"10250002","huc8Name":"North Fork Republican","lineageKey":"statewideContext","lineage":"statewideContext","historic":"statewideContext","current":"statewideContext","recovery":"statewideContext","lineageLabel":"Statewide Colorado hydrography context","atlas_context":"statewide_hydrography_context"}},{"type":"Feature","geometry":{"type":"LineString","coordinates":[[-102.1619,40.0867],[-102.1614,40.086]]},"properties":{"name":"North Fork Republican River","display_name":"North Fork Republican River","source_name":"North Fork Republican River","state":"CO","atlas_class":"named_natural_stream_detail","huc8":"10250002","huc8Name":"North Fork Republican","lineageKey":"statewideContext","lineage":"statewideContext","historic":"statewideContext","current":"statewideContext","recovery":"statewideContext","lineageLabel":"Statewide Colorado hydrography context","atlas_context":"statewide_hydrography_context"}},{"type":"Feature","geometry":{"type":"LineString","coordinates":[[-102.193,40.0545],[-102.1945,40.0571],[-102.1952,40.0627],[-102.1979,40.0681],[-102.1973,40.0694]]},"properties":{"name":"Olive Creek","display_name":"Olive Creek","source_name":"Olive Creek","state":"CO","atlas_class":"named_natural_stream_detail","huc8":"10250002","huc8Name":"North Fork Republican","lineageKey":"statewideContext","lineage":"statewideContext","historic":"statewideContext","current":"statewideContext","recovery":"statewideContext","lineageLabel":"Statewide Colorado hydrography context","atlas_context":"statewide_hydrography_context"}},{"type":"Feature","geometry":{"type":"LineString","coordinates":[[-102.1614,40.086],[-102.1588,40.0856]]},"properties":{"name":"North Fork Republican River","display_name":"North Fork Republican River","source_name":"North Fork Republican River","state":"CO","atlas_class":"named_natural_stream_detail","huc8":"10250002","huc8Name":"North Fork Republican","lineageKey":"statewideContext","lineage":"statewideContext","historic":"statewideContext","current":"statewideContext","recovery":"statewideContext","lineageLabel":"Statewide Colorado hydrography context","atlas_context":"statewide_hydrography_context"}},{"type":"Feature","geometry":{"type":"LineString","coordinates":[[-102.162,40.1023],[-102.162,40.1013],[-102.1594,40.0991]]},"properties":{"name":"Bloom Creek","display_name":"Bloom Creek","source_name":"Bloom Creek","state":"CO","atlas_class":"named_natural_stream_detail","huc8":"10250002","huc8Name":"North Fork Republican","lineageKey":"statewideContext","lineage":"statewideContext","historic":"statewideContext","current":"statewideContext","recovery":"statewideContext","lineageLabel":"Statewide Colorado hydrography context","atlas_context":"statewide_hydrography_context"}},{"type":"Feature","geometry":{"type":"LineString","coordinates":[[-102.2055,40.0854],[-102.2005,40.0869],[-102.1995,40.088],[-102.1982,40.0873],[-102.198,40.0882],[-102.1964,40.0871],[-102.196,40.0853],[-102.193,40.0846]]},"properties":{"name":"North Fork Republican River","display_name":"North Fork Republican River","source_name":"North Fork Republican River","state":"CO","atlas_class":"named_natural_stream_detail","huc8":"10250002","huc8Name":"North Fork Republican","lineageKey":"statewideContext","lineage":"statewideContext","historic":"statewideContext","current":"statewideContext","recovery":"statewideContext","lineageLabel":"Statewide Colorado hydrography context","atlas_context":"statewide_hydrography_context"}},{"type":"Feature","geometry":{"type":"LineString","coordinates":[[-102.1594,40.0991],[-102.1555,40.0942],[-102.1521,40.0937],[-102.1487,40.09]]},"properties":{"name":"Bloom Creek","display_name":"Bloom Creek","source_name":"Bloom Creek","state":"CO","atlas_class":"named_natural_stream_detail","huc8":"10250002","huc8Name":"North Fork Republican","lineageKey":"statewideContext","lineage":"statewideContext","historic":"statewideContext","current":"statewideContext","recovery":"statewideContext","lineageLabel":"Statewide Colorado hydrography context","atlas_context":"statewide_hydrography_context"}},{"type":"Feature","geometry":{"type":"LineString","coordinates":[[-102.1651,40.1082],[-102.162,40.1035]]},"properties":{"name":"Bloom Creek","display_name":"Bloom Creek","source_name":"Bloom Creek","state":"CO","atlas_class":"named_natural_stream_detail","huc8":"10250002","huc8Name":"North Fork Republican","lineageKey":"statewideContext","lineage":"statewideContext","historic":"statewideContext","current":"statewideContext","recovery":"statewideContext","lineageLabel":"Statewide Colorado hydrography context","atlas_context":"statewide_hydrography_context"}},{"type":"Feature","geometry":{"type":"LineString","coordinates":[[-102.1976,40.1124],[-102.1979,40.1117],[-102.1956,40.1095],[-102.195,40.1061],[-102.1925,40.1037],[-102.1912,40.0986]]},"properties":{"name":"Hayes Creek","display_name":"Hayes Creek","source_name":"Hayes Creek","state":"CO","atlas_class":"named_natural_stream_detail","huc8":"10250002","huc8Name":"North Fork Republican","lineageKey":"statewideContext","lineage":"statewideContext","historic":"statewideContext","current":"statewideContext","recovery":"statewideContext","lineageLabel":"Statewide Colorado hydrography context","atlas_context":"statewide_hydrography_context"}},{"type":"Feature","geometry":{"type":"LineString","coordinates":[[-102.1873,40.0872],[-102.1863,40.0863],[-102.1856,40.0871],[-102.1845,40.0866]]},"properties":{"name":"North Fork Republican River","display_name":"North Fork Republican River","source_name":"North Fork Republican River","state":"CO","atlas_class":"named_natural_stream_detail","huc8":"10250002","huc8Name":"North Fork Republican","lineageKey":"statewideContext","lineage":"statewideContext","historic":"statewideContext","current":"statewideContext","recovery":"statewideContext","lineageLabel":"Statewide Colorado hydrography context","atlas_context":"statewide_hydrography_context"}},{"type":"Feature","geometry":{"type":"LineString","coordinates":[[-102.1482,40.0895],[-102.148,40.0895]]},"properties":{"name":"Bloom Creek","display_name":"Bloom Creek","source_name":"Bloom Creek","state":"CO","atlas_class":"named_natural_stream_detail","huc8":"10250002","huc8Name":"North Fork Republican","lineageKey":"statewideContext","lineage":"statewideContext","historic":"statewideContext","current":"statewideContext","recovery":"statewideContext","lineageLabel":"Statewide Colorado hydrography context","atlas_context":"statewide_hydrography_context"}},{"type":"Feature","geometry":{"type":"LineString","coordinates":[[-102.1772,40.0885],[-102.1736,40.0891]]},"properties":{"name":"North Fork Republican River","display_name":"North Fork Republican River","source_name":"North Fork Republican River","state":"CO","atlas_class":"named_natural_stream_detail","huc8":"10250002","huc8Name":"North Fork Republican","lineageKey":"statewideContext","lineage":"statewideContext","historic":"statewideContext","current":"statewideContext","recovery":"statewideContext","lineageLabel":"Statewide Colorado hydrography context","atlas_context":"statewide_hydrography_context"}},{"type":"Feature","geometry":{"type":"LineString","coordinates":[[-102.1904,40.0964],[-102.1901,40.0962]]},"properties":{"name":"Hayes Creek","display_name":"Hayes Creek","source_name":"Hayes Creek","state":"CO","atlas_class":"named_natural_stream_detail","huc8":"10250002","huc8Name":"North Fork Republican","lineageKey":"statewideContext","lineage":"statewideContext","historic":"statewideContext","current":"statewideContext","recovery":"statewideContext","lineageLabel":"Statewide Colorado hydrography context","atlas_context":"statewide_hydrography_context"}},{"type":"Feature","geometry":{"type":"LineString","coordinates":[[-102.1487,40.09],[-102.1484,40.0896]]},"properties":{"name":"Bloom Creek","display_name":"Bloom Creek","source_name":"Bloom Creek","state":"CO","atlas_class":"named_natural_stream_detail","huc8":"10250002","huc8Name":"North Fork Republican","lineageKey":"statewideContext","lineage":"statewideContext","historic":"statewideContext","current":"statewideContext","recovery":"statewideContext","lineageLabel":"Statewide Colorado hydrography context","atlas_context":"statewide_hydrography_context"}},{"type":"Feature","geometry":{"type":"LineString","coordinates":[[-102.1484,40.0896],[-102.1482,40.0895]]},"properties":{"name":"Bloom Creek","display_name":"Bloom Creek","source_name":"Bloom Creek","state":"CO","atlas_class":"named_natural_stream_detail","huc8":"10250002","huc8Name":"North Fork Republican","lineageKey":"statewideContext","lineage":"statewideContext","historic":"statewideContext","current":"statewideContext","recovery":"statewideContext","lineageLabel":"Statewide Colorado hydrography context","atlas_context":"statewide_hydrography_context"}},{"type":"Feature","geometry":{"type":"LineString","coordinates":[[-102.193,40.0846],[-102.1898,40.0848],[-102.1901,40.0861],[-102.1885,40.0862],[-102.1886,40.0872],[-102.1877,40.0876],[-102.1873,40.0872]]},"properties":{"name":"North Fork Republican River","display_name":"North Fork Republican River","source_name":"North Fork Republican River","state":"CO","atlas_class":"named_natural_stream_detail","huc8":"10250002","huc8Name":"North Fork Republican","lineageKey":"statewideContext","lineage":"statewideContext","historic":"statewideContext","current":"statewideContext","recovery":"statewideContext","lineageLabel":"Statewide Colorado hydrography context","atlas_context":"statewide_hydrography_context"}},{"type":"Feature","geometry":{"type":"LineString","coordinates":[[-102.1981,40.0711],[-102.1968,40.0722],[-102.1974,40.0726],[-102.1967,40.075],[-102.1973,40.0776],[-102.1959,40.0801],[-102.1962,40.083],[-102.1954,40.0841],[-102.193,40.0844]]},"properties":{"name":"Olive Creek","display_name":"Olive Creek","source_name":"Olive Creek","state":"CO","atlas_class":"named_natural_stream_detail","huc8":"10250002","huc8Name":"North Fork Republican","lineageKey":"statewideContext","lineage":"statewideContext","historic":"statewideContext","current":"statewideContext","recovery":"statewideContext","lineageLabel":"Statewide Colorado hydrography context","atlas_context":"statewide_hydrography_context"}},{"type":"Feature","geometry":{"type":"LineString","coordinates":[[-102.1077,40.0814],[-102.1065,40.0826],[-102.1042,40.082],[-102.104,40.0808],[-102.1065,40.0803],[-102.1052,40.0782],[-102.1019,40.0779],[-102.1005,40.0796],[-102.0984,40.0802],[-102.0978,40.0799],[-102.0984,40.0791],[-102.0976,40.0791]]},"properties":{"name":"North Fork Republican River","display_name":"North Fork Republican River","source_name":"North Fork Republican River","state":"CO","atlas_class":"named_natural_stream_detail","huc8":"10250002","huc8Name":"North Fork Republican","lineageKey":"statewideContext","lineage":"statewideContext","historic":"statewideContext","current":"statewideContext","recovery":"statewideContext","lineageLabel":"Statewide Colorado hydrography context","atlas_context":"statewide_hydrography_context"}},{"type":"Feature","geometry":{"type":"LineString","coordinates":[[-102.1392,40.0856],[-102.1375,40.0853]]},"properties":{"name":"North Fork Republican River","display_name":"North Fork Republican River","source_name":"North Fork Republican River","state":"CO","atlas_class":"named_natural_stream_detail","huc8":"10250002","huc8Name":"North Fork Republican","lineageKey":"statewideContext","lineage":"statewideContext","historic":"statewideContext","current":"statewideContext","recovery":"statewideContext","lineageLabel":"Statewide Colorado hydrography context","atlas_context":"statewide_hydrography_context"}},{"type":"Feature","geometry":{"type":"LineString","coordinates":[[-102.0877,40.0842],[-102.0852,40.0831]]},"properties":{"name":"Rush Creek","display_name":"Rush Creek","source_name":"Rush Creek","state":"CO","atlas_class":"named_natural_stream_detail","huc8":"10250002","huc8Name":"North Fork Republican","lineageKey":"statewideContext","lineage":"statewideContext","historic":"statewideContext","current":"statewideContext","recovery":"statewideContext","lineageLabel":"Statewide Colorado hydrography context","atlas_context":"statewide_hydrography_context"}},{"type":"Feature","geometry":{"type":"LineString","coordinates":[[-102.1795,40.0857],[-102.18,40.0867],[-102.1784,40.0885],[-102.1772,40.0885]]},"properties":{"name":"North Fork Republican River","display_name":"North Fork Republican River","source_name":"North Fork Republican River","state":"CO","atlas_class":"named_natural_stream_detail","huc8":"10250002","huc8Name":"North Fork Republican","lineageKey":"statewideContext","lineage":"statewideContext","historic":"statewideContext","current":"statewideContext","recovery":"statewideContext","lineageLabel":"Statewide Colorado hydrography context","atlas_context":"statewide_hydrography_context"}},{"type":"Feature","geometry":{"type":"LineString","coordinates":[[-102.1375,40.0853],[-102.1365,40.0843],[-102.1344,40.0846],[-102.1315,40.0832],[-102.1282,40.0836],[-102.1273,40.0851],[-102.1207,40.0842],[-102.1187,40.0828],[-102.118,40.0814],[-102.1186,40.0801],[-102.1178,40.0798],[-102.1156,40.0806],[-102.1139,40.08],[-102.1133,40.0812]]},"properties":{"name":"North Fork Republican River","display_name":"North Fork Republican River","source_name":"North Fork Republican River","state":"CO","atlas_class":"named_natural_stream_detail","huc8":"10250002","huc8Name":"North Fork Republican","lineageKey":"statewideContext","lineage":"statewideContext","historic":"statewideContext","current":"statewideContext","recovery":"statewideContext","lineageLabel":"Statewide Colorado hydrography context","atlas_context":"statewide_hydrography_context"}},{"type":"Feature","geometry":{"type":"LineString","coordinates":[[-102.1736,40.0891],[-102.1708,40.0895],[-102.1685,40.087]]},"properties":{"name":"North Fork Republican River","display_name":"North Fork Republican River","source_name":"North Fork Republican River","state":"CO","atlas_class":"named_natural_stream_detail","huc8":"10250002","huc8Name":"North Fork Republican","lineageKey":"statewideContext","lineage":"statewideContext","historic":"statewideContext","current":"statewideContext","recovery":"statewideContext","lineageLabel":"Statewide Colorado hydrography context","atlas_context":"statewide_hydrography_context"}},{"type":"Feature","geometry":{"type":"LineString","coordinates":[[-102.1588,40.0856],[-102.1511,40.0858],[-102.1503,40.0872],[-102.15,40.0856],[-102.1491,40.0856],[-102.1495,40.0848],[-102.1477,40.0847],[-102.1459,40.0858],[-102.1467,40.0864],[-102.1454,40.0872]]},"properties":{"name":"North Fork Republican River","display_name":"North Fork Republican River","source_name":"North Fork Republican River","state":"CO","atlas_class":"named_natural_stream_detail","huc8":"10250002","huc8Name":"North Fork Republican","lineageKey":"statewideContext","lineage":"statewideContext","historic":"statewideContext","current":"statewideContext","recovery":"statewideContext","lineageLabel":"Statewide Colorado hydrography context","atlas_context":"statewide_hydrography_context"}},{"type":"Feature","geometry":{"type":"LineString","coordinates":[[-102.1148,40.1236],[-102.1109,40.1206],[-102.1059,40.1132],[-102.1023,40.1102],[-102.0984,40.0998],[-102.094,40.0969]]},"properties":{"name":"Rush Creek","display_name":"Rush Creek","source_name":"Rush Creek","state":"CO","atlas_class":"named_natural_stream_detail","huc8":"10250002","huc8Name":"North Fork Republican","lineageKey":"statewideContext","lineage":"statewideContext","historic":"statewideContext","current":"statewideContext","recovery":"statewideContext","lineageLabel":"Statewide Colorado hydrography context","atlas_context":"statewide_hydrography_context"}},{"type":"Feature","geometry":{"type":"LineString","coordinates":[[-102.1988,40.1229],[-102.1979,40.1186],[-102.199,40.114],[-102.198,40.1129]]},"properties":{"name":"Hayes Creek","display_name":"Hayes Creek","source_name":"Hayes Creek","state":"CO","atlas_class":"named_natural_stream_detail","huc8":"10250002","huc8Name":"North Fork Republican","lineageKey":"statewideContext","lineage":"statewideContext","historic":"statewideContext","current":"statewideContext","recovery":"statewideContext","lineageLabel":"Statewide Colorado hydrography context","atlas_context":"statewide_hydrography_context"}},{"type":"Feature","geometry":{"type":"LineString","coordinates":[[-102.193,40.0844],[-102.193,40.0846]]},"properties":{"name":"Olive Creek","display_name":"Olive Creek","source_name":"Olive Creek","state":"CO","atlas_class":"named_natural_stream_detail","huc8":"10250002","huc8Name":"North Fork Republican","lineageKey":"statewideContext","lineage":"statewideContext","historic":"statewideContext","current":"statewideContext","recovery":"statewideContext","lineageLabel":"Statewide Colorado hydrography context","atlas_context":"statewide_hydrography_context"}}]}