{"type":"FeatureCollection","metadata":{"source":"C:\\ct-atlas-data\\processed\\geojson\\interpreted\\colorado_named_natural_streams_complete_v1.geojson","type":"colorado-natural-stream-detail-tile-v2","tile_size_degrees":0.2,"x":-528,"y":184,"bounds":{"west":-105.6,"south":36.8,"east":-105.4,"north":37}},"features":[{"type":"Feature","geometry":{"type":"LineString","coordinates":[[-105.4131,36.9958],[-105.415,36.998],[-105.4158,37.0007],[-105.4202,37.0048]]},"properties":{"name":"Jarocito Creek","display_name":"Jarocito Creek","source_name":"Jarocito Creek","state":"CO","atlas_class":"named_natural_stream_detail","huc8":"13010002","huc8Name":"Alamosa-Trinchera","lineageKey":"rioGrande","lineage":"rioGrande","historic":"rioGrande","current":"rioGrande","recovery":"recoveryWatch","lineageLabel":"Rio Grande lineage","atlas_context":"cutthroat_lineage_context"}},{"type":"Feature","geometry":{"type":"LineString","coordinates":[[-105.4706,36.996],[-105.4661,36.9973],[-105.4568,37.004],[-105.4483,37.0062]]},"properties":{"name":"Ventero Creek","display_name":"Ventero Creek","source_name":"Ventero Creek","state":"CO","atlas_class":"named_natural_stream_detail","huc8":"13010002","huc8Name":"Alamosa-Trinchera","lineageKey":"rioGrande","lineage":"rioGrande","historic":"rioGrande","current":"rioGrande","recovery":"recoveryWatch","lineageLabel":"Rio Grande lineage","atlas_context":"cutthroat_lineage_context"}},{"type":"Feature","geometry":{"type":"LineString","coordinates":[[-105.5331,36.9959],[-105.5338,37.0001]]},"properties":{"name":"Costilla Creek","display_name":"Costilla Creek","source_name":"Costilla Creek","state":"CO","atlas_class":"named_natural_stream_detail","huc8":"13020101","huc8Name":"Upper Rio Grande","lineageKey":"statewideContext","lineage":"statewideContext","historic":"statewideContext","current":"statewideContext","recovery":"statewideContext","lineageLabel":"Statewide Colorado hydrography context","atlas_context":"statewide_hydrography_context"}}]}