{"type":"FeatureCollection","metadata":{"source":"C:\\ct-atlas-data\\processed\\geojson\\interpreted\\colorado_named_natural_streams_complete_v1.geojson","type":"colorado-natural-stream-detail-tile-v2","tile_size_degrees":0.2,"x":-522,"y":204,"bounds":{"west":-104.4,"south":40.8,"east":-104.2,"north":41}},"features":[{"type":"Feature","geometry":{"type":"LineString","coordinates":[[-104.3476,40.8324],[-104.3455,40.8314],[-104.3449,40.8293],[-104.3455,40.8271],[-104.3437,40.8266],[-104.345,40.8259],[-104.3436,40.8252],[-104.3445,40.824],[-104.3444,40.8223]]},"properties":{"name":"Little Crow Creek","display_name":"Little Crow Creek","source_name":"Little Crow Creek","state":"CO","atlas_class":"named_natural_stream_detail","huc8":"10190009","huc8Name":"Crow","lineageKey":"statewideContext","lineage":"statewideContext","historic":"statewideContext","current":"statewideContext","recovery":"statewideContext","lineageLabel":"Statewide Colorado hydrography context","atlas_context":"statewide_hydrography_context"}},{"type":"Feature","geometry":{"type":"LineString","coordinates":[[-104.274,40.8131],[-104.2724,40.8115],[-104.2728,40.8092]]},"properties":{"name":"Crow Creek","display_name":"Crow Creek","source_name":"Crow Creek","state":"CO","atlas_class":"named_natural_stream_detail","huc8":"10190009","huc8Name":"Crow","lineageKey":"statewideContext","lineage":"statewideContext","historic":"statewideContext","current":"statewideContext","recovery":"statewideContext","lineageLabel":"Statewide Colorado hydrography context","atlas_context":"statewide_hydrography_context"}},{"type":"Feature","geometry":{"type":"LineString","coordinates":[[-104.2629,40.9241],[-104.2638,40.9239],[-104.2651,40.9211],[-104.2643,40.9201],[-104.2658,40.9159],[-104.2623,40.9105],[-104.2628,40.9084],[-104.2613,40.9059],[-104.2623,40.9044],[-104.2616,40.9027],[-104.2619,40.9007]]},"properties":{"name":"Crow Creek","display_name":"Crow Creek","source_name":"Crow Creek","state":"CO","atlas_class":"named_natural_stream_detail","huc8":"10190009","huc8Name":"Crow","lineageKey":"statewideContext","lineage":"statewideContext","historic":"statewideContext","current":"statewideContext","recovery":"statewideContext","lineageLabel":"Statewide Colorado hydrography context","atlas_context":"statewide_hydrography_context"}},{"type":"Feature","geometry":{"type":"LineString","coordinates":[[-104.4034,40.9679],[-104.4013,40.9635],[-104.3982,40.963],[-104.3994,40.9611],[-104.3976,40.9592]]},"properties":{"name":"Little Crow Creek","display_name":"Little Crow Creek","source_name":"Little Crow Creek","state":"CO","atlas_class":"named_natural_stream_detail","huc8":"10190009","huc8Name":"Crow","lineageKey":"statewideContext","lineage":"statewideContext","historic":"statewideContext","current":"statewideContext","recovery":"statewideContext","lineageLabel":"Statewide Colorado hydrography context","atlas_context":"statewide_hydrography_context"}},{"type":"Feature","geometry":{"type":"LineString","coordinates":[[-104.3958,40.9136],[-104.3941,40.9117],[-104.3904,40.9111],[-104.3891,40.9098],[-104.384,40.9097],[-104.385,40.9046],[-104.3826,40.9022],[-104.3837,40.8988],[-104.3806,40.8959],[-104.3804,40.8944],[-104.3823,40.8922],[-104.3823,40.8911],[-104.3797,40.8899],[-104.3778,40.8912]]},"properties":{"name":"Little Crow Creek","display_name":"Little Crow Creek","source_name":"Little Crow Creek","state":"CO","atlas_class":"named_natural_stream_detail","huc8":"10190009","huc8Name":"Crow","lineageKey":"statewideContext","lineage":"statewideContext","historic":"statewideContext","current":"statewideContext","recovery":"statewideContext","lineageLabel":"Statewide Colorado hydrography context","atlas_context":"statewide_hydrography_context"}},{"type":"Feature","geometry":{"type":"LineString","coordinates":[[-104.3295,40.9805],[-104.3275,40.9808],[-104.3277,40.9797],[-104.3264,40.9788],[-104.3235,40.9791],[-104.3231,40.9769],[-104.3195,40.9756],[-104.319,40.9742],[-104.316,40.9747],[-104.3156,40.9731],[-104.3109,40.9698],[-104.311,40.9688],[-104.3072,40.9676],[-104.3066,40.9661],[-104.3,40.9666]]},"properties":{"name":"Crow Creek","display_name":"Crow Creek","source_name":"Crow Creek","state":"CO","atlas_class":"named_natural_stream_detail","huc8":"10190009","huc8Name":"Crow","lineageKey":"statewideContext","lineage":"statewideContext","historic":"statewideContext","current":"statewideContext","recovery":"statewideContext","lineageLabel":"Statewide Colorado hydrography context","atlas_context":"statewide_hydrography_context"}},{"type":"Feature","geometry":{"type":"LineString","coordinates":[[-104.2638,40.8993],[-104.2644,40.8986],[-104.2628,40.8968],[-104.2633,40.8949],[-104.26,40.8939],[-104.2585,40.8924],[-104.2588,40.8909],[-104.2578,40.8898],[-104.2593,40.8871],[-104.2567,40.8845],[-104.2556,40.8844],[-104.2548,40.8826],[-104.2579,40.88],[-104.2565,40.8759],[-104.2577,40.8732],[-104.2571,40.8715]]},"properties":{"name":"Crow Creek","display_name":"Crow Creek","source_name":"Crow Creek","state":"CO","atlas_class":"named_natural_stream_detail","huc8":"10190009","huc8Name":"Crow","lineageKey":"statewideContext","lineage":"statewideContext","historic":"statewideContext","current":"statewideContext","recovery":"statewideContext","lineageLabel":"Statewide Colorado hydrography context","atlas_context":"statewide_hydrography_context"}},{"type":"Feature","geometry":{"type":"LineString","coordinates":[[-104.4037,40.9313],[-104.4041,40.9301],[-104.4027,40.9286],[-104.4032,40.9265],[-104.4008,40.9254],[-104.4005,40.9225],[-104.3958,40.9169],[-104.3951,40.9146],[-104.3958,40.9136]]},"properties":{"name":"Little Crow Creek","display_name":"Little Crow Creek","source_name":"Little Crow Creek","state":"CO","atlas_class":"named_natural_stream_detail","huc8":"10190009","huc8Name":"Crow","lineageKey":"statewideContext","lineage":"statewideContext","historic":"statewideContext","current":"statewideContext","recovery":"statewideContext","lineageLabel":"Statewide Colorado hydrography context","atlas_context":"statewide_hydrography_context"}},{"type":"Feature","geometry":{"type":"LineString","coordinates":[[-104.2549,40.8356],[-104.2529,40.8333],[-104.2532,40.8314]]},"properties":{"name":"Crow Creek","display_name":"Crow Creek","source_name":"Crow Creek","state":"CO","atlas_class":"named_natural_stream_detail","huc8":"10190009","huc8Name":"Crow","lineageKey":"statewideContext","lineage":"statewideContext","historic":"statewideContext","current":"statewideContext","recovery":"statewideContext","lineageLabel":"Statewide Colorado hydrography context","atlas_context":"statewide_hydrography_context"}},{"type":"Feature","geometry":{"type":"LineString","coordinates":[[-104.2524,40.8413],[-104.2532,40.8411],[-104.2533,40.8394],[-104.2559,40.8379]]},"properties":{"name":"Crow Creek","display_name":"Crow Creek","source_name":"Crow Creek","state":"CO","atlas_class":"named_natural_stream_detail","huc8":"10190009","huc8Name":"Crow","lineageKey":"statewideContext","lineage":"statewideContext","historic":"statewideContext","current":"statewideContext","recovery":"statewideContext","lineageLabel":"Statewide Colorado hydrography context","atlas_context":"statewide_hydrography_context"}},{"type":"Feature","geometry":{"type":"LineString","coordinates":[[-104.2734,40.8208],[-104.2753,40.8202],[-104.275,40.8178]]},"properties":{"name":"Crow Creek","display_name":"Crow Creek","source_name":"Crow Creek","state":"CO","atlas_class":"named_natural_stream_detail","huc8":"10190009","huc8Name":"Crow","lineageKey":"statewideContext","lineage":"statewideContext","historic":"statewideContext","current":"statewideContext","recovery":"statewideContext","lineageLabel":"Statewide Colorado hydrography context","atlas_context":"statewide_hydrography_context"}},{"type":"Feature","geometry":{"type":"LineString","coordinates":[[-104.263,40.8263],[-104.2639,40.8256],[-104.2634,40.8232],[-104.2642,40.8221],[-104.2704,40.8236]]},"properties":{"name":"Crow Creek","display_name":"Crow Creek","source_name":"Crow Creek","state":"CO","atlas_class":"named_natural_stream_detail","huc8":"10190009","huc8Name":"Crow","lineageKey":"statewideContext","lineage":"statewideContext","historic":"statewideContext","current":"statewideContext","recovery":"statewideContext","lineageLabel":"Statewide Colorado hydrography context","atlas_context":"statewide_hydrography_context"}},{"type":"Feature","geometry":{"type":"LineString","coordinates":[[-104.2618,40.9263],[-104.2618,40.9256]]},"properties":{"name":"Crow Creek","display_name":"Crow Creek","source_name":"Crow Creek","state":"CO","atlas_class":"named_natural_stream_detail","huc8":"10190009","huc8Name":"Crow","lineageKey":"statewideContext","lineage":"statewideContext","historic":"statewideContext","current":"statewideContext","recovery":"statewideContext","lineageLabel":"Statewide Colorado hydrography context","atlas_context":"statewide_hydrography_context"}},{"type":"Feature","geometry":{"type":"LineString","coordinates":[[-104.3375,40.8018],[-104.3361,40.8002],[-104.3355,40.8009],[-104.3339,40.8008]]},"properties":{"name":"Little Crow Creek","display_name":"Little Crow Creek","source_name":"Little Crow Creek","state":"CO","atlas_class":"named_natural_stream_detail","huc8":"10190009","huc8Name":"Crow","lineageKey":"statewideContext","lineage":"statewideContext","historic":"statewideContext","current":"statewideContext","recovery":"statewideContext","lineageLabel":"Statewide Colorado hydrography context","atlas_context":"statewide_hydrography_context"}},{"type":"Feature","geometry":{"type":"LineString","coordinates":[[-104.3339,40.8008],[-104.3337,40.7994],[-104.332,40.8]]},"properties":{"name":"Little Crow Creek","display_name":"Little Crow Creek","source_name":"Little Crow Creek","state":"CO","atlas_class":"named_natural_stream_detail","huc8":"10190009","huc8Name":"Crow","lineageKey":"statewideContext","lineage":"statewideContext","historic":"statewideContext","current":"statewideContext","recovery":"statewideContext","lineageLabel":"Statewide Colorado hydrography context","atlas_context":"statewide_hydrography_context"}},{"type":"Feature","geometry":{"type":"LineString","coordinates":[[-104.275,40.8178],[-104.2739,40.8157],[-104.274,40.8131]]},"properties":{"name":"Crow Creek","display_name":"Crow Creek","source_name":"Crow Creek","state":"CO","atlas_class":"named_natural_stream_detail","huc8":"10190009","huc8Name":"Crow","lineageKey":"statewideContext","lineage":"statewideContext","historic":"statewideContext","current":"statewideContext","recovery":"statewideContext","lineageLabel":"Statewide Colorado hydrography context","atlas_context":"statewide_hydrography_context"}},{"type":"Feature","geometry":{"type":"LineString","coordinates":[[-104.2588,40.8274],[-104.263,40.8263]]},"properties":{"name":"Crow Creek","display_name":"Crow Creek","source_name":"Crow Creek","state":"CO","atlas_class":"named_natural_stream_detail","huc8":"10190009","huc8Name":"Crow","lineageKey":"statewideContext","lineage":"statewideContext","historic":"statewideContext","current":"statewideContext","recovery":"statewideContext","lineageLabel":"Statewide Colorado hydrography context","atlas_context":"statewide_hydrography_context"}},{"type":"Feature","geometry":{"type":"LineString","coordinates":[[-104.2697,40.9343],[-104.2697,40.9301],[-104.2651,40.9295]]},"properties":{"name":"Crow Creek","display_name":"Crow Creek","source_name":"Crow Creek","state":"CO","atlas_class":"named_natural_stream_detail","huc8":"10190009","huc8Name":"Crow","lineageKey":"statewideContext","lineage":"statewideContext","historic":"statewideContext","current":"statewideContext","recovery":"statewideContext","lineageLabel":"Statewide Colorado hydrography context","atlas_context":"statewide_hydrography_context"}},{"type":"Feature","geometry":{"type":"LineString","coordinates":[[-104.3416,40.8169],[-104.3413,40.8148],[-104.3398,40.8145],[-104.3414,40.8128],[-104.34,40.8123],[-104.3421,40.8107]]},"properties":{"name":"Little Crow Creek","display_name":"Little Crow Creek","source_name":"Little Crow Creek","state":"CO","atlas_class":"named_natural_stream_detail","huc8":"10190009","huc8Name":"Crow","lineageKey":"statewideContext","lineage":"statewideContext","historic":"statewideContext","current":"statewideContext","recovery":"statewideContext","lineageLabel":"Statewide Colorado hydrography context","atlas_context":"statewide_hydrography_context"}},{"type":"Feature","geometry":{"type":"LineString","coordinates":[[-104.2532,40.8314],[-104.2546,40.83]]},"properties":{"name":"Crow Creek","display_name":"Crow Creek","source_name":"Crow Creek","state":"CO","atlas_class":"named_natural_stream_detail","huc8":"10190009","huc8Name":"Crow","lineageKey":"statewideContext","lineage":"statewideContext","historic":"statewideContext","current":"statewideContext","recovery":"statewideContext","lineageLabel":"Statewide Colorado hydrography context","atlas_context":"statewide_hydrography_context"}},{"type":"Feature","geometry":{"type":"LineString","coordinates":[[-104.2518,40.8533],[-104.2529,40.851]]},"properties":{"name":"Crow Creek","display_name":"Crow Creek","source_name":"Crow Creek","state":"CO","atlas_class":"named_natural_stream_detail","huc8":"10190009","huc8Name":"Crow","lineageKey":"statewideContext","lineage":"statewideContext","historic":"statewideContext","current":"statewideContext","recovery":"statewideContext","lineageLabel":"Statewide Colorado hydrography context","atlas_context":"statewide_hydrography_context"}},{"type":"Feature","geometry":{"type":"LineString","coordinates":[[-104.2531,40.8661],[-104.2542,40.8648],[-104.2528,40.8633],[-104.253,40.8609],[-104.2514,40.8597],[-104.2521,40.855]]},"properties":{"name":"Crow Creek","display_name":"Crow Creek","source_name":"Crow Creek","state":"CO","atlas_class":"named_natural_stream_detail","huc8":"10190009","huc8Name":"Crow","lineageKey":"statewideContext","lineage":"statewideContext","historic":"statewideContext","current":"statewideContext","recovery":"statewideContext","lineageLabel":"Statewide Colorado hydrography context","atlas_context":"statewide_hydrography_context"}},{"type":"Feature","geometry":{"type":"LineString","coordinates":[[-104.2704,40.8236],[-104.2716,40.8213],[-104.2734,40.8208]]},"properties":{"name":"Crow Creek","display_name":"Crow Creek","source_name":"Crow Creek","state":"CO","atlas_class":"named_natural_stream_detail","huc8":"10190009","huc8Name":"Crow","lineageKey":"statewideContext","lineage":"statewideContext","historic":"statewideContext","current":"statewideContext","recovery":"statewideContext","lineageLabel":"Statewide Colorado hydrography context","atlas_context":"statewide_hydrography_context"}},{"type":"Feature","geometry":{"type":"LineString","coordinates":[[-104.2651,40.9295],[-104.266,40.927],[-104.2618,40.9263]]},"properties":{"name":"Crow Creek","display_name":"Crow Creek","source_name":"Crow Creek","state":"CO","atlas_class":"named_natural_stream_detail","huc8":"10190009","huc8Name":"Crow","lineageKey":"statewideContext","lineage":"statewideContext","historic":"statewideContext","current":"statewideContext","recovery":"statewideContext","lineageLabel":"Statewide Colorado hydrography context","atlas_context":"statewide_hydrography_context"}},{"type":"Feature","geometry":{"type":"LineString","coordinates":[[-104.4036,40.8254],[-104.4057,40.8252],[-104.4048,40.8228],[-104.4024,40.8237],[-104.4023,40.822],[-104.4011,40.8213],[-104.4021,40.8207],[-104.4015,40.8196],[-104.3999,40.8203],[-104.3995,40.8192],[-104.3977,40.8185],[-104.3984,40.8162],[-104.3996,40.8156],[-104.3992,40.8151],[-104.3953,40.8122],[-104.3927,40.8128],[-104.3938,40.81],[-104.3884,40.8104],[-104.3878,40.8084],[-104.3849,40.8084],[-104.3842,40.8054],[-104.3814,40.8026],[-104.3783,40.8025],[-104.3745,40.8009],[-104.3746,40.7995],[-104.3768,40.7989],[-104.3759,40.798],[-104.3732,40.7978],[-104.3735,40.7954],[-104.3723,40.794]]},"properties":{"name":"Geary Creek","display_name":"Geary Creek","source_name":"Geary Creek","state":"CO","atlas_class":"named_natural_stream_detail","huc8":"10190009","huc8Name":"Crow","lineageKey":"statewideContext","lineage":"statewideContext","historic":"statewideContext","current":"statewideContext","recovery":"statewideContext","lineageLabel":"Statewide Colorado hydrography context","atlas_context":"statewide_hydrography_context"}},{"type":"Feature","geometry":{"type":"LineString","coordinates":[[-104.2646,40.9384],[-104.265,40.9373],[-104.2665,40.9369]]},"properties":{"name":"Crow Creek","display_name":"Crow Creek","source_name":"Crow Creek","state":"CO","atlas_class":"named_natural_stream_detail","huc8":"10190009","huc8Name":"Crow","lineageKey":"statewideContext","lineage":"statewideContext","historic":"statewideContext","current":"statewideContext","recovery":"statewideContext","lineageLabel":"Statewide Colorado hydrography context","atlas_context":"statewide_hydrography_context"}},{"type":"Feature","geometry":{"type":"LineString","coordinates":[[-104.2559,40.8379],[-104.2554,40.8364]]},"properties":{"name":"Crow Creek","display_name":"Crow Creek","source_name":"Crow Creek","state":"CO","atlas_class":"named_natural_stream_detail","huc8":"10190009","huc8Name":"Crow","lineageKey":"statewideContext","lineage":"statewideContext","historic":"statewideContext","current":"statewideContext","recovery":"statewideContext","lineageLabel":"Statewide Colorado hydrography context","atlas_context":"statewide_hydrography_context"}},{"type":"Feature","geometry":{"type":"LineString","coordinates":[[-104.2521,40.855],[-104.2518,40.8533]]},"properties":{"name":"Crow Creek","display_name":"Crow Creek","source_name":"Crow Creek","state":"CO","atlas_class":"named_natural_stream_detail","huc8":"10190009","huc8Name":"Crow","lineageKey":"statewideContext","lineage":"statewideContext","historic":"statewideContext","current":"statewideContext","recovery":"statewideContext","lineageLabel":"Statewide Colorado hydrography context","atlas_context":"statewide_hydrography_context"}},{"type":"Feature","geometry":{"type":"LineString","coordinates":[[-104.3407,40.8059],[-104.3385,40.8051],[-104.3373,40.8034],[-104.3375,40.8018]]},"properties":{"name":"Little Crow Creek","display_name":"Little Crow Creek","source_name":"Little Crow Creek","state":"CO","atlas_class":"named_natural_stream_detail","huc8":"10190009","huc8Name":"Crow","lineageKey":"statewideContext","lineage":"statewideContext","historic":"statewideContext","current":"statewideContext","recovery":"statewideContext","lineageLabel":"Statewide Colorado hydrography context","atlas_context":"statewide_hydrography_context"}},{"type":"Feature","geometry":{"type":"LineString","coordinates":[[-104.287,40.9608],[-104.2862,40.9604],[-104.2866,40.9588],[-104.2893,40.9581],[-104.2867,40.9562],[-104.2851,40.9564]]},"properties":{"name":"Crow Creek","display_name":"Crow Creek","source_name":"Crow Creek","state":"CO","atlas_class":"named_natural_stream_detail","huc8":"10190009","huc8Name":"Crow","lineageKey":"statewideContext","lineage":"statewideContext","historic":"statewideContext","current":"statewideContext","recovery":"statewideContext","lineageLabel":"Statewide Colorado hydrography context","atlas_context":"statewide_hydrography_context"}},{"type":"Feature","geometry":{"type":"LineString","coordinates":[[-104.2964,40.9667],[-104.2918,40.965],[-104.2897,40.9631],[-104.2897,40.9622],[-104.2871,40.9619],[-104.2861,40.9608],[-104.287,40.9608]]},"properties":{"name":"Crow Creek","display_name":"Crow Creek","source_name":"Crow Creek","state":"CO","atlas_class":"named_natural_stream_detail","huc8":"10190009","huc8Name":"Crow","lineageKey":"statewideContext","lineage":"statewideContext","historic":"statewideContext","current":"statewideContext","recovery":"statewideContext","lineageLabel":"Statewide Colorado hydrography context","atlas_context":"statewide_hydrography_context"}},{"type":"Feature","geometry":{"type":"LineString","coordinates":[[-104.4143,40.9217],[-104.3958,40.9136]]},"properties":{"name":"Simpson Creek","display_name":"Simpson Creek","source_name":"Simpson Creek","state":"CO","atlas_class":"named_natural_stream_detail","huc8":"10190009","huc8Name":"Crow","lineageKey":"statewideContext","lineage":"statewideContext","historic":"statewideContext","current":"statewideContext","recovery":"statewideContext","lineageLabel":"Statewide Colorado hydrography context","atlas_context":"statewide_hydrography_context"}},{"type":"Feature","geometry":{"type":"LineString","coordinates":[[-104.3557,41.0016],[-104.3537,40.9996],[-104.3541,40.9989],[-104.353,40.9969],[-104.3479,40.9946],[-104.3473,40.9931],[-104.348,40.9916],[-104.347,40.9909],[-104.3443,40.9902],[-104.3423,40.992],[-104.3426,40.9934],[-104.3414,40.994],[-104.3402,40.9934],[-104.3394,40.9922],[-104.3404,40.9914],[-104.3388,40.9898],[-104.3392,40.9891],[-104.3363,40.9884],[-104.3373,40.9848],[-104.3358,40.9839],[-104.3355,40.9824],[-104.3332,40.982],[-104.3308,40.9797],[-104.3295,40.9805]]},"properties":{"name":"Crow Creek","display_name":"Crow Creek","source_name":"Crow Creek","state":"CO","atlas_class":"named_natural_stream_detail","huc8":"10190009","huc8Name":"Crow","lineageKey":"statewideContext","lineage":"statewideContext","historic":"statewideContext","current":"statewideContext","recovery":"statewideContext","lineageLabel":"Statewide Colorado hydrography context","atlas_context":"statewide_hydrography_context"}},{"type":"Feature","geometry":{"type":"LineString","coordinates":[[-104.3421,40.8107],[-104.3409,40.8101],[-104.3411,40.8089],[-104.3401,40.8079]]},"properties":{"name":"Little Crow Creek","display_name":"Little Crow Creek","source_name":"Little Crow Creek","state":"CO","atlas_class":"named_natural_stream_detail","huc8":"10190009","huc8Name":"Crow","lineageKey":"statewideContext","lineage":"statewideContext","historic":"statewideContext","current":"statewideContext","recovery":"statewideContext","lineageLabel":"Statewide Colorado hydrography context","atlas_context":"statewide_hydrography_context"}},{"type":"Feature","geometry":{"type":"LineString","coordinates":[[-104.3,40.9666],[-104.2964,40.9667]]},"properties":{"name":"Crow Creek","display_name":"Crow Creek","source_name":"Crow Creek","state":"CO","atlas_class":"named_natural_stream_detail","huc8":"10190009","huc8Name":"Crow","lineageKey":"statewideContext","lineage":"statewideContext","historic":"statewideContext","current":"statewideContext","recovery":"statewideContext","lineageLabel":"Statewide Colorado hydrography context","atlas_context":"statewide_hydrography_context"}},{"type":"Feature","geometry":{"type":"LineString","coordinates":[[-104.2554,40.8364],[-104.2549,40.8356]]},"properties":{"name":"Crow Creek","display_name":"Crow Creek","source_name":"Crow Creek","state":"CO","atlas_class":"named_natural_stream_detail","huc8":"10190009","huc8Name":"Crow","lineageKey":"statewideContext","lineage":"statewideContext","historic":"statewideContext","current":"statewideContext","recovery":"statewideContext","lineageLabel":"Statewide Colorado hydrography context","atlas_context":"statewide_hydrography_context"}},{"type":"Feature","geometry":{"type":"LineString","coordinates":[[-104.3786,40.8835],[-104.3767,40.8828],[-104.3777,40.8804],[-104.3764,40.8786]]},"properties":{"name":"Little Crow Creek","display_name":"Little Crow Creek","source_name":"Little Crow Creek","state":"CO","atlas_class":"named_natural_stream_detail","huc8":"10190009","huc8Name":"Crow","lineageKey":"statewideContext","lineage":"statewideContext","historic":"statewideContext","current":"statewideContext","recovery":"statewideContext","lineageLabel":"Statewide Colorado hydrography context","atlas_context":"statewide_hydrography_context"}},{"type":"Feature","geometry":{"type":"LineString","coordinates":[[-104.3778,40.8912],[-104.3765,40.8902],[-104.3759,40.8881],[-104.3774,40.8873],[-104.38,40.8884]]},"properties":{"name":"Little Crow Creek","display_name":"Little Crow Creek","source_name":"Little Crow Creek","state":"CO","atlas_class":"named_natural_stream_detail","huc8":"10190009","huc8Name":"Crow","lineageKey":"statewideContext","lineage":"statewideContext","historic":"statewideContext","current":"statewideContext","recovery":"statewideContext","lineageLabel":"Statewide Colorado hydrography context","atlas_context":"statewide_hydrography_context"}},{"type":"Feature","geometry":{"type":"LineString","coordinates":[[-104.2616,40.9253],[-104.2629,40.9241]]},"properties":{"name":"Crow Creek","display_name":"Crow Creek","source_name":"Crow Creek","state":"CO","atlas_class":"named_natural_stream_detail","huc8":"10190009","huc8Name":"Crow","lineageKey":"statewideContext","lineage":"statewideContext","historic":"statewideContext","current":"statewideContext","recovery":"statewideContext","lineageLabel":"Statewide Colorado hydrography context","atlas_context":"statewide_hydrography_context"}},{"type":"Feature","geometry":{"type":"LineString","coordinates":[[-104.2647,40.9424],[-104.2646,40.9384]]},"properties":{"name":"Crow Creek","display_name":"Crow Creek","source_name":"Crow Creek","state":"CO","atlas_class":"named_natural_stream_detail","huc8":"10190009","huc8Name":"Crow","lineageKey":"statewideContext","lineage":"statewideContext","historic":"statewideContext","current":"statewideContext","recovery":"statewideContext","lineageLabel":"Statewide Colorado hydrography context","atlas_context":"statewide_hydrography_context"}},{"type":"Feature","geometry":{"type":"LineString","coordinates":[[-104.2728,40.8092],[-104.2756,40.8059],[-104.2758,40.8015]]},"properties":{"name":"Crow Creek","display_name":"Crow Creek","source_name":"Crow Creek","state":"CO","atlas_class":"named_natural_stream_detail","huc8":"10190009","huc8Name":"Crow","lineageKey":"statewideContext","lineage":"statewideContext","historic":"statewideContext","current":"statewideContext","recovery":"statewideContext","lineageLabel":"Statewide Colorado hydrography context","atlas_context":"statewide_hydrography_context"}},{"type":"Feature","geometry":{"type":"LineString","coordinates":[[-104.2571,40.8715],[-104.2563,40.87],[-104.2525,40.8681],[-104.2531,40.8661]]},"properties":{"name":"Crow Creek","display_name":"Crow Creek","source_name":"Crow Creek","state":"CO","atlas_class":"named_natural_stream_detail","huc8":"10190009","huc8Name":"Crow","lineageKey":"statewideContext","lineage":"statewideContext","historic":"statewideContext","current":"statewideContext","recovery":"statewideContext","lineageLabel":"Statewide Colorado hydrography context","atlas_context":"statewide_hydrography_context"}},{"type":"Feature","geometry":{"type":"LineString","coordinates":[[-104.2758,40.8015],[-104.2747,40.7999],[-104.2769,40.7988],[-104.2745,40.796]]},"properties":{"name":"Crow Creek","display_name":"Crow Creek","source_name":"Crow Creek","state":"CO","atlas_class":"named_natural_stream_detail","huc8":"10190009","huc8Name":"Crow","lineageKey":"statewideContext","lineage":"statewideContext","historic":"statewideContext","current":"statewideContext","recovery":"statewideContext","lineageLabel":"Statewide Colorado hydrography context","atlas_context":"statewide_hydrography_context"}},{"type":"Feature","geometry":{"type":"LineString","coordinates":[[-104.3526,40.8443],[-104.3531,40.8432],[-104.3524,40.8421],[-104.3506,40.8416],[-104.3507,40.8424],[-104.3492,40.8427],[-104.3472,40.8403],[-104.348,40.8398],[-104.3473,40.8395],[-104.3477,40.8389],[-104.3492,40.8395],[-104.3499,40.8383],[-104.347,40.8371],[-104.3477,40.8363],[-104.3472,40.8352],[-104.3486,40.8347],[-104.3465,40.8338],[-104.3476,40.8324]]},"properties":{"name":"Little Crow Creek","display_name":"Little Crow Creek","source_name":"Little Crow Creek","state":"CO","atlas_class":"named_natural_stream_detail","huc8":"10190009","huc8Name":"Crow","lineageKey":"statewideContext","lineage":"statewideContext","historic":"statewideContext","current":"statewideContext","recovery":"statewideContext","lineageLabel":"Statewide Colorado hydrography context","atlas_context":"statewide_hydrography_context"}},{"type":"Feature","geometry":{"type":"LineString","coordinates":[[-104.3705,40.8717],[-104.3695,40.8707],[-104.3709,40.8679],[-104.3699,40.8673],[-104.3703,40.8665],[-104.3692,40.8663],[-104.3707,40.8655],[-104.3693,40.8651],[-104.3695,40.8623]]},"properties":{"name":"Little Crow Creek","display_name":"Little Crow Creek","source_name":"Little Crow Creek","state":"CO","atlas_class":"named_natural_stream_detail","huc8":"10190009","huc8Name":"Crow","lineageKey":"statewideContext","lineage":"statewideContext","historic":"statewideContext","current":"statewideContext","recovery":"statewideContext","lineageLabel":"Statewide Colorado hydrography context","atlas_context":"statewide_hydrography_context"}},{"type":"Feature","geometry":{"type":"LineString","coordinates":[[-104.2833,40.9545],[-104.2804,40.9557],[-104.2753,40.9541],[-104.2748,40.9529],[-104.2754,40.9523],[-104.2745,40.9509],[-104.2728,40.9512],[-104.2729,40.9501],[-104.2711,40.9491],[-104.2694,40.9498],[-104.2698,40.9485],[-104.2676,40.947]]},"properties":{"name":"Crow Creek","display_name":"Crow Creek","source_name":"Crow Creek","state":"CO","atlas_class":"named_natural_stream_detail","huc8":"10190009","huc8Name":"Crow","lineageKey":"statewideContext","lineage":"statewideContext","historic":"statewideContext","current":"statewideContext","recovery":"statewideContext","lineageLabel":"Statewide Colorado hydrography context","atlas_context":"statewide_hydrography_context"}},{"type":"Feature","geometry":{"type":"LineString","coordinates":[[-104.3444,40.8223],[-104.3436,40.8207],[-104.3427,40.8209],[-104.3424,40.8197],[-104.341,40.8194],[-104.3415,40.8181],[-104.3405,40.8176],[-104.3416,40.8169]]},"properties":{"name":"Little Crow Creek","display_name":"Little Crow Creek","source_name":"Little Crow Creek","state":"CO","atlas_class":"named_natural_stream_detail","huc8":"10190009","huc8Name":"Crow","lineageKey":"statewideContext","lineage":"statewideContext","historic":"statewideContext","current":"statewideContext","recovery":"statewideContext","lineageLabel":"Statewide Colorado hydrography context","atlas_context":"statewide_hydrography_context"}},{"type":"Feature","geometry":{"type":"LineString","coordinates":[[-104.2676,40.947],[-104.2648,40.9447]]},"properties":{"name":"Crow Creek","display_name":"Crow Creek","source_name":"Crow Creek","state":"CO","atlas_class":"named_natural_stream_detail","huc8":"10190009","huc8Name":"Crow","lineageKey":"statewideContext","lineage":"statewideContext","historic":"statewideContext","current":"statewideContext","recovery":"statewideContext","lineageLabel":"Statewide Colorado hydrography context","atlas_context":"statewide_hydrography_context"}},{"type":"Feature","geometry":{"type":"LineString","coordinates":[[-104.2646,40.9427],[-104.2647,40.9424]]},"properties":{"name":"Crow Creek","display_name":"Crow Creek","source_name":"Crow Creek","state":"CO","atlas_class":"named_natural_stream_detail","huc8":"10190009","huc8Name":"Crow","lineageKey":"statewideContext","lineage":"statewideContext","historic":"statewideContext","current":"statewideContext","recovery":"statewideContext","lineageLabel":"Statewide Colorado hydrography context","atlas_context":"statewide_hydrography_context"}},{"type":"Feature","geometry":{"type":"LineString","coordinates":[[-104.3976,40.9592],[-104.3953,40.9553],[-104.3977,40.9544],[-104.3961,40.9519],[-104.397,40.9507],[-104.3966,40.949],[-104.399,40.9493],[-104.3971,40.9471],[-104.3988,40.9456],[-104.3961,40.9445],[-104.3979,40.9427],[-104.3984,40.9385],[-104.3998,40.9374],[-104.398,40.9342],[-104.4001,40.9346],[-104.4037,40.9313]]},"properties":{"name":"Little Crow Creek","display_name":"Little Crow Creek","source_name":"Little Crow Creek","state":"CO","atlas_class":"named_natural_stream_detail","huc8":"10190009","huc8Name":"Crow","lineageKey":"statewideContext","lineage":"statewideContext","historic":"statewideContext","current":"statewideContext","recovery":"statewideContext","lineageLabel":"Statewide Colorado hydrography context","atlas_context":"statewide_hydrography_context"}},{"type":"Feature","geometry":{"type":"LineString","coordinates":[[-104.2559,40.8277],[-104.2552,40.8267],[-104.2588,40.8274]]},"properties":{"name":"Crow Creek","display_name":"Crow Creek","source_name":"Crow Creek","state":"CO","atlas_class":"named_natural_stream_detail","huc8":"10190009","huc8Name":"Crow","lineageKey":"statewideContext","lineage":"statewideContext","historic":"statewideContext","current":"statewideContext","recovery":"statewideContext","lineageLabel":"Statewide Colorado hydrography context","atlas_context":"statewide_hydrography_context"}},{"type":"Feature","geometry":{"type":"LineString","coordinates":[[-104.2665,40.9369],[-104.2674,40.9349],[-104.2697,40.9343]]},"properties":{"name":"Crow Creek","display_name":"Crow Creek","source_name":"Crow Creek","state":"CO","atlas_class":"named_natural_stream_detail","huc8":"10190009","huc8Name":"Crow","lineageKey":"statewideContext","lineage":"statewideContext","historic":"statewideContext","current":"statewideContext","recovery":"statewideContext","lineageLabel":"Statewide Colorado hydrography context","atlas_context":"statewide_hydrography_context"}},{"type":"Feature","geometry":{"type":"LineString","coordinates":[[-104.3695,40.8623],[-104.3682,40.861],[-104.3678,40.862],[-104.3666,40.8612],[-104.3655,40.8617],[-104.3654,40.8609],[-104.3645,40.8616],[-104.3633,40.856],[-104.3602,40.8557],[-104.3586,40.8542],[-104.3591,40.8536],[-104.3574,40.8542],[-104.3569,40.8518],[-104.3584,40.8507],[-104.3577,40.8499],[-104.3586,40.8478],[-104.3551,40.8468],[-104.3545,40.8472],[-104.3553,40.8477],[-104.3544,40.8481],[-104.3525,40.8462],[-104.3532,40.8457],[-104.3518,40.8436],[-104.3526,40.8443]]},"properties":{"name":"Little Crow Creek","display_name":"Little Crow Creek","source_name":"Little Crow Creek","state":"CO","atlas_class":"named_natural_stream_detail","huc8":"10190009","huc8Name":"Crow","lineageKey":"statewideContext","lineage":"statewideContext","historic":"statewideContext","current":"statewideContext","recovery":"statewideContext","lineageLabel":"Statewide Colorado hydrography context","atlas_context":"statewide_hydrography_context"}},{"type":"Feature","geometry":{"type":"LineString","coordinates":[[-104.3401,40.8079],[-104.3395,40.8072],[-104.3407,40.8059]]},"properties":{"name":"Little Crow Creek","display_name":"Little Crow Creek","source_name":"Little Crow Creek","state":"CO","atlas_class":"named_natural_stream_detail","huc8":"10190009","huc8Name":"Crow","lineageKey":"statewideContext","lineage":"statewideContext","historic":"statewideContext","current":"statewideContext","recovery":"statewideContext","lineageLabel":"Statewide Colorado hydrography context","atlas_context":"statewide_hydrography_context"}},{"type":"Feature","geometry":{"type":"LineString","coordinates":[[-104.2529,40.851],[-104.2499,40.8486],[-104.251,40.8471],[-104.2513,40.8429],[-104.2502,40.8413],[-104.2524,40.8413]]},"properties":{"name":"Crow Creek","display_name":"Crow Creek","source_name":"Crow Creek","state":"CO","atlas_class":"named_natural_stream_detail","huc8":"10190009","huc8Name":"Crow","lineageKey":"statewideContext","lineage":"statewideContext","historic":"statewideContext","current":"statewideContext","recovery":"statewideContext","lineageLabel":"Statewide Colorado hydrography context","atlas_context":"statewide_hydrography_context"}}]}