{"type":"FeatureCollection","metadata":{"source":"C:\\ct-atlas-data\\processed\\geojson\\interpreted\\colorado_named_natural_streams_complete_v1.geojson","type":"colorado-natural-stream-detail-tile-v2","tile_size_degrees":0.2,"x":-512,"y":185,"bounds":{"west":-102.4,"south":37,"east":-102.2,"north":37.2}},"features":[{"type":"Feature","geometry":{"type":"LineString","coordinates":[[-102.2234,37.014],[-102.2222,37.0151]]},"properties":{"name":"Cimarron River","display_name":"Cimarron River","source_name":"Cimarron River","state":"CO","atlas_class":"named_natural_stream_detail","huc8":"11040002","huc8Name":"Upper Cimarron","lineageKey":"statewideContext","lineage":"statewideContext","historic":"statewideContext","current":"statewideContext","recovery":"statewideContext","lineageLabel":"Statewide Colorado hydrography context","atlas_context":"statewide_hydrography_context"}},{"type":"Feature","geometry":{"type":"LineString","coordinates":[[-102.2222,37.0151],[-102.22,37.0153]]},"properties":{"name":"Cimarron River","display_name":"Cimarron River","source_name":"Cimarron River","state":"CO","atlas_class":"named_natural_stream_detail","huc8":"11040002","huc8Name":"Upper Cimarron","lineageKey":"statewideContext","lineage":"statewideContext","historic":"statewideContext","current":"statewideContext","recovery":"statewideContext","lineageLabel":"Statewide Colorado hydrography context","atlas_context":"statewide_hydrography_context"}},{"type":"Feature","geometry":{"type":"LineString","coordinates":[[-102.2245,37.0115],[-102.2234,37.014]]},"properties":{"name":"Cimarron River","display_name":"Cimarron River","source_name":"Cimarron River","state":"CO","atlas_class":"named_natural_stream_detail","huc8":"11040002","huc8Name":"Upper Cimarron","lineageKey":"statewideContext","lineage":"statewideContext","historic":"statewideContext","current":"statewideContext","recovery":"statewideContext","lineageLabel":"Statewide Colorado hydrography context","atlas_context":"statewide_hydrography_context"}},{"type":"Feature","geometry":{"type":"LineString","coordinates":[[-102.2249,37.011],[-102.2245,37.0115]]},"properties":{"name":"Cimarron River","display_name":"Cimarron River","source_name":"Cimarron River","state":"CO","atlas_class":"named_natural_stream_detail","huc8":"11040002","huc8Name":"Upper Cimarron","lineageKey":"statewideContext","lineage":"statewideContext","historic":"statewideContext","current":"statewideContext","recovery":"statewideContext","lineageLabel":"Statewide Colorado hydrography context","atlas_context":"statewide_hydrography_context"}},{"type":"Feature","geometry":{"type":"LineString","coordinates":[[-102.3139,37.1826],[-102.3124,37.1825]]},"properties":{"name":"North Fork Cimarron River","display_name":"North Fork Cimarron River","source_name":"North Fork Cimarron River","state":"CO","atlas_class":"named_natural_stream_detail","huc8":"11040003","huc8Name":"North Fork Cimarron","lineageKey":"statewideContext","lineage":"statewideContext","historic":"statewideContext","current":"statewideContext","recovery":"statewideContext","lineageLabel":"Statewide Colorado hydrography context","atlas_context":"statewide_hydrography_context"}},{"type":"Feature","geometry":{"type":"LineString","coordinates":[[-102.22,37.0153],[-102.2161,37.0154],[-102.21,37.0138],[-102.207,37.0149],[-102.2059,37.0159],[-102.2059,37.0179],[-102.2039,37.0215],[-102.2041,37.0234],[-102.2016,37.0259],[-102.2007,37.0292],[-102.1988,37.0309]]},"properties":{"name":"Cimarron River","display_name":"Cimarron River","source_name":"Cimarron River","state":"CO","atlas_class":"named_natural_stream_detail","huc8":"11040002","huc8Name":"Upper Cimarron","lineageKey":"statewideContext","lineage":"statewideContext","historic":"statewideContext","current":"statewideContext","recovery":"statewideContext","lineageLabel":"Statewide Colorado hydrography context","atlas_context":"statewide_hydrography_context"}},{"type":"Feature","geometry":{"type":"LineString","coordinates":[[-102.3142,37.1827],[-102.3139,37.1826]]},"properties":{"name":"North Fork Cimarron River","display_name":"North Fork Cimarron River","source_name":"North Fork Cimarron River","state":"CO","atlas_class":"named_natural_stream_detail","huc8":"11040003","huc8Name":"North Fork Cimarron","lineageKey":"statewideContext","lineage":"statewideContext","historic":"statewideContext","current":"statewideContext","recovery":"statewideContext","lineageLabel":"Statewide Colorado hydrography context","atlas_context":"statewide_hydrography_context"}},{"type":"Feature","geometry":{"type":"LineString","coordinates":[[-102.3115,37.1853],[-102.3098,37.1866],[-102.3044,37.1849],[-102.302,37.1899],[-102.2997,37.1882]]},"properties":{"name":"North Fork Cimarron River","display_name":"North Fork Cimarron River","source_name":"North Fork Cimarron River","state":"CO","atlas_class":"named_natural_stream_detail","huc8":"11040003","huc8Name":"North Fork Cimarron","lineageKey":"statewideContext","lineage":"statewideContext","historic":"statewideContext","current":"statewideContext","recovery":"statewideContext","lineageLabel":"Statewide Colorado hydrography context","atlas_context":"statewide_hydrography_context"}},{"type":"Feature","geometry":{"type":"LineString","coordinates":[[-102.386,37.1591],[-102.3796,37.1618],[-102.3761,37.1616]]},"properties":{"name":"North Fork Cimarron River","display_name":"North Fork Cimarron River","source_name":"North Fork Cimarron River","state":"CO","atlas_class":"named_natural_stream_detail","huc8":"11040003","huc8Name":"North Fork Cimarron","lineageKey":"statewideContext","lineage":"statewideContext","historic":"statewideContext","current":"statewideContext","recovery":"statewideContext","lineageLabel":"Statewide Colorado hydrography context","atlas_context":"statewide_hydrography_context"}},{"type":"Feature","geometry":{"type":"LineString","coordinates":[[-102.2984,37.1882],[-102.2974,37.19]]},"properties":{"name":"North Fork Cimarron River","display_name":"North Fork Cimarron River","source_name":"North Fork Cimarron River","state":"CO","atlas_class":"named_natural_stream_detail","huc8":"11040003","huc8Name":"North Fork Cimarron","lineageKey":"statewideContext","lineage":"statewideContext","historic":"statewideContext","current":"statewideContext","recovery":"statewideContext","lineageLabel":"Statewide Colorado hydrography context","atlas_context":"statewide_hydrography_context"}},{"type":"Feature","geometry":{"type":"LineString","coordinates":[[-102.398,37.1566],[-102.3961,37.1566]]},"properties":{"name":"North Fork Cimarron River","display_name":"North Fork Cimarron River","source_name":"North Fork Cimarron River","state":"CO","atlas_class":"named_natural_stream_detail","huc8":"11040003","huc8Name":"North Fork Cimarron","lineageKey":"statewideContext","lineage":"statewideContext","historic":"statewideContext","current":"statewideContext","recovery":"statewideContext","lineageLabel":"Statewide Colorado hydrography context","atlas_context":"statewide_hydrography_context"}},{"type":"Feature","geometry":{"type":"LineString","coordinates":[[-102.2514,36.9955],[-102.2497,36.9971],[-102.2486,37.0003]]},"properties":{"name":"Cimarron River","display_name":"Cimarron River","source_name":"Cimarron River","state":"CO","atlas_class":"named_natural_stream_detail","huc8":"11040002","huc8Name":"Upper Cimarron","lineageKey":"statewideContext","lineage":"statewideContext","historic":"statewideContext","current":"statewideContext","recovery":"statewideContext","lineageLabel":"Statewide Colorado hydrography context","atlas_context":"statewide_hydrography_context"}},{"type":"Feature","geometry":{"type":"LineString","coordinates":[[-102.2455,37.0034],[-102.2398,37.006],[-102.2356,37.0065],[-102.2283,37.0101]]},"properties":{"name":"Cimarron River","display_name":"Cimarron River","source_name":"Cimarron River","state":"CO","atlas_class":"named_natural_stream_detail","huc8":"11040002","huc8Name":"Upper Cimarron","lineageKey":"statewideContext","lineage":"statewideContext","historic":"statewideContext","current":"statewideContext","recovery":"statewideContext","lineageLabel":"Statewide Colorado hydrography context","atlas_context":"statewide_hydrography_context"}},{"type":"Feature","geometry":{"type":"LineString","coordinates":[[-102.3244,37.179],[-102.3164,37.1846]]},"properties":{"name":"North Fork Cimarron River","display_name":"North Fork Cimarron River","source_name":"North Fork Cimarron River","state":"CO","atlas_class":"named_natural_stream_detail","huc8":"11040003","huc8Name":"North Fork Cimarron","lineageKey":"statewideContext","lineage":"statewideContext","historic":"statewideContext","current":"statewideContext","recovery":"statewideContext","lineageLabel":"Statewide Colorado hydrography context","atlas_context":"statewide_hydrography_context"}},{"type":"Feature","geometry":{"type":"LineString","coordinates":[[-102.3619,37.1613],[-102.3612,37.1636],[-102.355,37.165],[-102.3518,37.1686],[-102.3474,37.1656],[-102.3441,37.1651],[-102.34,37.1664],[-102.3393,37.1705],[-102.3329,37.169]]},"properties":{"name":"North Fork Cimarron River","display_name":"North Fork Cimarron River","source_name":"North Fork Cimarron River","state":"CO","atlas_class":"named_natural_stream_detail","huc8":"11040003","huc8Name":"North Fork Cimarron","lineageKey":"statewideContext","lineage":"statewideContext","historic":"statewideContext","current":"statewideContext","recovery":"statewideContext","lineageLabel":"Statewide Colorado hydrography context","atlas_context":"statewide_hydrography_context"}},{"type":"Feature","geometry":{"type":"LineString","coordinates":[[-102.3163,37.1846],[-102.3144,37.1829]]},"properties":{"name":"North Fork Cimarron River","display_name":"North Fork Cimarron River","source_name":"North Fork Cimarron River","state":"CO","atlas_class":"named_natural_stream_detail","huc8":"11040003","huc8Name":"North Fork Cimarron","lineageKey":"statewideContext","lineage":"statewideContext","historic":"statewideContext","current":"statewideContext","recovery":"statewideContext","lineageLabel":"Statewide Colorado hydrography context","atlas_context":"statewide_hydrography_context"}},{"type":"Feature","geometry":{"type":"LineString","coordinates":[[-102.3124,37.1825],[-102.3123,37.1834]]},"properties":{"name":"North Fork Cimarron River","display_name":"North Fork Cimarron River","source_name":"North Fork Cimarron River","state":"CO","atlas_class":"named_natural_stream_detail","huc8":"11040003","huc8Name":"North Fork Cimarron","lineageKey":"statewideContext","lineage":"statewideContext","historic":"statewideContext","current":"statewideContext","recovery":"statewideContext","lineageLabel":"Statewide Colorado hydrography context","atlas_context":"statewide_hydrography_context"}},{"type":"Feature","geometry":{"type":"LineString","coordinates":[[-102.2974,37.19],[-102.2947,37.1921],[-102.2909,37.1928],[-102.2871,37.1947]]},"properties":{"name":"North Fork Cimarron River","display_name":"North Fork Cimarron River","source_name":"North Fork Cimarron River","state":"CO","atlas_class":"named_natural_stream_detail","huc8":"11040003","huc8Name":"North Fork Cimarron","lineageKey":"statewideContext","lineage":"statewideContext","historic":"statewideContext","current":"statewideContext","recovery":"statewideContext","lineageLabel":"Statewide Colorado hydrography context","atlas_context":"statewide_hydrography_context"}},{"type":"Feature","geometry":{"type":"LineString","coordinates":[[-102.3959,37.1566],[-102.3925,37.157],[-102.3896,37.1601],[-102.386,37.1591]]},"properties":{"name":"North Fork Cimarron River","display_name":"North Fork Cimarron River","source_name":"North Fork Cimarron River","state":"CO","atlas_class":"named_natural_stream_detail","huc8":"11040003","huc8Name":"North Fork Cimarron","lineageKey":"statewideContext","lineage":"statewideContext","historic":"statewideContext","current":"statewideContext","recovery":"statewideContext","lineageLabel":"Statewide Colorado hydrography context","atlas_context":"statewide_hydrography_context"}},{"type":"Feature","geometry":{"type":"LineString","coordinates":[[-102.3123,37.1837],[-102.3117,37.1851]]},"properties":{"name":"North Fork Cimarron River","display_name":"North Fork Cimarron River","source_name":"North Fork Cimarron River","state":"CO","atlas_class":"named_natural_stream_detail","huc8":"11040003","huc8Name":"North Fork Cimarron","lineageKey":"statewideContext","lineage":"statewideContext","historic":"statewideContext","current":"statewideContext","recovery":"statewideContext","lineageLabel":"Statewide Colorado hydrography context","atlas_context":"statewide_hydrography_context"}},{"type":"Feature","geometry":{"type":"LineString","coordinates":[[-102.2486,37.0003],[-102.2455,37.0034]]},"properties":{"name":"Cimarron River","display_name":"Cimarron River","source_name":"Cimarron River","state":"CO","atlas_class":"named_natural_stream_detail","huc8":"11040002","huc8Name":"Upper Cimarron","lineageKey":"statewideContext","lineage":"statewideContext","historic":"statewideContext","current":"statewideContext","recovery":"statewideContext","lineageLabel":"Statewide Colorado hydrography context","atlas_context":"statewide_hydrography_context"}},{"type":"Feature","geometry":{"type":"LineString","coordinates":[[-102.3329,37.169],[-102.3309,37.1697],[-102.3289,37.1742],[-102.3279,37.1744],[-102.3256,37.1726]]},"properties":{"name":"North Fork Cimarron River","display_name":"North Fork Cimarron River","source_name":"North Fork Cimarron River","state":"CO","atlas_class":"named_natural_stream_detail","huc8":"11040003","huc8Name":"North Fork Cimarron","lineageKey":"statewideContext","lineage":"statewideContext","historic":"statewideContext","current":"statewideContext","recovery":"statewideContext","lineageLabel":"Statewide Colorado hydrography context","atlas_context":"statewide_hydrography_context"}},{"type":"Feature","geometry":{"type":"LineString","coordinates":[[-102.3256,37.1726],[-102.3241,37.1738],[-102.3244,37.179]]},"properties":{"name":"North Fork Cimarron River","display_name":"North Fork Cimarron River","source_name":"North Fork Cimarron River","state":"CO","atlas_class":"named_natural_stream_detail","huc8":"11040003","huc8Name":"North Fork Cimarron","lineageKey":"statewideContext","lineage":"statewideContext","historic":"statewideContext","current":"statewideContext","recovery":"statewideContext","lineageLabel":"Statewide Colorado hydrography context","atlas_context":"statewide_hydrography_context"}},{"type":"Feature","geometry":{"type":"LineString","coordinates":[[-102.2871,37.1947],[-102.2844,37.1975],[-102.2788,37.2],[-102.2791,37.2017],[-102.274,37.205],[-102.2722,37.2073],[-102.2646,37.2088],[-102.2626,37.2102]]},"properties":{"name":"North Fork Cimarron River","display_name":"North Fork Cimarron River","source_name":"North Fork Cimarron River","state":"CO","atlas_class":"named_natural_stream_detail","huc8":"11040003","huc8Name":"North Fork Cimarron","lineageKey":"statewideContext","lineage":"statewideContext","historic":"statewideContext","current":"statewideContext","recovery":"statewideContext","lineageLabel":"Statewide Colorado hydrography context","atlas_context":"statewide_hydrography_context"}},{"type":"Feature","geometry":{"type":"LineString","coordinates":[[-102.2283,37.0101],[-102.2249,37.011]]},"properties":{"name":"Cimarron River","display_name":"Cimarron River","source_name":"Cimarron River","state":"CO","atlas_class":"named_natural_stream_detail","huc8":"11040002","huc8Name":"Upper Cimarron","lineageKey":"statewideContext","lineage":"statewideContext","historic":"statewideContext","current":"statewideContext","recovery":"statewideContext","lineageLabel":"Statewide Colorado hydrography context","atlas_context":"statewide_hydrography_context"}},{"type":"Feature","geometry":{"type":"LineString","coordinates":[[-102.3761,37.1616],[-102.3726,37.1645],[-102.366,37.1606],[-102.3619,37.1613]]},"properties":{"name":"North Fork Cimarron River","display_name":"North Fork Cimarron River","source_name":"North Fork Cimarron River","state":"CO","atlas_class":"named_natural_stream_detail","huc8":"11040003","huc8Name":"North Fork Cimarron","lineageKey":"statewideContext","lineage":"statewideContext","historic":"statewideContext","current":"statewideContext","recovery":"statewideContext","lineageLabel":"Statewide Colorado hydrography context","atlas_context":"statewide_hydrography_context"}},{"type":"Feature","geometry":{"type":"LineString","coordinates":[[-102.4023,37.1566],[-102.398,37.1566]]},"properties":{"name":"North Fork Cimarron River","display_name":"North Fork Cimarron River","source_name":"North Fork Cimarron River","state":"CO","atlas_class":"named_natural_stream_detail","huc8":"11040003","huc8Name":"North Fork Cimarron","lineageKey":"statewideContext","lineage":"statewideContext","historic":"statewideContext","current":"statewideContext","recovery":"statewideContext","lineageLabel":"Statewide Colorado hydrography context","atlas_context":"statewide_hydrography_context"}},{"type":"Feature","geometry":{"type":"LineString","coordinates":[[-102.2997,37.1882],[-102.2984,37.1882]]},"properties":{"name":"North Fork Cimarron River","display_name":"North Fork Cimarron River","source_name":"North Fork Cimarron River","state":"CO","atlas_class":"named_natural_stream_detail","huc8":"11040003","huc8Name":"North Fork Cimarron","lineageKey":"statewideContext","lineage":"statewideContext","historic":"statewideContext","current":"statewideContext","recovery":"statewideContext","lineageLabel":"Statewide Colorado hydrography context","atlas_context":"statewide_hydrography_context"}}]}