{"type":"FeatureCollection","metadata":{"source":"C:\\ct-atlas-data\\processed\\geojson\\interpreted\\colorado_named_natural_streams_complete_v1.geojson","type":"colorado-natural-stream-detail-tile-v2","tile_size_degrees":0.2,"x":-524,"y":193,"bounds":{"west":-104.8,"south":38.6,"east":-104.6,"north":38.8}},"features":[{"type":"Feature","geometry":{"type":"LineString","coordinates":[[-104.7135,38.6843],[-104.7123,38.6801]]},"properties":{"name":"Fountain Creek","display_name":"Fountain Creek","source_name":"Fountain Creek","state":"CO","atlas_class":"named_natural_stream_detail","huc8":"11020003","huc8Name":"Fountain","lineageKey":"yellowfin","lineage":"yellowfin","historic":"yellowfin","current":"yellowfin","recovery":"recoveryWatch","lineageLabel":"Yellowfin / Arkansas headwaters historical form","atlas_context":"cutthroat_lineage_context"}},{"type":"Feature","geometry":{"type":"LineString","coordinates":[[-104.7123,38.6801],[-104.711,38.6797],[-104.7089,38.6821],[-104.7076,38.6822],[-104.7056,38.6778],[-104.699,38.6723]]},"properties":{"name":"Fountain Creek","display_name":"Fountain Creek","source_name":"Fountain Creek","state":"CO","atlas_class":"named_natural_stream_detail","huc8":"11020003","huc8Name":"Fountain","lineageKey":"yellowfin","lineage":"yellowfin","historic":"yellowfin","current":"yellowfin","recovery":"recoveryWatch","lineageLabel":"Yellowfin / Arkansas headwaters historical form","atlas_context":"cutthroat_lineage_context"}},{"type":"Feature","geometry":{"type":"LineString","coordinates":[[-104.6847,38.6976],[-104.6838,38.6968],[-104.6857,38.6951],[-104.6856,38.6936],[-104.6894,38.688],[-104.6886,38.68],[-104.691,38.6788],[-104.6958,38.6791],[-104.6989,38.6778],[-104.6994,38.6766],[-104.6964,38.674],[-104.699,38.6723]]},"properties":{"name":"Jimmy Camp Creek","display_name":"Jimmy Camp Creek","source_name":"Jimmy Camp Creek","state":"CO","atlas_class":"named_natural_stream_detail","huc8":"11020003","huc8Name":"Fountain","lineageKey":"yellowfin","lineage":"yellowfin","historic":"yellowfin","current":"yellowfin","recovery":"recoveryWatch","lineageLabel":"Yellowfin / Arkansas headwaters historical form","atlas_context":"cutthroat_lineage_context"}},{"type":"Feature","geometry":{"type":"LineString","coordinates":[[-104.7232,38.7146],[-104.721,38.7136]]},"properties":{"name":"Fountain Creek","display_name":"Fountain Creek","source_name":"Fountain Creek","state":"CO","atlas_class":"named_natural_stream_detail","huc8":"11020003","huc8Name":"Fountain","lineageKey":"yellowfin","lineage":"yellowfin","historic":"yellowfin","current":"yellowfin","recovery":"recoveryWatch","lineageLabel":"Yellowfin / Arkansas headwaters historical form","atlas_context":"cutthroat_lineage_context"}},{"type":"Feature","geometry":{"type":"LineString","coordinates":[[-104.6033,38.6363],[-104.6044,38.6354],[-104.6033,38.6343],[-104.6044,38.633],[-104.6066,38.632],[-104.6087,38.6323],[-104.6097,38.6313],[-104.6105,38.6255]]},"properties":{"name":"Williams Creek","display_name":"Williams Creek","source_name":"Williams Creek","state":"CO","atlas_class":"named_natural_stream_detail","huc8":"11020003","huc8Name":"Fountain","lineageKey":"yellowfin","lineage":"yellowfin","historic":"yellowfin","current":"yellowfin","recovery":"recoveryWatch","lineageLabel":"Yellowfin / Arkansas headwaters historical form","atlas_context":"cutthroat_lineage_context"}},{"type":"Feature","geometry":{"type":"LineString","coordinates":[[-104.7281,38.6359],[-104.726,38.6343],[-104.7259,38.6331],[-104.7241,38.6322],[-104.7235,38.6326],[-104.7229,38.6318],[-104.7236,38.631],[-104.7221,38.6307],[-104.7222,38.6318],[-104.7193,38.6293],[-104.7183,38.6294],[-104.7184,38.6285],[-104.7178,38.6289]]},"properties":{"name":"Little Fountain Creek","display_name":"Little Fountain Creek","source_name":"Little Fountain Creek","state":"CO","atlas_class":"named_natural_stream_detail","huc8":"11020003","huc8Name":"Fountain","lineageKey":"yellowfin","lineage":"yellowfin","historic":"yellowfin","current":"yellowfin","recovery":"recoveryWatch","lineageLabel":"Yellowfin / Arkansas headwaters historical form","atlas_context":"cutthroat_lineage_context"}},{"type":"Feature","geometry":{"type":"LineString","coordinates":[[-104.6625,38.7091],[-104.6633,38.7077],[-104.6677,38.705]]},"properties":{"name":"Jimmy Camp Creek","display_name":"Jimmy Camp Creek","source_name":"Jimmy Camp Creek","state":"CO","atlas_class":"named_natural_stream_detail","huc8":"11020003","huc8Name":"Fountain","lineageKey":"yellowfin","lineage":"yellowfin","historic":"yellowfin","current":"yellowfin","recovery":"recoveryWatch","lineageLabel":"Yellowfin / Arkansas headwaters historical form","atlas_context":"cutthroat_lineage_context"}},{"type":"Feature","geometry":{"type":"LineString","coordinates":[[-104.7895,38.6774],[-104.7864,38.6758],[-104.7858,38.6732],[-104.784,38.6713],[-104.784,38.6698],[-104.7823,38.6692],[-104.7818,38.6679],[-104.7787,38.6676]]},"properties":{"name":"Rock Creek","display_name":"Rock Creek","source_name":"Rock Creek","state":"CO","atlas_class":"named_natural_stream_detail","huc8":"11020003","huc8Name":"Fountain","lineageKey":"yellowfin","lineage":"yellowfin","historic":"yellowfin","current":"yellowfin","recovery":"recoveryWatch","lineageLabel":"Yellowfin / Arkansas headwaters historical form","atlas_context":"cutthroat_lineage_context"}},{"type":"Feature","geometry":{"type":"LineString","coordinates":[[-104.7917,38.6791],[-104.7911,38.6789]]},"properties":{"name":"Rock Creek","display_name":"Rock Creek","source_name":"Rock Creek","state":"CO","atlas_class":"named_natural_stream_detail","huc8":"11020003","huc8Name":"Fountain","lineageKey":"yellowfin","lineage":"yellowfin","historic":"yellowfin","current":"yellowfin","recovery":"recoveryWatch","lineageLabel":"Yellowfin / Arkansas headwaters historical form","atlas_context":"cutthroat_lineage_context"}},{"type":"Feature","geometry":{"type":"LineString","coordinates":[[-104.7147,38.6979],[-104.7108,38.6967],[-104.7099,38.6937]]},"properties":{"name":"Fountain Creek","display_name":"Fountain Creek","source_name":"Fountain Creek","state":"CO","atlas_class":"named_natural_stream_detail","huc8":"11020003","huc8Name":"Fountain","lineageKey":"yellowfin","lineage":"yellowfin","historic":"yellowfin","current":"yellowfin","recovery":"recoveryWatch","lineageLabel":"Yellowfin / Arkansas headwaters historical form","atlas_context":"cutthroat_lineage_context"}},{"type":"Feature","geometry":{"type":"LineString","coordinates":[[-104.65,38.7502],[-104.6501,38.75]]},"properties":{"name":"Jimmy Camp Creek","display_name":"Jimmy Camp Creek","source_name":"Jimmy Camp Creek","state":"CO","atlas_class":"named_natural_stream_detail","huc8":"11020003","huc8Name":"Fountain","lineageKey":"yellowfin","lineage":"yellowfin","historic":"yellowfin","current":"yellowfin","recovery":"recoveryWatch","lineageLabel":"Yellowfin / Arkansas headwaters historical form","atlas_context":"cutthroat_lineage_context"}},{"type":"Feature","geometry":{"type":"LineString","coordinates":[[-104.8016,38.6636],[-104.799,38.6635],[-104.7976,38.6625]]},"properties":{"name":"Little Fountain Creek","display_name":"Little Fountain Creek","source_name":"Little Fountain Creek","state":"CO","atlas_class":"named_natural_stream_detail","huc8":"11020003","huc8Name":"Fountain","lineageKey":"yellowfin","lineage":"yellowfin","historic":"yellowfin","current":"yellowfin","recovery":"recoveryWatch","lineageLabel":"Yellowfin / Arkansas headwaters historical form","atlas_context":"cutthroat_lineage_context"}},{"type":"Feature","geometry":{"type":"LineString","coordinates":[[-104.7136,38.6266],[-104.7142,38.6256],[-104.7115,38.6267],[-104.7102,38.6252],[-104.7092,38.6262],[-104.7069,38.6258],[-104.707,38.6267],[-104.705,38.6267],[-104.7039,38.6278],[-104.6991,38.6282],[-104.6989,38.6274],[-104.6963,38.6266],[-104.6937,38.6228]]},"properties":{"name":"Little Fountain Creek","display_name":"Little Fountain Creek","source_name":"Little Fountain Creek","state":"CO","atlas_class":"named_natural_stream_detail","huc8":"11020003","huc8Name":"Fountain","lineageKey":"yellowfin","lineage":"yellowfin","historic":"yellowfin","current":"yellowfin","recovery":"recoveryWatch","lineageLabel":"Yellowfin / Arkansas headwaters historical form","atlas_context":"cutthroat_lineage_context"}},{"type":"Feature","geometry":{"type":"LineString","coordinates":[[-104.7353,38.6429],[-104.734,38.6415]]},"properties":{"name":"Rock Creek","display_name":"Rock Creek","source_name":"Rock Creek","state":"CO","atlas_class":"named_natural_stream_detail","huc8":"11020003","huc8Name":"Fountain","lineageKey":"yellowfin","lineage":"yellowfin","historic":"yellowfin","current":"yellowfin","recovery":"recoveryWatch","lineageLabel":"Yellowfin / Arkansas headwaters historical form","atlas_context":"cutthroat_lineage_context"}},{"type":"Feature","geometry":{"type":"LineString","coordinates":[[-104.6859,38.6366],[-104.6863,38.6357],[-104.6852,38.6344],[-104.6812,38.6346],[-104.681,38.6328],[-104.6837,38.6306],[-104.6805,38.6272]]},"properties":{"name":"Fountain Creek","display_name":"Fountain Creek","source_name":"Fountain Creek","state":"CO","atlas_class":"named_natural_stream_detail","huc8":"11020003","huc8Name":"Fountain","lineageKey":"yellowfin","lineage":"yellowfin","historic":"yellowfin","current":"yellowfin","recovery":"recoveryWatch","lineageLabel":"Yellowfin / Arkansas headwaters historical form","atlas_context":"cutthroat_lineage_context"}},{"type":"Feature","geometry":{"type":"LineString","coordinates":[[-104.7271,38.7228],[-104.7246,38.7185]]},"properties":{"name":"Fountain Creek","display_name":"Fountain Creek","source_name":"Fountain Creek","state":"CO","atlas_class":"named_natural_stream_detail","huc8":"11020003","huc8Name":"Fountain","lineageKey":"yellowfin","lineage":"yellowfin","historic":"yellowfin","current":"yellowfin","recovery":"recoveryWatch","lineageLabel":"Yellowfin / Arkansas headwaters historical form","atlas_context":"cutthroat_lineage_context"}},{"type":"Feature","geometry":{"type":"LineString","coordinates":[[-104.6192,38.6168],[-104.6234,38.6114],[-104.6196,38.606],[-104.6241,38.6059],[-104.6242,38.604],[-104.625,38.6037]]},"properties":{"name":"Williams Creek","display_name":"Williams Creek","source_name":"Williams Creek","state":"CO","atlas_class":"named_natural_stream_detail","huc8":"11020003","huc8Name":"Fountain","lineageKey":"yellowfin","lineage":"yellowfin","historic":"yellowfin","current":"yellowfin","recovery":"recoveryWatch","lineageLabel":"Yellowfin / Arkansas headwaters historical form","atlas_context":"cutthroat_lineage_context"}},{"type":"Feature","geometry":{"type":"LineString","coordinates":[[-104.7584,38.7551],[-104.7571,38.7545],[-104.7553,38.7494]]},"properties":{"name":"Fountain Creek","display_name":"Fountain Creek","source_name":"Fountain Creek","state":"CO","atlas_class":"named_natural_stream_detail","huc8":"11020003","huc8Name":"Fountain","lineageKey":"yellowfin","lineage":"yellowfin","historic":"yellowfin","current":"yellowfin","recovery":"recoveryWatch","lineageLabel":"Yellowfin / Arkansas headwaters historical form","atlas_context":"cutthroat_lineage_context"}},{"type":"Feature","geometry":{"type":"LineString","coordinates":[[-104.7573,38.6446],[-104.756,38.6452],[-104.7566,38.6439]]},"properties":{"name":"Little Fountain Creek","display_name":"Little Fountain Creek","source_name":"Little Fountain Creek","state":"CO","atlas_class":"named_natural_stream_detail","huc8":"11020003","huc8Name":"Fountain","lineageKey":"yellowfin","lineage":"yellowfin","historic":"yellowfin","current":"yellowfin","recovery":"recoveryWatch","lineageLabel":"Yellowfin / Arkansas headwaters historical form","atlas_context":"cutthroat_lineage_context"}},{"type":"Feature","geometry":{"type":"LineString","coordinates":[[-104.7471,38.6553],[-104.7468,38.6522],[-104.7414,38.6478]]},"properties":{"name":"Rock Creek","display_name":"Rock Creek","source_name":"Rock Creek","state":"CO","atlas_class":"named_natural_stream_detail","huc8":"11020003","huc8Name":"Fountain","lineageKey":"yellowfin","lineage":"yellowfin","historic":"yellowfin","current":"yellowfin","recovery":"recoveryWatch","lineageLabel":"Yellowfin / Arkansas headwaters historical form","atlas_context":"cutthroat_lineage_context"}},{"type":"Feature","geometry":{"type":"LineString","coordinates":[[-104.7414,38.6478],[-104.7366,38.6445]]},"properties":{"name":"Rock Creek","display_name":"Rock Creek","source_name":"Rock Creek","state":"CO","atlas_class":"named_natural_stream_detail","huc8":"11020003","huc8Name":"Fountain","lineageKey":"yellowfin","lineage":"yellowfin","historic":"yellowfin","current":"yellowfin","recovery":"recoveryWatch","lineageLabel":"Yellowfin / Arkansas headwaters historical form","atlas_context":"cutthroat_lineage_context"}},{"type":"Feature","geometry":{"type":"LineString","coordinates":[[-104.6173,38.6827],[-104.6196,38.6818],[-104.6207,38.6826],[-104.621,38.6798],[-104.6225,38.6779]]},"properties":{"name":"Williams Creek","display_name":"Williams Creek","source_name":"Williams Creek","state":"CO","atlas_class":"named_natural_stream_detail","huc8":"11020003","huc8Name":"Fountain","lineageKey":"yellowfin","lineage":"yellowfin","historic":"yellowfin","current":"yellowfin","recovery":"recoveryWatch","lineageLabel":"Yellowfin / Arkansas headwaters historical form","atlas_context":"cutthroat_lineage_context"}},{"type":"Feature","geometry":{"type":"LineString","coordinates":[[-104.6015,38.6908],[-104.6114,38.6883],[-104.6137,38.6863],[-104.613,38.6838],[-104.615,38.6821],[-104.6173,38.6827]]},"properties":{"name":"Williams Creek","display_name":"Williams Creek","source_name":"Williams Creek","state":"CO","atlas_class":"named_natural_stream_detail","huc8":"11020003","huc8Name":"Fountain","lineageKey":"yellowfin","lineage":"yellowfin","historic":"yellowfin","current":"yellowfin","recovery":"recoveryWatch","lineageLabel":"Yellowfin / Arkansas headwaters historical form","atlas_context":"cutthroat_lineage_context"}},{"type":"Feature","geometry":{"type":"LineString","coordinates":[[-104.7799,38.6556],[-104.7768,38.6549],[-104.7753,38.6559],[-104.7736,38.6538],[-104.7733,38.6548],[-104.7725,38.6546],[-104.7708,38.6536],[-104.7704,38.6522],[-104.7674,38.6514]]},"properties":{"name":"Little Fountain Creek","display_name":"Little Fountain Creek","source_name":"Little Fountain Creek","state":"CO","atlas_class":"named_natural_stream_detail","huc8":"11020003","huc8Name":"Fountain","lineageKey":"yellowfin","lineage":"yellowfin","historic":"yellowfin","current":"yellowfin","recovery":"recoveryWatch","lineageLabel":"Yellowfin / Arkansas headwaters historical form","atlas_context":"cutthroat_lineage_context"}},{"type":"Feature","geometry":{"type":"LineString","coordinates":[[-104.745,38.6426],[-104.7438,38.6414],[-104.7426,38.6415],[-104.7424,38.6403],[-104.7409,38.6403],[-104.7408,38.6385],[-104.7382,38.6378]]},"properties":{"name":"Little Fountain Creek","display_name":"Little Fountain Creek","source_name":"Little Fountain Creek","state":"CO","atlas_class":"named_natural_stream_detail","huc8":"11020003","huc8Name":"Fountain","lineageKey":"yellowfin","lineage":"yellowfin","historic":"yellowfin","current":"yellowfin","recovery":"recoveryWatch","lineageLabel":"Yellowfin / Arkansas headwaters historical form","atlas_context":"cutthroat_lineage_context"}},{"type":"Feature","geometry":{"type":"LineString","coordinates":[[-104.6105,38.6255],[-104.61,38.6241],[-104.6114,38.6221],[-104.611,38.6192],[-104.6158,38.6167],[-104.6177,38.6171]]},"properties":{"name":"Williams Creek","display_name":"Williams Creek","source_name":"Williams Creek","state":"CO","atlas_class":"named_natural_stream_detail","huc8":"11020003","huc8Name":"Fountain","lineageKey":"yellowfin","lineage":"yellowfin","historic":"yellowfin","current":"yellowfin","recovery":"recoveryWatch","lineageLabel":"Yellowfin / Arkansas headwaters historical form","atlas_context":"cutthroat_lineage_context"}},{"type":"Feature","geometry":{"type":"LineString","coordinates":[[-104.6963,38.6576],[-104.6957,38.6558],[-104.6928,38.6549],[-104.6918,38.6536],[-104.6949,38.6504],[-104.6942,38.6491],[-104.692,38.648]]},"properties":{"name":"Fountain Creek","display_name":"Fountain Creek","source_name":"Fountain Creek","state":"CO","atlas_class":"named_natural_stream_detail","huc8":"11020003","huc8Name":"Fountain","lineageKey":"yellowfin","lineage":"yellowfin","historic":"yellowfin","current":"yellowfin","recovery":"recoveryWatch","lineageLabel":"Yellowfin / Arkansas headwaters historical form","atlas_context":"cutthroat_lineage_context"}},{"type":"Feature","geometry":{"type":"LineString","coordinates":[[-104.6888,38.647],[-104.6855,38.6462],[-104.6841,38.6433],[-104.6842,38.6386],[-104.6859,38.6366]]},"properties":{"name":"Fountain Creek","display_name":"Fountain Creek","source_name":"Fountain Creek","state":"CO","atlas_class":"named_natural_stream_detail","huc8":"11020003","huc8Name":"Fountain","lineageKey":"yellowfin","lineage":"yellowfin","historic":"yellowfin","current":"yellowfin","recovery":"recoveryWatch","lineageLabel":"Yellowfin / Arkansas headwaters historical form","atlas_context":"cutthroat_lineage_context"}},{"type":"Feature","geometry":{"type":"LineString","coordinates":[[-104.6849,38.6995],[-104.6847,38.6976]]},"properties":{"name":"Jimmy Camp Creek","display_name":"Jimmy Camp Creek","source_name":"Jimmy Camp Creek","state":"CO","atlas_class":"named_natural_stream_detail","huc8":"11020003","huc8Name":"Fountain","lineageKey":"yellowfin","lineage":"yellowfin","historic":"yellowfin","current":"yellowfin","recovery":"recoveryWatch","lineageLabel":"Yellowfin / Arkansas headwaters historical form","atlas_context":"cutthroat_lineage_context"}},{"type":"Feature","geometry":{"type":"LineString","coordinates":[[-104.7178,38.6289],[-104.7175,38.6273]]},"properties":{"name":"Little Fountain Creek","display_name":"Little Fountain Creek","source_name":"Little Fountain Creek","state":"CO","atlas_class":"named_natural_stream_detail","huc8":"11020003","huc8Name":"Fountain","lineageKey":"yellowfin","lineage":"yellowfin","historic":"yellowfin","current":"yellowfin","recovery":"recoveryWatch","lineageLabel":"Yellowfin / Arkansas headwaters historical form","atlas_context":"cutthroat_lineage_context"}},{"type":"Feature","geometry":{"type":"LineString","coordinates":[[-104.7099,38.6937],[-104.7095,38.6917],[-104.7106,38.6904],[-104.7156,38.6882],[-104.715,38.6863]]},"properties":{"name":"Fountain Creek","display_name":"Fountain Creek","source_name":"Fountain Creek","state":"CO","atlas_class":"named_natural_stream_detail","huc8":"11020003","huc8Name":"Fountain","lineageKey":"yellowfin","lineage":"yellowfin","historic":"yellowfin","current":"yellowfin","recovery":"recoveryWatch","lineageLabel":"Yellowfin / Arkansas headwaters historical form","atlas_context":"cutthroat_lineage_context"}},{"type":"Feature","geometry":{"type":"LineString","coordinates":[[-104.7934,38.6592],[-104.7934,38.659]]},"properties":{"name":"Little Fountain Creek","display_name":"Little Fountain Creek","source_name":"Little Fountain Creek","state":"CO","atlas_class":"named_natural_stream_detail","huc8":"11020003","huc8Name":"Fountain","lineageKey":"yellowfin","lineage":"yellowfin","historic":"yellowfin","current":"yellowfin","recovery":"recoveryWatch","lineageLabel":"Yellowfin / Arkansas headwaters historical form","atlas_context":"cutthroat_lineage_context"}},{"type":"Feature","geometry":{"type":"LineString","coordinates":[[-104.7674,38.6514],[-104.7621,38.6518],[-104.7625,38.6508],[-104.7605,38.6506],[-104.7619,38.6491],[-104.7612,38.6476],[-104.7601,38.6478],[-104.7609,38.6465]]},"properties":{"name":"Little Fountain Creek","display_name":"Little Fountain Creek","source_name":"Little Fountain Creek","state":"CO","atlas_class":"named_natural_stream_detail","huc8":"11020003","huc8Name":"Fountain","lineageKey":"yellowfin","lineage":"yellowfin","historic":"yellowfin","current":"yellowfin","recovery":"recoveryWatch","lineageLabel":"Yellowfin / Arkansas headwaters historical form","atlas_context":"cutthroat_lineage_context"}},{"type":"Feature","geometry":{"type":"LineString","coordinates":[[-104.7911,38.6789],[-104.7901,38.6778]]},"properties":{"name":"Rock Creek","display_name":"Rock Creek","source_name":"Rock Creek","state":"CO","atlas_class":"named_natural_stream_detail","huc8":"11020003","huc8Name":"Fountain","lineageKey":"yellowfin","lineage":"yellowfin","historic":"yellowfin","current":"yellowfin","recovery":"recoveryWatch","lineageLabel":"Yellowfin / Arkansas headwaters historical form","atlas_context":"cutthroat_lineage_context"}},{"type":"Feature","geometry":{"type":"LineString","coordinates":[[-104.7901,38.6778],[-104.7895,38.6774]]},"properties":{"name":"Rock Creek","display_name":"Rock Creek","source_name":"Rock Creek","state":"CO","atlas_class":"named_natural_stream_detail","huc8":"11020003","huc8Name":"Fountain","lineageKey":"yellowfin","lineage":"yellowfin","historic":"yellowfin","current":"yellowfin","recovery":"recoveryWatch","lineageLabel":"Yellowfin / Arkansas headwaters historical form","atlas_context":"cutthroat_lineage_context"}},{"type":"Feature","geometry":{"type":"LineString","coordinates":[[-104.6465,38.72],[-104.6493,38.7184],[-104.6473,38.7179],[-104.6483,38.7155],[-104.6529,38.7149],[-104.6514,38.7127],[-104.6541,38.7126],[-104.6545,38.7105],[-104.6572,38.7104],[-104.6578,38.7078],[-104.6625,38.7091]]},"properties":{"name":"Jimmy Camp Creek","display_name":"Jimmy Camp Creek","source_name":"Jimmy Camp Creek","state":"CO","atlas_class":"named_natural_stream_detail","huc8":"11020003","huc8Name":"Fountain","lineageKey":"yellowfin","lineage":"yellowfin","historic":"yellowfin","current":"yellowfin","recovery":"recoveryWatch","lineageLabel":"Yellowfin / Arkansas headwaters historical form","atlas_context":"cutthroat_lineage_context"}},{"type":"Feature","geometry":{"type":"LineString","coordinates":[[-104.7566,38.6439],[-104.7548,38.6437]]},"properties":{"name":"Little Fountain Creek","display_name":"Little Fountain Creek","source_name":"Little Fountain Creek","state":"CO","atlas_class":"named_natural_stream_detail","huc8":"11020003","huc8Name":"Fountain","lineageKey":"yellowfin","lineage":"yellowfin","historic":"yellowfin","current":"yellowfin","recovery":"recoveryWatch","lineageLabel":"Yellowfin / Arkansas headwaters historical form","atlas_context":"cutthroat_lineage_context"}},{"type":"Feature","geometry":{"type":"LineString","coordinates":[[-104.7525,38.6424],[-104.7498,38.6436],[-104.7494,38.6427],[-104.745,38.6426]]},"properties":{"name":"Little Fountain Creek","display_name":"Little Fountain Creek","source_name":"Little Fountain Creek","state":"CO","atlas_class":"named_natural_stream_detail","huc8":"11020003","huc8Name":"Fountain","lineageKey":"yellowfin","lineage":"yellowfin","historic":"yellowfin","current":"yellowfin","recovery":"recoveryWatch","lineageLabel":"Yellowfin / Arkansas headwaters historical form","atlas_context":"cutthroat_lineage_context"}},{"type":"Feature","geometry":{"type":"LineString","coordinates":[[-104.779,38.7765],[-104.7718,38.7734],[-104.7679,38.7676],[-104.7668,38.7637],[-104.7592,38.7597],[-104.7597,38.7562],[-104.7584,38.7551]]},"properties":{"name":"Fountain Creek","display_name":"Fountain Creek","source_name":"Fountain Creek","state":"CO","atlas_class":"named_natural_stream_detail","huc8":"11020003","huc8Name":"Fountain","lineageKey":"yellowfin","lineage":"yellowfin","historic":"yellowfin","current":"yellowfin","recovery":"recoveryWatch","lineageLabel":"Yellowfin / Arkansas headwaters historical form","atlas_context":"cutthroat_lineage_context"}},{"type":"Feature","geometry":{"type":"LineString","coordinates":[[-104.781,38.7786],[-104.7808,38.7768],[-104.779,38.7765]]},"properties":{"name":"Fountain Creek","display_name":"Fountain Creek","source_name":"Fountain Creek","state":"CO","atlas_class":"named_natural_stream_detail","huc8":"11020003","huc8Name":"Fountain","lineageKey":"yellowfin","lineage":"yellowfin","historic":"yellowfin","current":"yellowfin","recovery":"recoveryWatch","lineageLabel":"Yellowfin / Arkansas headwaters historical form","atlas_context":"cutthroat_lineage_context"}},{"type":"Feature","geometry":{"type":"LineString","coordinates":[[-104.7934,38.659],[-104.7907,38.6596],[-104.7907,38.6589],[-104.7874,38.658],[-104.7853,38.6583],[-104.7843,38.6595],[-104.7826,38.6589]]},"properties":{"name":"Little Fountain Creek","display_name":"Little Fountain Creek","source_name":"Little Fountain Creek","state":"CO","atlas_class":"named_natural_stream_detail","huc8":"11020003","huc8Name":"Fountain","lineageKey":"yellowfin","lineage":"yellowfin","historic":"yellowfin","current":"yellowfin","recovery":"recoveryWatch","lineageLabel":"Yellowfin / Arkansas headwaters historical form","atlas_context":"cutthroat_lineage_context"}},{"type":"Feature","geometry":{"type":"LineString","coordinates":[[-104.8014,38.6835],[-104.799,38.6827],[-104.7982,38.6811],[-104.7968,38.6805]]},"properties":{"name":"Rock Creek","display_name":"Rock Creek","source_name":"Rock Creek","state":"CO","atlas_class":"named_natural_stream_detail","huc8":"11020003","huc8Name":"Fountain","lineageKey":"yellowfin","lineage":"yellowfin","historic":"yellowfin","current":"yellowfin","recovery":"recoveryWatch","lineageLabel":"Yellowfin / Arkansas headwaters historical form","atlas_context":"cutthroat_lineage_context"}},{"type":"Feature","geometry":{"type":"LineString","coordinates":[[-104.7952,38.6808],[-104.7917,38.6791]]},"properties":{"name":"Rock Creek","display_name":"Rock Creek","source_name":"Rock Creek","state":"CO","atlas_class":"named_natural_stream_detail","huc8":"11020003","huc8Name":"Fountain","lineageKey":"yellowfin","lineage":"yellowfin","historic":"yellowfin","current":"yellowfin","recovery":"recoveryWatch","lineageLabel":"Yellowfin / Arkansas headwaters historical form","atlas_context":"cutthroat_lineage_context"}},{"type":"Feature","geometry":{"type":"LineString","coordinates":[[-104.7937,38.6603],[-104.7934,38.6592]]},"properties":{"name":"Little Fountain Creek","display_name":"Little Fountain Creek","source_name":"Little Fountain Creek","state":"CO","atlas_class":"named_natural_stream_detail","huc8":"11020003","huc8Name":"Fountain","lineageKey":"yellowfin","lineage":"yellowfin","historic":"yellowfin","current":"yellowfin","recovery":"recoveryWatch","lineageLabel":"Yellowfin / Arkansas headwaters historical form","atlas_context":"cutthroat_lineage_context"}},{"type":"Feature","geometry":{"type":"LineString","coordinates":[[-104.6937,38.6228],[-104.6846,38.6187],[-104.679,38.6173],[-104.6747,38.6147]]},"properties":{"name":"Little Fountain Creek","display_name":"Little Fountain Creek","source_name":"Little Fountain Creek","state":"CO","atlas_class":"named_natural_stream_detail","huc8":"11020003","huc8Name":"Fountain","lineageKey":"yellowfin","lineage":"yellowfin","historic":"yellowfin","current":"yellowfin","recovery":"recoveryWatch","lineageLabel":"Yellowfin / Arkansas headwaters historical form","atlas_context":"cutthroat_lineage_context"}},{"type":"Feature","geometry":{"type":"LineString","coordinates":[[-104.6967,38.6623],[-104.6963,38.6576]]},"properties":{"name":"Fountain Creek","display_name":"Fountain Creek","source_name":"Fountain Creek","state":"CO","atlas_class":"named_natural_stream_detail","huc8":"11020003","huc8Name":"Fountain","lineageKey":"yellowfin","lineage":"yellowfin","historic":"yellowfin","current":"yellowfin","recovery":"recoveryWatch","lineageLabel":"Yellowfin / Arkansas headwaters historical form","atlas_context":"cutthroat_lineage_context"}},{"type":"Feature","geometry":{"type":"LineString","coordinates":[[-104.7602,38.6454],[-104.7577,38.6461],[-104.7567,38.6454],[-104.7573,38.6446]]},"properties":{"name":"Little Fountain Creek","display_name":"Little Fountain Creek","source_name":"Little Fountain Creek","state":"CO","atlas_class":"named_natural_stream_detail","huc8":"11020003","huc8Name":"Fountain","lineageKey":"yellowfin","lineage":"yellowfin","historic":"yellowfin","current":"yellowfin","recovery":"recoveryWatch","lineageLabel":"Yellowfin / Arkansas headwaters historical form","atlas_context":"cutthroat_lineage_context"}},{"type":"Feature","geometry":{"type":"LineString","coordinates":[[-104.7548,38.6437],[-104.7525,38.6424]]},"properties":{"name":"Little Fountain Creek","display_name":"Little Fountain Creek","source_name":"Little Fountain Creek","state":"CO","atlas_class":"named_natural_stream_detail","huc8":"11020003","huc8Name":"Fountain","lineageKey":"yellowfin","lineage":"yellowfin","historic":"yellowfin","current":"yellowfin","recovery":"recoveryWatch","lineageLabel":"Yellowfin / Arkansas headwaters historical form","atlas_context":"cutthroat_lineage_context"}},{"type":"Feature","geometry":{"type":"LineString","coordinates":[[-104.7672,38.6638],[-104.7551,38.6608],[-104.7521,38.6573],[-104.7492,38.6576],[-104.7471,38.6553]]},"properties":{"name":"Rock Creek","display_name":"Rock Creek","source_name":"Rock Creek","state":"CO","atlas_class":"named_natural_stream_detail","huc8":"11020003","huc8Name":"Fountain","lineageKey":"yellowfin","lineage":"yellowfin","historic":"yellowfin","current":"yellowfin","recovery":"recoveryWatch","lineageLabel":"Yellowfin / Arkansas headwaters historical form","atlas_context":"cutthroat_lineage_context"}},{"type":"Feature","geometry":{"type":"LineString","coordinates":[[-104.6827,38.7004],[-104.6849,38.6995]]},"properties":{"name":"Jimmy Camp Creek","display_name":"Jimmy Camp Creek","source_name":"Jimmy Camp Creek","state":"CO","atlas_class":"named_natural_stream_detail","huc8":"11020003","huc8Name":"Fountain","lineageKey":"yellowfin","lineage":"yellowfin","historic":"yellowfin","current":"yellowfin","recovery":"recoveryWatch","lineageLabel":"Yellowfin / Arkansas headwaters historical form","atlas_context":"cutthroat_lineage_context"}},{"type":"Feature","geometry":{"type":"LineString","coordinates":[[-104.5908,38.6976],[-104.5905,38.6931],[-104.5932,38.6922],[-104.5943,38.6891],[-104.5978,38.6877],[-104.599,38.69],[-104.6015,38.6908]]},"properties":{"name":"Williams Creek","display_name":"Williams Creek","source_name":"Williams Creek","state":"CO","atlas_class":"named_natural_stream_detail","huc8":"11020003","huc8Name":"Fountain","lineageKey":"yellowfin","lineage":"yellowfin","historic":"yellowfin","current":"yellowfin","recovery":"recoveryWatch","lineageLabel":"Yellowfin / Arkansas headwaters historical form","atlas_context":"cutthroat_lineage_context"}},{"type":"Feature","geometry":{"type":"LineString","coordinates":[[-104.6021,38.7122],[-104.602,38.7116]]},"properties":{"name":"Williams Creek","display_name":"Williams Creek","source_name":"Williams Creek","state":"CO","atlas_class":"named_natural_stream_detail","huc8":"11020003","huc8Name":"Fountain","lineageKey":"yellowfin","lineage":"yellowfin","historic":"yellowfin","current":"yellowfin","recovery":"recoveryWatch","lineageLabel":"Yellowfin / Arkansas headwaters historical form","atlas_context":"cutthroat_lineage_context"}},{"type":"Feature","geometry":{"type":"LineString","coordinates":[[-104.7806,38.7838],[-104.7804,38.7812]]},"properties":{"name":"Fountain Creek","display_name":"Fountain Creek","source_name":"Fountain Creek","state":"CO","atlas_class":"named_natural_stream_detail","huc8":"11020003","huc8Name":"Fountain","lineageKey":"yellowfin","lineage":"yellowfin","historic":"yellowfin","current":"yellowfin","recovery":"recoveryWatch","lineageLabel":"Yellowfin / Arkansas headwaters historical form","atlas_context":"cutthroat_lineage_context"}},{"type":"Feature","geometry":{"type":"LineString","coordinates":[[-104.6251,38.6593],[-104.625,38.6592]]},"properties":{"name":"Williams Creek","display_name":"Williams Creek","source_name":"Williams Creek","state":"CO","atlas_class":"named_natural_stream_detail","huc8":"11020003","huc8Name":"Fountain","lineageKey":"yellowfin","lineage":"yellowfin","historic":"yellowfin","current":"yellowfin","recovery":"recoveryWatch","lineageLabel":"Yellowfin / Arkansas headwaters historical form","atlas_context":"cutthroat_lineage_context"}},{"type":"Feature","geometry":{"type":"LineString","coordinates":[[-104.7175,38.6273],[-104.7151,38.6261],[-104.7149,38.6269],[-104.7136,38.6266]]},"properties":{"name":"Little Fountain Creek","display_name":"Little Fountain Creek","source_name":"Little Fountain Creek","state":"CO","atlas_class":"named_natural_stream_detail","huc8":"11020003","huc8Name":"Fountain","lineageKey":"yellowfin","lineage":"yellowfin","historic":"yellowfin","current":"yellowfin","recovery":"recoveryWatch","lineageLabel":"Yellowfin / Arkansas headwaters historical form","atlas_context":"cutthroat_lineage_context"}},{"type":"Feature","geometry":{"type":"LineString","coordinates":[[-104.7382,38.6378],[-104.7345,38.6377],[-104.7292,38.6353],[-104.7281,38.6359]]},"properties":{"name":"Little Fountain Creek","display_name":"Little Fountain Creek","source_name":"Little Fountain Creek","state":"CO","atlas_class":"named_natural_stream_detail","huc8":"11020003","huc8Name":"Fountain","lineageKey":"yellowfin","lineage":"yellowfin","historic":"yellowfin","current":"yellowfin","recovery":"recoveryWatch","lineageLabel":"Yellowfin / Arkansas headwaters historical form","atlas_context":"cutthroat_lineage_context"}},{"type":"Feature","geometry":{"type":"LineString","coordinates":[[-104.7246,38.7185],[-104.7232,38.7146]]},"properties":{"name":"Fountain Creek","display_name":"Fountain Creek","source_name":"Fountain Creek","state":"CO","atlas_class":"named_natural_stream_detail","huc8":"11020003","huc8Name":"Fountain","lineageKey":"yellowfin","lineage":"yellowfin","historic":"yellowfin","current":"yellowfin","recovery":"recoveryWatch","lineageLabel":"Yellowfin / Arkansas headwaters historical form","atlas_context":"cutthroat_lineage_context"}},{"type":"Feature","geometry":{"type":"LineString","coordinates":[[-104.699,38.6723],[-104.698,38.6695],[-104.695,38.6659],[-104.6967,38.6623]]},"properties":{"name":"Fountain Creek","display_name":"Fountain Creek","source_name":"Fountain Creek","state":"CO","atlas_class":"named_natural_stream_detail","huc8":"11020003","huc8Name":"Fountain","lineageKey":"yellowfin","lineage":"yellowfin","historic":"yellowfin","current":"yellowfin","recovery":"recoveryWatch","lineageLabel":"Yellowfin / Arkansas headwaters historical form","atlas_context":"cutthroat_lineage_context"}},{"type":"Feature","geometry":{"type":"LineString","coordinates":[[-104.6177,38.6171],[-104.6192,38.6168]]},"properties":{"name":"Williams Creek","display_name":"Williams Creek","source_name":"Williams Creek","state":"CO","atlas_class":"named_natural_stream_detail","huc8":"11020003","huc8Name":"Fountain","lineageKey":"yellowfin","lineage":"yellowfin","historic":"yellowfin","current":"yellowfin","recovery":"recoveryWatch","lineageLabel":"Yellowfin / Arkansas headwaters historical form","atlas_context":"cutthroat_lineage_context"}},{"type":"Feature","geometry":{"type":"LineString","coordinates":[[-104.7551,38.7477],[-104.7517,38.7453],[-104.7497,38.745]]},"properties":{"name":"Fountain Creek","display_name":"Fountain Creek","source_name":"Fountain Creek","state":"CO","atlas_class":"named_natural_stream_detail","huc8":"11020003","huc8Name":"Fountain","lineageKey":"yellowfin","lineage":"yellowfin","historic":"yellowfin","current":"yellowfin","recovery":"recoveryWatch","lineageLabel":"Yellowfin / Arkansas headwaters historical form","atlas_context":"cutthroat_lineage_context"}},{"type":"Feature","geometry":{"type":"LineString","coordinates":[[-104.6511,38.7891],[-104.6496,38.7869],[-104.6506,38.7841],[-104.6499,38.7771],[-104.6477,38.7751]]},"properties":{"name":"Jimmy Camp Creek","display_name":"Jimmy Camp Creek","source_name":"Jimmy Camp Creek","state":"CO","atlas_class":"named_natural_stream_detail","huc8":"11020003","huc8Name":"Fountain","lineageKey":"yellowfin","lineage":"yellowfin","historic":"yellowfin","current":"yellowfin","recovery":"recoveryWatch","lineageLabel":"Yellowfin / Arkansas headwaters historical form","atlas_context":"cutthroat_lineage_context"}},{"type":"Feature","geometry":{"type":"LineString","coordinates":[[-104.7602,38.6457],[-104.7602,38.6454]]},"properties":{"name":"Little Fountain Creek","display_name":"Little Fountain Creek","source_name":"Little Fountain Creek","state":"CO","atlas_class":"named_natural_stream_detail","huc8":"11020003","huc8Name":"Fountain","lineageKey":"yellowfin","lineage":"yellowfin","historic":"yellowfin","current":"yellowfin","recovery":"recoveryWatch","lineageLabel":"Yellowfin / Arkansas headwaters historical form","atlas_context":"cutthroat_lineage_context"}},{"type":"Feature","geometry":{"type":"LineString","coordinates":[[-104.7816,38.7925],[-104.7806,38.7838]]},"properties":{"name":"Fountain Creek","display_name":"Fountain Creek","source_name":"Fountain Creek","state":"CO","atlas_class":"named_natural_stream_detail","huc8":"11020003","huc8Name":"Fountain","lineageKey":"yellowfin","lineage":"yellowfin","historic":"yellowfin","current":"yellowfin","recovery":"recoveryWatch","lineageLabel":"Yellowfin / Arkansas headwaters historical form","atlas_context":"cutthroat_lineage_context"}},{"type":"Feature","geometry":{"type":"LineString","coordinates":[[-104.7804,38.7812],[-104.781,38.7786]]},"properties":{"name":"Fountain Creek","display_name":"Fountain Creek","source_name":"Fountain Creek","state":"CO","atlas_class":"named_natural_stream_detail","huc8":"11020003","huc8Name":"Fountain","lineageKey":"yellowfin","lineage":"yellowfin","historic":"yellowfin","current":"yellowfin","recovery":"recoveryWatch","lineageLabel":"Yellowfin / Arkansas headwaters historical form","atlas_context":"cutthroat_lineage_context"}},{"type":"Feature","geometry":{"type":"LineString","coordinates":[[-104.6501,38.75],[-104.6444,38.7463],[-104.6455,38.7412],[-104.6441,38.7384],[-104.6442,38.7362],[-104.6484,38.7331],[-104.6485,38.7323],[-104.6457,38.7314],[-104.6495,38.7271],[-104.6467,38.7223],[-104.6465,38.72]]},"properties":{"name":"Jimmy Camp Creek","display_name":"Jimmy Camp Creek","source_name":"Jimmy Camp Creek","state":"CO","atlas_class":"named_natural_stream_detail","huc8":"11020003","huc8Name":"Fountain","lineageKey":"yellowfin","lineage":"yellowfin","historic":"yellowfin","current":"yellowfin","recovery":"recoveryWatch","lineageLabel":"Yellowfin / Arkansas headwaters historical form","atlas_context":"cutthroat_lineage_context"}},{"type":"Feature","geometry":{"type":"LineString","coordinates":[[-104.7826,38.6589],[-104.7817,38.6577],[-104.782,38.6567],[-104.7801,38.6564],[-104.7799,38.6556]]},"properties":{"name":"Little Fountain Creek","display_name":"Little Fountain Creek","source_name":"Little Fountain Creek","state":"CO","atlas_class":"named_natural_stream_detail","huc8":"11020003","huc8Name":"Fountain","lineageKey":"yellowfin","lineage":"yellowfin","historic":"yellowfin","current":"yellowfin","recovery":"recoveryWatch","lineageLabel":"Yellowfin / Arkansas headwaters historical form","atlas_context":"cutthroat_lineage_context"}},{"type":"Feature","geometry":{"type":"LineString","coordinates":[[-104.602,38.7116],[-104.5995,38.7097],[-104.6,38.7083],[-104.5985,38.7066],[-104.5994,38.7041]]},"properties":{"name":"Williams Creek","display_name":"Williams Creek","source_name":"Williams Creek","state":"CO","atlas_class":"named_natural_stream_detail","huc8":"11020003","huc8Name":"Fountain","lineageKey":"yellowfin","lineage":"yellowfin","historic":"yellowfin","current":"yellowfin","recovery":"recoveryWatch","lineageLabel":"Yellowfin / Arkansas headwaters historical form","atlas_context":"cutthroat_lineage_context"}},{"type":"Feature","geometry":{"type":"LineString","coordinates":[[-104.7968,38.6805],[-104.7952,38.6808]]},"properties":{"name":"Rock Creek","display_name":"Rock Creek","source_name":"Rock Creek","state":"CO","atlas_class":"named_natural_stream_detail","huc8":"11020003","huc8Name":"Fountain","lineageKey":"yellowfin","lineage":"yellowfin","historic":"yellowfin","current":"yellowfin","recovery":"recoveryWatch","lineageLabel":"Yellowfin / Arkansas headwaters historical form","atlas_context":"cutthroat_lineage_context"}},{"type":"Feature","geometry":{"type":"LineString","coordinates":[[-104.7415,38.7419],[-104.7407,38.7402],[-104.7385,38.7399],[-104.7404,38.7346],[-104.7347,38.7352],[-104.7338,38.7335],[-104.7344,38.7309],[-104.7333,38.7283],[-104.7271,38.7228]]},"properties":{"name":"Fountain Creek","display_name":"Fountain Creek","source_name":"Fountain Creek","state":"CO","atlas_class":"named_natural_stream_detail","huc8":"11020003","huc8Name":"Fountain","lineageKey":"yellowfin","lineage":"yellowfin","historic":"yellowfin","current":"yellowfin","recovery":"recoveryWatch","lineageLabel":"Yellowfin / Arkansas headwaters historical form","atlas_context":"cutthroat_lineage_context"}},{"type":"Feature","geometry":{"type":"LineString","coordinates":[[-104.7497,38.745],[-104.7481,38.7465],[-104.7465,38.7463],[-104.7422,38.7446],[-104.7415,38.7419]]},"properties":{"name":"Fountain Creek","display_name":"Fountain Creek","source_name":"Fountain Creek","state":"CO","atlas_class":"named_natural_stream_detail","huc8":"11020003","huc8Name":"Fountain","lineageKey":"yellowfin","lineage":"yellowfin","historic":"yellowfin","current":"yellowfin","recovery":"recoveryWatch","lineageLabel":"Yellowfin / Arkansas headwaters historical form","atlas_context":"cutthroat_lineage_context"}},{"type":"Feature","geometry":{"type":"LineString","coordinates":[[-104.7188,38.7104],[-104.7171,38.7095],[-104.7169,38.7009],[-104.7147,38.6979]]},"properties":{"name":"Fountain Creek","display_name":"Fountain Creek","source_name":"Fountain Creek","state":"CO","atlas_class":"named_natural_stream_detail","huc8":"11020003","huc8Name":"Fountain","lineageKey":"yellowfin","lineage":"yellowfin","historic":"yellowfin","current":"yellowfin","recovery":"recoveryWatch","lineageLabel":"Yellowfin / Arkansas headwaters historical form","atlas_context":"cutthroat_lineage_context"}},{"type":"Feature","geometry":{"type":"LineString","coordinates":[[-104.715,38.6863],[-104.7135,38.6843]]},"properties":{"name":"Fountain Creek","display_name":"Fountain Creek","source_name":"Fountain Creek","state":"CO","atlas_class":"named_natural_stream_detail","huc8":"11020003","huc8Name":"Fountain","lineageKey":"yellowfin","lineage":"yellowfin","historic":"yellowfin","current":"yellowfin","recovery":"recoveryWatch","lineageLabel":"Yellowfin / Arkansas headwaters historical form","atlas_context":"cutthroat_lineage_context"}},{"type":"Feature","geometry":{"type":"LineString","coordinates":[[-104.7787,38.6676],[-104.7736,38.6641],[-104.7714,38.6645],[-104.7683,38.6631],[-104.7672,38.6638]]},"properties":{"name":"Rock Creek","display_name":"Rock Creek","source_name":"Rock Creek","state":"CO","atlas_class":"named_natural_stream_detail","huc8":"11020003","huc8Name":"Fountain","lineageKey":"yellowfin","lineage":"yellowfin","historic":"yellowfin","current":"yellowfin","recovery":"recoveryWatch","lineageLabel":"Yellowfin / Arkansas headwaters historical form","atlas_context":"cutthroat_lineage_context"}},{"type":"Feature","geometry":{"type":"LineString","coordinates":[[-104.6225,38.6779],[-104.6209,38.6772],[-104.6208,38.6753],[-104.6229,38.675],[-104.6213,38.6725],[-104.6234,38.6691],[-104.6227,38.6659],[-104.6239,38.6652],[-104.6245,38.6661],[-104.6258,38.665],[-104.6249,38.6635],[-104.626,38.6624],[-104.6249,38.6623],[-104.6245,38.6611],[-104.6251,38.6593]]},"properties":{"name":"Williams Creek","display_name":"Williams Creek","source_name":"Williams Creek","state":"CO","atlas_class":"named_natural_stream_detail","huc8":"11020003","huc8Name":"Fountain","lineageKey":"yellowfin","lineage":"yellowfin","historic":"yellowfin","current":"yellowfin","recovery":"recoveryWatch","lineageLabel":"Yellowfin / Arkansas headwaters historical form","atlas_context":"cutthroat_lineage_context"}},{"type":"Feature","geometry":{"type":"LineString","coordinates":[[-104.6677,38.705],[-104.6699,38.7036],[-104.6717,38.706],[-104.6723,38.7012]]},"properties":{"name":"Jimmy Camp Creek","display_name":"Jimmy Camp Creek","source_name":"Jimmy Camp Creek","state":"CO","atlas_class":"named_natural_stream_detail","huc8":"11020003","huc8Name":"Fountain","lineageKey":"yellowfin","lineage":"yellowfin","historic":"yellowfin","current":"yellowfin","recovery":"recoveryWatch","lineageLabel":"Yellowfin / Arkansas headwaters historical form","atlas_context":"cutthroat_lineage_context"}},{"type":"Feature","geometry":{"type":"LineString","coordinates":[[-104.692,38.648],[-104.6888,38.647]]},"properties":{"name":"Fountain Creek","display_name":"Fountain Creek","source_name":"Fountain Creek","state":"CO","atlas_class":"named_natural_stream_detail","huc8":"11020003","huc8Name":"Fountain","lineageKey":"yellowfin","lineage":"yellowfin","historic":"yellowfin","current":"yellowfin","recovery":"recoveryWatch","lineageLabel":"Yellowfin / Arkansas headwaters historical form","atlas_context":"cutthroat_lineage_context"}},{"type":"Feature","geometry":{"type":"LineString","coordinates":[[-104.6812,38.6262],[-104.6813,38.626]]},"properties":{"name":"Fountain Creek","display_name":"Fountain Creek","source_name":"Fountain Creek","state":"CO","atlas_class":"named_natural_stream_detail","huc8":"11020003","huc8Name":"Fountain","lineageKey":"yellowfin","lineage":"yellowfin","historic":"yellowfin","current":"yellowfin","recovery":"recoveryWatch","lineageLabel":"Yellowfin / Arkansas headwaters historical form","atlas_context":"cutthroat_lineage_context"}},{"type":"Feature","geometry":{"type":"LineString","coordinates":[[-104.7967,38.8034],[-104.7874,38.7991],[-104.7849,38.7954],[-104.7812,38.7931],[-104.7816,38.7925]]},"properties":{"name":"Fountain Creek","display_name":"Fountain Creek","source_name":"Fountain Creek","state":"CO","atlas_class":"named_natural_stream_detail","huc8":"11020003","huc8Name":"Fountain","lineageKey":"yellowfin","lineage":"yellowfin","historic":"yellowfin","current":"yellowfin","recovery":"recoveryWatch","lineageLabel":"Yellowfin / Arkansas headwaters historical form","atlas_context":"cutthroat_lineage_context"}},{"type":"Feature","geometry":{"type":"LineString","coordinates":[[-104.7976,38.6625],[-104.796,38.662]]},"properties":{"name":"Little Fountain Creek","display_name":"Little Fountain Creek","source_name":"Little Fountain Creek","state":"CO","atlas_class":"named_natural_stream_detail","huc8":"11020003","huc8Name":"Fountain","lineageKey":"yellowfin","lineage":"yellowfin","historic":"yellowfin","current":"yellowfin","recovery":"recoveryWatch","lineageLabel":"Yellowfin / Arkansas headwaters historical form","atlas_context":"cutthroat_lineage_context"}},{"type":"Feature","geometry":{"type":"LineString","coordinates":[[-104.721,38.7136],[-104.7188,38.7104]]},"properties":{"name":"Fountain Creek","display_name":"Fountain Creek","source_name":"Fountain Creek","state":"CO","atlas_class":"named_natural_stream_detail","huc8":"11020003","huc8Name":"Fountain","lineageKey":"yellowfin","lineage":"yellowfin","historic":"yellowfin","current":"yellowfin","recovery":"recoveryWatch","lineageLabel":"Yellowfin / Arkansas headwaters historical form","atlas_context":"cutthroat_lineage_context"}},{"type":"Feature","geometry":{"type":"LineString","coordinates":[[-104.796,38.662],[-104.7944,38.6618],[-104.7937,38.6603]]},"properties":{"name":"Little Fountain Creek","display_name":"Little Fountain Creek","source_name":"Little Fountain Creek","state":"CO","atlas_class":"named_natural_stream_detail","huc8":"11020003","huc8Name":"Fountain","lineageKey":"yellowfin","lineage":"yellowfin","historic":"yellowfin","current":"yellowfin","recovery":"recoveryWatch","lineageLabel":"Yellowfin / Arkansas headwaters historical form","atlas_context":"cutthroat_lineage_context"}},{"type":"Feature","geometry":{"type":"LineString","coordinates":[[-104.6723,38.7012],[-104.6731,38.7003],[-104.6786,38.7018],[-104.6827,38.7004]]},"properties":{"name":"Jimmy Camp Creek","display_name":"Jimmy Camp Creek","source_name":"Jimmy Camp Creek","state":"CO","atlas_class":"named_natural_stream_detail","huc8":"11020003","huc8Name":"Fountain","lineageKey":"yellowfin","lineage":"yellowfin","historic":"yellowfin","current":"yellowfin","recovery":"recoveryWatch","lineageLabel":"Yellowfin / Arkansas headwaters historical form","atlas_context":"cutthroat_lineage_context"}},{"type":"Feature","geometry":{"type":"LineString","coordinates":[[-104.6805,38.6272],[-104.6812,38.6262]]},"properties":{"name":"Fountain Creek","display_name":"Fountain Creek","source_name":"Fountain Creek","state":"CO","atlas_class":"named_natural_stream_detail","huc8":"11020003","huc8Name":"Fountain","lineageKey":"yellowfin","lineage":"yellowfin","historic":"yellowfin","current":"yellowfin","recovery":"recoveryWatch","lineageLabel":"Yellowfin / Arkansas headwaters historical form","atlas_context":"cutthroat_lineage_context"}},{"type":"Feature","geometry":{"type":"LineString","coordinates":[[-104.6256,38.6033],[-104.6274,38.6038],[-104.6284,38.6016],[-104.6268,38.6015],[-104.6279,38.6007],[-104.6294,38.6008],[-104.6301,38.5991],[-104.6292,38.5987],[-104.6316,38.5985],[-104.6322,38.5978],[-104.6314,38.5964],[-104.6331,38.5961]]},"properties":{"name":"Williams Creek","display_name":"Williams Creek","source_name":"Williams Creek","state":"CO","atlas_class":"named_natural_stream_detail","huc8":"11020003","huc8Name":"Fountain","lineageKey":"yellowfin","lineage":"yellowfin","historic":"yellowfin","current":"yellowfin","recovery":"recoveryWatch","lineageLabel":"Yellowfin / Arkansas headwaters historical form","atlas_context":"cutthroat_lineage_context"}},{"type":"Feature","geometry":{"type":"LineString","coordinates":[[-104.7609,38.6465],[-104.7602,38.6457]]},"properties":{"name":"Little Fountain Creek","display_name":"Little Fountain Creek","source_name":"Little Fountain Creek","state":"CO","atlas_class":"named_natural_stream_detail","huc8":"11020003","huc8Name":"Fountain","lineageKey":"yellowfin","lineage":"yellowfin","historic":"yellowfin","current":"yellowfin","recovery":"recoveryWatch","lineageLabel":"Yellowfin / Arkansas headwaters historical form","atlas_context":"cutthroat_lineage_context"}},{"type":"Feature","geometry":{"type":"LineString","coordinates":[[-104.7553,38.7494],[-104.7551,38.7477]]},"properties":{"name":"Fountain Creek","display_name":"Fountain Creek","source_name":"Fountain Creek","state":"CO","atlas_class":"named_natural_stream_detail","huc8":"11020003","huc8Name":"Fountain","lineageKey":"yellowfin","lineage":"yellowfin","historic":"yellowfin","current":"yellowfin","recovery":"recoveryWatch","lineageLabel":"Yellowfin / Arkansas headwaters historical form","atlas_context":"cutthroat_lineage_context"}}]}