{"type":"FeatureCollection","metadata":{"source":"C:\\ct-atlas-data\\processed\\geojson\\interpreted\\colorado_named_natural_streams_complete_v1.geojson","tier":"tier4","tile_size_degrees":0.25,"x":-411,"y":152,"bounds":{"west":-102.75,"south":38,"east":-102.5,"north":38.25}},"features":[{"type":"Feature","geometry":{"type":"LineString","coordinates":[[-102.5617,38.0354],[-102.5632,38.0433],[-102.5612,38.0475],[-102.5661,38.0507]]},"properties":{"source_id":"co_named_stream_039962","name":"Clay Creek","display_name":"Clay Creek","mapped_name":"Clay Creek","source_name":"Clay Creek","state":"CO","atlas_class":"named_natural_stream","huc8":"11020009","huc8Name":"Upper Arkansas-John Martin Reservoir","huc8States":"CO,KS","lineageKey":"statewideContext","lineage":"statewideContext","historic":"statewideContext","current":"statewideContext","recovery":"statewideContext","lineageLabel":"Statewide Colorado hydrography context","lineageBasin":"","lineageNote":"","atlas_context":"statewide_hydrography_context","confidence":"Statewide hydrography context outside current cutthroat lineage model","geometryStatus":"Named natural stream segment from statewide hydrography","note":"This named natural stream is included for statewide Colorado hydrography completeness and is outside the current cutthroat lineage assignment set.","source_segment_id":"co_named_stream_039962","water_id":"co_clay_creek_11020009_statewideContext_002","occurrence_id":"co_clay_creek_11020009_statewideContext_002","occurrence_number":"002","segment_count":8,"disambiguator":"Upper Arkansas-John Martin Reservoir · Statewide Colorado hydrography context · occurrence 002","basin":"Upper Arkansas-John Martin Reservoir","atlas_layer":"named_water_occurrence","object_role":"named_water_occurrence","historic_label":"Statewide Colorado hydrography context","current_label":"Statewide Colorado hydrography context","recovery_label":"Statewide Colorado hydrography context","tier":"tier4","minZoom":15,"confidence_public":"Statewide hydrography context outside current cutthroat lineage model","geometry_status_public":"Named natural stream occurrence from statewide hydrography","geometry_source_public":"Grouped public hydrography segments","trout_source_public":"Included for Colorado statewide hydrography completeness","public_notes":"Clay Creek is shown as statewide Colorado hydrography context outside the current cutthroat lineage assignment set."}},{"type":"Feature","geometry":{"type":"LineString","coordinates":[[-102.5286,38.0974],[-102.5271,38.0991]]},"properties":{"source_id":"co_named_stream_041172","name":"Clay Creek","display_name":"Clay Creek","mapped_name":"Clay Creek","source_name":"Clay Creek","state":"CO","atlas_class":"named_natural_stream","huc8":"11020009","huc8Name":"Upper Arkansas-John Martin Reservoir","huc8States":"CO,KS","lineageKey":"statewideContext","lineage":"statewideContext","historic":"statewideContext","current":"statewideContext","recovery":"statewideContext","lineageLabel":"Statewide Colorado hydrography context","lineageBasin":"","lineageNote":"","atlas_context":"statewide_hydrography_context","confidence":"Statewide hydrography context outside current cutthroat lineage model","geometryStatus":"Named natural stream segment from statewide hydrography","note":"This named natural stream is included for statewide Colorado hydrography completeness and is outside the current cutthroat lineage assignment set.","source_segment_id":"co_named_stream_041172","water_id":"co_clay_creek_11020009_statewideContext_002","occurrence_id":"co_clay_creek_11020009_statewideContext_002","occurrence_number":"002","segment_count":8,"disambiguator":"Upper Arkansas-John Martin Reservoir · Statewide Colorado hydrography context · occurrence 002","basin":"Upper Arkansas-John Martin Reservoir","atlas_layer":"named_water_occurrence","object_role":"named_water_occurrence","historic_label":"Statewide Colorado hydrography context","current_label":"Statewide Colorado hydrography context","recovery_label":"Statewide Colorado hydrography context","tier":"tier4","minZoom":15,"confidence_public":"Statewide hydrography context outside current cutthroat lineage model","geometry_status_public":"Named natural stream occurrence from statewide hydrography","geometry_source_public":"Grouped public hydrography segments","trout_source_public":"Included for Colorado statewide hydrography completeness","public_notes":"Clay Creek is shown as statewide Colorado hydrography context outside the current cutthroat lineage assignment set."}},{"type":"Feature","geometry":{"type":"LineString","coordinates":[[-102.5324,38.0925],[-102.5324,38.0937]]},"properties":{"source_id":"co_named_stream_042626","name":"Clay Creek","display_name":"Clay Creek","mapped_name":"Clay Creek","source_name":"Clay Creek","state":"CO","atlas_class":"named_natural_stream","huc8":"11020009","huc8Name":"Upper Arkansas-John Martin Reservoir","huc8States":"CO,KS","lineageKey":"statewideContext","lineage":"statewideContext","historic":"statewideContext","current":"statewideContext","recovery":"statewideContext","lineageLabel":"Statewide Colorado hydrography context","lineageBasin":"","lineageNote":"","atlas_context":"statewide_hydrography_context","confidence":"Statewide hydrography context outside current cutthroat lineage model","geometryStatus":"Named natural stream segment from statewide hydrography","note":"This named natural stream is included for statewide Colorado hydrography completeness and is outside the current cutthroat lineage assignment set.","source_segment_id":"co_named_stream_042626","water_id":"co_clay_creek_11020009_statewideContext_002","occurrence_id":"co_clay_creek_11020009_statewideContext_002","occurrence_number":"002","segment_count":8,"disambiguator":"Upper Arkansas-John Martin Reservoir · Statewide Colorado hydrography context · occurrence 002","basin":"Upper Arkansas-John Martin Reservoir","atlas_layer":"named_water_occurrence","object_role":"named_water_occurrence","historic_label":"Statewide Colorado hydrography context","current_label":"Statewide Colorado hydrography context","recovery_label":"Statewide Colorado hydrography context","tier":"tier4","minZoom":15,"confidence_public":"Statewide hydrography context outside current cutthroat lineage model","geometry_status_public":"Named natural stream occurrence from statewide hydrography","geometry_source_public":"Grouped public hydrography segments","trout_source_public":"Included for Colorado statewide hydrography completeness","public_notes":"Clay Creek is shown as statewide Colorado hydrography context outside the current cutthroat lineage assignment set."}},{"type":"Feature","geometry":{"type":"LineString","coordinates":[[-102.5324,38.0937],[-102.5309,38.0958]]},"properties":{"source_id":"co_named_stream_042627","name":"Clay Creek","display_name":"Clay Creek","mapped_name":"Clay Creek","source_name":"Clay Creek","state":"CO","atlas_class":"named_natural_stream","huc8":"11020009","huc8Name":"Upper Arkansas-John Martin Reservoir","huc8States":"CO,KS","lineageKey":"statewideContext","lineage":"statewideContext","historic":"statewideContext","current":"statewideContext","recovery":"statewideContext","lineageLabel":"Statewide Colorado hydrography context","lineageBasin":"","lineageNote":"","atlas_context":"statewide_hydrography_context","confidence":"Statewide hydrography context outside current cutthroat lineage model","geometryStatus":"Named natural stream segment from statewide hydrography","note":"This named natural stream is included for statewide Colorado hydrography completeness and is outside the current cutthroat lineage assignment set.","source_segment_id":"co_named_stream_042627","water_id":"co_clay_creek_11020009_statewideContext_002","occurrence_id":"co_clay_creek_11020009_statewideContext_002","occurrence_number":"002","segment_count":8,"disambiguator":"Upper Arkansas-John Martin Reservoir · Statewide Colorado hydrography context · occurrence 002","basin":"Upper Arkansas-John Martin Reservoir","atlas_layer":"named_water_occurrence","object_role":"named_water_occurrence","historic_label":"Statewide Colorado hydrography context","current_label":"Statewide Colorado hydrography context","recovery_label":"Statewide Colorado hydrography context","tier":"tier4","minZoom":15,"confidence_public":"Statewide hydrography context outside current cutthroat lineage model","geometry_status_public":"Named natural stream occurrence from statewide hydrography","geometry_source_public":"Grouped public hydrography segments","trout_source_public":"Included for Colorado statewide hydrography completeness","public_notes":"Clay Creek is shown as statewide Colorado hydrography context outside the current cutthroat lineage assignment set."}},{"type":"Feature","geometry":{"type":"LineString","coordinates":[[-102.5309,38.0958],[-102.5304,38.0963]]},"properties":{"source_id":"co_named_stream_043221","name":"Clay Creek","display_name":"Clay Creek","mapped_name":"Clay Creek","source_name":"Clay Creek","state":"CO","atlas_class":"named_natural_stream","huc8":"11020009","huc8Name":"Upper Arkansas-John Martin Reservoir","huc8States":"CO,KS","lineageKey":"statewideContext","lineage":"statewideContext","historic":"statewideContext","current":"statewideContext","recovery":"statewideContext","lineageLabel":"Statewide Colorado hydrography context","lineageBasin":"","lineageNote":"","atlas_context":"statewide_hydrography_context","confidence":"Statewide hydrography context outside current cutthroat lineage model","geometryStatus":"Named natural stream segment from statewide hydrography","note":"This named natural stream is included for statewide Colorado hydrography completeness and is outside the current cutthroat lineage assignment set.","source_segment_id":"co_named_stream_043221","water_id":"co_clay_creek_11020009_statewideContext_002","occurrence_id":"co_clay_creek_11020009_statewideContext_002","occurrence_number":"002","segment_count":8,"disambiguator":"Upper Arkansas-John Martin Reservoir · Statewide Colorado hydrography context · occurrence 002","basin":"Upper Arkansas-John Martin Reservoir","atlas_layer":"named_water_occurrence","object_role":"named_water_occurrence","historic_label":"Statewide Colorado hydrography context","current_label":"Statewide Colorado hydrography context","recovery_label":"Statewide Colorado hydrography context","tier":"tier4","minZoom":15,"confidence_public":"Statewide hydrography context outside current cutthroat lineage model","geometry_status_public":"Named natural stream occurrence from statewide hydrography","geometry_source_public":"Grouped public hydrography segments","trout_source_public":"Included for Colorado statewide hydrography completeness","public_notes":"Clay Creek is shown as statewide Colorado hydrography context outside the current cutthroat lineage assignment set."}},{"type":"Feature","geometry":{"type":"LineString","coordinates":[[-102.5304,38.0963],[-102.5286,38.0974]]},"properties":{"source_id":"co_named_stream_043457","name":"Clay Creek","display_name":"Clay Creek","mapped_name":"Clay Creek","source_name":"Clay Creek","state":"CO","atlas_class":"named_natural_stream","huc8":"11020009","huc8Name":"Upper Arkansas-John Martin Reservoir","huc8States":"CO,KS","lineageKey":"statewideContext","lineage":"statewideContext","historic":"statewideContext","current":"statewideContext","recovery":"statewideContext","lineageLabel":"Statewide Colorado hydrography context","lineageBasin":"","lineageNote":"","atlas_context":"statewide_hydrography_context","confidence":"Statewide hydrography context outside current cutthroat lineage model","geometryStatus":"Named natural stream segment from statewide hydrography","note":"This named natural stream is included for statewide Colorado hydrography completeness and is outside the current cutthroat lineage assignment set.","source_segment_id":"co_named_stream_043457","water_id":"co_clay_creek_11020009_statewideContext_002","occurrence_id":"co_clay_creek_11020009_statewideContext_002","occurrence_number":"002","segment_count":8,"disambiguator":"Upper Arkansas-John Martin Reservoir · Statewide Colorado hydrography context · occurrence 002","basin":"Upper Arkansas-John Martin Reservoir","atlas_layer":"named_water_occurrence","object_role":"named_water_occurrence","historic_label":"Statewide Colorado hydrography context","current_label":"Statewide Colorado hydrography context","recovery_label":"Statewide Colorado hydrography context","tier":"tier4","minZoom":15,"confidence_public":"Statewide hydrography context outside current cutthroat lineage model","geometry_status_public":"Named natural stream occurrence from statewide hydrography","geometry_source_public":"Grouped public hydrography segments","trout_source_public":"Included for Colorado statewide hydrography completeness","public_notes":"Clay Creek is shown as statewide Colorado hydrography context outside the current cutthroat lineage assignment set."}},{"type":"Feature","geometry":{"type":"LineString","coordinates":[[-102.5661,38.0507],[-102.5645,38.0544],[-102.5589,38.0557]]},"properties":{"source_id":"co_named_stream_047427","name":"Clay Creek","display_name":"Clay Creek","mapped_name":"Clay Creek","source_name":"Clay Creek","state":"CO","atlas_class":"named_natural_stream","huc8":"11020009","huc8Name":"Upper Arkansas-John Martin Reservoir","huc8States":"CO,KS","lineageKey":"statewideContext","lineage":"statewideContext","historic":"statewideContext","current":"statewideContext","recovery":"statewideContext","lineageLabel":"Statewide Colorado hydrography context","lineageBasin":"","lineageNote":"","atlas_context":"statewide_hydrography_context","confidence":"Statewide hydrography context outside current cutthroat lineage model","geometryStatus":"Named natural stream segment from statewide hydrography","note":"This named natural stream is included for statewide Colorado hydrography completeness and is outside the current cutthroat lineage assignment set.","source_segment_id":"co_named_stream_047427","water_id":"co_clay_creek_11020009_statewideContext_002","occurrence_id":"co_clay_creek_11020009_statewideContext_002","occurrence_number":"002","segment_count":8,"disambiguator":"Upper Arkansas-John Martin Reservoir · Statewide Colorado hydrography context · occurrence 002","basin":"Upper Arkansas-John Martin Reservoir","atlas_layer":"named_water_occurrence","object_role":"named_water_occurrence","historic_label":"Statewide Colorado hydrography context","current_label":"Statewide Colorado hydrography context","recovery_label":"Statewide Colorado hydrography context","tier":"tier4","minZoom":15,"confidence_public":"Statewide hydrography context outside current cutthroat lineage model","geometry_status_public":"Named natural stream occurrence from statewide hydrography","geometry_source_public":"Grouped public hydrography segments","trout_source_public":"Included for Colorado statewide hydrography completeness","public_notes":"Clay Creek is shown as statewide Colorado hydrography context outside the current cutthroat lineage assignment set."}},{"type":"Feature","geometry":{"type":"LineString","coordinates":[[-102.5303,38.087],[-102.5308,38.0901],[-102.5324,38.0925]]},"properties":{"source_id":"co_named_stream_031940","name":"Clay Creek","display_name":"Clay Creek","mapped_name":"Clay Creek","source_name":"Clay Creek","state":"CO","atlas_class":"named_natural_stream","huc8":"11020009","huc8Name":"Upper Arkansas-John Martin Reservoir","huc8States":"CO,KS","lineageKey":"statewideContext","lineage":"statewideContext","historic":"statewideContext","current":"statewideContext","recovery":"statewideContext","lineageLabel":"Statewide Colorado hydrography context","lineageBasin":"","lineageNote":"","atlas_context":"statewide_hydrography_context","confidence":"Statewide hydrography context outside current cutthroat lineage model","geometryStatus":"Named natural stream segment from statewide hydrography","note":"This named natural stream is included for statewide Colorado hydrography completeness and is outside the current cutthroat lineage assignment set.","source_segment_id":"co_named_stream_031940","water_id":"co_clay_creek_11020009_statewideContext_003","occurrence_id":"co_clay_creek_11020009_statewideContext_003","occurrence_number":"003","segment_count":3,"disambiguator":"Upper Arkansas-John Martin Reservoir · Statewide Colorado hydrography context · occurrence 003","basin":"Upper Arkansas-John Martin Reservoir","atlas_layer":"named_water_occurrence","object_role":"named_water_occurrence","historic_label":"Statewide Colorado hydrography context","current_label":"Statewide Colorado hydrography context","recovery_label":"Statewide Colorado hydrography context","tier":"tier4","minZoom":15,"confidence_public":"Statewide hydrography context outside current cutthroat lineage model","geometry_status_public":"Named natural stream occurrence from statewide hydrography","geometry_source_public":"Grouped public hydrography segments","trout_source_public":"Included for Colorado statewide hydrography completeness","public_notes":"Clay Creek is shown as statewide Colorado hydrography context outside the current cutthroat lineage assignment set."}},{"type":"Feature","geometry":{"type":"LineString","coordinates":[[-102.5589,38.0557],[-102.5532,38.0575],[-102.5528,38.0642],[-102.5514,38.066],[-102.5507,38.0695],[-102.5466,38.075],[-102.5397,38.0788],[-102.5306,38.0867]]},"properties":{"source_id":"co_named_stream_034713","name":"Clay Creek","display_name":"Clay Creek","mapped_name":"Clay Creek","source_name":"Clay Creek","state":"CO","atlas_class":"named_natural_stream","huc8":"11020009","huc8Name":"Upper Arkansas-John Martin Reservoir","huc8States":"CO,KS","lineageKey":"statewideContext","lineage":"statewideContext","historic":"statewideContext","current":"statewideContext","recovery":"statewideContext","lineageLabel":"Statewide Colorado hydrography context","lineageBasin":"","lineageNote":"","atlas_context":"statewide_hydrography_context","confidence":"Statewide hydrography context outside current cutthroat lineage model","geometryStatus":"Named natural stream segment from statewide hydrography","note":"This named natural stream is included for statewide Colorado hydrography completeness and is outside the current cutthroat lineage assignment set.","source_segment_id":"co_named_stream_034713","water_id":"co_clay_creek_11020009_statewideContext_003","occurrence_id":"co_clay_creek_11020009_statewideContext_003","occurrence_number":"003","segment_count":3,"disambiguator":"Upper Arkansas-John Martin Reservoir · Statewide Colorado hydrography context · occurrence 003","basin":"Upper Arkansas-John Martin Reservoir","atlas_layer":"named_water_occurrence","object_role":"named_water_occurrence","historic_label":"Statewide Colorado hydrography context","current_label":"Statewide Colorado hydrography context","recovery_label":"Statewide Colorado hydrography context","tier":"tier4","minZoom":15,"confidence_public":"Statewide hydrography context outside current cutthroat lineage model","geometry_status_public":"Named natural stream occurrence from statewide hydrography","geometry_source_public":"Grouped public hydrography segments","trout_source_public":"Included for Colorado statewide hydrography completeness","public_notes":"Clay Creek is shown as statewide Colorado hydrography context outside the current cutthroat lineage assignment set."}},{"type":"Feature","geometry":{"type":"LineString","coordinates":[[-102.5306,38.0867],[-102.5303,38.087]]},"properties":{"source_id":"co_named_stream_035343","name":"Clay Creek","display_name":"Clay Creek","mapped_name":"Clay Creek","source_name":"Clay Creek","state":"CO","atlas_class":"named_natural_stream","huc8":"11020009","huc8Name":"Upper Arkansas-John Martin Reservoir","huc8States":"CO,KS","lineageKey":"statewideContext","lineage":"statewideContext","historic":"statewideContext","current":"statewideContext","recovery":"statewideContext","lineageLabel":"Statewide Colorado hydrography context","lineageBasin":"","lineageNote":"","atlas_context":"statewide_hydrography_context","confidence":"Statewide hydrography context outside current cutthroat lineage model","geometryStatus":"Named natural stream segment from statewide hydrography","note":"This named natural stream is included for statewide Colorado hydrography completeness and is outside the current cutthroat lineage assignment set.","source_segment_id":"co_named_stream_035343","water_id":"co_clay_creek_11020009_statewideContext_003","occurrence_id":"co_clay_creek_11020009_statewideContext_003","occurrence_number":"003","segment_count":3,"disambiguator":"Upper Arkansas-John Martin Reservoir · Statewide Colorado hydrography context · occurrence 003","basin":"Upper Arkansas-John Martin Reservoir","atlas_layer":"named_water_occurrence","object_role":"named_water_occurrence","historic_label":"Statewide Colorado hydrography context","current_label":"Statewide Colorado hydrography context","recovery_label":"Statewide Colorado hydrography context","tier":"tier4","minZoom":15,"confidence_public":"Statewide hydrography context outside current cutthroat lineage model","geometry_status_public":"Named natural stream occurrence from statewide hydrography","geometry_source_public":"Grouped public hydrography segments","trout_source_public":"Included for Colorado statewide hydrography completeness","public_notes":"Clay Creek is shown as statewide Colorado hydrography context outside the current cutthroat lineage assignment set."}},{"type":"Feature","geometry":{"type":"LineString","coordinates":[[-102.735,38.0088],[-102.7339,38.0112],[-102.7341,38.0129],[-102.7352,38.0135],[-102.7309,38.0143],[-102.7291,38.0127],[-102.7233,38.0136],[-102.7238,38.0165],[-102.7224,38.0174],[-102.7205,38.0168],[-102.7188,38.0179],[-102.7202,38.0225],[-102.7169,38.0229],[-102.7153,38.0242],[-102.717,38.025],[-102.7124,38.0261],[-102.7138,38.0271],[-102.7127,38.0284],[-102.7102,38.0282],[-102.7113,38.0307],[-102.7113,38.0336],[-102.7096,38.0342],[-102.709,38.0358],[-102.7099,38.0369],[-102.7081,38.0392],[-102.709,38.0411],[-102.7074,38.043],[-102.709,38.0445],[-102.7075,38.0467],[-102.7086,38.0491],[-102.7078,38.0525],[-102.707,38.0531],[-102.7047,38.0524],[-102.7045,38.0534],[-102.7012,38.0548],[-102.6995,38.0576],[-102.6993,38.0585],[-102.7012,38.0599],[-102.7028,38.0629],[-102.6999,38.0682]]},"properties":{"source_id":"co_named_stream_033964","name":"Dry Creek","display_name":"Dry Creek","mapped_name":"Dry Creek","source_name":"Dry Creek","state":"CO","atlas_class":"named_natural_stream","huc8":"11020009","huc8Name":"Upper Arkansas-John Martin Reservoir","huc8States":"CO,KS","lineageKey":"statewideContext","lineage":"statewideContext","historic":"statewideContext","current":"statewideContext","recovery":"statewideContext","lineageLabel":"Statewide Colorado hydrography context","lineageBasin":"","lineageNote":"","atlas_context":"statewide_hydrography_context","confidence":"Statewide hydrography context outside current cutthroat lineage model","geometryStatus":"Named natural stream segment from statewide hydrography","note":"This named natural stream is included for statewide Colorado hydrography completeness and is outside the current cutthroat lineage assignment set.","source_segment_id":"co_named_stream_033964","water_id":"co_dry_creek_11020009_statewideContext_005","occurrence_id":"co_dry_creek_11020009_statewideContext_005","occurrence_number":"005","segment_count":2,"disambiguator":"Upper Arkansas-John Martin Reservoir · Statewide Colorado hydrography context · occurrence 005","basin":"Upper Arkansas-John Martin Reservoir","atlas_layer":"named_water_occurrence","object_role":"named_water_occurrence","historic_label":"Statewide Colorado hydrography context","current_label":"Statewide Colorado hydrography context","recovery_label":"Statewide Colorado hydrography context","tier":"tier4","minZoom":15,"confidence_public":"Statewide hydrography context outside current cutthroat lineage model","geometry_status_public":"Named natural stream occurrence from statewide hydrography","geometry_source_public":"Grouped public hydrography segments","trout_source_public":"Included for Colorado statewide hydrography completeness","public_notes":"Dry Creek is shown as statewide Colorado hydrography context outside the current cutthroat lineage assignment set."}},{"type":"Feature","geometry":{"type":"LineString","coordinates":[[-102.6999,38.0682],[-102.6986,38.0728],[-102.7009,38.0751]]},"properties":{"source_id":"co_named_stream_038256","name":"Dry Creek","display_name":"Dry Creek","mapped_name":"Dry Creek","source_name":"Dry Creek","state":"CO","atlas_class":"named_natural_stream","huc8":"11020009","huc8Name":"Upper Arkansas-John Martin Reservoir","huc8States":"CO,KS","lineageKey":"statewideContext","lineage":"statewideContext","historic":"statewideContext","current":"statewideContext","recovery":"statewideContext","lineageLabel":"Statewide Colorado hydrography context","lineageBasin":"","lineageNote":"","atlas_context":"statewide_hydrography_context","confidence":"Statewide hydrography context outside current cutthroat lineage model","geometryStatus":"Named natural stream segment from statewide hydrography","note":"This named natural stream is included for statewide Colorado hydrography completeness and is outside the current cutthroat lineage assignment set.","source_segment_id":"co_named_stream_038256","water_id":"co_dry_creek_11020009_statewideContext_005","occurrence_id":"co_dry_creek_11020009_statewideContext_005","occurrence_number":"005","segment_count":2,"disambiguator":"Upper Arkansas-John Martin Reservoir · Statewide Colorado hydrography context · occurrence 005","basin":"Upper Arkansas-John Martin Reservoir","atlas_layer":"named_water_occurrence","object_role":"named_water_occurrence","historic_label":"Statewide Colorado hydrography context","current_label":"Statewide Colorado hydrography context","recovery_label":"Statewide Colorado hydrography context","tier":"tier4","minZoom":15,"confidence_public":"Statewide hydrography context outside current cutthroat lineage model","geometry_status_public":"Named natural stream occurrence from statewide hydrography","geometry_source_public":"Grouped public hydrography segments","trout_source_public":"Included for Colorado statewide hydrography completeness","public_notes":"Dry Creek is shown as statewide Colorado hydrography context outside the current cutthroat lineage assignment set."}},{"type":"Feature","geometry":{"type":"LineString","coordinates":[[-102.6148,38.0707],[-102.6148,38.071]]},"properties":{"source_id":"co_named_stream_031752","name":"Willow Creek","display_name":"Willow Creek","mapped_name":"Willow Creek","source_name":"Willow Creek","state":"CO","atlas_class":"named_natural_stream","huc8":"11020009","huc8Name":"Upper Arkansas-John Martin Reservoir","huc8States":"CO,KS","lineageKey":"statewideContext","lineage":"statewideContext","historic":"statewideContext","current":"statewideContext","recovery":"statewideContext","lineageLabel":"Statewide Colorado hydrography context","lineageBasin":"","lineageNote":"","atlas_context":"statewide_hydrography_context","confidence":"Statewide hydrography context outside current cutthroat lineage model","geometryStatus":"Named natural stream segment from statewide hydrography","note":"This named natural stream is included for statewide Colorado hydrography completeness and is outside the current cutthroat lineage assignment set.","source_segment_id":"co_named_stream_031752","water_id":"co_willow_creek_11020009_statewideContext_002","occurrence_id":"co_willow_creek_11020009_statewideContext_002","occurrence_number":"002","segment_count":3,"disambiguator":"Upper Arkansas-John Martin Reservoir · Statewide Colorado hydrography context · occurrence 002","basin":"Upper Arkansas-John Martin Reservoir","atlas_layer":"named_water_occurrence","object_role":"named_water_occurrence","historic_label":"Statewide Colorado hydrography context","current_label":"Statewide Colorado hydrography context","recovery_label":"Statewide Colorado hydrography context","tier":"tier4","minZoom":15,"confidence_public":"Statewide hydrography context outside current cutthroat lineage model","geometry_status_public":"Named natural stream occurrence from statewide hydrography","geometry_source_public":"Grouped public hydrography segments","trout_source_public":"Included for Colorado statewide hydrography completeness","public_notes":"Willow Creek is shown as statewide Colorado hydrography context outside the current cutthroat lineage assignment set."}},{"type":"Feature","geometry":{"type":"LineString","coordinates":[[-102.5981,38.0851],[-102.5948,38.0866],[-102.594,38.0888],[-102.5928,38.0895],[-102.5875,38.0907],[-102.5775,38.0912],[-102.5767,38.0928]]},"properties":{"source_id":"co_named_stream_031753","name":"Willow Creek","display_name":"Willow Creek","mapped_name":"Willow Creek","source_name":"Willow Creek","state":"CO","atlas_class":"named_natural_stream","huc8":"11020009","huc8Name":"Upper Arkansas-John Martin Reservoir","huc8States":"CO,KS","lineageKey":"statewideContext","lineage":"statewideContext","historic":"statewideContext","current":"statewideContext","recovery":"statewideContext","lineageLabel":"Statewide Colorado hydrography context","lineageBasin":"","lineageNote":"","atlas_context":"statewide_hydrography_context","confidence":"Statewide hydrography context outside current cutthroat lineage model","geometryStatus":"Named natural stream segment from statewide hydrography","note":"This named natural stream is included for statewide Colorado hydrography completeness and is outside the current cutthroat lineage assignment set.","source_segment_id":"co_named_stream_031753","water_id":"co_willow_creek_11020009_statewideContext_002","occurrence_id":"co_willow_creek_11020009_statewideContext_002","occurrence_number":"002","segment_count":3,"disambiguator":"Upper Arkansas-John Martin Reservoir · Statewide Colorado hydrography context · occurrence 002","basin":"Upper Arkansas-John Martin Reservoir","atlas_layer":"named_water_occurrence","object_role":"named_water_occurrence","historic_label":"Statewide Colorado hydrography context","current_label":"Statewide Colorado hydrography context","recovery_label":"Statewide Colorado hydrography context","tier":"tier4","minZoom":15,"confidence_public":"Statewide hydrography context outside current cutthroat lineage model","geometry_status_public":"Named natural stream occurrence from statewide hydrography","geometry_source_public":"Grouped public hydrography segments","trout_source_public":"Included for Colorado statewide hydrography completeness","public_notes":"Willow Creek is shown as statewide Colorado hydrography context outside the current cutthroat lineage assignment set."}},{"type":"Feature","geometry":{"type":"LineString","coordinates":[[-102.6119,38.0439],[-102.6118,38.0441]]},"properties":{"source_id":"co_named_stream_038324","name":"Willow Creek","display_name":"Willow Creek","mapped_name":"Willow Creek","source_name":"Willow Creek","state":"CO","atlas_class":"named_natural_stream","huc8":"11020009","huc8Name":"Upper Arkansas-John Martin Reservoir","huc8States":"CO,KS","lineageKey":"statewideContext","lineage":"statewideContext","historic":"statewideContext","current":"statewideContext","recovery":"statewideContext","lineageLabel":"Statewide Colorado hydrography context","lineageBasin":"","lineageNote":"","atlas_context":"statewide_hydrography_context","confidence":"Statewide hydrography context outside current cutthroat lineage model","geometryStatus":"Named natural stream segment from statewide hydrography","note":"This named natural stream is included for statewide Colorado hydrography completeness and is outside the current cutthroat lineage assignment set.","source_segment_id":"co_named_stream_038324","water_id":"co_willow_creek_11020009_statewideContext_002","occurrence_id":"co_willow_creek_11020009_statewideContext_002","occurrence_number":"002","segment_count":3,"disambiguator":"Upper Arkansas-John Martin Reservoir · Statewide Colorado hydrography context · occurrence 002","basin":"Upper Arkansas-John Martin Reservoir","atlas_layer":"named_water_occurrence","object_role":"named_water_occurrence","historic_label":"Statewide Colorado hydrography context","current_label":"Statewide Colorado hydrography context","recovery_label":"Statewide Colorado hydrography context","tier":"tier4","minZoom":15,"confidence_public":"Statewide hydrography context outside current cutthroat lineage model","geometry_status_public":"Named natural stream occurrence from statewide hydrography","geometry_source_public":"Grouped public hydrography segments","trout_source_public":"Included for Colorado statewide hydrography completeness","public_notes":"Willow Creek is shown as statewide Colorado hydrography context outside the current cutthroat lineage assignment set."}}]}