{"type":"FeatureCollection","metadata":{"source":"C:\\ct-atlas-data\\processed\\geojson\\interpreted\\colorado_named_natural_streams_complete_v1.geojson","tier":"tier4","tile_size_degrees":0.25,"x":-413,"y":162,"bounds":{"west":-103.25,"south":40.5,"east":-103,"north":40.75}},"features":[{"type":"Feature","geometry":{"type":"LineString","coordinates":[[-103.2511,40.5618],[-103.2485,40.5613],[-103.2472,40.5571],[-103.2462,40.5565],[-103.2454,40.5568],[-103.2448,40.5601],[-103.2457,40.5621],[-103.2435,40.5644],[-103.2454,40.5648],[-103.2453,40.5654],[-103.2436,40.5656],[-103.2413,40.5628],[-103.2399,40.5624],[-103.2416,40.5665],[-103.2439,40.5674],[-103.2437,40.568],[-103.2399,40.5681],[-103.2379,40.5652],[-103.2356,40.5642]]},"properties":{"source_id":"co_named_stream_018776","name":"Pawnee Creek","display_name":"Pawnee Creek","mapped_name":"Pawnee Creek","source_name":"Pawnee Creek","state":"CO","atlas_class":"named_natural_stream","huc8":"10190014","huc8Name":"Pawnee","huc8States":"CO","lineageKey":"statewideContext","lineage":"statewideContext","historic":"statewideContext","current":"statewideContext","recovery":"statewideContext","lineageLabel":"Statewide Colorado hydrography context","lineageBasin":"","lineageNote":"","atlas_context":"statewide_hydrography_context","confidence":"Statewide hydrography context outside current cutthroat lineage model","geometryStatus":"Named natural stream segment from statewide hydrography","note":"This named natural stream is included for statewide Colorado hydrography completeness and is outside the current cutthroat lineage assignment set.","source_segment_id":"co_named_stream_018776","water_id":"co_pawnee_creek_10190014_statewideContext_003","occurrence_id":"co_pawnee_creek_10190014_statewideContext_003","occurrence_number":"003","segment_count":12,"disambiguator":"Pawnee · Statewide Colorado hydrography context · occurrence 003","basin":"Pawnee","atlas_layer":"named_water_occurrence","object_role":"named_water_occurrence","historic_label":"Statewide Colorado hydrography context","current_label":"Statewide Colorado hydrography context","recovery_label":"Statewide Colorado hydrography context","tier":"tier4","minZoom":15,"confidence_public":"Statewide hydrography context outside current cutthroat lineage model","geometry_status_public":"Named natural stream occurrence from statewide hydrography","geometry_source_public":"Grouped public hydrography segments","trout_source_public":"Included for Colorado statewide hydrography completeness","public_notes":"Pawnee Creek is shown as statewide Colorado hydrography context outside the current cutthroat lineage assignment set."}},{"type":"Feature","geometry":{"type":"LineString","coordinates":[[-103.1303,40.6988],[-103.1301,40.699]]},"properties":{"source_id":"co_named_stream_004854","name":"South Platte River","display_name":"South Platte River","mapped_name":"South Platte River","source_name":"South Platte River","state":"CO","atlas_class":"named_natural_stream","huc8":"10190012","huc8Name":"Middle South Platte-Sterling","huc8States":"CO,NE","lineageKey":"statewideContext","lineage":"statewideContext","historic":"statewideContext","current":"statewideContext","recovery":"statewideContext","lineageLabel":"Statewide Colorado hydrography context","lineageBasin":"","lineageNote":"","atlas_context":"statewide_hydrography_context","confidence":"Statewide hydrography context outside current cutthroat lineage model","geometryStatus":"Named natural stream segment from statewide hydrography","note":"This named natural stream is included for statewide Colorado hydrography completeness and is outside the current cutthroat lineage assignment set.","source_segment_id":"co_named_stream_004854","water_id":"co_south_platte_river_10190012_statewideContext_004","occurrence_id":"co_south_platte_river_10190012_statewideContext_004","occurrence_number":"004","segment_count":1,"disambiguator":"Middle South Platte-Sterling · Statewide Colorado hydrography context · occurrence 004","basin":"Middle South Platte-Sterling","atlas_layer":"named_water_occurrence","object_role":"named_water_occurrence","historic_label":"Statewide Colorado hydrography context","current_label":"Statewide Colorado hydrography context","recovery_label":"Statewide Colorado hydrography context","tier":"tier4","minZoom":15,"confidence_public":"Statewide hydrography context outside current cutthroat lineage model","geometry_status_public":"Named natural stream occurrence from statewide hydrography","geometry_source_public":"Grouped public hydrography segments","trout_source_public":"Included for Colorado statewide hydrography completeness","public_notes":"South Platte River is shown as statewide Colorado hydrography context outside the current cutthroat lineage assignment set."}},{"type":"Feature","geometry":{"type":"LineString","coordinates":[[-103.1859,40.7386],[-103.1851,40.7382]]},"properties":{"source_id":"co_named_stream_004906","name":"North Branch Cedar Creek","display_name":"North Branch Cedar Creek","mapped_name":"North Branch Cedar Creek","source_name":"North Branch Cedar Creek","state":"CO","atlas_class":"named_natural_stream","huc8":"10190012","huc8Name":"Middle South Platte-Sterling","huc8States":"CO,NE","lineageKey":"statewideContext","lineage":"statewideContext","historic":"statewideContext","current":"statewideContext","recovery":"statewideContext","lineageLabel":"Statewide Colorado hydrography context","lineageBasin":"","lineageNote":"","atlas_context":"statewide_hydrography_context","confidence":"Statewide hydrography context outside current cutthroat lineage model","geometryStatus":"Named natural stream segment from statewide hydrography","note":"This named natural stream is included for statewide Colorado hydrography completeness and is outside the current cutthroat lineage assignment set.","source_segment_id":"co_named_stream_004906","water_id":"co_north_branch_cedar_creek_10190012_statewideContext_001","occurrence_id":"co_north_branch_cedar_creek_10190012_statewideContext_001","occurrence_number":"001","segment_count":4,"disambiguator":"Middle South Platte-Sterling · Statewide Colorado hydrography context · occurrence 001","basin":"Middle South Platte-Sterling","atlas_layer":"named_water_occurrence","object_role":"named_water_occurrence","historic_label":"Statewide Colorado hydrography context","current_label":"Statewide Colorado hydrography context","recovery_label":"Statewide Colorado hydrography context","tier":"tier4","minZoom":15,"confidence_public":"Statewide hydrography context outside current cutthroat lineage model","geometry_status_public":"Named natural stream occurrence from statewide hydrography","geometry_source_public":"Grouped public hydrography segments","trout_source_public":"Included for Colorado statewide hydrography completeness","public_notes":"North Branch Cedar Creek is shown as statewide Colorado hydrography context outside the current cutthroat lineage assignment set."}},{"type":"Feature","geometry":{"type":"LineString","coordinates":[[-103.1848,40.7381],[-103.1804,40.7372],[-103.1777,40.7353],[-103.1757,40.736],[-103.1729,40.7354]]},"properties":{"source_id":"co_named_stream_017898","name":"North Branch Cedar Creek","display_name":"North Branch Cedar Creek","mapped_name":"North Branch Cedar Creek","source_name":"North Branch Cedar Creek","state":"CO","atlas_class":"named_natural_stream","huc8":"10190012","huc8Name":"Middle South Platte-Sterling","huc8States":"CO,NE","lineageKey":"statewideContext","lineage":"statewideContext","historic":"statewideContext","current":"statewideContext","recovery":"statewideContext","lineageLabel":"Statewide Colorado hydrography context","lineageBasin":"","lineageNote":"","atlas_context":"statewide_hydrography_context","confidence":"Statewide hydrography context outside current cutthroat lineage model","geometryStatus":"Named natural stream segment from statewide hydrography","note":"This named natural stream is included for statewide Colorado hydrography completeness and is outside the current cutthroat lineage assignment set.","source_segment_id":"co_named_stream_017898","water_id":"co_north_branch_cedar_creek_10190012_statewideContext_001","occurrence_id":"co_north_branch_cedar_creek_10190012_statewideContext_001","occurrence_number":"001","segment_count":4,"disambiguator":"Middle South Platte-Sterling · Statewide Colorado hydrography context · occurrence 001","basin":"Middle South Platte-Sterling","atlas_layer":"named_water_occurrence","object_role":"named_water_occurrence","historic_label":"Statewide Colorado hydrography context","current_label":"Statewide Colorado hydrography context","recovery_label":"Statewide Colorado hydrography context","tier":"tier4","minZoom":15,"confidence_public":"Statewide hydrography context outside current cutthroat lineage model","geometry_status_public":"Named natural stream occurrence from statewide hydrography","geometry_source_public":"Grouped public hydrography segments","trout_source_public":"Included for Colorado statewide hydrography completeness","public_notes":"North Branch Cedar Creek is shown as statewide Colorado hydrography context outside the current cutthroat lineage assignment set."}},{"type":"Feature","geometry":{"type":"LineString","coordinates":[[-103.2014,40.7533],[-103.2012,40.7514],[-103.204,40.7457],[-103.1993,40.7455],[-103.1974,40.7433],[-103.1927,40.7431],[-103.1859,40.7386]]},"properties":{"source_id":"co_named_stream_018041","name":"North Branch Cedar Creek","display_name":"North Branch Cedar Creek","mapped_name":"North Branch Cedar Creek","source_name":"North Branch Cedar Creek","state":"CO","atlas_class":"named_natural_stream","huc8":"10190012","huc8Name":"Middle South Platte-Sterling","huc8States":"CO,NE","lineageKey":"statewideContext","lineage":"statewideContext","historic":"statewideContext","current":"statewideContext","recovery":"statewideContext","lineageLabel":"Statewide Colorado hydrography context","lineageBasin":"","lineageNote":"","atlas_context":"statewide_hydrography_context","confidence":"Statewide hydrography context outside current cutthroat lineage model","geometryStatus":"Named natural stream segment from statewide hydrography","note":"This named natural stream is included for statewide Colorado hydrography completeness and is outside the current cutthroat lineage assignment set.","source_segment_id":"co_named_stream_018041","water_id":"co_north_branch_cedar_creek_10190012_statewideContext_001","occurrence_id":"co_north_branch_cedar_creek_10190012_statewideContext_001","occurrence_number":"001","segment_count":4,"disambiguator":"Middle South Platte-Sterling · Statewide Colorado hydrography context · occurrence 001","basin":"Middle South Platte-Sterling","atlas_layer":"named_water_occurrence","object_role":"named_water_occurrence","historic_label":"Statewide Colorado hydrography context","current_label":"Statewide Colorado hydrography context","recovery_label":"Statewide Colorado hydrography context","tier":"tier4","minZoom":15,"confidence_public":"Statewide hydrography context outside current cutthroat lineage model","geometry_status_public":"Named natural stream occurrence from statewide hydrography","geometry_source_public":"Grouped public hydrography segments","trout_source_public":"Included for Colorado statewide hydrography completeness","public_notes":"North Branch Cedar Creek is shown as statewide Colorado hydrography context outside the current cutthroat lineage assignment set."}},{"type":"Feature","geometry":{"type":"LineString","coordinates":[[-103.121,40.7555],[-103.1136,40.7522],[-103.1093,40.7512],[-103.1052,40.7484]]},"properties":{"source_id":"co_named_stream_008663","name":"Sevenmile Creek","display_name":"Sevenmile Creek","mapped_name":"Sevenmile Creek","source_name":"Sevenmile Creek","state":"CO","atlas_class":"named_natural_stream","huc8":"10190012","huc8Name":"Middle South Platte-Sterling","huc8States":"CO,NE","lineageKey":"statewideContext","lineage":"statewideContext","historic":"statewideContext","current":"statewideContext","recovery":"statewideContext","lineageLabel":"Statewide Colorado hydrography context","lineageBasin":"","lineageNote":"","atlas_context":"statewide_hydrography_context","confidence":"Statewide hydrography context outside current cutthroat lineage model","geometryStatus":"Named natural stream segment from statewide hydrography","note":"This named natural stream is included for statewide Colorado hydrography completeness and is outside the current cutthroat lineage assignment set.","source_segment_id":"co_named_stream_008663","water_id":"co_sevenmile_creek_10190012_statewideContext_001","occurrence_id":"co_sevenmile_creek_10190012_statewideContext_001","occurrence_number":"001","segment_count":13,"disambiguator":"Middle South Platte-Sterling · Statewide Colorado hydrography context · occurrence 001","basin":"Middle South Platte-Sterling","atlas_layer":"named_water_occurrence","object_role":"named_water_occurrence","historic_label":"Statewide Colorado hydrography context","current_label":"Statewide Colorado hydrography context","recovery_label":"Statewide Colorado hydrography context","tier":"tier4","minZoom":15,"confidence_public":"Statewide hydrography context outside current cutthroat lineage model","geometry_status_public":"Named natural stream occurrence from statewide hydrography","geometry_source_public":"Grouped public hydrography segments","trout_source_public":"Included for Colorado statewide hydrography completeness","public_notes":"Sevenmile Creek is shown as statewide Colorado hydrography context outside the current cutthroat lineage assignment set."}},{"type":"Feature","geometry":{"type":"LineString","coordinates":[[-103.0296,40.5244],[-103.0267,40.5219],[-103.0245,40.5222],[-103.018,40.518],[-103.0149,40.5174],[-103.0122,40.5193],[-103.0045,40.5203],[-103.0023,40.5196],[-103.0005,40.5205],[-102.997,40.5195],[-102.9964,40.5215],[-102.9943,40.5209]]},"properties":{"source_id":"co_named_stream_025401","name":"Sandy Creek","display_name":"Sandy Creek","mapped_name":"Sandy Creek","source_name":"Sandy Creek","state":"CO","atlas_class":"named_natural_stream","huc8":"10250005","huc8Name":"Frenchman","huc8States":"CO,NE","lineageKey":"statewideContext","lineage":"statewideContext","historic":"statewideContext","current":"statewideContext","recovery":"statewideContext","lineageLabel":"Statewide Colorado hydrography context","lineageBasin":"","lineageNote":"","atlas_context":"statewide_hydrography_context","confidence":"Statewide hydrography context outside current cutthroat lineage model","geometryStatus":"Named natural stream segment from statewide hydrography","note":"This named natural stream is included for statewide Colorado hydrography completeness and is outside the current cutthroat lineage assignment set.","source_segment_id":"co_named_stream_025401","water_id":"co_sandy_creek_10250005_statewideContext_001","occurrence_id":"co_sandy_creek_10250005_statewideContext_001","occurrence_number":"001","segment_count":1,"disambiguator":"Frenchman · Statewide Colorado hydrography context · occurrence 001","basin":"Frenchman","atlas_layer":"named_water_occurrence","object_role":"named_water_occurrence","historic_label":"Statewide Colorado hydrography context","current_label":"Statewide Colorado hydrography context","recovery_label":"Statewide Colorado hydrography context","tier":"tier4","minZoom":15,"confidence_public":"Statewide hydrography context outside current cutthroat lineage model","geometry_status_public":"Named natural stream occurrence from statewide hydrography","geometry_source_public":"Grouped public hydrography segments","trout_source_public":"Included for Colorado statewide hydrography completeness","public_notes":"Sandy Creek is shown as statewide Colorado hydrography context outside the current cutthroat lineage assignment set."}},{"type":"Feature","geometry":{"type":"LineString","coordinates":[[-103.0279,40.5896],[-103.0256,40.5908],[-103.022,40.5897],[-103.0205,40.5912],[-103.0174,40.5908],[-103.0125,40.5922],[-103.0114,40.5935],[-103.0118,40.5947],[-103.0091,40.5956]]},"properties":{"source_id":"co_named_stream_026227","name":"North Fork Frenchman Creek","display_name":"North Fork Frenchman Creek","mapped_name":"North Fork Frenchman Creek","source_name":"North Fork Frenchman Creek","state":"CO","atlas_class":"named_natural_stream","huc8":"10250005","huc8Name":"Frenchman","huc8States":"CO,NE","lineageKey":"statewideContext","lineage":"statewideContext","historic":"statewideContext","current":"statewideContext","recovery":"statewideContext","lineageLabel":"Statewide Colorado hydrography context","lineageBasin":"","lineageNote":"","atlas_context":"statewide_hydrography_context","confidence":"Statewide hydrography context outside current cutthroat lineage model","geometryStatus":"Named natural stream segment from statewide hydrography","note":"This named natural stream is included for statewide Colorado hydrography completeness and is outside the current cutthroat lineage assignment set.","source_segment_id":"co_named_stream_026227","water_id":"co_north_fork_frenchman_creek_10250005_statewideContext_001","occurrence_id":"co_north_fork_frenchman_creek_10250005_statewideContext_001","occurrence_number":"001","segment_count":4,"disambiguator":"Frenchman · Statewide Colorado hydrography context · occurrence 001","basin":"Frenchman","atlas_layer":"named_water_occurrence","object_role":"named_water_occurrence","historic_label":"Statewide Colorado hydrography context","current_label":"Statewide Colorado hydrography context","recovery_label":"Statewide Colorado hydrography context","tier":"tier4","minZoom":15,"confidence_public":"Statewide hydrography context outside current cutthroat lineage model","geometry_status_public":"Named natural stream occurrence from statewide hydrography","geometry_source_public":"Grouped public hydrography segments","trout_source_public":"Included for Colorado statewide hydrography completeness","public_notes":"North Fork Frenchman Creek is shown as statewide Colorado hydrography context outside the current cutthroat lineage assignment set."}},{"type":"Feature","geometry":{"type":"LineString","coordinates":[[-103.0081,40.5963],[-103.006,40.5976],[-103.006,40.599],[-103.004,40.6002],[-103.0026,40.5999],[-103.0018,40.6021],[-102.9964,40.6024],[-102.9924,40.6047],[-102.9908,40.6038],[-102.9888,40.6045],[-102.9874,40.6037]]},"properties":{"source_id":"co_named_stream_026766","name":"North Fork Frenchman Creek","display_name":"North Fork Frenchman Creek","mapped_name":"North Fork Frenchman Creek","source_name":"North Fork Frenchman Creek","state":"CO","atlas_class":"named_natural_stream","huc8":"10250005","huc8Name":"Frenchman","huc8States":"CO,NE","lineageKey":"statewideContext","lineage":"statewideContext","historic":"statewideContext","current":"statewideContext","recovery":"statewideContext","lineageLabel":"Statewide Colorado hydrography context","lineageBasin":"","lineageNote":"","atlas_context":"statewide_hydrography_context","confidence":"Statewide hydrography context outside current cutthroat lineage model","geometryStatus":"Named natural stream segment from statewide hydrography","note":"This named natural stream is included for statewide Colorado hydrography completeness and is outside the current cutthroat lineage assignment set.","source_segment_id":"co_named_stream_026766","water_id":"co_north_fork_frenchman_creek_10250005_statewideContext_002","occurrence_id":"co_north_fork_frenchman_creek_10250005_statewideContext_002","occurrence_number":"002","segment_count":18,"disambiguator":"Frenchman · Statewide Colorado hydrography context · occurrence 002","basin":"Frenchman","atlas_layer":"named_water_occurrence","object_role":"named_water_occurrence","historic_label":"Statewide Colorado hydrography context","current_label":"Statewide Colorado hydrography context","recovery_label":"Statewide Colorado hydrography context","tier":"tier4","minZoom":15,"confidence_public":"Statewide hydrography context outside current cutthroat lineage model","geometry_status_public":"Named natural stream occurrence from statewide hydrography","geometry_source_public":"Grouped public hydrography segments","trout_source_public":"Included for Colorado statewide hydrography completeness","public_notes":"North Fork Frenchman Creek is shown as statewide Colorado hydrography context outside the current cutthroat lineage assignment set."}}]}