{"type":"FeatureCollection","metadata":{"source":"C:\\ct-atlas-data\\processed\\geojson\\interpreted\\colorado_named_natural_streams_complete_v1.geojson","tier":"tier4","tile_size_degrees":0.25,"x":-411,"y":147,"bounds":{"west":-102.75,"south":36.75,"east":-102.5,"north":37}},"features":[{"type":"Feature","geometry":{"type":"LineString","coordinates":[[-102.5768,36.9979],[-102.5782,36.9969]]},"properties":{"source_id":"co_named_stream_050973","name":"Ute Canyon Creek","display_name":"Ute Canyon Creek","mapped_name":"Ute Canyon Creek","source_name":"Ute Canyon Creek","state":"CO","atlas_class":"named_natural_stream","huc8":"11040002","huc8Name":"Upper Cimarron","huc8States":"CO,KS,NM,OK","lineageKey":"statewideContext","lineage":"statewideContext","historic":"statewideContext","current":"statewideContext","recovery":"statewideContext","lineageLabel":"Statewide Colorado hydrography context","lineageBasin":"","lineageNote":"","atlas_context":"statewide_hydrography_context","confidence":"Statewide hydrography context outside current cutthroat lineage model","geometryStatus":"Named natural stream segment from statewide hydrography","note":"This named natural stream is included for statewide Colorado hydrography completeness and is outside the current cutthroat lineage assignment set.","source_segment_id":"co_named_stream_050973","water_id":"co_ute_canyon_creek_11040002_statewideContext_001","occurrence_id":"co_ute_canyon_creek_11040002_statewideContext_001","occurrence_number":"001","segment_count":6,"disambiguator":"Upper Cimarron · Statewide Colorado hydrography context · occurrence 001","basin":"Upper Cimarron","atlas_layer":"named_water_occurrence","object_role":"named_water_occurrence","historic_label":"Statewide Colorado hydrography context","current_label":"Statewide Colorado hydrography context","recovery_label":"Statewide Colorado hydrography context","tier":"tier4","minZoom":15,"confidence_public":"Statewide hydrography context outside current cutthroat lineage model","geometry_status_public":"Named natural stream occurrence from statewide hydrography","geometry_source_public":"Grouped public hydrography segments","trout_source_public":"Included for Colorado statewide hydrography completeness","public_notes":"Ute Canyon Creek is shown as statewide Colorado hydrography context outside the current cutthroat lineage assignment set."}}]}