{"type":"FeatureCollection","metadata":{"source":"C:\\ct-atlas-data\\processed\\geojson\\interpreted\\colorado_named_natural_streams_complete_v1.geojson","tier":"tier4","tile_size_degrees":0.25,"x":-418,"y":160,"bounds":{"west":-104.5,"south":40,"east":-104.25,"north":40.25}},"features":[{"type":"Feature","geometry":{"type":"LineString","coordinates":[[-104.3841,40.1118],[-104.383,40.1132],[-104.3831,40.115],[-104.3804,40.1179],[-104.3794,40.1217],[-104.3761,40.1254],[-104.3723,40.1265],[-104.3717,40.1297],[-104.3694,40.1306],[-104.3702,40.1317],[-104.3685,40.1322],[-104.3673,40.1338],[-104.3687,40.1351]]},"properties":{"source_id":"co_named_stream_004827","name":"Sand Creek","display_name":"Sand Creek","mapped_name":"Sand Creek","source_name":"Sand Creek","state":"CO","atlas_class":"named_natural_stream","huc8":"10190003","huc8Name":"Middle South Platte-Cherry Creek","huc8States":"CO","lineageKey":"statewideContext","lineage":"statewideContext","historic":"statewideContext","current":"statewideContext","recovery":"statewideContext","lineageLabel":"Statewide Colorado hydrography context","lineageBasin":"","lineageNote":"","atlas_context":"statewide_hydrography_context","confidence":"Statewide hydrography context outside current cutthroat lineage model","geometryStatus":"Named natural stream segment from statewide hydrography","note":"This named natural stream is included for statewide Colorado hydrography completeness and is outside the current cutthroat lineage assignment set.","source_segment_id":"co_named_stream_004827","water_id":"co_sand_creek_10190003_statewideContext_003","occurrence_id":"co_sand_creek_10190003_statewideContext_003","occurrence_number":"003","segment_count":9,"disambiguator":"Middle South Platte-Cherry Creek · Statewide Colorado hydrography context · occurrence 003","basin":"Middle South Platte-Cherry Creek","atlas_layer":"named_water_occurrence","object_role":"named_water_occurrence","historic_label":"Statewide Colorado hydrography context","current_label":"Statewide Colorado hydrography context","recovery_label":"Statewide Colorado hydrography context","tier":"tier4","minZoom":15,"confidence_public":"Statewide hydrography context outside current cutthroat lineage model","geometry_status_public":"Named natural stream occurrence from statewide hydrography","geometry_source_public":"Grouped public hydrography segments","trout_source_public":"Included for Colorado statewide hydrography completeness","public_notes":"Sand Creek is shown as statewide Colorado hydrography context outside the current cutthroat lineage assignment set."}},{"type":"Feature","geometry":{"type":"LineString","coordinates":[[-104.396,40.0491],[-104.3944,40.051],[-104.3958,40.0518],[-104.3956,40.0582]]},"properties":{"source_id":"co_named_stream_010633","name":"Sand Creek","display_name":"Sand Creek","mapped_name":"Sand Creek","source_name":"Sand Creek","state":"CO","atlas_class":"named_natural_stream","huc8":"10190003","huc8Name":"Middle South Platte-Cherry Creek","huc8States":"CO","lineageKey":"statewideContext","lineage":"statewideContext","historic":"statewideContext","current":"statewideContext","recovery":"statewideContext","lineageLabel":"Statewide Colorado hydrography context","lineageBasin":"","lineageNote":"","atlas_context":"statewide_hydrography_context","confidence":"Statewide hydrography context outside current cutthroat lineage model","geometryStatus":"Named natural stream segment from statewide hydrography","note":"This named natural stream is included for statewide Colorado hydrography completeness and is outside the current cutthroat lineage assignment set.","source_segment_id":"co_named_stream_010633","water_id":"co_sand_creek_10190003_statewideContext_003","occurrence_id":"co_sand_creek_10190003_statewideContext_003","occurrence_number":"003","segment_count":9,"disambiguator":"Middle South Platte-Cherry Creek · Statewide Colorado hydrography context · occurrence 003","basin":"Middle South Platte-Cherry Creek","atlas_layer":"named_water_occurrence","object_role":"named_water_occurrence","historic_label":"Statewide Colorado hydrography context","current_label":"Statewide Colorado hydrography context","recovery_label":"Statewide Colorado hydrography context","tier":"tier4","minZoom":15,"confidence_public":"Statewide hydrography context outside current cutthroat lineage model","geometry_status_public":"Named natural stream occurrence from statewide hydrography","geometry_source_public":"Grouped public hydrography segments","trout_source_public":"Included for Colorado statewide hydrography completeness","public_notes":"Sand Creek is shown as statewide Colorado hydrography context outside the current cutthroat lineage assignment set."}},{"type":"Feature","geometry":{"type":"LineString","coordinates":[[-104.3907,39.9935],[-104.3921,39.9961],[-104.3936,39.9968],[-104.3938,39.9997],[-104.393,40.0014],[-104.3942,40.0023]]},"properties":{"source_id":"co_named_stream_011019","name":"Sand Creek","display_name":"Sand Creek","mapped_name":"Sand Creek","source_name":"Sand Creek","state":"CO","atlas_class":"named_natural_stream","huc8":"10190003","huc8Name":"Middle South Platte-Cherry Creek","huc8States":"CO","lineageKey":"statewideContext","lineage":"statewideContext","historic":"statewideContext","current":"statewideContext","recovery":"statewideContext","lineageLabel":"Statewide Colorado hydrography context","lineageBasin":"","lineageNote":"","atlas_context":"statewide_hydrography_context","confidence":"Statewide hydrography context outside current cutthroat lineage model","geometryStatus":"Named natural stream segment from statewide hydrography","note":"This named natural stream is included for statewide Colorado hydrography completeness and is outside the current cutthroat lineage assignment set.","source_segment_id":"co_named_stream_011019","water_id":"co_sand_creek_10190003_statewideContext_003","occurrence_id":"co_sand_creek_10190003_statewideContext_003","occurrence_number":"003","segment_count":9,"disambiguator":"Middle South Platte-Cherry Creek · Statewide Colorado hydrography context · occurrence 003","basin":"Middle South Platte-Cherry Creek","atlas_layer":"named_water_occurrence","object_role":"named_water_occurrence","historic_label":"Statewide Colorado hydrography context","current_label":"Statewide Colorado hydrography context","recovery_label":"Statewide Colorado hydrography context","tier":"tier4","minZoom":15,"confidence_public":"Statewide hydrography context outside current cutthroat lineage model","geometry_status_public":"Named natural stream occurrence from statewide hydrography","geometry_source_public":"Grouped public hydrography segments","trout_source_public":"Included for Colorado statewide hydrography completeness","public_notes":"Sand Creek is shown as statewide Colorado hydrography context outside the current cutthroat lineage assignment set."}},{"type":"Feature","geometry":{"type":"LineString","coordinates":[[-104.3942,40.0023],[-104.3915,40.0054],[-104.3939,40.0057]]},"properties":{"source_id":"co_named_stream_020353","name":"Sand Creek","display_name":"Sand Creek","mapped_name":"Sand Creek","source_name":"Sand Creek","state":"CO","atlas_class":"named_natural_stream","huc8":"10190003","huc8Name":"Middle South Platte-Cherry Creek","huc8States":"CO","lineageKey":"statewideContext","lineage":"statewideContext","historic":"statewideContext","current":"statewideContext","recovery":"statewideContext","lineageLabel":"Statewide Colorado hydrography context","lineageBasin":"","lineageNote":"","atlas_context":"statewide_hydrography_context","confidence":"Statewide hydrography context outside current cutthroat lineage model","geometryStatus":"Named natural stream segment from statewide hydrography","note":"This named natural stream is included for statewide Colorado hydrography completeness and is outside the current cutthroat lineage assignment set.","source_segment_id":"co_named_stream_020353","water_id":"co_sand_creek_10190003_statewideContext_003","occurrence_id":"co_sand_creek_10190003_statewideContext_003","occurrence_number":"003","segment_count":9,"disambiguator":"Middle South Platte-Cherry Creek · Statewide Colorado hydrography context · occurrence 003","basin":"Middle South Platte-Cherry Creek","atlas_layer":"named_water_occurrence","object_role":"named_water_occurrence","historic_label":"Statewide Colorado hydrography context","current_label":"Statewide Colorado hydrography context","recovery_label":"Statewide Colorado hydrography context","tier":"tier4","minZoom":15,"confidence_public":"Statewide hydrography context outside current cutthroat lineage model","geometry_status_public":"Named natural stream occurrence from statewide hydrography","geometry_source_public":"Grouped public hydrography segments","trout_source_public":"Included for Colorado statewide hydrography completeness","public_notes":"Sand Creek is shown as statewide Colorado hydrography context outside the current cutthroat lineage assignment set."}},{"type":"Feature","geometry":{"type":"LineString","coordinates":[[-104.2693,40.0209],[-104.2633,40.0295]]},"properties":{"source_id":"co_named_stream_004643","name":"Kiowa Creek","display_name":"Kiowa Creek","mapped_name":"Kiowa Creek","source_name":"Kiowa Creek","state":"CO","atlas_class":"named_natural_stream","huc8":"10190010","huc8Name":"Kiowa","huc8States":"CO","lineageKey":"statewideContext","lineage":"statewideContext","historic":"statewideContext","current":"statewideContext","recovery":"statewideContext","lineageLabel":"Statewide Colorado hydrography context","lineageBasin":"","lineageNote":"","atlas_context":"statewide_hydrography_context","confidence":"Statewide hydrography context outside current cutthroat lineage model","geometryStatus":"Named natural stream segment from statewide hydrography","note":"This named natural stream is included for statewide Colorado hydrography completeness and is outside the current cutthroat lineage assignment set.","source_segment_id":"co_named_stream_004643","water_id":"co_kiowa_creek_10190010_statewideContext_005","occurrence_id":"co_kiowa_creek_10190010_statewideContext_005","occurrence_number":"005","segment_count":17,"disambiguator":"Kiowa · Statewide Colorado hydrography context · occurrence 005","basin":"Kiowa","atlas_layer":"named_water_occurrence","object_role":"named_water_occurrence","historic_label":"Statewide Colorado hydrography context","current_label":"Statewide Colorado hydrography context","recovery_label":"Statewide Colorado hydrography context","tier":"tier4","minZoom":15,"confidence_public":"Statewide hydrography context outside current cutthroat lineage model","geometry_status_public":"Named natural stream occurrence from statewide hydrography","geometry_source_public":"Grouped public hydrography segments","trout_source_public":"Included for Colorado statewide hydrography completeness","public_notes":"Kiowa Creek is shown as statewide Colorado hydrography context outside the current cutthroat lineage assignment set."}},{"type":"Feature","geometry":{"type":"LineString","coordinates":[[-104.2633,40.0295],[-104.2654,40.0326]]},"properties":{"source_id":"co_named_stream_008842","name":"Kiowa Creek","display_name":"Kiowa Creek","mapped_name":"Kiowa Creek","source_name":"Kiowa Creek","state":"CO","atlas_class":"named_natural_stream","huc8":"10190010","huc8Name":"Kiowa","huc8States":"CO","lineageKey":"statewideContext","lineage":"statewideContext","historic":"statewideContext","current":"statewideContext","recovery":"statewideContext","lineageLabel":"Statewide Colorado hydrography context","lineageBasin":"","lineageNote":"","atlas_context":"statewide_hydrography_context","confidence":"Statewide hydrography context outside current cutthroat lineage model","geometryStatus":"Named natural stream segment from statewide hydrography","note":"This named natural stream is included for statewide Colorado hydrography completeness and is outside the current cutthroat lineage assignment set.","source_segment_id":"co_named_stream_008842","water_id":"co_kiowa_creek_10190010_statewideContext_005","occurrence_id":"co_kiowa_creek_10190010_statewideContext_005","occurrence_number":"005","segment_count":17,"disambiguator":"Kiowa · Statewide Colorado hydrography context · occurrence 005","basin":"Kiowa","atlas_layer":"named_water_occurrence","object_role":"named_water_occurrence","historic_label":"Statewide Colorado hydrography context","current_label":"Statewide Colorado hydrography context","recovery_label":"Statewide Colorado hydrography context","tier":"tier4","minZoom":15,"confidence_public":"Statewide hydrography context outside current cutthroat lineage model","geometry_status_public":"Named natural stream occurrence from statewide hydrography","geometry_source_public":"Grouped public hydrography segments","trout_source_public":"Included for Colorado statewide hydrography completeness","public_notes":"Kiowa Creek is shown as statewide Colorado hydrography context outside the current cutthroat lineage assignment set."}},{"type":"Feature","geometry":{"type":"LineString","coordinates":[[-104.2954,39.9987],[-104.289,40.0041],[-104.2827,40.0049],[-104.2788,40.0083],[-104.2764,40.0083],[-104.2747,40.0099]]},"properties":{"source_id":"co_named_stream_017192","name":"Kiowa Creek","display_name":"Kiowa Creek","mapped_name":"Kiowa Creek","source_name":"Kiowa Creek","state":"CO","atlas_class":"named_natural_stream","huc8":"10190010","huc8Name":"Kiowa","huc8States":"CO","lineageKey":"statewideContext","lineage":"statewideContext","historic":"statewideContext","current":"statewideContext","recovery":"statewideContext","lineageLabel":"Statewide Colorado hydrography context","lineageBasin":"","lineageNote":"","atlas_context":"statewide_hydrography_context","confidence":"Statewide hydrography context outside current cutthroat lineage model","geometryStatus":"Named natural stream segment from statewide hydrography","note":"This named natural stream is included for statewide Colorado hydrography completeness and is outside the current cutthroat lineage assignment set.","source_segment_id":"co_named_stream_017192","water_id":"co_kiowa_creek_10190010_statewideContext_005","occurrence_id":"co_kiowa_creek_10190010_statewideContext_005","occurrence_number":"005","segment_count":17,"disambiguator":"Kiowa · Statewide Colorado hydrography context · occurrence 005","basin":"Kiowa","atlas_layer":"named_water_occurrence","object_role":"named_water_occurrence","historic_label":"Statewide Colorado hydrography context","current_label":"Statewide Colorado hydrography context","recovery_label":"Statewide Colorado hydrography context","tier":"tier4","minZoom":15,"confidence_public":"Statewide hydrography context outside current cutthroat lineage model","geometry_status_public":"Named natural stream occurrence from statewide hydrography","geometry_source_public":"Grouped public hydrography segments","trout_source_public":"Included for Colorado statewide hydrography completeness","public_notes":"Kiowa Creek is shown as statewide Colorado hydrography context outside the current cutthroat lineage assignment set."}},{"type":"Feature","geometry":{"type":"LineString","coordinates":[[-104.2527,40.0549],[-104.2508,40.0556]]},"properties":{"source_id":"co_named_stream_017235","name":"Kiowa Creek","display_name":"Kiowa Creek","mapped_name":"Kiowa Creek","source_name":"Kiowa Creek","state":"CO","atlas_class":"named_natural_stream","huc8":"10190010","huc8Name":"Kiowa","huc8States":"CO","lineageKey":"statewideContext","lineage":"statewideContext","historic":"statewideContext","current":"statewideContext","recovery":"statewideContext","lineageLabel":"Statewide Colorado hydrography context","lineageBasin":"","lineageNote":"","atlas_context":"statewide_hydrography_context","confidence":"Statewide hydrography context outside current cutthroat lineage model","geometryStatus":"Named natural stream segment from statewide hydrography","note":"This named natural stream is included for statewide Colorado hydrography completeness and is outside the current cutthroat lineage assignment set.","source_segment_id":"co_named_stream_017235","water_id":"co_kiowa_creek_10190010_statewideContext_005","occurrence_id":"co_kiowa_creek_10190010_statewideContext_005","occurrence_number":"005","segment_count":17,"disambiguator":"Kiowa · Statewide Colorado hydrography context · occurrence 005","basin":"Kiowa","atlas_layer":"named_water_occurrence","object_role":"named_water_occurrence","historic_label":"Statewide Colorado hydrography context","current_label":"Statewide Colorado hydrography context","recovery_label":"Statewide Colorado hydrography context","tier":"tier4","minZoom":15,"confidence_public":"Statewide hydrography context outside current cutthroat lineage model","geometry_status_public":"Named natural stream occurrence from statewide hydrography","geometry_source_public":"Grouped public hydrography segments","trout_source_public":"Included for Colorado statewide hydrography completeness","public_notes":"Kiowa Creek is shown as statewide Colorado hydrography context outside the current cutthroat lineage assignment set."}},{"type":"Feature","geometry":{"type":"LineString","coordinates":[[-104.2747,40.0099],[-104.2756,40.0115]]},"properties":{"source_id":"co_named_stream_017469","name":"Kiowa Creek","display_name":"Kiowa Creek","mapped_name":"Kiowa Creek","source_name":"Kiowa Creek","state":"CO","atlas_class":"named_natural_stream","huc8":"10190010","huc8Name":"Kiowa","huc8States":"CO","lineageKey":"statewideContext","lineage":"statewideContext","historic":"statewideContext","current":"statewideContext","recovery":"statewideContext","lineageLabel":"Statewide Colorado hydrography context","lineageBasin":"","lineageNote":"","atlas_context":"statewide_hydrography_context","confidence":"Statewide hydrography context outside current cutthroat lineage model","geometryStatus":"Named natural stream segment from statewide hydrography","note":"This named natural stream is included for statewide Colorado hydrography completeness and is outside the current cutthroat lineage assignment set.","source_segment_id":"co_named_stream_017469","water_id":"co_kiowa_creek_10190010_statewideContext_005","occurrence_id":"co_kiowa_creek_10190010_statewideContext_005","occurrence_number":"005","segment_count":17,"disambiguator":"Kiowa · Statewide Colorado hydrography context · occurrence 005","basin":"Kiowa","atlas_layer":"named_water_occurrence","object_role":"named_water_occurrence","historic_label":"Statewide Colorado hydrography context","current_label":"Statewide Colorado hydrography context","recovery_label":"Statewide Colorado hydrography context","tier":"tier4","minZoom":15,"confidence_public":"Statewide hydrography context outside current cutthroat lineage model","geometry_status_public":"Named natural stream occurrence from statewide hydrography","geometry_source_public":"Grouped public hydrography segments","trout_source_public":"Included for Colorado statewide hydrography completeness","public_notes":"Kiowa Creek is shown as statewide Colorado hydrography context outside the current cutthroat lineage assignment set."}},{"type":"Feature","geometry":{"type":"LineString","coordinates":[[-104.26,40.0415],[-104.2574,40.047],[-104.258,40.0505],[-104.2574,40.0532],[-104.2527,40.0549]]},"properties":{"source_id":"co_named_stream_017865","name":"Kiowa Creek","display_name":"Kiowa Creek","mapped_name":"Kiowa Creek","source_name":"Kiowa Creek","state":"CO","atlas_class":"named_natural_stream","huc8":"10190010","huc8Name":"Kiowa","huc8States":"CO","lineageKey":"statewideContext","lineage":"statewideContext","historic":"statewideContext","current":"statewideContext","recovery":"statewideContext","lineageLabel":"Statewide Colorado hydrography context","lineageBasin":"","lineageNote":"","atlas_context":"statewide_hydrography_context","confidence":"Statewide hydrography context outside current cutthroat lineage model","geometryStatus":"Named natural stream segment from statewide hydrography","note":"This named natural stream is included for statewide Colorado hydrography completeness and is outside the current cutthroat lineage assignment set.","source_segment_id":"co_named_stream_017865","water_id":"co_kiowa_creek_10190010_statewideContext_005","occurrence_id":"co_kiowa_creek_10190010_statewideContext_005","occurrence_number":"005","segment_count":17,"disambiguator":"Kiowa · Statewide Colorado hydrography context · occurrence 005","basin":"Kiowa","atlas_layer":"named_water_occurrence","object_role":"named_water_occurrence","historic_label":"Statewide Colorado hydrography context","current_label":"Statewide Colorado hydrography context","recovery_label":"Statewide Colorado hydrography context","tier":"tier4","minZoom":15,"confidence_public":"Statewide hydrography context outside current cutthroat lineage model","geometry_status_public":"Named natural stream occurrence from statewide hydrography","geometry_source_public":"Grouped public hydrography segments","trout_source_public":"Included for Colorado statewide hydrography completeness","public_notes":"Kiowa Creek is shown as statewide Colorado hydrography context outside the current cutthroat lineage assignment set."}},{"type":"Feature","geometry":{"type":"LineString","coordinates":[[-104.2756,40.0115],[-104.2695,40.0126],[-104.2672,40.015],[-104.2675,40.0164],[-104.2699,40.0167],[-104.2721,40.0182],[-104.2693,40.0209]]},"properties":{"source_id":"co_named_stream_020639","name":"Kiowa Creek","display_name":"Kiowa Creek","mapped_name":"Kiowa Creek","source_name":"Kiowa Creek","state":"CO","atlas_class":"named_natural_stream","huc8":"10190010","huc8Name":"Kiowa","huc8States":"CO","lineageKey":"statewideContext","lineage":"statewideContext","historic":"statewideContext","current":"statewideContext","recovery":"statewideContext","lineageLabel":"Statewide Colorado hydrography context","lineageBasin":"","lineageNote":"","atlas_context":"statewide_hydrography_context","confidence":"Statewide hydrography context outside current cutthroat lineage model","geometryStatus":"Named natural stream segment from statewide hydrography","note":"This named natural stream is included for statewide Colorado hydrography completeness and is outside the current cutthroat lineage assignment set.","source_segment_id":"co_named_stream_020639","water_id":"co_kiowa_creek_10190010_statewideContext_005","occurrence_id":"co_kiowa_creek_10190010_statewideContext_005","occurrence_number":"005","segment_count":17,"disambiguator":"Kiowa · Statewide Colorado hydrography context · occurrence 005","basin":"Kiowa","atlas_layer":"named_water_occurrence","object_role":"named_water_occurrence","historic_label":"Statewide Colorado hydrography context","current_label":"Statewide Colorado hydrography context","recovery_label":"Statewide Colorado hydrography context","tier":"tier4","minZoom":15,"confidence_public":"Statewide hydrography context outside current cutthroat lineage model","geometry_status_public":"Named natural stream occurrence from statewide hydrography","geometry_source_public":"Grouped public hydrography segments","trout_source_public":"Included for Colorado statewide hydrography completeness","public_notes":"Kiowa Creek is shown as statewide Colorado hydrography context outside the current cutthroat lineage assignment set."}},{"type":"Feature","geometry":{"type":"LineString","coordinates":[[-104.2508,40.0556],[-104.2467,40.0611],[-104.2478,40.0641],[-104.2465,40.0646],[-104.2446,40.0675],[-104.2434,40.0678],[-104.2401,40.0653],[-104.2388,40.0656],[-104.2375,40.0676]]},"properties":{"source_id":"co_named_stream_021234","name":"Kiowa Creek","display_name":"Kiowa Creek","mapped_name":"Kiowa Creek","source_name":"Kiowa Creek","state":"CO","atlas_class":"named_natural_stream","huc8":"10190010","huc8Name":"Kiowa","huc8States":"CO","lineageKey":"statewideContext","lineage":"statewideContext","historic":"statewideContext","current":"statewideContext","recovery":"statewideContext","lineageLabel":"Statewide Colorado hydrography context","lineageBasin":"","lineageNote":"","atlas_context":"statewide_hydrography_context","confidence":"Statewide hydrography context outside current cutthroat lineage model","geometryStatus":"Named natural stream segment from statewide hydrography","note":"This named natural stream is included for statewide Colorado hydrography completeness and is outside the current cutthroat lineage assignment set.","source_segment_id":"co_named_stream_021234","water_id":"co_kiowa_creek_10190010_statewideContext_005","occurrence_id":"co_kiowa_creek_10190010_statewideContext_005","occurrence_number":"005","segment_count":17,"disambiguator":"Kiowa · Statewide Colorado hydrography context · occurrence 005","basin":"Kiowa","atlas_layer":"named_water_occurrence","object_role":"named_water_occurrence","historic_label":"Statewide Colorado hydrography context","current_label":"Statewide Colorado hydrography context","recovery_label":"Statewide Colorado hydrography context","tier":"tier4","minZoom":15,"confidence_public":"Statewide hydrography context outside current cutthroat lineage model","geometry_status_public":"Named natural stream occurrence from statewide hydrography","geometry_source_public":"Grouped public hydrography segments","trout_source_public":"Included for Colorado statewide hydrography completeness","public_notes":"Kiowa Creek is shown as statewide Colorado hydrography context outside the current cutthroat lineage assignment set."}},{"type":"Feature","geometry":{"type":"LineString","coordinates":[[-104.2654,40.0326],[-104.2651,40.0347],[-104.26,40.0415]]},"properties":{"source_id":"co_named_stream_024126","name":"Kiowa Creek","display_name":"Kiowa Creek","mapped_name":"Kiowa Creek","source_name":"Kiowa Creek","state":"CO","atlas_class":"named_natural_stream","huc8":"10190010","huc8Name":"Kiowa","huc8States":"CO","lineageKey":"statewideContext","lineage":"statewideContext","historic":"statewideContext","current":"statewideContext","recovery":"statewideContext","lineageLabel":"Statewide Colorado hydrography context","lineageBasin":"","lineageNote":"","atlas_context":"statewide_hydrography_context","confidence":"Statewide hydrography context outside current cutthroat lineage model","geometryStatus":"Named natural stream segment from statewide hydrography","note":"This named natural stream is included for statewide Colorado hydrography completeness and is outside the current cutthroat lineage assignment set.","source_segment_id":"co_named_stream_024126","water_id":"co_kiowa_creek_10190010_statewideContext_005","occurrence_id":"co_kiowa_creek_10190010_statewideContext_005","occurrence_number":"005","segment_count":17,"disambiguator":"Kiowa · Statewide Colorado hydrography context · occurrence 005","basin":"Kiowa","atlas_layer":"named_water_occurrence","object_role":"named_water_occurrence","historic_label":"Statewide Colorado hydrography context","current_label":"Statewide Colorado hydrography context","recovery_label":"Statewide Colorado hydrography context","tier":"tier4","minZoom":15,"confidence_public":"Statewide hydrography context outside current cutthroat lineage model","geometry_status_public":"Named natural stream occurrence from statewide hydrography","geometry_source_public":"Grouped public hydrography segments","trout_source_public":"Included for Colorado statewide hydrography completeness","public_notes":"Kiowa Creek is shown as statewide Colorado hydrography context outside the current cutthroat lineage assignment set."}},{"type":"Feature","geometry":{"type":"LineString","coordinates":[[-104.4248,39.9969],[-104.4208,39.9993],[-104.4228,40.0014],[-104.4226,40.0043],[-104.4203,40.0056],[-104.4189,40.0087],[-104.4168,40.0089],[-104.4153,40.0106],[-104.415,40.0174],[-104.4088,40.0189],[-104.4083,40.0204],[-104.4021,40.0221],[-104.4023,40.0237],[-104.4009,40.0258]]},"properties":{"source_id":"co_named_stream_010407","name":"West Sand Creek","display_name":"West Sand Creek","mapped_name":"West Sand Creek","source_name":"West Sand Creek","state":"CO","atlas_class":"named_natural_stream","huc8":"10190003","huc8Name":"Middle South Platte-Cherry Creek","huc8States":"CO","lineageKey":"statewideContext","lineage":"statewideContext","historic":"statewideContext","current":"statewideContext","recovery":"statewideContext","lineageLabel":"Statewide Colorado hydrography context","lineageBasin":"","lineageNote":"","atlas_context":"statewide_hydrography_context","confidence":"Statewide hydrography context outside current cutthroat lineage model","geometryStatus":"Named natural stream segment from statewide hydrography","note":"This named natural stream is included for statewide Colorado hydrography completeness and is outside the current cutthroat lineage assignment set.","source_segment_id":"co_named_stream_010407","water_id":"co_west_sand_creek_10190003_statewideContext_004","occurrence_id":"co_west_sand_creek_10190003_statewideContext_004","occurrence_number":"004","segment_count":2,"disambiguator":"Middle South Platte-Cherry Creek · Statewide Colorado hydrography context · occurrence 004","basin":"Middle South Platte-Cherry Creek","atlas_layer":"named_water_occurrence","object_role":"named_water_occurrence","historic_label":"Statewide Colorado hydrography context","current_label":"Statewide Colorado hydrography context","recovery_label":"Statewide Colorado hydrography context","tier":"tier4","minZoom":15,"confidence_public":"Statewide hydrography context outside current cutthroat lineage model","geometry_status_public":"Named natural stream occurrence from statewide hydrography","geometry_source_public":"Grouped public hydrography segments","trout_source_public":"Included for Colorado statewide hydrography completeness","public_notes":"West Sand Creek is shown as statewide Colorado hydrography context outside the current cutthroat lineage assignment set."}},{"type":"Feature","geometry":{"type":"LineString","coordinates":[[-104.2687,40.0384],[-104.2643,40.0412],[-104.261,40.0462],[-104.2611,40.0522]]},"properties":{"source_id":"co_named_stream_008843","name":"Jack Rabbit Creek","display_name":"Jack Rabbit Creek","mapped_name":"Jack Rabbit Creek","source_name":"Jack Rabbit Creek","state":"CO","atlas_class":"named_natural_stream","huc8":"10190010","huc8Name":"Kiowa","huc8States":"CO","lineageKey":"statewideContext","lineage":"statewideContext","historic":"statewideContext","current":"statewideContext","recovery":"statewideContext","lineageLabel":"Statewide Colorado hydrography context","lineageBasin":"","lineageNote":"","atlas_context":"statewide_hydrography_context","confidence":"Statewide hydrography context outside current cutthroat lineage model","geometryStatus":"Named natural stream segment from statewide hydrography","note":"This named natural stream is included for statewide Colorado hydrography completeness and is outside the current cutthroat lineage assignment set.","source_segment_id":"co_named_stream_008843","water_id":"co_jack_rabbit_creek_10190010_statewideContext_001","occurrence_id":"co_jack_rabbit_creek_10190010_statewideContext_001","occurrence_number":"001","segment_count":9,"disambiguator":"Kiowa · Statewide Colorado hydrography context · occurrence 001","basin":"Kiowa","atlas_layer":"named_water_occurrence","object_role":"named_water_occurrence","historic_label":"Statewide Colorado hydrography context","current_label":"Statewide Colorado hydrography context","recovery_label":"Statewide Colorado hydrography context","tier":"tier4","minZoom":15,"confidence_public":"Statewide hydrography context outside current cutthroat lineage model","geometry_status_public":"Named natural stream occurrence from statewide hydrography","geometry_source_public":"Grouped public hydrography segments","trout_source_public":"Included for Colorado statewide hydrography completeness","public_notes":"Jack Rabbit Creek is shown as statewide Colorado hydrography context outside the current cutthroat lineage assignment set."}},{"type":"Feature","geometry":{"type":"LineString","coordinates":[[-104.2556,40.0621],[-104.2548,40.0632],[-104.2562,40.0641],[-104.2554,40.0657],[-104.2534,40.0655],[-104.2537,40.0676],[-104.2525,40.0686],[-104.2535,40.0691],[-104.2519,40.0712],[-104.2536,40.0726],[-104.2504,40.0748],[-104.2505,40.0765],[-104.249,40.0763],[-104.2505,40.0789],[-104.2488,40.0807],[-104.2499,40.0821],[-104.2492,40.0842],[-104.2461,40.0842],[-104.247,40.087],[-104.2447,40.0887],[-104.2449,40.0917],[-104.2439,40.0925],[-104.2447,40.0933],[-104.2434,40.0956],[-104.2448,40.1025],[-104.2401,40.104]]},"properties":{"source_id":"co_named_stream_012962","name":"Jack Rabbit Creek","display_name":"Jack Rabbit Creek","mapped_name":"Jack Rabbit Creek","source_name":"Jack Rabbit Creek","state":"CO","atlas_class":"named_natural_stream","huc8":"10190010","huc8Name":"Kiowa","huc8States":"CO","lineageKey":"statewideContext","lineage":"statewideContext","historic":"statewideContext","current":"statewideContext","recovery":"statewideContext","lineageLabel":"Statewide Colorado hydrography context","lineageBasin":"","lineageNote":"","atlas_context":"statewide_hydrography_context","confidence":"Statewide hydrography context outside current cutthroat lineage model","geometryStatus":"Named natural stream segment from statewide hydrography","note":"This named natural stream is included for statewide Colorado hydrography completeness and is outside the current cutthroat lineage assignment set.","source_segment_id":"co_named_stream_012962","water_id":"co_jack_rabbit_creek_10190010_statewideContext_001","occurrence_id":"co_jack_rabbit_creek_10190010_statewideContext_001","occurrence_number":"001","segment_count":9,"disambiguator":"Kiowa · Statewide Colorado hydrography context · occurrence 001","basin":"Kiowa","atlas_layer":"named_water_occurrence","object_role":"named_water_occurrence","historic_label":"Statewide Colorado hydrography context","current_label":"Statewide Colorado hydrography context","recovery_label":"Statewide Colorado hydrography context","tier":"tier4","minZoom":15,"confidence_public":"Statewide hydrography context outside current cutthroat lineage model","geometry_status_public":"Named natural stream occurrence from statewide hydrography","geometry_source_public":"Grouped public hydrography segments","trout_source_public":"Included for Colorado statewide hydrography completeness","public_notes":"Jack Rabbit Creek is shown as statewide Colorado hydrography context outside the current cutthroat lineage assignment set."}},{"type":"Feature","geometry":{"type":"LineString","coordinates":[[-104.2611,40.0522],[-104.262,40.0568],[-104.2579,40.0581],[-104.2556,40.0621]]},"properties":{"source_id":"co_named_stream_020667","name":"Jack Rabbit Creek","display_name":"Jack Rabbit Creek","mapped_name":"Jack Rabbit Creek","source_name":"Jack Rabbit Creek","state":"CO","atlas_class":"named_natural_stream","huc8":"10190010","huc8Name":"Kiowa","huc8States":"CO","lineageKey":"statewideContext","lineage":"statewideContext","historic":"statewideContext","current":"statewideContext","recovery":"statewideContext","lineageLabel":"Statewide Colorado hydrography context","lineageBasin":"","lineageNote":"","atlas_context":"statewide_hydrography_context","confidence":"Statewide hydrography context outside current cutthroat lineage model","geometryStatus":"Named natural stream segment from statewide hydrography","note":"This named natural stream is included for statewide Colorado hydrography completeness and is outside the current cutthroat lineage assignment set.","source_segment_id":"co_named_stream_020667","water_id":"co_jack_rabbit_creek_10190010_statewideContext_001","occurrence_id":"co_jack_rabbit_creek_10190010_statewideContext_001","occurrence_number":"001","segment_count":9,"disambiguator":"Kiowa · Statewide Colorado hydrography context · occurrence 001","basin":"Kiowa","atlas_layer":"named_water_occurrence","object_role":"named_water_occurrence","historic_label":"Statewide Colorado hydrography context","current_label":"Statewide Colorado hydrography context","recovery_label":"Statewide Colorado hydrography context","tier":"tier4","minZoom":15,"confidence_public":"Statewide hydrography context outside current cutthroat lineage model","geometry_status_public":"Named natural stream occurrence from statewide hydrography","geometry_source_public":"Grouped public hydrography segments","trout_source_public":"Included for Colorado statewide hydrography completeness","public_notes":"Jack Rabbit Creek is shown as statewide Colorado hydrography context outside the current cutthroat lineage assignment set."}},{"type":"Feature","geometry":{"type":"LineString","coordinates":[[-104.3338,40.1978],[-104.3341,40.1996]]},"properties":{"source_id":"co_named_stream_010416","name":"East Lost Creek","display_name":"East Lost Creek","mapped_name":"East Lost Creek","source_name":"East Lost Creek","state":"CO","atlas_class":"named_natural_stream","huc8":"10190003","huc8Name":"Middle South Platte-Cherry Creek","huc8States":"CO","lineageKey":"statewideContext","lineage":"statewideContext","historic":"statewideContext","current":"statewideContext","recovery":"statewideContext","lineageLabel":"Statewide Colorado hydrography context","lineageBasin":"","lineageNote":"","atlas_context":"statewide_hydrography_context","confidence":"Statewide hydrography context outside current cutthroat lineage model","geometryStatus":"Named natural stream segment from statewide hydrography","note":"This named natural stream is included for statewide Colorado hydrography completeness and is outside the current cutthroat lineage assignment set.","source_segment_id":"co_named_stream_010416","water_id":"co_east_lost_creek_10190003_statewideContext_001","occurrence_id":"co_east_lost_creek_10190003_statewideContext_001","occurrence_number":"001","segment_count":4,"disambiguator":"Middle South Platte-Cherry Creek · Statewide Colorado hydrography context · occurrence 001","basin":"Middle South Platte-Cherry Creek","atlas_layer":"named_water_occurrence","object_role":"named_water_occurrence","historic_label":"Statewide Colorado hydrography context","current_label":"Statewide Colorado hydrography context","recovery_label":"Statewide Colorado hydrography context","tier":"tier4","minZoom":15,"confidence_public":"Statewide hydrography context outside current cutthroat lineage model","geometry_status_public":"Named natural stream occurrence from statewide hydrography","geometry_source_public":"Grouped public hydrography segments","trout_source_public":"Included for Colorado statewide hydrography completeness","public_notes":"East Lost Creek is shown as statewide Colorado hydrography context outside the current cutthroat lineage assignment set."}},{"type":"Feature","geometry":{"type":"LineString","coordinates":[[-104.3356,40.1946],[-104.3356,40.1949]]},"properties":{"source_id":"co_named_stream_013017","name":"East Lost Creek","display_name":"East Lost Creek","mapped_name":"East Lost Creek","source_name":"East Lost Creek","state":"CO","atlas_class":"named_natural_stream","huc8":"10190003","huc8Name":"Middle South Platte-Cherry Creek","huc8States":"CO","lineageKey":"statewideContext","lineage":"statewideContext","historic":"statewideContext","current":"statewideContext","recovery":"statewideContext","lineageLabel":"Statewide Colorado hydrography context","lineageBasin":"","lineageNote":"","atlas_context":"statewide_hydrography_context","confidence":"Statewide hydrography context outside current cutthroat lineage model","geometryStatus":"Named natural stream segment from statewide hydrography","note":"This named natural stream is included for statewide Colorado hydrography completeness and is outside the current cutthroat lineage assignment set.","source_segment_id":"co_named_stream_013017","water_id":"co_east_lost_creek_10190003_statewideContext_001","occurrence_id":"co_east_lost_creek_10190003_statewideContext_001","occurrence_number":"001","segment_count":4,"disambiguator":"Middle South Platte-Cherry Creek · Statewide Colorado hydrography context · occurrence 001","basin":"Middle South Platte-Cherry Creek","atlas_layer":"named_water_occurrence","object_role":"named_water_occurrence","historic_label":"Statewide Colorado hydrography context","current_label":"Statewide Colorado hydrography context","recovery_label":"Statewide Colorado hydrography context","tier":"tier4","minZoom":15,"confidence_public":"Statewide hydrography context outside current cutthroat lineage model","geometry_status_public":"Named natural stream occurrence from statewide hydrography","geometry_source_public":"Grouped public hydrography segments","trout_source_public":"Included for Colorado statewide hydrography completeness","public_notes":"East Lost Creek is shown as statewide Colorado hydrography context outside the current cutthroat lineage assignment set."}},{"type":"Feature","geometry":{"type":"LineString","coordinates":[[-104.3342,40.1696],[-104.3373,40.1786],[-104.3354,40.1863],[-104.3355,40.1916]]},"properties":{"source_id":"co_named_stream_020936","name":"East Lost Creek","display_name":"East Lost Creek","mapped_name":"East Lost Creek","source_name":"East Lost Creek","state":"CO","atlas_class":"named_natural_stream","huc8":"10190003","huc8Name":"Middle South Platte-Cherry Creek","huc8States":"CO","lineageKey":"statewideContext","lineage":"statewideContext","historic":"statewideContext","current":"statewideContext","recovery":"statewideContext","lineageLabel":"Statewide Colorado hydrography context","lineageBasin":"","lineageNote":"","atlas_context":"statewide_hydrography_context","confidence":"Statewide hydrography context outside current cutthroat lineage model","geometryStatus":"Named natural stream segment from statewide hydrography","note":"This named natural stream is included for statewide Colorado hydrography completeness and is outside the current cutthroat lineage assignment set.","source_segment_id":"co_named_stream_020936","water_id":"co_east_lost_creek_10190003_statewideContext_001","occurrence_id":"co_east_lost_creek_10190003_statewideContext_001","occurrence_number":"001","segment_count":4,"disambiguator":"Middle South Platte-Cherry Creek · Statewide Colorado hydrography context · occurrence 001","basin":"Middle South Platte-Cherry Creek","atlas_layer":"named_water_occurrence","object_role":"named_water_occurrence","historic_label":"Statewide Colorado hydrography context","current_label":"Statewide Colorado hydrography context","recovery_label":"Statewide Colorado hydrography context","tier":"tier4","minZoom":15,"confidence_public":"Statewide hydrography context outside current cutthroat lineage model","geometry_status_public":"Named natural stream occurrence from statewide hydrography","geometry_source_public":"Grouped public hydrography segments","trout_source_public":"Included for Colorado statewide hydrography completeness","public_notes":"East Lost Creek is shown as statewide Colorado hydrography context outside the current cutthroat lineage assignment set."}},{"type":"Feature","geometry":{"type":"LineString","coordinates":[[-104.3355,40.1916],[-104.3357,40.193]]},"properties":{"source_id":"co_named_stream_021612","name":"East Lost Creek","display_name":"East Lost Creek","mapped_name":"East Lost Creek","source_name":"East Lost Creek","state":"CO","atlas_class":"named_natural_stream","huc8":"10190003","huc8Name":"Middle South Platte-Cherry Creek","huc8States":"CO","lineageKey":"statewideContext","lineage":"statewideContext","historic":"statewideContext","current":"statewideContext","recovery":"statewideContext","lineageLabel":"Statewide Colorado hydrography context","lineageBasin":"","lineageNote":"","atlas_context":"statewide_hydrography_context","confidence":"Statewide hydrography context outside current cutthroat lineage model","geometryStatus":"Named natural stream segment from statewide hydrography","note":"This named natural stream is included for statewide Colorado hydrography completeness and is outside the current cutthroat lineage assignment set.","source_segment_id":"co_named_stream_021612","water_id":"co_east_lost_creek_10190003_statewideContext_001","occurrence_id":"co_east_lost_creek_10190003_statewideContext_001","occurrence_number":"001","segment_count":4,"disambiguator":"Middle South Platte-Cherry Creek · Statewide Colorado hydrography context · occurrence 001","basin":"Middle South Platte-Cherry Creek","atlas_layer":"named_water_occurrence","object_role":"named_water_occurrence","historic_label":"Statewide Colorado hydrography context","current_label":"Statewide Colorado hydrography context","recovery_label":"Statewide Colorado hydrography context","tier":"tier4","minZoom":15,"confidence_public":"Statewide hydrography context outside current cutthroat lineage model","geometry_status_public":"Named natural stream occurrence from statewide hydrography","geometry_source_public":"Grouped public hydrography segments","trout_source_public":"Included for Colorado statewide hydrography completeness","public_notes":"East Lost Creek is shown as statewide Colorado hydrography context outside the current cutthroat lineage assignment set."}}]}