{"type":"FeatureCollection","metadata":{"source":"C:\\ct-atlas-data\\processed\\geojson\\interpreted\\colorado_named_natural_streams_complete_v1.geojson","tier":"tier4","tile_size_degrees":0.25,"x":-410,"y":153,"bounds":{"west":-102.5,"south":38.25,"east":-102.25,"north":38.5}},"features":[{"type":"Feature","geometry":{"type":"LineString","coordinates":[[-102.4906,38.4882],[-102.4885,38.4855]]},"properties":{"source_id":"co_named_stream_031040","name":"Big Sandy Creek","display_name":"Big Sandy Creek","mapped_name":"Big Sandy Creek","source_name":"Big Sandy Creek","state":"CO","atlas_class":"named_natural_stream","huc8":"11020011","huc8Name":"Big Sandy","huc8States":"CO","lineageKey":"statewideContext","lineage":"statewideContext","historic":"statewideContext","current":"statewideContext","recovery":"statewideContext","lineageLabel":"Statewide Colorado hydrography context","lineageBasin":"","lineageNote":"","atlas_context":"statewide_hydrography_context","confidence":"Statewide hydrography context outside current cutthroat lineage model","geometryStatus":"Named natural stream segment from statewide hydrography","note":"This named natural stream is included for statewide Colorado hydrography completeness and is outside the current cutthroat lineage assignment set.","source_segment_id":"co_named_stream_031040","water_id":"co_big_sandy_creek_11020011_statewideContext_015","occurrence_id":"co_big_sandy_creek_11020011_statewideContext_015","occurrence_number":"015","segment_count":10,"disambiguator":"Big Sandy · Statewide Colorado hydrography context · occurrence 015","basin":"Big Sandy","atlas_layer":"named_water_occurrence","object_role":"named_water_occurrence","historic_label":"Statewide Colorado hydrography context","current_label":"Statewide Colorado hydrography context","recovery_label":"Statewide Colorado hydrography context","tier":"tier4","minZoom":15,"confidence_public":"Statewide hydrography context outside current cutthroat lineage model","geometry_status_public":"Named natural stream occurrence from statewide hydrography","geometry_source_public":"Grouped public hydrography segments","trout_source_public":"Included for Colorado statewide hydrography completeness","public_notes":"Big Sandy Creek is shown as statewide Colorado hydrography context outside the current cutthroat lineage assignment set."}},{"type":"Feature","geometry":{"type":"LineString","coordinates":[[-102.4924,38.4889],[-102.4922,38.4888]]},"properties":{"source_id":"co_named_stream_031893","name":"Big Sandy Creek","display_name":"Big Sandy Creek","mapped_name":"Big Sandy Creek","source_name":"Big Sandy Creek","state":"CO","atlas_class":"named_natural_stream","huc8":"11020011","huc8Name":"Big Sandy","huc8States":"CO","lineageKey":"statewideContext","lineage":"statewideContext","historic":"statewideContext","current":"statewideContext","recovery":"statewideContext","lineageLabel":"Statewide Colorado hydrography context","lineageBasin":"","lineageNote":"","atlas_context":"statewide_hydrography_context","confidence":"Statewide hydrography context outside current cutthroat lineage model","geometryStatus":"Named natural stream segment from statewide hydrography","note":"This named natural stream is included for statewide Colorado hydrography completeness and is outside the current cutthroat lineage assignment set.","source_segment_id":"co_named_stream_031893","water_id":"co_big_sandy_creek_11020011_statewideContext_015","occurrence_id":"co_big_sandy_creek_11020011_statewideContext_015","occurrence_number":"015","segment_count":10,"disambiguator":"Big Sandy · Statewide Colorado hydrography context · occurrence 015","basin":"Big Sandy","atlas_layer":"named_water_occurrence","object_role":"named_water_occurrence","historic_label":"Statewide Colorado hydrography context","current_label":"Statewide Colorado hydrography context","recovery_label":"Statewide Colorado hydrography context","tier":"tier4","minZoom":15,"confidence_public":"Statewide hydrography context outside current cutthroat lineage model","geometry_status_public":"Named natural stream occurrence from statewide hydrography","geometry_source_public":"Grouped public hydrography segments","trout_source_public":"Included for Colorado statewide hydrography completeness","public_notes":"Big Sandy Creek is shown as statewide Colorado hydrography context outside the current cutthroat lineage assignment set."}},{"type":"Feature","geometry":{"type":"LineString","coordinates":[[-102.488,38.4849],[-102.4896,38.4821]]},"properties":{"source_id":"co_named_stream_031894","name":"Big Sandy Creek","display_name":"Big Sandy Creek","mapped_name":"Big Sandy Creek","source_name":"Big Sandy Creek","state":"CO","atlas_class":"named_natural_stream","huc8":"11020011","huc8Name":"Big Sandy","huc8States":"CO","lineageKey":"statewideContext","lineage":"statewideContext","historic":"statewideContext","current":"statewideContext","recovery":"statewideContext","lineageLabel":"Statewide Colorado hydrography context","lineageBasin":"","lineageNote":"","atlas_context":"statewide_hydrography_context","confidence":"Statewide hydrography context outside current cutthroat lineage model","geometryStatus":"Named natural stream segment from statewide hydrography","note":"This named natural stream is included for statewide Colorado hydrography completeness and is outside the current cutthroat lineage assignment set.","source_segment_id":"co_named_stream_031894","water_id":"co_big_sandy_creek_11020011_statewideContext_015","occurrence_id":"co_big_sandy_creek_11020011_statewideContext_015","occurrence_number":"015","segment_count":10,"disambiguator":"Big Sandy · Statewide Colorado hydrography context · occurrence 015","basin":"Big Sandy","atlas_layer":"named_water_occurrence","object_role":"named_water_occurrence","historic_label":"Statewide Colorado hydrography context","current_label":"Statewide Colorado hydrography context","recovery_label":"Statewide Colorado hydrography context","tier":"tier4","minZoom":15,"confidence_public":"Statewide hydrography context outside current cutthroat lineage model","geometry_status_public":"Named natural stream occurrence from statewide hydrography","geometry_source_public":"Grouped public hydrography segments","trout_source_public":"Included for Colorado statewide hydrography completeness","public_notes":"Big Sandy Creek is shown as statewide Colorado hydrography context outside the current cutthroat lineage assignment set."}},{"type":"Feature","geometry":{"type":"LineString","coordinates":[[-102.4994,38.4951],[-102.4962,38.4923]]},"properties":{"source_id":"co_named_stream_034056","name":"Big Sandy Creek","display_name":"Big Sandy Creek","mapped_name":"Big Sandy Creek","source_name":"Big Sandy Creek","state":"CO","atlas_class":"named_natural_stream","huc8":"11020011","huc8Name":"Big Sandy","huc8States":"CO","lineageKey":"statewideContext","lineage":"statewideContext","historic":"statewideContext","current":"statewideContext","recovery":"statewideContext","lineageLabel":"Statewide Colorado hydrography context","lineageBasin":"","lineageNote":"","atlas_context":"statewide_hydrography_context","confidence":"Statewide hydrography context outside current cutthroat lineage model","geometryStatus":"Named natural stream segment from statewide hydrography","note":"This named natural stream is included for statewide Colorado hydrography completeness and is outside the current cutthroat lineage assignment set.","source_segment_id":"co_named_stream_034056","water_id":"co_big_sandy_creek_11020011_statewideContext_015","occurrence_id":"co_big_sandy_creek_11020011_statewideContext_015","occurrence_number":"015","segment_count":10,"disambiguator":"Big Sandy · Statewide Colorado hydrography context · occurrence 015","basin":"Big Sandy","atlas_layer":"named_water_occurrence","object_role":"named_water_occurrence","historic_label":"Statewide Colorado hydrography context","current_label":"Statewide Colorado hydrography context","recovery_label":"Statewide Colorado hydrography context","tier":"tier4","minZoom":15,"confidence_public":"Statewide hydrography context outside current cutthroat lineage model","geometry_status_public":"Named natural stream occurrence from statewide hydrography","geometry_source_public":"Grouped public hydrography segments","trout_source_public":"Included for Colorado statewide hydrography completeness","public_notes":"Big Sandy Creek is shown as statewide Colorado hydrography context outside the current cutthroat lineage assignment set."}},{"type":"Feature","geometry":{"type":"LineString","coordinates":[[-102.4957,38.4913],[-102.495,38.4904]]},"properties":{"source_id":"co_named_stream_034057","name":"Big Sandy Creek","display_name":"Big Sandy Creek","mapped_name":"Big Sandy Creek","source_name":"Big Sandy Creek","state":"CO","atlas_class":"named_natural_stream","huc8":"11020011","huc8Name":"Big Sandy","huc8States":"CO","lineageKey":"statewideContext","lineage":"statewideContext","historic":"statewideContext","current":"statewideContext","recovery":"statewideContext","lineageLabel":"Statewide Colorado hydrography context","lineageBasin":"","lineageNote":"","atlas_context":"statewide_hydrography_context","confidence":"Statewide hydrography context outside current cutthroat lineage model","geometryStatus":"Named natural stream segment from statewide hydrography","note":"This named natural stream is included for statewide Colorado hydrography completeness and is outside the current cutthroat lineage assignment set.","source_segment_id":"co_named_stream_034057","water_id":"co_big_sandy_creek_11020011_statewideContext_015","occurrence_id":"co_big_sandy_creek_11020011_statewideContext_015","occurrence_number":"015","segment_count":10,"disambiguator":"Big Sandy · Statewide Colorado hydrography context · occurrence 015","basin":"Big Sandy","atlas_layer":"named_water_occurrence","object_role":"named_water_occurrence","historic_label":"Statewide Colorado hydrography context","current_label":"Statewide Colorado hydrography context","recovery_label":"Statewide Colorado hydrography context","tier":"tier4","minZoom":15,"confidence_public":"Statewide hydrography context outside current cutthroat lineage model","geometry_status_public":"Named natural stream occurrence from statewide hydrography","geometry_source_public":"Grouped public hydrography segments","trout_source_public":"Included for Colorado statewide hydrography completeness","public_notes":"Big Sandy Creek is shown as statewide Colorado hydrography context outside the current cutthroat lineage assignment set."}},{"type":"Feature","geometry":{"type":"LineString","coordinates":[[-102.495,38.4904],[-102.4947,38.4903]]},"properties":{"source_id":"co_named_stream_034058","name":"Big Sandy Creek","display_name":"Big Sandy Creek","mapped_name":"Big Sandy Creek","source_name":"Big Sandy Creek","state":"CO","atlas_class":"named_natural_stream","huc8":"11020011","huc8Name":"Big Sandy","huc8States":"CO","lineageKey":"statewideContext","lineage":"statewideContext","historic":"statewideContext","current":"statewideContext","recovery":"statewideContext","lineageLabel":"Statewide Colorado hydrography context","lineageBasin":"","lineageNote":"","atlas_context":"statewide_hydrography_context","confidence":"Statewide hydrography context outside current cutthroat lineage model","geometryStatus":"Named natural stream segment from statewide hydrography","note":"This named natural stream is included for statewide Colorado hydrography completeness and is outside the current cutthroat lineage assignment set.","source_segment_id":"co_named_stream_034058","water_id":"co_big_sandy_creek_11020011_statewideContext_015","occurrence_id":"co_big_sandy_creek_11020011_statewideContext_015","occurrence_number":"015","segment_count":10,"disambiguator":"Big Sandy · Statewide Colorado hydrography context · occurrence 015","basin":"Big Sandy","atlas_layer":"named_water_occurrence","object_role":"named_water_occurrence","historic_label":"Statewide Colorado hydrography context","current_label":"Statewide Colorado hydrography context","recovery_label":"Statewide Colorado hydrography context","tier":"tier4","minZoom":15,"confidence_public":"Statewide hydrography context outside current cutthroat lineage model","geometry_status_public":"Named natural stream occurrence from statewide hydrography","geometry_source_public":"Grouped public hydrography segments","trout_source_public":"Included for Colorado statewide hydrography completeness","public_notes":"Big Sandy Creek is shown as statewide Colorado hydrography context outside the current cutthroat lineage assignment set."}},{"type":"Feature","geometry":{"type":"LineString","coordinates":[[-102.3551,38.2595],[-102.3529,38.2541],[-102.3517,38.246],[-102.3446,38.2362],[-102.3437,38.2315],[-102.3414,38.2292],[-102.3364,38.2201],[-102.33,38.2168]]},"properties":{"source_id":"co_named_stream_032556","name":"Buffalo Creek","display_name":"Buffalo Creek","mapped_name":"Buffalo Creek","source_name":"Buffalo Creek","state":"CO","atlas_class":"named_natural_stream","huc8":"11020009","huc8Name":"Upper Arkansas-John Martin Reservoir","huc8States":"CO,KS","lineageKey":"statewideContext","lineage":"statewideContext","historic":"statewideContext","current":"statewideContext","recovery":"statewideContext","lineageLabel":"Statewide Colorado hydrography context","lineageBasin":"","lineageNote":"","atlas_context":"statewide_hydrography_context","confidence":"Statewide hydrography context outside current cutthroat lineage model","geometryStatus":"Named natural stream segment from statewide hydrography","note":"This named natural stream is included for statewide Colorado hydrography completeness and is outside the current cutthroat lineage assignment set.","source_segment_id":"co_named_stream_032556","water_id":"co_buffalo_creek_11020009_statewideContext_001","occurrence_id":"co_buffalo_creek_11020009_statewideContext_001","occurrence_number":"001","segment_count":9,"disambiguator":"Upper Arkansas-John Martin Reservoir · Statewide Colorado hydrography context · occurrence 001","basin":"Upper Arkansas-John Martin Reservoir","atlas_layer":"named_water_occurrence","object_role":"named_water_occurrence","historic_label":"Statewide Colorado hydrography context","current_label":"Statewide Colorado hydrography context","recovery_label":"Statewide Colorado hydrography context","tier":"tier4","minZoom":15,"confidence_public":"Statewide hydrography context outside current cutthroat lineage model","geometry_status_public":"Named natural stream occurrence from statewide hydrography","geometry_source_public":"Grouped public hydrography segments","trout_source_public":"Included for Colorado statewide hydrography completeness","public_notes":"Buffalo Creek is shown as statewide Colorado hydrography context outside the current cutthroat lineage assignment set."}}]}