{"type":"FeatureCollection","metadata":{"source":"C:\\ct-atlas-data\\processed\\geojson\\interpreted\\colorado_named_natural_streams_complete_v1.geojson","tier":"tier4","tile_size_degrees":0.25,"x":-411,"y":150,"bounds":{"west":-102.75,"south":37.5,"east":-102.5,"north":37.75}},"features":[{"type":"Feature","geometry":{"type":"LineString","coordinates":[[-102.6111,37.6349],[-102.6088,37.6333]]},"properties":{"source_id":"co_named_stream_032169","name":"Two Butte Creek","display_name":"Two Butte Creek","mapped_name":"Two Butte Creek","source_name":"Two Butte Creek","state":"CO","atlas_class":"named_natural_stream","huc8":"11020013","huc8Name":"Two Butte","huc8States":"CO","lineageKey":"statewideContext","lineage":"statewideContext","historic":"statewideContext","current":"statewideContext","recovery":"statewideContext","lineageLabel":"Statewide Colorado hydrography context","lineageBasin":"","lineageNote":"","atlas_context":"statewide_hydrography_context","confidence":"Statewide hydrography context outside current cutthroat lineage model","geometryStatus":"Named natural stream segment from statewide hydrography","note":"This named natural stream is included for statewide Colorado hydrography completeness and is outside the current cutthroat lineage assignment set.","source_segment_id":"co_named_stream_032169","water_id":"co_two_butte_creek_11020013_statewideContext_008","occurrence_id":"co_two_butte_creek_11020013_statewideContext_008","occurrence_number":"008","segment_count":2,"disambiguator":"Two Butte · Statewide Colorado hydrography context · occurrence 008","basin":"Two Butte","atlas_layer":"named_water_occurrence","object_role":"named_water_occurrence","historic_label":"Statewide Colorado hydrography context","current_label":"Statewide Colorado hydrography context","recovery_label":"Statewide Colorado hydrography context","tier":"tier4","minZoom":15,"confidence_public":"Statewide hydrography context outside current cutthroat lineage model","geometry_status_public":"Named natural stream occurrence from statewide hydrography","geometry_source_public":"Grouped public hydrography segments","trout_source_public":"Included for Colorado statewide hydrography completeness","public_notes":"Two Butte Creek is shown as statewide Colorado hydrography context outside the current cutthroat lineage assignment set."}},{"type":"Feature","geometry":{"type":"LineString","coordinates":[[-102.6027,37.6411],[-102.6009,37.6415]]},"properties":{"source_id":"co_named_stream_034986","name":"Two Butte Creek","display_name":"Two Butte Creek","mapped_name":"Two Butte Creek","source_name":"Two Butte Creek","state":"CO","atlas_class":"named_natural_stream","huc8":"11020013","huc8Name":"Two Butte","huc8States":"CO","lineageKey":"statewideContext","lineage":"statewideContext","historic":"statewideContext","current":"statewideContext","recovery":"statewideContext","lineageLabel":"Statewide Colorado hydrography context","lineageBasin":"","lineageNote":"","atlas_context":"statewide_hydrography_context","confidence":"Statewide hydrography context outside current cutthroat lineage model","geometryStatus":"Named natural stream segment from statewide hydrography","note":"This named natural stream is included for statewide Colorado hydrography completeness and is outside the current cutthroat lineage assignment set.","source_segment_id":"co_named_stream_034986","water_id":"co_two_butte_creek_11020013_statewideContext_008","occurrence_id":"co_two_butte_creek_11020013_statewideContext_008","occurrence_number":"008","segment_count":2,"disambiguator":"Two Butte · Statewide Colorado hydrography context · occurrence 008","basin":"Two Butte","atlas_layer":"named_water_occurrence","object_role":"named_water_occurrence","historic_label":"Statewide Colorado hydrography context","current_label":"Statewide Colorado hydrography context","recovery_label":"Statewide Colorado hydrography context","tier":"tier4","minZoom":15,"confidence_public":"Statewide hydrography context outside current cutthroat lineage model","geometry_status_public":"Named natural stream occurrence from statewide hydrography","geometry_source_public":"Grouped public hydrography segments","trout_source_public":"Included for Colorado statewide hydrography completeness","public_notes":"Two Butte Creek is shown as statewide Colorado hydrography context outside the current cutthroat lineage assignment set."}},{"type":"Feature","geometry":{"type":"LineString","coordinates":[[-102.5377,37.6352],[-102.5347,37.6351]]},"properties":{"source_id":"co_named_stream_035687","name":"Two Butte Creek","display_name":"Two Butte Creek","mapped_name":"Two Butte Creek","source_name":"Two Butte Creek","state":"CO","atlas_class":"named_natural_stream","huc8":"11020013","huc8Name":"Two Butte","huc8States":"CO","lineageKey":"statewideContext","lineage":"statewideContext","historic":"statewideContext","current":"statewideContext","recovery":"statewideContext","lineageLabel":"Statewide Colorado hydrography context","lineageBasin":"","lineageNote":"","atlas_context":"statewide_hydrography_context","confidence":"Statewide hydrography context outside current cutthroat lineage model","geometryStatus":"Named natural stream segment from statewide hydrography","note":"This named natural stream is included for statewide Colorado hydrography completeness and is outside the current cutthroat lineage assignment set.","source_segment_id":"co_named_stream_035687","water_id":"co_two_butte_creek_11020013_statewideContext_009","occurrence_id":"co_two_butte_creek_11020013_statewideContext_009","occurrence_number":"009","segment_count":14,"disambiguator":"Two Butte · Statewide Colorado hydrography context · occurrence 009","basin":"Two Butte","atlas_layer":"named_water_occurrence","object_role":"named_water_occurrence","historic_label":"Statewide Colorado hydrography context","current_label":"Statewide Colorado hydrography context","recovery_label":"Statewide Colorado hydrography context","tier":"tier4","minZoom":15,"confidence_public":"Statewide hydrography context outside current cutthroat lineage model","geometry_status_public":"Named natural stream occurrence from statewide hydrography","geometry_source_public":"Grouped public hydrography segments","trout_source_public":"Included for Colorado statewide hydrography completeness","public_notes":"Two Butte Creek is shown as statewide Colorado hydrography context outside the current cutthroat lineage assignment set."}},{"type":"Feature","geometry":{"type":"LineString","coordinates":[[-102.5287,37.6402],[-102.5276,37.6406],[-102.5261,37.6399]]},"properties":{"source_id":"co_named_stream_038388","name":"Two Butte Creek","display_name":"Two Butte Creek","mapped_name":"Two Butte Creek","source_name":"Two Butte Creek","state":"CO","atlas_class":"named_natural_stream","huc8":"11020013","huc8Name":"Two Butte","huc8States":"CO","lineageKey":"statewideContext","lineage":"statewideContext","historic":"statewideContext","current":"statewideContext","recovery":"statewideContext","lineageLabel":"Statewide Colorado hydrography context","lineageBasin":"","lineageNote":"","atlas_context":"statewide_hydrography_context","confidence":"Statewide hydrography context outside current cutthroat lineage model","geometryStatus":"Named natural stream segment from statewide hydrography","note":"This named natural stream is included for statewide Colorado hydrography completeness and is outside the current cutthroat lineage assignment set.","source_segment_id":"co_named_stream_038388","water_id":"co_two_butte_creek_11020013_statewideContext_009","occurrence_id":"co_two_butte_creek_11020013_statewideContext_009","occurrence_number":"009","segment_count":14,"disambiguator":"Two Butte · Statewide Colorado hydrography context · occurrence 009","basin":"Two Butte","atlas_layer":"named_water_occurrence","object_role":"named_water_occurrence","historic_label":"Statewide Colorado hydrography context","current_label":"Statewide Colorado hydrography context","recovery_label":"Statewide Colorado hydrography context","tier":"tier4","minZoom":15,"confidence_public":"Statewide hydrography context outside current cutthroat lineage model","geometry_status_public":"Named natural stream occurrence from statewide hydrography","geometry_source_public":"Grouped public hydrography segments","trout_source_public":"Included for Colorado statewide hydrography completeness","public_notes":"Two Butte Creek is shown as statewide Colorado hydrography context outside the current cutthroat lineage assignment set."}},{"type":"Feature","geometry":{"type":"LineString","coordinates":[[-102.5166,37.6475],[-102.5141,37.6476],[-102.5124,37.6507]]},"properties":{"source_id":"co_named_stream_038389","name":"Two Butte Creek","display_name":"Two Butte Creek","mapped_name":"Two Butte Creek","source_name":"Two Butte Creek","state":"CO","atlas_class":"named_natural_stream","huc8":"11020013","huc8Name":"Two Butte","huc8States":"CO","lineageKey":"statewideContext","lineage":"statewideContext","historic":"statewideContext","current":"statewideContext","recovery":"statewideContext","lineageLabel":"Statewide Colorado hydrography context","lineageBasin":"","lineageNote":"","atlas_context":"statewide_hydrography_context","confidence":"Statewide hydrography context outside current cutthroat lineage model","geometryStatus":"Named natural stream segment from statewide hydrography","note":"This named natural stream is included for statewide Colorado hydrography completeness and is outside the current cutthroat lineage assignment set.","source_segment_id":"co_named_stream_038389","water_id":"co_two_butte_creek_11020013_statewideContext_009","occurrence_id":"co_two_butte_creek_11020013_statewideContext_009","occurrence_number":"009","segment_count":14,"disambiguator":"Two Butte · Statewide Colorado hydrography context · occurrence 009","basin":"Two Butte","atlas_layer":"named_water_occurrence","object_role":"named_water_occurrence","historic_label":"Statewide Colorado hydrography context","current_label":"Statewide Colorado hydrography context","recovery_label":"Statewide Colorado hydrography context","tier":"tier4","minZoom":15,"confidence_public":"Statewide hydrography context outside current cutthroat lineage model","geometry_status_public":"Named natural stream occurrence from statewide hydrography","geometry_source_public":"Grouped public hydrography segments","trout_source_public":"Included for Colorado statewide hydrography completeness","public_notes":"Two Butte Creek is shown as statewide Colorado hydrography context outside the current cutthroat lineage assignment set."}},{"type":"Feature","geometry":{"type":"LineString","coordinates":[[-102.5261,37.6399],[-102.5238,37.6404],[-102.5211,37.6428],[-102.5224,37.6451],[-102.5219,37.6462]]},"properties":{"source_id":"co_named_stream_038834","name":"Two Butte Creek","display_name":"Two Butte Creek","mapped_name":"Two Butte Creek","source_name":"Two Butte Creek","state":"CO","atlas_class":"named_natural_stream","huc8":"11020013","huc8Name":"Two Butte","huc8States":"CO","lineageKey":"statewideContext","lineage":"statewideContext","historic":"statewideContext","current":"statewideContext","recovery":"statewideContext","lineageLabel":"Statewide Colorado hydrography context","lineageBasin":"","lineageNote":"","atlas_context":"statewide_hydrography_context","confidence":"Statewide hydrography context outside current cutthroat lineage model","geometryStatus":"Named natural stream segment from statewide hydrography","note":"This named natural stream is included for statewide Colorado hydrography completeness and is outside the current cutthroat lineage assignment set.","source_segment_id":"co_named_stream_038834","water_id":"co_two_butte_creek_11020013_statewideContext_009","occurrence_id":"co_two_butte_creek_11020013_statewideContext_009","occurrence_number":"009","segment_count":14,"disambiguator":"Two Butte · Statewide Colorado hydrography context · occurrence 009","basin":"Two Butte","atlas_layer":"named_water_occurrence","object_role":"named_water_occurrence","historic_label":"Statewide Colorado hydrography context","current_label":"Statewide Colorado hydrography context","recovery_label":"Statewide Colorado hydrography context","tier":"tier4","minZoom":15,"confidence_public":"Statewide hydrography context outside current cutthroat lineage model","geometry_status_public":"Named natural stream occurrence from statewide hydrography","geometry_source_public":"Grouped public hydrography segments","trout_source_public":"Included for Colorado statewide hydrography completeness","public_notes":"Two Butte Creek is shown as statewide Colorado hydrography context outside the current cutthroat lineage assignment set."}},{"type":"Feature","geometry":{"type":"LineString","coordinates":[[-102.5124,37.6507],[-102.5114,37.651],[-102.5087,37.6486],[-102.5058,37.6508],[-102.5027,37.6504],[-102.4958,37.654],[-102.4859,37.6552]]},"properties":{"source_id":"co_named_stream_038979","name":"Two Butte Creek","display_name":"Two Butte Creek","mapped_name":"Two Butte Creek","source_name":"Two Butte Creek","state":"CO","atlas_class":"named_natural_stream","huc8":"11020013","huc8Name":"Two Butte","huc8States":"CO","lineageKey":"statewideContext","lineage":"statewideContext","historic":"statewideContext","current":"statewideContext","recovery":"statewideContext","lineageLabel":"Statewide Colorado hydrography context","lineageBasin":"","lineageNote":"","atlas_context":"statewide_hydrography_context","confidence":"Statewide hydrography context outside current cutthroat lineage model","geometryStatus":"Named natural stream segment from statewide hydrography","note":"This named natural stream is included for statewide Colorado hydrography completeness and is outside the current cutthroat lineage assignment set.","source_segment_id":"co_named_stream_038979","water_id":"co_two_butte_creek_11020013_statewideContext_009","occurrence_id":"co_two_butte_creek_11020013_statewideContext_009","occurrence_number":"009","segment_count":14,"disambiguator":"Two Butte · Statewide Colorado hydrography context · occurrence 009","basin":"Two Butte","atlas_layer":"named_water_occurrence","object_role":"named_water_occurrence","historic_label":"Statewide Colorado hydrography context","current_label":"Statewide Colorado hydrography context","recovery_label":"Statewide Colorado hydrography context","tier":"tier4","minZoom":15,"confidence_public":"Statewide hydrography context outside current cutthroat lineage model","geometry_status_public":"Named natural stream occurrence from statewide hydrography","geometry_source_public":"Grouped public hydrography segments","trout_source_public":"Included for Colorado statewide hydrography completeness","public_notes":"Two Butte Creek is shown as statewide Colorado hydrography context outside the current cutthroat lineage assignment set."}},{"type":"Feature","geometry":{"type":"LineString","coordinates":[[-102.5318,37.6361],[-102.5303,37.6365],[-102.5287,37.6402]]},"properties":{"source_id":"co_named_stream_042202","name":"Two Butte Creek","display_name":"Two Butte Creek","mapped_name":"Two Butte Creek","source_name":"Two Butte Creek","state":"CO","atlas_class":"named_natural_stream","huc8":"11020013","huc8Name":"Two Butte","huc8States":"CO","lineageKey":"statewideContext","lineage":"statewideContext","historic":"statewideContext","current":"statewideContext","recovery":"statewideContext","lineageLabel":"Statewide Colorado hydrography context","lineageBasin":"","lineageNote":"","atlas_context":"statewide_hydrography_context","confidence":"Statewide hydrography context outside current cutthroat lineage model","geometryStatus":"Named natural stream segment from statewide hydrography","note":"This named natural stream is included for statewide Colorado hydrography completeness and is outside the current cutthroat lineage assignment set.","source_segment_id":"co_named_stream_042202","water_id":"co_two_butte_creek_11020013_statewideContext_009","occurrence_id":"co_two_butte_creek_11020013_statewideContext_009","occurrence_number":"009","segment_count":14,"disambiguator":"Two Butte · Statewide Colorado hydrography context · occurrence 009","basin":"Two Butte","atlas_layer":"named_water_occurrence","object_role":"named_water_occurrence","historic_label":"Statewide Colorado hydrography context","current_label":"Statewide Colorado hydrography context","recovery_label":"Statewide Colorado hydrography context","tier":"tier4","minZoom":15,"confidence_public":"Statewide hydrography context outside current cutthroat lineage model","geometry_status_public":"Named natural stream occurrence from statewide hydrography","geometry_source_public":"Grouped public hydrography segments","trout_source_public":"Included for Colorado statewide hydrography completeness","public_notes":"Two Butte Creek is shown as statewide Colorado hydrography context outside the current cutthroat lineage assignment set."}},{"type":"Feature","geometry":{"type":"LineString","coordinates":[[-102.5219,37.6462],[-102.5205,37.6475],[-102.5166,37.6475]]},"properties":{"source_id":"co_named_stream_046176","name":"Two Butte Creek","display_name":"Two Butte Creek","mapped_name":"Two Butte Creek","source_name":"Two Butte Creek","state":"CO","atlas_class":"named_natural_stream","huc8":"11020013","huc8Name":"Two Butte","huc8States":"CO","lineageKey":"statewideContext","lineage":"statewideContext","historic":"statewideContext","current":"statewideContext","recovery":"statewideContext","lineageLabel":"Statewide Colorado hydrography context","lineageBasin":"","lineageNote":"","atlas_context":"statewide_hydrography_context","confidence":"Statewide hydrography context outside current cutthroat lineage model","geometryStatus":"Named natural stream segment from statewide hydrography","note":"This named natural stream is included for statewide Colorado hydrography completeness and is outside the current cutthroat lineage assignment set.","source_segment_id":"co_named_stream_046176","water_id":"co_two_butte_creek_11020013_statewideContext_009","occurrence_id":"co_two_butte_creek_11020013_statewideContext_009","occurrence_number":"009","segment_count":14,"disambiguator":"Two Butte · Statewide Colorado hydrography context · occurrence 009","basin":"Two Butte","atlas_layer":"named_water_occurrence","object_role":"named_water_occurrence","historic_label":"Statewide Colorado hydrography context","current_label":"Statewide Colorado hydrography context","recovery_label":"Statewide Colorado hydrography context","tier":"tier4","minZoom":15,"confidence_public":"Statewide hydrography context outside current cutthroat lineage model","geometry_status_public":"Named natural stream occurrence from statewide hydrography","geometry_source_public":"Grouped public hydrography segments","trout_source_public":"Included for Colorado statewide hydrography completeness","public_notes":"Two Butte Creek is shown as statewide Colorado hydrography context outside the current cutthroat lineage assignment set."}},{"type":"Feature","geometry":{"type":"LineString","coordinates":[[-102.5347,37.6351],[-102.5318,37.6361]]},"properties":{"source_id":"co_named_stream_046247","name":"Two Butte Creek","display_name":"Two Butte Creek","mapped_name":"Two Butte Creek","source_name":"Two Butte Creek","state":"CO","atlas_class":"named_natural_stream","huc8":"11020013","huc8Name":"Two Butte","huc8States":"CO","lineageKey":"statewideContext","lineage":"statewideContext","historic":"statewideContext","current":"statewideContext","recovery":"statewideContext","lineageLabel":"Statewide Colorado hydrography context","lineageBasin":"","lineageNote":"","atlas_context":"statewide_hydrography_context","confidence":"Statewide hydrography context outside current cutthroat lineage model","geometryStatus":"Named natural stream segment from statewide hydrography","note":"This named natural stream is included for statewide Colorado hydrography completeness and is outside the current cutthroat lineage assignment set.","source_segment_id":"co_named_stream_046247","water_id":"co_two_butte_creek_11020013_statewideContext_009","occurrence_id":"co_two_butte_creek_11020013_statewideContext_009","occurrence_number":"009","segment_count":14,"disambiguator":"Two Butte · Statewide Colorado hydrography context · occurrence 009","basin":"Two Butte","atlas_layer":"named_water_occurrence","object_role":"named_water_occurrence","historic_label":"Statewide Colorado hydrography context","current_label":"Statewide Colorado hydrography context","recovery_label":"Statewide Colorado hydrography context","tier":"tier4","minZoom":15,"confidence_public":"Statewide hydrography context outside current cutthroat lineage model","geometry_status_public":"Named natural stream occurrence from statewide hydrography","geometry_source_public":"Grouped public hydrography segments","trout_source_public":"Included for Colorado statewide hydrography completeness","public_notes":"Two Butte Creek is shown as statewide Colorado hydrography context outside the current cutthroat lineage assignment set."}},{"type":"Feature","geometry":{"type":"LineString","coordinates":[[-102.5742,37.6929],[-102.5724,37.693],[-102.5707,37.6943],[-102.5676,37.6935],[-102.5663,37.6941]]},"properties":{"source_id":"co_named_stream_031154","name":"North Butte Creek","display_name":"North Butte Creek","mapped_name":"North Butte Creek","source_name":"North Butte Creek","state":"CO","atlas_class":"named_natural_stream","huc8":"11020013","huc8Name":"Two Butte","huc8States":"CO","lineageKey":"statewideContext","lineage":"statewideContext","historic":"statewideContext","current":"statewideContext","recovery":"statewideContext","lineageLabel":"Statewide Colorado hydrography context","lineageBasin":"","lineageNote":"","atlas_context":"statewide_hydrography_context","confidence":"Statewide hydrography context outside current cutthroat lineage model","geometryStatus":"Named natural stream segment from statewide hydrography","note":"This named natural stream is included for statewide Colorado hydrography completeness and is outside the current cutthroat lineage assignment set.","source_segment_id":"co_named_stream_031154","water_id":"co_north_butte_creek_11020013_statewideContext_002","occurrence_id":"co_north_butte_creek_11020013_statewideContext_002","occurrence_number":"002","segment_count":1,"disambiguator":"Two Butte · Statewide Colorado hydrography context · occurrence 002","basin":"Two Butte","atlas_layer":"named_water_occurrence","object_role":"named_water_occurrence","historic_label":"Statewide Colorado hydrography context","current_label":"Statewide Colorado hydrography context","recovery_label":"Statewide Colorado hydrography context","tier":"tier4","minZoom":15,"confidence_public":"Statewide hydrography context outside current cutthroat lineage model","geometry_status_public":"Named natural stream occurrence from statewide hydrography","geometry_source_public":"Grouped public hydrography segments","trout_source_public":"Included for Colorado statewide hydrography completeness","public_notes":"North Butte Creek is shown as statewide Colorado hydrography context outside the current cutthroat lineage assignment set."}},{"type":"Feature","geometry":{"type":"LineString","coordinates":[[-102.5966,37.7462],[-102.5965,37.7566],[-102.5994,37.7592],[-102.599,37.76],[-102.6003,37.7605],[-102.5998,37.7617],[-102.6011,37.7651]]},"properties":{"source_id":"co_named_stream_043051","name":"South Mule Creek","display_name":"South Mule Creek","mapped_name":"South Mule Creek","source_name":"South Mule Creek","state":"CO","atlas_class":"named_natural_stream","huc8":"11020009","huc8Name":"Upper Arkansas-John Martin Reservoir","huc8States":"CO,KS","lineageKey":"statewideContext","lineage":"statewideContext","historic":"statewideContext","current":"statewideContext","recovery":"statewideContext","lineageLabel":"Statewide Colorado hydrography context","lineageBasin":"","lineageNote":"","atlas_context":"statewide_hydrography_context","confidence":"Statewide hydrography context outside current cutthroat lineage model","geometryStatus":"Named natural stream segment from statewide hydrography","note":"This named natural stream is included for statewide Colorado hydrography completeness and is outside the current cutthroat lineage assignment set.","source_segment_id":"co_named_stream_043051","water_id":"co_south_mule_creek_11020009_statewideContext_001","occurrence_id":"co_south_mule_creek_11020009_statewideContext_001","occurrence_number":"001","segment_count":10,"disambiguator":"Upper Arkansas-John Martin Reservoir · Statewide Colorado hydrography context · occurrence 001","basin":"Upper Arkansas-John Martin Reservoir","atlas_layer":"named_water_occurrence","object_role":"named_water_occurrence","historic_label":"Statewide Colorado hydrography context","current_label":"Statewide Colorado hydrography context","recovery_label":"Statewide Colorado hydrography context","tier":"tier4","minZoom":15,"confidence_public":"Statewide hydrography context outside current cutthroat lineage model","geometry_status_public":"Named natural stream occurrence from statewide hydrography","geometry_source_public":"Grouped public hydrography segments","trout_source_public":"Included for Colorado statewide hydrography completeness","public_notes":"South Mule Creek is shown as statewide Colorado hydrography context outside the current cutthroat lineage assignment set."}},{"type":"Feature","geometry":{"type":"LineString","coordinates":[[-102.742,37.5503],[-102.7368,37.5507],[-102.7355,37.5495],[-102.7338,37.5496],[-102.7332,37.5484],[-102.7298,37.5476],[-102.7292,37.546]]},"properties":{"source_id":"co_named_stream_050700","name":"North Horse Creek","display_name":"North Horse Creek","mapped_name":"North Horse Creek","source_name":"North Horse Creek","state":"CO","atlas_class":"named_natural_stream","huc8":"11040005","huc8Name":"Bear","huc8States":"CO,KS","lineageKey":"statewideContext","lineage":"statewideContext","historic":"statewideContext","current":"statewideContext","recovery":"statewideContext","lineageLabel":"Statewide Colorado hydrography context","lineageBasin":"","lineageNote":"","atlas_context":"statewide_hydrography_context","confidence":"Statewide hydrography context outside current cutthroat lineage model","geometryStatus":"Named natural stream segment from statewide hydrography","note":"This named natural stream is included for statewide Colorado hydrography completeness and is outside the current cutthroat lineage assignment set.","source_segment_id":"co_named_stream_050700","water_id":"co_north_horse_creek_11040005_statewideContext_001","occurrence_id":"co_north_horse_creek_11040005_statewideContext_001","occurrence_number":"001","segment_count":11,"disambiguator":"Bear · Statewide Colorado hydrography context · occurrence 001","basin":"Bear","atlas_layer":"named_water_occurrence","object_role":"named_water_occurrence","historic_label":"Statewide Colorado hydrography context","current_label":"Statewide Colorado hydrography context","recovery_label":"Statewide Colorado hydrography context","tier":"tier4","minZoom":15,"confidence_public":"Statewide hydrography context outside current cutthroat lineage model","geometry_status_public":"Named natural stream occurrence from statewide hydrography","geometry_source_public":"Grouped public hydrography segments","trout_source_public":"Included for Colorado statewide hydrography completeness","public_notes":"North Horse Creek is shown as statewide Colorado hydrography context outside the current cutthroat lineage assignment set."}},{"type":"Feature","geometry":{"type":"LineString","coordinates":[[-102.6979,37.5518],[-102.6912,37.5492],[-102.691,37.5478],[-102.6893,37.5463],[-102.6897,37.5454],[-102.687,37.5442],[-102.687,37.5416],[-102.6852,37.5415],[-102.6846,37.5406]]},"properties":{"source_id":"co_named_stream_050799","name":"North Horse Creek","display_name":"North Horse Creek","mapped_name":"North Horse Creek","source_name":"North Horse Creek","state":"CO","atlas_class":"named_natural_stream","huc8":"11040005","huc8Name":"Bear","huc8States":"CO,KS","lineageKey":"statewideContext","lineage":"statewideContext","historic":"statewideContext","current":"statewideContext","recovery":"statewideContext","lineageLabel":"Statewide Colorado hydrography context","lineageBasin":"","lineageNote":"","atlas_context":"statewide_hydrography_context","confidence":"Statewide hydrography context outside current cutthroat lineage model","geometryStatus":"Named natural stream segment from statewide hydrography","note":"This named natural stream is included for statewide Colorado hydrography completeness and is outside the current cutthroat lineage assignment set.","source_segment_id":"co_named_stream_050799","water_id":"co_north_horse_creek_11040005_statewideContext_001","occurrence_id":"co_north_horse_creek_11040005_statewideContext_001","occurrence_number":"001","segment_count":11,"disambiguator":"Bear · Statewide Colorado hydrography context · occurrence 001","basin":"Bear","atlas_layer":"named_water_occurrence","object_role":"named_water_occurrence","historic_label":"Statewide Colorado hydrography context","current_label":"Statewide Colorado hydrography context","recovery_label":"Statewide Colorado hydrography context","tier":"tier4","minZoom":15,"confidence_public":"Statewide hydrography context outside current cutthroat lineage model","geometry_status_public":"Named natural stream occurrence from statewide hydrography","geometry_source_public":"Grouped public hydrography segments","trout_source_public":"Included for Colorado statewide hydrography completeness","public_notes":"North Horse Creek is shown as statewide Colorado hydrography context outside the current cutthroat lineage assignment set."}},{"type":"Feature","geometry":{"type":"LineString","coordinates":[[-102.6597,37.5417],[-102.6567,37.5434],[-102.6503,37.5414],[-102.6505,37.5436],[-102.6497,37.5439],[-102.6474,37.5426],[-102.6486,37.5421],[-102.6479,37.5414],[-102.6454,37.5411],[-102.6451,37.5424],[-102.6427,37.5417],[-102.6412,37.5434],[-102.637,37.5449],[-102.6368,37.548],[-102.6332,37.5458],[-102.631,37.5471],[-102.6293,37.544],[-102.6255,37.5455],[-102.624,37.5444],[-102.6181,37.5451]]},"properties":{"source_id":"co_named_stream_050981","name":"North Horse Creek","display_name":"North Horse Creek","mapped_name":"North Horse Creek","source_name":"North Horse Creek","state":"CO","atlas_class":"named_natural_stream","huc8":"11040005","huc8Name":"Bear","huc8States":"CO,KS","lineageKey":"statewideContext","lineage":"statewideContext","historic":"statewideContext","current":"statewideContext","recovery":"statewideContext","lineageLabel":"Statewide Colorado hydrography context","lineageBasin":"","lineageNote":"","atlas_context":"statewide_hydrography_context","confidence":"Statewide hydrography context outside current cutthroat lineage model","geometryStatus":"Named natural stream segment from statewide hydrography","note":"This named natural stream is included for statewide Colorado hydrography completeness and is outside the current cutthroat lineage assignment set.","source_segment_id":"co_named_stream_050981","water_id":"co_north_horse_creek_11040005_statewideContext_001","occurrence_id":"co_north_horse_creek_11040005_statewideContext_001","occurrence_number":"001","segment_count":11,"disambiguator":"Bear · Statewide Colorado hydrography context · occurrence 001","basin":"Bear","atlas_layer":"named_water_occurrence","object_role":"named_water_occurrence","historic_label":"Statewide Colorado hydrography context","current_label":"Statewide Colorado hydrography context","recovery_label":"Statewide Colorado hydrography context","tier":"tier4","minZoom":15,"confidence_public":"Statewide hydrography context outside current cutthroat lineage model","geometry_status_public":"Named natural stream occurrence from statewide hydrography","geometry_source_public":"Grouped public hydrography segments","trout_source_public":"Included for Colorado statewide hydrography completeness","public_notes":"North Horse Creek is shown as statewide Colorado hydrography context outside the current cutthroat lineage assignment set."}},{"type":"Feature","geometry":{"type":"LineString","coordinates":[[-102.6729,37.5402],[-102.6704,37.5392],[-102.6641,37.54],[-102.6635,37.5391],[-102.6651,37.5374],[-102.6629,37.5363],[-102.663,37.538],[-102.6604,37.5387],[-102.662,37.5393],[-102.6619,37.5402],[-102.6597,37.5417]]},"properties":{"source_id":"co_named_stream_051368","name":"North Horse Creek","display_name":"North Horse Creek","mapped_name":"North Horse Creek","source_name":"North Horse Creek","state":"CO","atlas_class":"named_natural_stream","huc8":"11040005","huc8Name":"Bear","huc8States":"CO,KS","lineageKey":"statewideContext","lineage":"statewideContext","historic":"statewideContext","current":"statewideContext","recovery":"statewideContext","lineageLabel":"Statewide Colorado hydrography context","lineageBasin":"","lineageNote":"","atlas_context":"statewide_hydrography_context","confidence":"Statewide hydrography context outside current cutthroat lineage model","geometryStatus":"Named natural stream segment from statewide hydrography","note":"This named natural stream is included for statewide Colorado hydrography completeness and is outside the current cutthroat lineage assignment set.","source_segment_id":"co_named_stream_051368","water_id":"co_north_horse_creek_11040005_statewideContext_001","occurrence_id":"co_north_horse_creek_11040005_statewideContext_001","occurrence_number":"001","segment_count":11,"disambiguator":"Bear · Statewide Colorado hydrography context · occurrence 001","basin":"Bear","atlas_layer":"named_water_occurrence","object_role":"named_water_occurrence","historic_label":"Statewide Colorado hydrography context","current_label":"Statewide Colorado hydrography context","recovery_label":"Statewide Colorado hydrography context","tier":"tier4","minZoom":15,"confidence_public":"Statewide hydrography context outside current cutthroat lineage model","geometry_status_public":"Named natural stream occurrence from statewide hydrography","geometry_source_public":"Grouped public hydrography segments","trout_source_public":"Included for Colorado statewide hydrography completeness","public_notes":"North Horse Creek is shown as statewide Colorado hydrography context outside the current cutthroat lineage assignment set."}},{"type":"Feature","geometry":{"type":"LineString","coordinates":[[-102.5787,37.5389],[-102.5755,37.5362],[-102.5726,37.5372],[-102.5673,37.5357],[-102.5665,37.5345],[-102.567,37.533],[-102.5657,37.5316],[-102.5658,37.5295],[-102.5596,37.5262]]},"properties":{"source_id":"co_named_stream_051402","name":"North Horse Creek","display_name":"North Horse Creek","mapped_name":"North Horse Creek","source_name":"North Horse Creek","state":"CO","atlas_class":"named_natural_stream","huc8":"11040005","huc8Name":"Bear","huc8States":"CO,KS","lineageKey":"statewideContext","lineage":"statewideContext","historic":"statewideContext","current":"statewideContext","recovery":"statewideContext","lineageLabel":"Statewide Colorado hydrography context","lineageBasin":"","lineageNote":"","atlas_context":"statewide_hydrography_context","confidence":"Statewide hydrography context outside current cutthroat lineage model","geometryStatus":"Named natural stream segment from statewide hydrography","note":"This named natural stream is included for statewide Colorado hydrography completeness and is outside the current cutthroat lineage assignment set.","source_segment_id":"co_named_stream_051402","water_id":"co_north_horse_creek_11040005_statewideContext_001","occurrence_id":"co_north_horse_creek_11040005_statewideContext_001","occurrence_number":"001","segment_count":11,"disambiguator":"Bear · Statewide Colorado hydrography context · occurrence 001","basin":"Bear","atlas_layer":"named_water_occurrence","object_role":"named_water_occurrence","historic_label":"Statewide Colorado hydrography context","current_label":"Statewide Colorado hydrography context","recovery_label":"Statewide Colorado hydrography context","tier":"tier4","minZoom":15,"confidence_public":"Statewide hydrography context outside current cutthroat lineage model","geometry_status_public":"Named natural stream occurrence from statewide hydrography","geometry_source_public":"Grouped public hydrography segments","trout_source_public":"Included for Colorado statewide hydrography completeness","public_notes":"North Horse Creek is shown as statewide Colorado hydrography context outside the current cutthroat lineage assignment set."}},{"type":"Feature","geometry":{"type":"LineString","coordinates":[[-102.7292,37.546],[-102.7248,37.546],[-102.7204,37.5448],[-102.7121,37.5483],[-102.7089,37.5502],[-102.7081,37.5517]]},"properties":{"source_id":"co_named_stream_051635","name":"North Horse Creek","display_name":"North Horse Creek","mapped_name":"North Horse Creek","source_name":"North Horse Creek","state":"CO","atlas_class":"named_natural_stream","huc8":"11040005","huc8Name":"Bear","huc8States":"CO,KS","lineageKey":"statewideContext","lineage":"statewideContext","historic":"statewideContext","current":"statewideContext","recovery":"statewideContext","lineageLabel":"Statewide Colorado hydrography context","lineageBasin":"","lineageNote":"","atlas_context":"statewide_hydrography_context","confidence":"Statewide hydrography context outside current cutthroat lineage model","geometryStatus":"Named natural stream segment from statewide hydrography","note":"This named natural stream is included for statewide Colorado hydrography completeness and is outside the current cutthroat lineage assignment set.","source_segment_id":"co_named_stream_051635","water_id":"co_north_horse_creek_11040005_statewideContext_001","occurrence_id":"co_north_horse_creek_11040005_statewideContext_001","occurrence_number":"001","segment_count":11,"disambiguator":"Bear · Statewide Colorado hydrography context · occurrence 001","basin":"Bear","atlas_layer":"named_water_occurrence","object_role":"named_water_occurrence","historic_label":"Statewide Colorado hydrography context","current_label":"Statewide Colorado hydrography context","recovery_label":"Statewide Colorado hydrography context","tier":"tier4","minZoom":15,"confidence_public":"Statewide hydrography context outside current cutthroat lineage model","geometry_status_public":"Named natural stream occurrence from statewide hydrography","geometry_source_public":"Grouped public hydrography segments","trout_source_public":"Included for Colorado statewide hydrography completeness","public_notes":"North Horse Creek is shown as statewide Colorado hydrography context outside the current cutthroat lineage assignment set."}},{"type":"Feature","geometry":{"type":"LineString","coordinates":[[-102.7081,37.5517],[-102.7043,37.5519],[-102.7037,37.5527]]},"properties":{"source_id":"co_named_stream_051964","name":"North Horse Creek","display_name":"North Horse Creek","mapped_name":"North Horse Creek","source_name":"North Horse Creek","state":"CO","atlas_class":"named_natural_stream","huc8":"11040005","huc8Name":"Bear","huc8States":"CO,KS","lineageKey":"statewideContext","lineage":"statewideContext","historic":"statewideContext","current":"statewideContext","recovery":"statewideContext","lineageLabel":"Statewide Colorado hydrography context","lineageBasin":"","lineageNote":"","atlas_context":"statewide_hydrography_context","confidence":"Statewide hydrography context outside current cutthroat lineage model","geometryStatus":"Named natural stream segment from statewide hydrography","note":"This named natural stream is included for statewide Colorado hydrography completeness and is outside the current cutthroat lineage assignment set.","source_segment_id":"co_named_stream_051964","water_id":"co_north_horse_creek_11040005_statewideContext_001","occurrence_id":"co_north_horse_creek_11040005_statewideContext_001","occurrence_number":"001","segment_count":11,"disambiguator":"Bear · Statewide Colorado hydrography context · occurrence 001","basin":"Bear","atlas_layer":"named_water_occurrence","object_role":"named_water_occurrence","historic_label":"Statewide Colorado hydrography context","current_label":"Statewide Colorado hydrography context","recovery_label":"Statewide Colorado hydrography context","tier":"tier4","minZoom":15,"confidence_public":"Statewide hydrography context outside current cutthroat lineage model","geometry_status_public":"Named natural stream occurrence from statewide hydrography","geometry_source_public":"Grouped public hydrography segments","trout_source_public":"Included for Colorado statewide hydrography completeness","public_notes":"North Horse Creek is shown as statewide Colorado hydrography context outside the current cutthroat lineage assignment set."}},{"type":"Feature","geometry":{"type":"LineString","coordinates":[[-102.7037,37.5527],[-102.7021,37.5531],[-102.6979,37.5518]]},"properties":{"source_id":"co_named_stream_051993","name":"North Horse Creek","display_name":"North Horse Creek","mapped_name":"North Horse Creek","source_name":"North Horse Creek","state":"CO","atlas_class":"named_natural_stream","huc8":"11040005","huc8Name":"Bear","huc8States":"CO,KS","lineageKey":"statewideContext","lineage":"statewideContext","historic":"statewideContext","current":"statewideContext","recovery":"statewideContext","lineageLabel":"Statewide Colorado hydrography context","lineageBasin":"","lineageNote":"","atlas_context":"statewide_hydrography_context","confidence":"Statewide hydrography context outside current cutthroat lineage model","geometryStatus":"Named natural stream segment from statewide hydrography","note":"This named natural stream is included for statewide Colorado hydrography completeness and is outside the current cutthroat lineage assignment set.","source_segment_id":"co_named_stream_051993","water_id":"co_north_horse_creek_11040005_statewideContext_001","occurrence_id":"co_north_horse_creek_11040005_statewideContext_001","occurrence_number":"001","segment_count":11,"disambiguator":"Bear · Statewide Colorado hydrography context · occurrence 001","basin":"Bear","atlas_layer":"named_water_occurrence","object_role":"named_water_occurrence","historic_label":"Statewide Colorado hydrography context","current_label":"Statewide Colorado hydrography context","recovery_label":"Statewide Colorado hydrography context","tier":"tier4","minZoom":15,"confidence_public":"Statewide hydrography context outside current cutthroat lineage model","geometry_status_public":"Named natural stream occurrence from statewide hydrography","geometry_source_public":"Grouped public hydrography segments","trout_source_public":"Included for Colorado statewide hydrography completeness","public_notes":"North Horse Creek is shown as statewide Colorado hydrography context outside the current cutthroat lineage assignment set."}},{"type":"Feature","geometry":{"type":"LineString","coordinates":[[-102.7534,37.5465],[-102.7461,37.5481],[-102.7453,37.5491],[-102.7422,37.5495],[-102.742,37.5503]]},"properties":{"source_id":"co_named_stream_052114","name":"North Horse Creek","display_name":"North Horse Creek","mapped_name":"North Horse Creek","source_name":"North Horse Creek","state":"CO","atlas_class":"named_natural_stream","huc8":"11040005","huc8Name":"Bear","huc8States":"CO,KS","lineageKey":"statewideContext","lineage":"statewideContext","historic":"statewideContext","current":"statewideContext","recovery":"statewideContext","lineageLabel":"Statewide Colorado hydrography context","lineageBasin":"","lineageNote":"","atlas_context":"statewide_hydrography_context","confidence":"Statewide hydrography context outside current cutthroat lineage model","geometryStatus":"Named natural stream segment from statewide hydrography","note":"This named natural stream is included for statewide Colorado hydrography completeness and is outside the current cutthroat lineage assignment set.","source_segment_id":"co_named_stream_052114","water_id":"co_north_horse_creek_11040005_statewideContext_001","occurrence_id":"co_north_horse_creek_11040005_statewideContext_001","occurrence_number":"001","segment_count":11,"disambiguator":"Bear · Statewide Colorado hydrography context · occurrence 001","basin":"Bear","atlas_layer":"named_water_occurrence","object_role":"named_water_occurrence","historic_label":"Statewide Colorado hydrography context","current_label":"Statewide Colorado hydrography context","recovery_label":"Statewide Colorado hydrography context","tier":"tier4","minZoom":15,"confidence_public":"Statewide hydrography context outside current cutthroat lineage model","geometry_status_public":"Named natural stream occurrence from statewide hydrography","geometry_source_public":"Grouped public hydrography segments","trout_source_public":"Included for Colorado statewide hydrography completeness","public_notes":"North Horse Creek is shown as statewide Colorado hydrography context outside the current cutthroat lineage assignment set."}},{"type":"Feature","geometry":{"type":"LineString","coordinates":[[-102.6846,37.5406],[-102.6808,37.5407],[-102.6812,37.5383],[-102.6803,37.5374],[-102.6787,37.5386],[-102.6768,37.5382],[-102.6774,37.5395],[-102.6744,37.5386],[-102.6729,37.5402]]},"properties":{"source_id":"co_named_stream_052245","name":"North Horse Creek","display_name":"North Horse Creek","mapped_name":"North Horse Creek","source_name":"North Horse Creek","state":"CO","atlas_class":"named_natural_stream","huc8":"11040005","huc8Name":"Bear","huc8States":"CO,KS","lineageKey":"statewideContext","lineage":"statewideContext","historic":"statewideContext","current":"statewideContext","recovery":"statewideContext","lineageLabel":"Statewide Colorado hydrography context","lineageBasin":"","lineageNote":"","atlas_context":"statewide_hydrography_context","confidence":"Statewide hydrography context outside current cutthroat lineage model","geometryStatus":"Named natural stream segment from statewide hydrography","note":"This named natural stream is included for statewide Colorado hydrography completeness and is outside the current cutthroat lineage assignment set.","source_segment_id":"co_named_stream_052245","water_id":"co_north_horse_creek_11040005_statewideContext_001","occurrence_id":"co_north_horse_creek_11040005_statewideContext_001","occurrence_number":"001","segment_count":11,"disambiguator":"Bear · Statewide Colorado hydrography context · occurrence 001","basin":"Bear","atlas_layer":"named_water_occurrence","object_role":"named_water_occurrence","historic_label":"Statewide Colorado hydrography context","current_label":"Statewide Colorado hydrography context","recovery_label":"Statewide Colorado hydrography context","tier":"tier4","minZoom":15,"confidence_public":"Statewide hydrography context outside current cutthroat lineage model","geometry_status_public":"Named natural stream occurrence from statewide hydrography","geometry_source_public":"Grouped public hydrography segments","trout_source_public":"Included for Colorado statewide hydrography completeness","public_notes":"North Horse Creek is shown as statewide Colorado hydrography context outside the current cutthroat lineage assignment set."}},{"type":"Feature","geometry":{"type":"LineString","coordinates":[[-102.6181,37.5451],[-102.6154,37.5397],[-102.6063,37.5404],[-102.6055,37.5427],[-102.6037,37.5432],[-102.6021,37.5423],[-102.6021,37.5403],[-102.6003,37.5406],[-102.5986,37.5393],[-102.5952,37.5418],[-102.5943,37.5417],[-102.5946,37.5406],[-102.5938,37.54],[-102.592,37.5401],[-102.5933,37.5412],[-102.5916,37.5413],[-102.5876,37.5372],[-102.5856,37.5379],[-102.5851,37.5411],[-102.5787,37.5389]]},"properties":{"source_id":"co_named_stream_050717","name":"North Horse Creek","display_name":"North Horse Creek","mapped_name":"North Horse Creek","source_name":"North Horse Creek","state":"CO","atlas_class":"named_natural_stream","huc8":"11040005","huc8Name":"Bear","huc8States":"CO,KS","lineageKey":"statewideContext","lineage":"statewideContext","historic":"statewideContext","current":"statewideContext","recovery":"statewideContext","lineageLabel":"Statewide Colorado hydrography context","lineageBasin":"","lineageNote":"","atlas_context":"statewide_hydrography_context","confidence":"Statewide hydrography context outside current cutthroat lineage model","geometryStatus":"Named natural stream segment from statewide hydrography","note":"This named natural stream is included for statewide Colorado hydrography completeness and is outside the current cutthroat lineage assignment set.","source_segment_id":"co_named_stream_050717","water_id":"co_north_horse_creek_11040005_statewideContext_002","occurrence_id":"co_north_horse_creek_11040005_statewideContext_002","occurrence_number":"002","segment_count":1,"disambiguator":"Bear · Statewide Colorado hydrography context · occurrence 002","basin":"Bear","atlas_layer":"named_water_occurrence","object_role":"named_water_occurrence","historic_label":"Statewide Colorado hydrography context","current_label":"Statewide Colorado hydrography context","recovery_label":"Statewide Colorado hydrography context","tier":"tier4","minZoom":15,"confidence_public":"Statewide hydrography context outside current cutthroat lineage model","geometry_status_public":"Named natural stream occurrence from statewide hydrography","geometry_source_public":"Grouped public hydrography segments","trout_source_public":"Included for Colorado statewide hydrography completeness","public_notes":"North Horse Creek is shown as statewide Colorado hydrography context outside the current cutthroat lineage assignment set."}},{"type":"Feature","geometry":{"type":"LineString","coordinates":[[-102.6352,37.5854],[-102.633,37.5855],[-102.6291,37.5837],[-102.6294,37.5855],[-102.6285,37.5857],[-102.6268,37.5829]]},"properties":{"source_id":"co_named_stream_050840","name":"Sand Creek","display_name":"Sand Creek","mapped_name":"Sand Creek","source_name":"Sand Creek","state":"CO","atlas_class":"named_natural_stream","huc8":"11040005","huc8Name":"Bear","huc8States":"CO,KS","lineageKey":"statewideContext","lineage":"statewideContext","historic":"statewideContext","current":"statewideContext","recovery":"statewideContext","lineageLabel":"Statewide Colorado hydrography context","lineageBasin":"","lineageNote":"","atlas_context":"statewide_hydrography_context","confidence":"Statewide hydrography context outside current cutthroat lineage model","geometryStatus":"Named natural stream segment from statewide hydrography","note":"This named natural stream is included for statewide Colorado hydrography completeness and is outside the current cutthroat lineage assignment set.","source_segment_id":"co_named_stream_050840","water_id":"co_sand_creek_11040005_statewideContext_001","occurrence_id":"co_sand_creek_11040005_statewideContext_001","occurrence_number":"001","segment_count":3,"disambiguator":"Bear · Statewide Colorado hydrography context · occurrence 001","basin":"Bear","atlas_layer":"named_water_occurrence","object_role":"named_water_occurrence","historic_label":"Statewide Colorado hydrography context","current_label":"Statewide Colorado hydrography context","recovery_label":"Statewide Colorado hydrography context","tier":"tier4","minZoom":15,"confidence_public":"Statewide hydrography context outside current cutthroat lineage model","geometry_status_public":"Named natural stream occurrence from statewide hydrography","geometry_source_public":"Grouped public hydrography segments","trout_source_public":"Included for Colorado statewide hydrography completeness","public_notes":"Sand Creek is shown as statewide Colorado hydrography context outside the current cutthroat lineage assignment set."}},{"type":"Feature","geometry":{"type":"LineString","coordinates":[[-102.7113,37.5906],[-102.7061,37.5919],[-102.6926,37.5903],[-102.6886,37.5877]]},"properties":{"source_id":"co_named_stream_051233","name":"Sand Creek","display_name":"Sand Creek","mapped_name":"Sand Creek","source_name":"Sand Creek","state":"CO","atlas_class":"named_natural_stream","huc8":"11040005","huc8Name":"Bear","huc8States":"CO,KS","lineageKey":"statewideContext","lineage":"statewideContext","historic":"statewideContext","current":"statewideContext","recovery":"statewideContext","lineageLabel":"Statewide Colorado hydrography context","lineageBasin":"","lineageNote":"","atlas_context":"statewide_hydrography_context","confidence":"Statewide hydrography context outside current cutthroat lineage model","geometryStatus":"Named natural stream segment from statewide hydrography","note":"This named natural stream is included for statewide Colorado hydrography completeness and is outside the current cutthroat lineage assignment set.","source_segment_id":"co_named_stream_051233","water_id":"co_sand_creek_11040005_statewideContext_001","occurrence_id":"co_sand_creek_11040005_statewideContext_001","occurrence_number":"001","segment_count":3,"disambiguator":"Bear · Statewide Colorado hydrography context · occurrence 001","basin":"Bear","atlas_layer":"named_water_occurrence","object_role":"named_water_occurrence","historic_label":"Statewide Colorado hydrography context","current_label":"Statewide Colorado hydrography context","recovery_label":"Statewide Colorado hydrography context","tier":"tier4","minZoom":15,"confidence_public":"Statewide hydrography context outside current cutthroat lineage model","geometry_status_public":"Named natural stream occurrence from statewide hydrography","geometry_source_public":"Grouped public hydrography segments","trout_source_public":"Included for Colorado statewide hydrography completeness","public_notes":"Sand Creek is shown as statewide Colorado hydrography context outside the current cutthroat lineage assignment set."}},{"type":"Feature","geometry":{"type":"LineString","coordinates":[[-102.6886,37.5877],[-102.6869,37.5868]]},"properties":{"source_id":"co_named_stream_051839","name":"Sand Creek","display_name":"Sand Creek","mapped_name":"Sand Creek","source_name":"Sand Creek","state":"CO","atlas_class":"named_natural_stream","huc8":"11040005","huc8Name":"Bear","huc8States":"CO,KS","lineageKey":"statewideContext","lineage":"statewideContext","historic":"statewideContext","current":"statewideContext","recovery":"statewideContext","lineageLabel":"Statewide Colorado hydrography context","lineageBasin":"","lineageNote":"","atlas_context":"statewide_hydrography_context","confidence":"Statewide hydrography context outside current cutthroat lineage model","geometryStatus":"Named natural stream segment from statewide hydrography","note":"This named natural stream is included for statewide Colorado hydrography completeness and is outside the current cutthroat lineage assignment set.","source_segment_id":"co_named_stream_051839","water_id":"co_sand_creek_11040005_statewideContext_001","occurrence_id":"co_sand_creek_11040005_statewideContext_001","occurrence_number":"001","segment_count":3,"disambiguator":"Bear · Statewide Colorado hydrography context · occurrence 001","basin":"Bear","atlas_layer":"named_water_occurrence","object_role":"named_water_occurrence","historic_label":"Statewide Colorado hydrography context","current_label":"Statewide Colorado hydrography context","recovery_label":"Statewide Colorado hydrography context","tier":"tier4","minZoom":15,"confidence_public":"Statewide hydrography context outside current cutthroat lineage model","geometry_status_public":"Named natural stream occurrence from statewide hydrography","geometry_source_public":"Grouped public hydrography segments","trout_source_public":"Included for Colorado statewide hydrography completeness","public_notes":"Sand Creek is shown as statewide Colorado hydrography context outside the current cutthroat lineage assignment set."}},{"type":"Feature","geometry":{"type":"LineString","coordinates":[[-102.6678,37.5203],[-102.6643,37.5184],[-102.6609,37.5195]]},"properties":{"source_id":"co_named_stream_050841","name":"South Horse Creek","display_name":"South Horse Creek","mapped_name":"South Horse Creek","source_name":"South Horse Creek","state":"CO","atlas_class":"named_natural_stream","huc8":"11040005","huc8Name":"Bear","huc8States":"CO,KS","lineageKey":"statewideContext","lineage":"statewideContext","historic":"statewideContext","current":"statewideContext","recovery":"statewideContext","lineageLabel":"Statewide Colorado hydrography context","lineageBasin":"","lineageNote":"","atlas_context":"statewide_hydrography_context","confidence":"Statewide hydrography context outside current cutthroat lineage model","geometryStatus":"Named natural stream segment from statewide hydrography","note":"This named natural stream is included for statewide Colorado hydrography completeness and is outside the current cutthroat lineage assignment set.","source_segment_id":"co_named_stream_050841","water_id":"co_south_horse_creek_11040005_statewideContext_002","occurrence_id":"co_south_horse_creek_11040005_statewideContext_002","occurrence_number":"002","segment_count":14,"disambiguator":"Bear · Statewide Colorado hydrography context · occurrence 002","basin":"Bear","atlas_layer":"named_water_occurrence","object_role":"named_water_occurrence","historic_label":"Statewide Colorado hydrography context","current_label":"Statewide Colorado hydrography context","recovery_label":"Statewide Colorado hydrography context","tier":"tier4","minZoom":15,"confidence_public":"Statewide hydrography context outside current cutthroat lineage model","geometry_status_public":"Named natural stream occurrence from statewide hydrography","geometry_source_public":"Grouped public hydrography segments","trout_source_public":"Included for Colorado statewide hydrography completeness","public_notes":"South Horse Creek is shown as statewide Colorado hydrography context outside the current cutthroat lineage assignment set."}},{"type":"Feature","geometry":{"type":"LineString","coordinates":[[-102.7251,37.5143],[-102.724,37.5138],[-102.7246,37.5129],[-102.7234,37.5122],[-102.7239,37.5099],[-102.7216,37.5094],[-102.7197,37.5108],[-102.7179,37.5097],[-102.7151,37.5104],[-102.7122,37.5095],[-102.71,37.5108],[-102.7077,37.5108],[-102.7078,37.5123],[-102.7072,37.5126],[-102.7052,37.5119],[-102.7028,37.5128],[-102.7032,37.5114],[-102.7018,37.5111],[-102.6983,37.5135],[-102.6977,37.5145],[-102.6986,37.5157],[-102.6964,37.5171],[-102.6925,37.5154],[-102.6766,37.5206],[-102.6678,37.5203]]},"properties":{"source_id":"co_named_stream_051209","name":"South Horse Creek","display_name":"South Horse Creek","mapped_name":"South Horse Creek","source_name":"South Horse Creek","state":"CO","atlas_class":"named_natural_stream","huc8":"11040005","huc8Name":"Bear","huc8States":"CO,KS","lineageKey":"statewideContext","lineage":"statewideContext","historic":"statewideContext","current":"statewideContext","recovery":"statewideContext","lineageLabel":"Statewide Colorado hydrography context","lineageBasin":"","lineageNote":"","atlas_context":"statewide_hydrography_context","confidence":"Statewide hydrography context outside current cutthroat lineage model","geometryStatus":"Named natural stream segment from statewide hydrography","note":"This named natural stream is included for statewide Colorado hydrography completeness and is outside the current cutthroat lineage assignment set.","source_segment_id":"co_named_stream_051209","water_id":"co_south_horse_creek_11040005_statewideContext_002","occurrence_id":"co_south_horse_creek_11040005_statewideContext_002","occurrence_number":"002","segment_count":14,"disambiguator":"Bear · Statewide Colorado hydrography context · occurrence 002","basin":"Bear","atlas_layer":"named_water_occurrence","object_role":"named_water_occurrence","historic_label":"Statewide Colorado hydrography context","current_label":"Statewide Colorado hydrography context","recovery_label":"Statewide Colorado hydrography context","tier":"tier4","minZoom":15,"confidence_public":"Statewide hydrography context outside current cutthroat lineage model","geometry_status_public":"Named natural stream occurrence from statewide hydrography","geometry_source_public":"Grouped public hydrography segments","trout_source_public":"Included for Colorado statewide hydrography completeness","public_notes":"South Horse Creek is shown as statewide Colorado hydrography context outside the current cutthroat lineage assignment set."}},{"type":"Feature","geometry":{"type":"LineString","coordinates":[[-102.6603,37.5197],[-102.6536,37.5182]]},"properties":{"source_id":"co_named_stream_051311","name":"South Horse Creek","display_name":"South Horse Creek","mapped_name":"South Horse Creek","source_name":"South Horse Creek","state":"CO","atlas_class":"named_natural_stream","huc8":"11040005","huc8Name":"Bear","huc8States":"CO,KS","lineageKey":"statewideContext","lineage":"statewideContext","historic":"statewideContext","current":"statewideContext","recovery":"statewideContext","lineageLabel":"Statewide Colorado hydrography context","lineageBasin":"","lineageNote":"","atlas_context":"statewide_hydrography_context","confidence":"Statewide hydrography context outside current cutthroat lineage model","geometryStatus":"Named natural stream segment from statewide hydrography","note":"This named natural stream is included for statewide Colorado hydrography completeness and is outside the current cutthroat lineage assignment set.","source_segment_id":"co_named_stream_051311","water_id":"co_south_horse_creek_11040005_statewideContext_002","occurrence_id":"co_south_horse_creek_11040005_statewideContext_002","occurrence_number":"002","segment_count":14,"disambiguator":"Bear · Statewide Colorado hydrography context · occurrence 002","basin":"Bear","atlas_layer":"named_water_occurrence","object_role":"named_water_occurrence","historic_label":"Statewide Colorado hydrography context","current_label":"Statewide Colorado hydrography context","recovery_label":"Statewide Colorado hydrography context","tier":"tier4","minZoom":15,"confidence_public":"Statewide hydrography context outside current cutthroat lineage model","geometry_status_public":"Named natural stream occurrence from statewide hydrography","geometry_source_public":"Grouped public hydrography segments","trout_source_public":"Included for Colorado statewide hydrography completeness","public_notes":"South Horse Creek is shown as statewide Colorado hydrography context outside the current cutthroat lineage assignment set."}},{"type":"Feature","geometry":{"type":"LineString","coordinates":[[-102.653,37.5182],[-102.6496,37.5193],[-102.646,37.5181],[-102.6403,37.5179]]},"properties":{"source_id":"co_named_stream_051534","name":"South Horse Creek","display_name":"South Horse Creek","mapped_name":"South Horse Creek","source_name":"South Horse Creek","state":"CO","atlas_class":"named_natural_stream","huc8":"11040005","huc8Name":"Bear","huc8States":"CO,KS","lineageKey":"statewideContext","lineage":"statewideContext","historic":"statewideContext","current":"statewideContext","recovery":"statewideContext","lineageLabel":"Statewide Colorado hydrography context","lineageBasin":"","lineageNote":"","atlas_context":"statewide_hydrography_context","confidence":"Statewide hydrography context outside current cutthroat lineage model","geometryStatus":"Named natural stream segment from statewide hydrography","note":"This named natural stream is included for statewide Colorado hydrography completeness and is outside the current cutthroat lineage assignment set.","source_segment_id":"co_named_stream_051534","water_id":"co_south_horse_creek_11040005_statewideContext_002","occurrence_id":"co_south_horse_creek_11040005_statewideContext_002","occurrence_number":"002","segment_count":14,"disambiguator":"Bear · Statewide Colorado hydrography context · occurrence 002","basin":"Bear","atlas_layer":"named_water_occurrence","object_role":"named_water_occurrence","historic_label":"Statewide Colorado hydrography context","current_label":"Statewide Colorado hydrography context","recovery_label":"Statewide Colorado hydrography context","tier":"tier4","minZoom":15,"confidence_public":"Statewide hydrography context outside current cutthroat lineage model","geometry_status_public":"Named natural stream occurrence from statewide hydrography","geometry_source_public":"Grouped public hydrography segments","trout_source_public":"Included for Colorado statewide hydrography completeness","public_notes":"South Horse Creek is shown as statewide Colorado hydrography context outside the current cutthroat lineage assignment set."}},{"type":"Feature","geometry":{"type":"LineString","coordinates":[[-102.6403,37.5179],[-102.626,37.5223],[-102.6205,37.5223],[-102.618,37.52]]},"properties":{"source_id":"co_named_stream_051963","name":"South Horse Creek","display_name":"South Horse Creek","mapped_name":"South Horse Creek","source_name":"South Horse Creek","state":"CO","atlas_class":"named_natural_stream","huc8":"11040005","huc8Name":"Bear","huc8States":"CO,KS","lineageKey":"statewideContext","lineage":"statewideContext","historic":"statewideContext","current":"statewideContext","recovery":"statewideContext","lineageLabel":"Statewide Colorado hydrography context","lineageBasin":"","lineageNote":"","atlas_context":"statewide_hydrography_context","confidence":"Statewide hydrography context outside current cutthroat lineage model","geometryStatus":"Named natural stream segment from statewide hydrography","note":"This named natural stream is included for statewide Colorado hydrography completeness and is outside the current cutthroat lineage assignment set.","source_segment_id":"co_named_stream_051963","water_id":"co_south_horse_creek_11040005_statewideContext_002","occurrence_id":"co_south_horse_creek_11040005_statewideContext_002","occurrence_number":"002","segment_count":14,"disambiguator":"Bear · Statewide Colorado hydrography context · occurrence 002","basin":"Bear","atlas_layer":"named_water_occurrence","object_role":"named_water_occurrence","historic_label":"Statewide Colorado hydrography context","current_label":"Statewide Colorado hydrography context","recovery_label":"Statewide Colorado hydrography context","tier":"tier4","minZoom":15,"confidence_public":"Statewide hydrography context outside current cutthroat lineage model","geometry_status_public":"Named natural stream occurrence from statewide hydrography","geometry_source_public":"Grouped public hydrography segments","trout_source_public":"Included for Colorado statewide hydrography completeness","public_notes":"South Horse Creek is shown as statewide Colorado hydrography context outside the current cutthroat lineage assignment set."}},{"type":"Feature","geometry":{"type":"LineString","coordinates":[[-102.6042,37.5177],[-102.6023,37.5177],[-102.6011,37.5186]]},"properties":{"source_id":"co_named_stream_051988","name":"South Horse Creek","display_name":"South Horse Creek","mapped_name":"South Horse Creek","source_name":"South Horse Creek","state":"CO","atlas_class":"named_natural_stream","huc8":"11040005","huc8Name":"Bear","huc8States":"CO,KS","lineageKey":"statewideContext","lineage":"statewideContext","historic":"statewideContext","current":"statewideContext","recovery":"statewideContext","lineageLabel":"Statewide Colorado hydrography context","lineageBasin":"","lineageNote":"","atlas_context":"statewide_hydrography_context","confidence":"Statewide hydrography context outside current cutthroat lineage model","geometryStatus":"Named natural stream segment from statewide hydrography","note":"This named natural stream is included for statewide Colorado hydrography completeness and is outside the current cutthroat lineage assignment set.","source_segment_id":"co_named_stream_051988","water_id":"co_south_horse_creek_11040005_statewideContext_002","occurrence_id":"co_south_horse_creek_11040005_statewideContext_002","occurrence_number":"002","segment_count":14,"disambiguator":"Bear · Statewide Colorado hydrography context · occurrence 002","basin":"Bear","atlas_layer":"named_water_occurrence","object_role":"named_water_occurrence","historic_label":"Statewide Colorado hydrography context","current_label":"Statewide Colorado hydrography context","recovery_label":"Statewide Colorado hydrography context","tier":"tier4","minZoom":15,"confidence_public":"Statewide hydrography context outside current cutthroat lineage model","geometry_status_public":"Named natural stream occurrence from statewide hydrography","geometry_source_public":"Grouped public hydrography segments","trout_source_public":"Included for Colorado statewide hydrography completeness","public_notes":"South Horse Creek is shown as statewide Colorado hydrography context outside the current cutthroat lineage assignment set."}},{"type":"Feature","geometry":{"type":"LineString","coordinates":[[-102.751,37.5137],[-102.7506,37.5129],[-102.7482,37.5129],[-102.7477,37.5116],[-102.7449,37.5115]]},"properties":{"source_id":"co_named_stream_052037","name":"South Horse Creek","display_name":"South Horse Creek","mapped_name":"South Horse Creek","source_name":"South Horse Creek","state":"CO","atlas_class":"named_natural_stream","huc8":"11040005","huc8Name":"Bear","huc8States":"CO,KS","lineageKey":"statewideContext","lineage":"statewideContext","historic":"statewideContext","current":"statewideContext","recovery":"statewideContext","lineageLabel":"Statewide Colorado hydrography context","lineageBasin":"","lineageNote":"","atlas_context":"statewide_hydrography_context","confidence":"Statewide hydrography context outside current cutthroat lineage model","geometryStatus":"Named natural stream segment from statewide hydrography","note":"This named natural stream is included for statewide Colorado hydrography completeness and is outside the current cutthroat lineage assignment set.","source_segment_id":"co_named_stream_052037","water_id":"co_south_horse_creek_11040005_statewideContext_002","occurrence_id":"co_south_horse_creek_11040005_statewideContext_002","occurrence_number":"002","segment_count":14,"disambiguator":"Bear · Statewide Colorado hydrography context · occurrence 002","basin":"Bear","atlas_layer":"named_water_occurrence","object_role":"named_water_occurrence","historic_label":"Statewide Colorado hydrography context","current_label":"Statewide Colorado hydrography context","recovery_label":"Statewide Colorado hydrography context","tier":"tier4","minZoom":15,"confidence_public":"Statewide hydrography context outside current cutthroat lineage model","geometry_status_public":"Named natural stream occurrence from statewide hydrography","geometry_source_public":"Grouped public hydrography segments","trout_source_public":"Included for Colorado statewide hydrography completeness","public_notes":"South Horse Creek is shown as statewide Colorado hydrography context outside the current cutthroat lineage assignment set."}},{"type":"Feature","geometry":{"type":"LineString","coordinates":[[-102.7449,37.5115],[-102.7416,37.5112],[-102.7412,37.5097],[-102.7376,37.5088],[-102.7322,37.5124],[-102.7301,37.512],[-102.7251,37.5143]]},"properties":{"source_id":"co_named_stream_052370","name":"South Horse Creek","display_name":"South Horse Creek","mapped_name":"South Horse Creek","source_name":"South Horse Creek","state":"CO","atlas_class":"named_natural_stream","huc8":"11040005","huc8Name":"Bear","huc8States":"CO,KS","lineageKey":"statewideContext","lineage":"statewideContext","historic":"statewideContext","current":"statewideContext","recovery":"statewideContext","lineageLabel":"Statewide Colorado hydrography context","lineageBasin":"","lineageNote":"","atlas_context":"statewide_hydrography_context","confidence":"Statewide hydrography context outside current cutthroat lineage model","geometryStatus":"Named natural stream segment from statewide hydrography","note":"This named natural stream is included for statewide Colorado hydrography completeness and is outside the current cutthroat lineage assignment set.","source_segment_id":"co_named_stream_052370","water_id":"co_south_horse_creek_11040005_statewideContext_002","occurrence_id":"co_south_horse_creek_11040005_statewideContext_002","occurrence_number":"002","segment_count":14,"disambiguator":"Bear · Statewide Colorado hydrography context · occurrence 002","basin":"Bear","atlas_layer":"named_water_occurrence","object_role":"named_water_occurrence","historic_label":"Statewide Colorado hydrography context","current_label":"Statewide Colorado hydrography context","recovery_label":"Statewide Colorado hydrography context","tier":"tier4","minZoom":15,"confidence_public":"Statewide hydrography context outside current cutthroat lineage model","geometry_status_public":"Named natural stream occurrence from statewide hydrography","geometry_source_public":"Grouped public hydrography segments","trout_source_public":"Included for Colorado statewide hydrography completeness","public_notes":"South Horse Creek is shown as statewide Colorado hydrography context outside the current cutthroat lineage assignment set."}},{"type":"Feature","geometry":{"type":"LineString","coordinates":[[-102.6001,37.5185],[-102.596,37.5173]]},"properties":{"source_id":"co_named_stream_052426","name":"South Horse Creek","display_name":"South Horse Creek","mapped_name":"South Horse Creek","source_name":"South Horse Creek","state":"CO","atlas_class":"named_natural_stream","huc8":"11040005","huc8Name":"Bear","huc8States":"CO,KS","lineageKey":"statewideContext","lineage":"statewideContext","historic":"statewideContext","current":"statewideContext","recovery":"statewideContext","lineageLabel":"Statewide Colorado hydrography context","lineageBasin":"","lineageNote":"","atlas_context":"statewide_hydrography_context","confidence":"Statewide hydrography context outside current cutthroat lineage model","geometryStatus":"Named natural stream segment from statewide hydrography","note":"This named natural stream is included for statewide Colorado hydrography completeness and is outside the current cutthroat lineage assignment set.","source_segment_id":"co_named_stream_052426","water_id":"co_south_horse_creek_11040005_statewideContext_002","occurrence_id":"co_south_horse_creek_11040005_statewideContext_002","occurrence_number":"002","segment_count":14,"disambiguator":"Bear · Statewide Colorado hydrography context · occurrence 002","basin":"Bear","atlas_layer":"named_water_occurrence","object_role":"named_water_occurrence","historic_label":"Statewide Colorado hydrography context","current_label":"Statewide Colorado hydrography context","recovery_label":"Statewide Colorado hydrography context","tier":"tier4","minZoom":15,"confidence_public":"Statewide hydrography context outside current cutthroat lineage model","geometry_status_public":"Named natural stream occurrence from statewide hydrography","geometry_source_public":"Grouped public hydrography segments","trout_source_public":"Included for Colorado statewide hydrography completeness","public_notes":"South Horse Creek is shown as statewide Colorado hydrography context outside the current cutthroat lineage assignment set."}},{"type":"Feature","geometry":{"type":"LineString","coordinates":[[-102.618,37.52],[-102.6148,37.5186],[-102.613,37.5195],[-102.6132,37.5206],[-102.6117,37.5208],[-102.6093,37.5202],[-102.6078,37.5186]]},"properties":{"source_id":"co_named_stream_052477","name":"South Horse Creek","display_name":"South Horse Creek","mapped_name":"South Horse Creek","source_name":"South Horse Creek","state":"CO","atlas_class":"named_natural_stream","huc8":"11040005","huc8Name":"Bear","huc8States":"CO,KS","lineageKey":"statewideContext","lineage":"statewideContext","historic":"statewideContext","current":"statewideContext","recovery":"statewideContext","lineageLabel":"Statewide Colorado hydrography context","lineageBasin":"","lineageNote":"","atlas_context":"statewide_hydrography_context","confidence":"Statewide hydrography context outside current cutthroat lineage model","geometryStatus":"Named natural stream segment from statewide hydrography","note":"This named natural stream is included for statewide Colorado hydrography completeness and is outside the current cutthroat lineage assignment set.","source_segment_id":"co_named_stream_052477","water_id":"co_south_horse_creek_11040005_statewideContext_002","occurrence_id":"co_south_horse_creek_11040005_statewideContext_002","occurrence_number":"002","segment_count":14,"disambiguator":"Bear · Statewide Colorado hydrography context · occurrence 002","basin":"Bear","atlas_layer":"named_water_occurrence","object_role":"named_water_occurrence","historic_label":"Statewide Colorado hydrography context","current_label":"Statewide Colorado hydrography context","recovery_label":"Statewide Colorado hydrography context","tier":"tier4","minZoom":15,"confidence_public":"Statewide hydrography context outside current cutthroat lineage model","geometry_status_public":"Named natural stream occurrence from statewide hydrography","geometry_source_public":"Grouped public hydrography segments","trout_source_public":"Included for Colorado statewide hydrography completeness","public_notes":"South Horse Creek is shown as statewide Colorado hydrography context outside the current cutthroat lineage assignment set."}},{"type":"Feature","geometry":{"type":"LineString","coordinates":[[-102.571,37.5234],[-102.5653,37.5227]]},"properties":{"source_id":"co_named_stream_051390","name":"South Horse Creek","display_name":"South Horse Creek","mapped_name":"South Horse Creek","source_name":"South Horse Creek","state":"CO","atlas_class":"named_natural_stream","huc8":"11040005","huc8Name":"Bear","huc8States":"CO,KS","lineageKey":"statewideContext","lineage":"statewideContext","historic":"statewideContext","current":"statewideContext","recovery":"statewideContext","lineageLabel":"Statewide Colorado hydrography context","lineageBasin":"","lineageNote":"","atlas_context":"statewide_hydrography_context","confidence":"Statewide hydrography context outside current cutthroat lineage model","geometryStatus":"Named natural stream segment from statewide hydrography","note":"This named natural stream is included for statewide Colorado hydrography completeness and is outside the current cutthroat lineage assignment set.","source_segment_id":"co_named_stream_051390","water_id":"co_south_horse_creek_11040005_statewideContext_003","occurrence_id":"co_south_horse_creek_11040005_statewideContext_003","occurrence_number":"003","segment_count":3,"disambiguator":"Bear · Statewide Colorado hydrography context · occurrence 003","basin":"Bear","atlas_layer":"named_water_occurrence","object_role":"named_water_occurrence","historic_label":"Statewide Colorado hydrography context","current_label":"Statewide Colorado hydrography context","recovery_label":"Statewide Colorado hydrography context","tier":"tier4","minZoom":15,"confidence_public":"Statewide hydrography context outside current cutthroat lineage model","geometry_status_public":"Named natural stream occurrence from statewide hydrography","geometry_source_public":"Grouped public hydrography segments","trout_source_public":"Included for Colorado statewide hydrography completeness","public_notes":"South Horse Creek is shown as statewide Colorado hydrography context outside the current cutthroat lineage assignment set."}},{"type":"Feature","geometry":{"type":"LineString","coordinates":[[-102.5628,37.5237],[-102.5637,37.525],[-102.5631,37.5264],[-102.5596,37.5262]]},"properties":{"source_id":"co_named_stream_051658","name":"South Horse Creek","display_name":"South Horse Creek","mapped_name":"South Horse Creek","source_name":"South Horse Creek","state":"CO","atlas_class":"named_natural_stream","huc8":"11040005","huc8Name":"Bear","huc8States":"CO,KS","lineageKey":"statewideContext","lineage":"statewideContext","historic":"statewideContext","current":"statewideContext","recovery":"statewideContext","lineageLabel":"Statewide Colorado hydrography context","lineageBasin":"","lineageNote":"","atlas_context":"statewide_hydrography_context","confidence":"Statewide hydrography context outside current cutthroat lineage model","geometryStatus":"Named natural stream segment from statewide hydrography","note":"This named natural stream is included for statewide Colorado hydrography completeness and is outside the current cutthroat lineage assignment set.","source_segment_id":"co_named_stream_051658","water_id":"co_south_horse_creek_11040005_statewideContext_003","occurrence_id":"co_south_horse_creek_11040005_statewideContext_003","occurrence_number":"003","segment_count":3,"disambiguator":"Bear · Statewide Colorado hydrography context · occurrence 003","basin":"Bear","atlas_layer":"named_water_occurrence","object_role":"named_water_occurrence","historic_label":"Statewide Colorado hydrography context","current_label":"Statewide Colorado hydrography context","recovery_label":"Statewide Colorado hydrography context","tier":"tier4","minZoom":15,"confidence_public":"Statewide hydrography context outside current cutthroat lineage model","geometry_status_public":"Named natural stream occurrence from statewide hydrography","geometry_source_public":"Grouped public hydrography segments","trout_source_public":"Included for Colorado statewide hydrography completeness","public_notes":"South Horse Creek is shown as statewide Colorado hydrography context outside the current cutthroat lineage assignment set."}},{"type":"Feature","geometry":{"type":"LineString","coordinates":[[-102.5801,37.5168],[-102.5792,37.5175]]},"properties":{"source_id":"co_named_stream_051859","name":"South Horse Creek","display_name":"South Horse Creek","mapped_name":"South Horse Creek","source_name":"South Horse Creek","state":"CO","atlas_class":"named_natural_stream","huc8":"11040005","huc8Name":"Bear","huc8States":"CO,KS","lineageKey":"statewideContext","lineage":"statewideContext","historic":"statewideContext","current":"statewideContext","recovery":"statewideContext","lineageLabel":"Statewide Colorado hydrography context","lineageBasin":"","lineageNote":"","atlas_context":"statewide_hydrography_context","confidence":"Statewide hydrography context outside current cutthroat lineage model","geometryStatus":"Named natural stream segment from statewide hydrography","note":"This named natural stream is included for statewide Colorado hydrography completeness and is outside the current cutthroat lineage assignment set.","source_segment_id":"co_named_stream_051859","water_id":"co_south_horse_creek_11040005_statewideContext_003","occurrence_id":"co_south_horse_creek_11040005_statewideContext_003","occurrence_number":"003","segment_count":3,"disambiguator":"Bear · Statewide Colorado hydrography context · occurrence 003","basin":"Bear","atlas_layer":"named_water_occurrence","object_role":"named_water_occurrence","historic_label":"Statewide Colorado hydrography context","current_label":"Statewide Colorado hydrography context","recovery_label":"Statewide Colorado hydrography context","tier":"tier4","minZoom":15,"confidence_public":"Statewide hydrography context outside current cutthroat lineage model","geometry_status_public":"Named natural stream occurrence from statewide hydrography","geometry_source_public":"Grouped public hydrography segments","trout_source_public":"Included for Colorado statewide hydrography completeness","public_notes":"South Horse Creek is shown as statewide Colorado hydrography context outside the current cutthroat lineage assignment set."}}]}