{"type":"FeatureCollection","metadata":{"source":"C:\\ct-atlas-data\\processed\\geojson\\interpreted\\colorado_named_natural_streams_complete_v1.geojson","tier":"tier4","tile_size_degrees":0.25,"x":-413,"y":149,"bounds":{"west":-103.25,"south":37.25,"east":-103,"north":37.5}},"features":[{"type":"Feature","geometry":{"type":"LineString","coordinates":[[-103.1296,37.4947],[-103.1279,37.4946],[-103.1269,37.4954],[-103.1243,37.4949],[-103.1237,37.4968]]},"properties":{"source_id":"co_named_stream_034699","name":"Two Butte Creek","display_name":"Two Butte Creek","mapped_name":"Two Butte Creek","source_name":"Two Butte Creek","state":"CO","atlas_class":"named_natural_stream","huc8":"11020013","huc8Name":"Two Butte","huc8States":"CO","lineageKey":"statewideContext","lineage":"statewideContext","historic":"statewideContext","current":"statewideContext","recovery":"statewideContext","lineageLabel":"Statewide Colorado hydrography context","lineageBasin":"","lineageNote":"","atlas_context":"statewide_hydrography_context","confidence":"Statewide hydrography context outside current cutthroat lineage model","geometryStatus":"Named natural stream segment from statewide hydrography","note":"This named natural stream is included for statewide Colorado hydrography completeness and is outside the current cutthroat lineage assignment set.","source_segment_id":"co_named_stream_034699","water_id":"co_two_butte_creek_11020013_statewideContext_005","occurrence_id":"co_two_butte_creek_11020013_statewideContext_005","occurrence_number":"005","segment_count":9,"disambiguator":"Two Butte · Statewide Colorado hydrography context · occurrence 005","basin":"Two Butte","atlas_layer":"named_water_occurrence","object_role":"named_water_occurrence","historic_label":"Statewide Colorado hydrography context","current_label":"Statewide Colorado hydrography context","recovery_label":"Statewide Colorado hydrography context","tier":"tier4","minZoom":15,"confidence_public":"Statewide hydrography context outside current cutthroat lineage model","geometry_status_public":"Named natural stream occurrence from statewide hydrography","geometry_source_public":"Grouped public hydrography segments","trout_source_public":"Included for Colorado statewide hydrography completeness","public_notes":"Two Butte Creek is shown as statewide Colorado hydrography context outside the current cutthroat lineage assignment set."}},{"type":"Feature","geometry":{"type":"LineString","coordinates":[[-103.1367,37.4938],[-103.1357,37.4947],[-103.1319,37.4955],[-103.1296,37.4947]]},"properties":{"source_id":"co_named_stream_035728","name":"Two Butte Creek","display_name":"Two Butte Creek","mapped_name":"Two Butte Creek","source_name":"Two Butte Creek","state":"CO","atlas_class":"named_natural_stream","huc8":"11020013","huc8Name":"Two Butte","huc8States":"CO","lineageKey":"statewideContext","lineage":"statewideContext","historic":"statewideContext","current":"statewideContext","recovery":"statewideContext","lineageLabel":"Statewide Colorado hydrography context","lineageBasin":"","lineageNote":"","atlas_context":"statewide_hydrography_context","confidence":"Statewide hydrography context outside current cutthroat lineage model","geometryStatus":"Named natural stream segment from statewide hydrography","note":"This named natural stream is included for statewide Colorado hydrography completeness and is outside the current cutthroat lineage assignment set.","source_segment_id":"co_named_stream_035728","water_id":"co_two_butte_creek_11020013_statewideContext_005","occurrence_id":"co_two_butte_creek_11020013_statewideContext_005","occurrence_number":"005","segment_count":9,"disambiguator":"Two Butte · Statewide Colorado hydrography context · occurrence 005","basin":"Two Butte","atlas_layer":"named_water_occurrence","object_role":"named_water_occurrence","historic_label":"Statewide Colorado hydrography context","current_label":"Statewide Colorado hydrography context","recovery_label":"Statewide Colorado hydrography context","tier":"tier4","minZoom":15,"confidence_public":"Statewide hydrography context outside current cutthroat lineage model","geometry_status_public":"Named natural stream occurrence from statewide hydrography","geometry_source_public":"Grouped public hydrography segments","trout_source_public":"Included for Colorado statewide hydrography completeness","public_notes":"Two Butte Creek is shown as statewide Colorado hydrography context outside the current cutthroat lineage assignment set."}},{"type":"Feature","geometry":{"type":"LineString","coordinates":[[-103.1623,37.4789],[-103.1622,37.4772],[-103.1615,37.4771]]},"properties":{"source_id":"co_named_stream_035889","name":"Two Butte Creek","display_name":"Two Butte Creek","mapped_name":"Two Butte Creek","source_name":"Two Butte Creek","state":"CO","atlas_class":"named_natural_stream","huc8":"11020013","huc8Name":"Two Butte","huc8States":"CO","lineageKey":"statewideContext","lineage":"statewideContext","historic":"statewideContext","current":"statewideContext","recovery":"statewideContext","lineageLabel":"Statewide Colorado hydrography context","lineageBasin":"","lineageNote":"","atlas_context":"statewide_hydrography_context","confidence":"Statewide hydrography context outside current cutthroat lineage model","geometryStatus":"Named natural stream segment from statewide hydrography","note":"This named natural stream is included for statewide Colorado hydrography completeness and is outside the current cutthroat lineage assignment set.","source_segment_id":"co_named_stream_035889","water_id":"co_two_butte_creek_11020013_statewideContext_005","occurrence_id":"co_two_butte_creek_11020013_statewideContext_005","occurrence_number":"005","segment_count":9,"disambiguator":"Two Butte · Statewide Colorado hydrography context · occurrence 005","basin":"Two Butte","atlas_layer":"named_water_occurrence","object_role":"named_water_occurrence","historic_label":"Statewide Colorado hydrography context","current_label":"Statewide Colorado hydrography context","recovery_label":"Statewide Colorado hydrography context","tier":"tier4","minZoom":15,"confidence_public":"Statewide hydrography context outside current cutthroat lineage model","geometry_status_public":"Named natural stream occurrence from statewide hydrography","geometry_source_public":"Grouped public hydrography segments","trout_source_public":"Included for Colorado statewide hydrography completeness","public_notes":"Two Butte Creek is shown as statewide Colorado hydrography context outside the current cutthroat lineage assignment set."}},{"type":"Feature","geometry":{"type":"LineString","coordinates":[[-103.1927,37.4825],[-103.1915,37.4821],[-103.1913,37.483],[-103.1889,37.4832],[-103.1861,37.4821],[-103.1855,37.4827]]},"properties":{"source_id":"co_named_stream_041764","name":"Two Butte Creek","display_name":"Two Butte Creek","mapped_name":"Two Butte Creek","source_name":"Two Butte Creek","state":"CO","atlas_class":"named_natural_stream","huc8":"11020013","huc8Name":"Two Butte","huc8States":"CO","lineageKey":"statewideContext","lineage":"statewideContext","historic":"statewideContext","current":"statewideContext","recovery":"statewideContext","lineageLabel":"Statewide Colorado hydrography context","lineageBasin":"","lineageNote":"","atlas_context":"statewide_hydrography_context","confidence":"Statewide hydrography context outside current cutthroat lineage model","geometryStatus":"Named natural stream segment from statewide hydrography","note":"This named natural stream is included for statewide Colorado hydrography completeness and is outside the current cutthroat lineage assignment set.","source_segment_id":"co_named_stream_041764","water_id":"co_two_butte_creek_11020013_statewideContext_005","occurrence_id":"co_two_butte_creek_11020013_statewideContext_005","occurrence_number":"005","segment_count":9,"disambiguator":"Two Butte · Statewide Colorado hydrography context · occurrence 005","basin":"Two Butte","atlas_layer":"named_water_occurrence","object_role":"named_water_occurrence","historic_label":"Statewide Colorado hydrography context","current_label":"Statewide Colorado hydrography context","recovery_label":"Statewide Colorado hydrography context","tier":"tier4","minZoom":15,"confidence_public":"Statewide hydrography context outside current cutthroat lineage model","geometry_status_public":"Named natural stream occurrence from statewide hydrography","geometry_source_public":"Grouped public hydrography segments","trout_source_public":"Included for Colorado statewide hydrography completeness","public_notes":"Two Butte Creek is shown as statewide Colorado hydrography context outside the current cutthroat lineage assignment set."}},{"type":"Feature","geometry":{"type":"LineString","coordinates":[[-103.1036,37.4417],[-103.1026,37.4435]]},"properties":{"source_id":"co_named_stream_028929","name":"Burro Arroyo","display_name":"Burro Arroyo","mapped_name":"Burro Arroyo","source_name":"Burro Arroyo","state":"CO","atlas_class":"named_natural_stream","huc8":"11020013","huc8Name":"Two Butte","huc8States":"CO","lineageKey":"statewideContext","lineage":"statewideContext","historic":"statewideContext","current":"statewideContext","recovery":"statewideContext","lineageLabel":"Statewide Colorado hydrography context","lineageBasin":"","lineageNote":"","atlas_context":"statewide_hydrography_context","confidence":"Statewide hydrography context outside current cutthroat lineage model","geometryStatus":"Named natural stream segment from statewide hydrography","note":"This named natural stream is included for statewide Colorado hydrography completeness and is outside the current cutthroat lineage assignment set.","source_segment_id":"co_named_stream_028929","water_id":"co_burro_arroyo_11020013_statewideContext_002","occurrence_id":"co_burro_arroyo_11020013_statewideContext_002","occurrence_number":"002","segment_count":2,"disambiguator":"Two Butte · Statewide Colorado hydrography context · occurrence 002","basin":"Two Butte","atlas_layer":"named_water_occurrence","object_role":"named_water_occurrence","historic_label":"Statewide Colorado hydrography context","current_label":"Statewide Colorado hydrography context","recovery_label":"Statewide Colorado hydrography context","tier":"tier4","minZoom":15,"confidence_public":"Statewide hydrography context outside current cutthroat lineage model","geometry_status_public":"Named natural stream occurrence from statewide hydrography","geometry_source_public":"Grouped public hydrography segments","trout_source_public":"Included for Colorado statewide hydrography completeness","public_notes":"Burro Arroyo is shown as statewide Colorado hydrography context outside the current cutthroat lineage assignment set."}},{"type":"Feature","geometry":{"type":"LineString","coordinates":[[-103.1026,37.4435],[-103.1022,37.4454]]},"properties":{"source_id":"co_named_stream_031084","name":"Burro Arroyo","display_name":"Burro Arroyo","mapped_name":"Burro Arroyo","source_name":"Burro Arroyo","state":"CO","atlas_class":"named_natural_stream","huc8":"11020013","huc8Name":"Two Butte","huc8States":"CO","lineageKey":"statewideContext","lineage":"statewideContext","historic":"statewideContext","current":"statewideContext","recovery":"statewideContext","lineageLabel":"Statewide Colorado hydrography context","lineageBasin":"","lineageNote":"","atlas_context":"statewide_hydrography_context","confidence":"Statewide hydrography context outside current cutthroat lineage model","geometryStatus":"Named natural stream segment from statewide hydrography","note":"This named natural stream is included for statewide Colorado hydrography completeness and is outside the current cutthroat lineage assignment set.","source_segment_id":"co_named_stream_031084","water_id":"co_burro_arroyo_11020013_statewideContext_002","occurrence_id":"co_burro_arroyo_11020013_statewideContext_002","occurrence_number":"002","segment_count":2,"disambiguator":"Two Butte · Statewide Colorado hydrography context · occurrence 002","basin":"Two Butte","atlas_layer":"named_water_occurrence","object_role":"named_water_occurrence","historic_label":"Statewide Colorado hydrography context","current_label":"Statewide Colorado hydrography context","recovery_label":"Statewide Colorado hydrography context","tier":"tier4","minZoom":15,"confidence_public":"Statewide hydrography context outside current cutthroat lineage model","geometry_status_public":"Named natural stream occurrence from statewide hydrography","geometry_source_public":"Grouped public hydrography segments","trout_source_public":"Included for Colorado statewide hydrography completeness","public_notes":"Burro Arroyo is shown as statewide Colorado hydrography context outside the current cutthroat lineage assignment set."}},{"type":"Feature","geometry":{"type":"LineString","coordinates":[[-103.0344,37.2534],[-103.0276,37.2507]]},"properties":{"source_id":"co_named_stream_050748","name":"South Fork Sand Arroyo","display_name":"South Fork Sand Arroyo","mapped_name":"South Fork Sand Arroyo","source_name":"South Fork Sand Arroyo","state":"CO","atlas_class":"named_natural_stream","huc8":"11040004","huc8Name":"Sand Arroyo","huc8States":"CO,KS","lineageKey":"statewideContext","lineage":"statewideContext","historic":"statewideContext","current":"statewideContext","recovery":"statewideContext","lineageLabel":"Statewide Colorado hydrography context","lineageBasin":"","lineageNote":"","atlas_context":"statewide_hydrography_context","confidence":"Statewide hydrography context outside current cutthroat lineage model","geometryStatus":"Named natural stream segment from statewide hydrography","note":"This named natural stream is included for statewide Colorado hydrography completeness and is outside the current cutthroat lineage assignment set.","source_segment_id":"co_named_stream_050748","water_id":"co_south_fork_sand_arroyo_11040004_statewideContext_002","occurrence_id":"co_south_fork_sand_arroyo_11040004_statewideContext_002","occurrence_number":"002","segment_count":2,"disambiguator":"Sand Arroyo · Statewide Colorado hydrography context · occurrence 002","basin":"Sand Arroyo","atlas_layer":"named_water_occurrence","object_role":"named_water_occurrence","historic_label":"Statewide Colorado hydrography context","current_label":"Statewide Colorado hydrography context","recovery_label":"Statewide Colorado hydrography context","tier":"tier4","minZoom":15,"confidence_public":"Statewide hydrography context outside current cutthroat lineage model","geometry_status_public":"Named natural stream occurrence from statewide hydrography","geometry_source_public":"Grouped public hydrography segments","trout_source_public":"Included for Colorado statewide hydrography completeness","public_notes":"South Fork Sand Arroyo is shown as statewide Colorado hydrography context outside the current cutthroat lineage assignment set."}},{"type":"Feature","geometry":{"type":"LineString","coordinates":[[-103.0392,37.2543],[-103.038,37.2541]]},"properties":{"source_id":"co_named_stream_050770","name":"South Fork Sand Arroyo","display_name":"South Fork Sand Arroyo","mapped_name":"South Fork Sand Arroyo","source_name":"South Fork Sand Arroyo","state":"CO","atlas_class":"named_natural_stream","huc8":"11040004","huc8Name":"Sand Arroyo","huc8States":"CO,KS","lineageKey":"statewideContext","lineage":"statewideContext","historic":"statewideContext","current":"statewideContext","recovery":"statewideContext","lineageLabel":"Statewide Colorado hydrography context","lineageBasin":"","lineageNote":"","atlas_context":"statewide_hydrography_context","confidence":"Statewide hydrography context outside current cutthroat lineage model","geometryStatus":"Named natural stream segment from statewide hydrography","note":"This named natural stream is included for statewide Colorado hydrography completeness and is outside the current cutthroat lineage assignment set.","source_segment_id":"co_named_stream_050770","water_id":"co_south_fork_sand_arroyo_11040004_statewideContext_002","occurrence_id":"co_south_fork_sand_arroyo_11040004_statewideContext_002","occurrence_number":"002","segment_count":2,"disambiguator":"Sand Arroyo · Statewide Colorado hydrography context · occurrence 002","basin":"Sand Arroyo","atlas_layer":"named_water_occurrence","object_role":"named_water_occurrence","historic_label":"Statewide Colorado hydrography context","current_label":"Statewide Colorado hydrography context","recovery_label":"Statewide Colorado hydrography context","tier":"tier4","minZoom":15,"confidence_public":"Statewide hydrography context outside current cutthroat lineage model","geometry_status_public":"Named natural stream occurrence from statewide hydrography","geometry_source_public":"Grouped public hydrography segments","trout_source_public":"Included for Colorado statewide hydrography completeness","public_notes":"South Fork Sand Arroyo is shown as statewide Colorado hydrography context outside the current cutthroat lineage assignment set."}},{"type":"Feature","geometry":{"type":"LineString","coordinates":[[-103.0762,37.3291],[-103.0751,37.3292]]},"properties":{"source_id":"co_named_stream_050680","name":"North Fork Sand Arroyo","display_name":"North Fork Sand Arroyo","mapped_name":"North Fork Sand Arroyo","source_name":"North Fork Sand Arroyo","state":"CO","atlas_class":"named_natural_stream","huc8":"11040004","huc8Name":"Sand Arroyo","huc8States":"CO,KS","lineageKey":"statewideContext","lineage":"statewideContext","historic":"statewideContext","current":"statewideContext","recovery":"statewideContext","lineageLabel":"Statewide Colorado hydrography context","lineageBasin":"","lineageNote":"","atlas_context":"statewide_hydrography_context","confidence":"Statewide hydrography context outside current cutthroat lineage model","geometryStatus":"Named natural stream segment from statewide hydrography","note":"This named natural stream is included for statewide Colorado hydrography completeness and is outside the current cutthroat lineage assignment set.","source_segment_id":"co_named_stream_050680","water_id":"co_north_fork_sand_arroyo_11040004_statewideContext_002","occurrence_id":"co_north_fork_sand_arroyo_11040004_statewideContext_002","occurrence_number":"002","segment_count":16,"disambiguator":"Sand Arroyo · Statewide Colorado hydrography context · occurrence 002","basin":"Sand Arroyo","atlas_layer":"named_water_occurrence","object_role":"named_water_occurrence","historic_label":"Statewide Colorado hydrography context","current_label":"Statewide Colorado hydrography context","recovery_label":"Statewide Colorado hydrography context","tier":"tier4","minZoom":15,"confidence_public":"Statewide hydrography context outside current cutthroat lineage model","geometry_status_public":"Named natural stream occurrence from statewide hydrography","geometry_source_public":"Grouped public hydrography segments","trout_source_public":"Included for Colorado statewide hydrography completeness","public_notes":"North Fork Sand Arroyo is shown as statewide Colorado hydrography context outside the current cutthroat lineage assignment set."}},{"type":"Feature","geometry":{"type":"LineString","coordinates":[[-103.0631,37.3291],[-103.0604,37.3292]]},"properties":{"source_id":"co_named_stream_050681","name":"North Fork Sand Arroyo","display_name":"North Fork Sand Arroyo","mapped_name":"North Fork Sand Arroyo","source_name":"North Fork Sand Arroyo","state":"CO","atlas_class":"named_natural_stream","huc8":"11040004","huc8Name":"Sand Arroyo","huc8States":"CO,KS","lineageKey":"statewideContext","lineage":"statewideContext","historic":"statewideContext","current":"statewideContext","recovery":"statewideContext","lineageLabel":"Statewide Colorado hydrography context","lineageBasin":"","lineageNote":"","atlas_context":"statewide_hydrography_context","confidence":"Statewide hydrography context outside current cutthroat lineage model","geometryStatus":"Named natural stream segment from statewide hydrography","note":"This named natural stream is included for statewide Colorado hydrography completeness and is outside the current cutthroat lineage assignment set.","source_segment_id":"co_named_stream_050681","water_id":"co_north_fork_sand_arroyo_11040004_statewideContext_002","occurrence_id":"co_north_fork_sand_arroyo_11040004_statewideContext_002","occurrence_number":"002","segment_count":16,"disambiguator":"Sand Arroyo · Statewide Colorado hydrography context · occurrence 002","basin":"Sand Arroyo","atlas_layer":"named_water_occurrence","object_role":"named_water_occurrence","historic_label":"Statewide Colorado hydrography context","current_label":"Statewide Colorado hydrography context","recovery_label":"Statewide Colorado hydrography context","tier":"tier4","minZoom":15,"confidence_public":"Statewide hydrography context outside current cutthroat lineage model","geometry_status_public":"Named natural stream occurrence from statewide hydrography","geometry_source_public":"Grouped public hydrography segments","trout_source_public":"Included for Colorado statewide hydrography completeness","public_notes":"North Fork Sand Arroyo is shown as statewide Colorado hydrography context outside the current cutthroat lineage assignment set."}},{"type":"Feature","geometry":{"type":"LineString","coordinates":[[-103.0894,37.3319],[-103.0882,37.3313]]},"properties":{"source_id":"co_named_stream_050714","name":"North Fork Sand Arroyo","display_name":"North Fork Sand Arroyo","mapped_name":"North Fork Sand Arroyo","source_name":"North Fork Sand Arroyo","state":"CO","atlas_class":"named_natural_stream","huc8":"11040004","huc8Name":"Sand Arroyo","huc8States":"CO,KS","lineageKey":"statewideContext","lineage":"statewideContext","historic":"statewideContext","current":"statewideContext","recovery":"statewideContext","lineageLabel":"Statewide Colorado hydrography context","lineageBasin":"","lineageNote":"","atlas_context":"statewide_hydrography_context","confidence":"Statewide hydrography context outside current cutthroat lineage model","geometryStatus":"Named natural stream segment from statewide hydrography","note":"This named natural stream is included for statewide Colorado hydrography completeness and is outside the current cutthroat lineage assignment set.","source_segment_id":"co_named_stream_050714","water_id":"co_north_fork_sand_arroyo_11040004_statewideContext_002","occurrence_id":"co_north_fork_sand_arroyo_11040004_statewideContext_002","occurrence_number":"002","segment_count":16,"disambiguator":"Sand Arroyo · Statewide Colorado hydrography context · occurrence 002","basin":"Sand Arroyo","atlas_layer":"named_water_occurrence","object_role":"named_water_occurrence","historic_label":"Statewide Colorado hydrography context","current_label":"Statewide Colorado hydrography context","recovery_label":"Statewide Colorado hydrography context","tier":"tier4","minZoom":15,"confidence_public":"Statewide hydrography context outside current cutthroat lineage model","geometry_status_public":"Named natural stream occurrence from statewide hydrography","geometry_source_public":"Grouped public hydrography segments","trout_source_public":"Included for Colorado statewide hydrography completeness","public_notes":"North Fork Sand Arroyo is shown as statewide Colorado hydrography context outside the current cutthroat lineage assignment set."}},{"type":"Feature","geometry":{"type":"LineString","coordinates":[[-103.0726,37.3288],[-103.0703,37.3283]]},"properties":{"source_id":"co_named_stream_050760","name":"North Fork Sand Arroyo","display_name":"North Fork Sand Arroyo","mapped_name":"North Fork Sand Arroyo","source_name":"North Fork Sand Arroyo","state":"CO","atlas_class":"named_natural_stream","huc8":"11040004","huc8Name":"Sand Arroyo","huc8States":"CO,KS","lineageKey":"statewideContext","lineage":"statewideContext","historic":"statewideContext","current":"statewideContext","recovery":"statewideContext","lineageLabel":"Statewide Colorado hydrography context","lineageBasin":"","lineageNote":"","atlas_context":"statewide_hydrography_context","confidence":"Statewide hydrography context outside current cutthroat lineage model","geometryStatus":"Named natural stream segment from statewide hydrography","note":"This named natural stream is included for statewide Colorado hydrography completeness and is outside the current cutthroat lineage assignment set.","source_segment_id":"co_named_stream_050760","water_id":"co_north_fork_sand_arroyo_11040004_statewideContext_002","occurrence_id":"co_north_fork_sand_arroyo_11040004_statewideContext_002","occurrence_number":"002","segment_count":16,"disambiguator":"Sand Arroyo · Statewide Colorado hydrography context · occurrence 002","basin":"Sand Arroyo","atlas_layer":"named_water_occurrence","object_role":"named_water_occurrence","historic_label":"Statewide Colorado hydrography context","current_label":"Statewide Colorado hydrography context","recovery_label":"Statewide Colorado hydrography context","tier":"tier4","minZoom":15,"confidence_public":"Statewide hydrography context outside current cutthroat lineage model","geometry_status_public":"Named natural stream occurrence from statewide hydrography","geometry_source_public":"Grouped public hydrography segments","trout_source_public":"Included for Colorado statewide hydrography completeness","public_notes":"North Fork Sand Arroyo is shown as statewide Colorado hydrography context outside the current cutthroat lineage assignment set."}},{"type":"Feature","geometry":{"type":"LineString","coordinates":[[-103.0859,37.3309],[-103.0855,37.3305]]},"properties":{"source_id":"co_named_stream_050787","name":"North Fork Sand Arroyo","display_name":"North Fork Sand Arroyo","mapped_name":"North Fork Sand Arroyo","source_name":"North Fork Sand Arroyo","state":"CO","atlas_class":"named_natural_stream","huc8":"11040004","huc8Name":"Sand Arroyo","huc8States":"CO,KS","lineageKey":"statewideContext","lineage":"statewideContext","historic":"statewideContext","current":"statewideContext","recovery":"statewideContext","lineageLabel":"Statewide Colorado hydrography context","lineageBasin":"","lineageNote":"","atlas_context":"statewide_hydrography_context","confidence":"Statewide hydrography context outside current cutthroat lineage model","geometryStatus":"Named natural stream segment from statewide hydrography","note":"This named natural stream is included for statewide Colorado hydrography completeness and is outside the current cutthroat lineage assignment set.","source_segment_id":"co_named_stream_050787","water_id":"co_north_fork_sand_arroyo_11040004_statewideContext_002","occurrence_id":"co_north_fork_sand_arroyo_11040004_statewideContext_002","occurrence_number":"002","segment_count":16,"disambiguator":"Sand Arroyo · Statewide Colorado hydrography context · occurrence 002","basin":"Sand Arroyo","atlas_layer":"named_water_occurrence","object_role":"named_water_occurrence","historic_label":"Statewide Colorado hydrography context","current_label":"Statewide Colorado hydrography context","recovery_label":"Statewide Colorado hydrography context","tier":"tier4","minZoom":15,"confidence_public":"Statewide hydrography context outside current cutthroat lineage model","geometry_status_public":"Named natural stream occurrence from statewide hydrography","geometry_source_public":"Grouped public hydrography segments","trout_source_public":"Included for Colorado statewide hydrography completeness","public_notes":"North Fork Sand Arroyo is shown as statewide Colorado hydrography context outside the current cutthroat lineage assignment set."}},{"type":"Feature","geometry":{"type":"LineString","coordinates":[[-103.0844,37.3306],[-103.0826,37.3296]]},"properties":{"source_id":"co_named_stream_050822","name":"North Fork Sand Arroyo","display_name":"North Fork Sand Arroyo","mapped_name":"North Fork Sand Arroyo","source_name":"North Fork Sand Arroyo","state":"CO","atlas_class":"named_natural_stream","huc8":"11040004","huc8Name":"Sand Arroyo","huc8States":"CO,KS","lineageKey":"statewideContext","lineage":"statewideContext","historic":"statewideContext","current":"statewideContext","recovery":"statewideContext","lineageLabel":"Statewide Colorado hydrography context","lineageBasin":"","lineageNote":"","atlas_context":"statewide_hydrography_context","confidence":"Statewide hydrography context outside current cutthroat lineage model","geometryStatus":"Named natural stream segment from statewide hydrography","note":"This named natural stream is included for statewide Colorado hydrography completeness and is outside the current cutthroat lineage assignment set.","source_segment_id":"co_named_stream_050822","water_id":"co_north_fork_sand_arroyo_11040004_statewideContext_002","occurrence_id":"co_north_fork_sand_arroyo_11040004_statewideContext_002","occurrence_number":"002","segment_count":16,"disambiguator":"Sand Arroyo · Statewide Colorado hydrography context · occurrence 002","basin":"Sand Arroyo","atlas_layer":"named_water_occurrence","object_role":"named_water_occurrence","historic_label":"Statewide Colorado hydrography context","current_label":"Statewide Colorado hydrography context","recovery_label":"Statewide Colorado hydrography context","tier":"tier4","minZoom":15,"confidence_public":"Statewide hydrography context outside current cutthroat lineage model","geometry_status_public":"Named natural stream occurrence from statewide hydrography","geometry_source_public":"Grouped public hydrography segments","trout_source_public":"Included for Colorado statewide hydrography completeness","public_notes":"North Fork Sand Arroyo is shown as statewide Colorado hydrography context outside the current cutthroat lineage assignment set."}},{"type":"Feature","geometry":{"type":"LineString","coordinates":[[-103.0358,37.3245],[-103.0351,37.3244]]},"properties":{"source_id":"co_named_stream_050856","name":"North Fork Sand Arroyo","display_name":"North Fork Sand Arroyo","mapped_name":"North Fork Sand Arroyo","source_name":"North Fork Sand Arroyo","state":"CO","atlas_class":"named_natural_stream","huc8":"11040004","huc8Name":"Sand Arroyo","huc8States":"CO,KS","lineageKey":"statewideContext","lineage":"statewideContext","historic":"statewideContext","current":"statewideContext","recovery":"statewideContext","lineageLabel":"Statewide Colorado hydrography context","lineageBasin":"","lineageNote":"","atlas_context":"statewide_hydrography_context","confidence":"Statewide hydrography context outside current cutthroat lineage model","geometryStatus":"Named natural stream segment from statewide hydrography","note":"This named natural stream is included for statewide Colorado hydrography completeness and is outside the current cutthroat lineage assignment set.","source_segment_id":"co_named_stream_050856","water_id":"co_north_fork_sand_arroyo_11040004_statewideContext_002","occurrence_id":"co_north_fork_sand_arroyo_11040004_statewideContext_002","occurrence_number":"002","segment_count":16,"disambiguator":"Sand Arroyo · Statewide Colorado hydrography context · occurrence 002","basin":"Sand Arroyo","atlas_layer":"named_water_occurrence","object_role":"named_water_occurrence","historic_label":"Statewide Colorado hydrography context","current_label":"Statewide Colorado hydrography context","recovery_label":"Statewide Colorado hydrography context","tier":"tier4","minZoom":15,"confidence_public":"Statewide hydrography context outside current cutthroat lineage model","geometry_status_public":"Named natural stream occurrence from statewide hydrography","geometry_source_public":"Grouped public hydrography segments","trout_source_public":"Included for Colorado statewide hydrography completeness","public_notes":"North Fork Sand Arroyo is shown as statewide Colorado hydrography context outside the current cutthroat lineage assignment set."}},{"type":"Feature","geometry":{"type":"LineString","coordinates":[[-103.0351,37.3244],[-103.0336,37.3242]]},"properties":{"source_id":"co_named_stream_050857","name":"North Fork Sand Arroyo","display_name":"North Fork Sand Arroyo","mapped_name":"North Fork Sand Arroyo","source_name":"North Fork Sand Arroyo","state":"CO","atlas_class":"named_natural_stream","huc8":"11040004","huc8Name":"Sand Arroyo","huc8States":"CO,KS","lineageKey":"statewideContext","lineage":"statewideContext","historic":"statewideContext","current":"statewideContext","recovery":"statewideContext","lineageLabel":"Statewide Colorado hydrography context","lineageBasin":"","lineageNote":"","atlas_context":"statewide_hydrography_context","confidence":"Statewide hydrography context outside current cutthroat lineage model","geometryStatus":"Named natural stream segment from statewide hydrography","note":"This named natural stream is included for statewide Colorado hydrography completeness and is outside the current cutthroat lineage assignment set.","source_segment_id":"co_named_stream_050857","water_id":"co_north_fork_sand_arroyo_11040004_statewideContext_002","occurrence_id":"co_north_fork_sand_arroyo_11040004_statewideContext_002","occurrence_number":"002","segment_count":16,"disambiguator":"Sand Arroyo · Statewide Colorado hydrography context · occurrence 002","basin":"Sand Arroyo","atlas_layer":"named_water_occurrence","object_role":"named_water_occurrence","historic_label":"Statewide Colorado hydrography context","current_label":"Statewide Colorado hydrography context","recovery_label":"Statewide Colorado hydrography context","tier":"tier4","minZoom":15,"confidence_public":"Statewide hydrography context outside current cutthroat lineage model","geometry_status_public":"Named natural stream occurrence from statewide hydrography","geometry_source_public":"Grouped public hydrography segments","trout_source_public":"Included for Colorado statewide hydrography completeness","public_notes":"North Fork Sand Arroyo is shown as statewide Colorado hydrography context outside the current cutthroat lineage assignment set."}},{"type":"Feature","geometry":{"type":"LineString","coordinates":[[-103.0336,37.3242],[-103.0324,37.3236]]},"properties":{"source_id":"co_named_stream_050858","name":"North Fork Sand Arroyo","display_name":"North Fork Sand Arroyo","mapped_name":"North Fork Sand Arroyo","source_name":"North Fork Sand Arroyo","state":"CO","atlas_class":"named_natural_stream","huc8":"11040004","huc8Name":"Sand Arroyo","huc8States":"CO,KS","lineageKey":"statewideContext","lineage":"statewideContext","historic":"statewideContext","current":"statewideContext","recovery":"statewideContext","lineageLabel":"Statewide Colorado hydrography context","lineageBasin":"","lineageNote":"","atlas_context":"statewide_hydrography_context","confidence":"Statewide hydrography context outside current cutthroat lineage model","geometryStatus":"Named natural stream segment from statewide hydrography","note":"This named natural stream is included for statewide Colorado hydrography completeness and is outside the current cutthroat lineage assignment set.","source_segment_id":"co_named_stream_050858","water_id":"co_north_fork_sand_arroyo_11040004_statewideContext_002","occurrence_id":"co_north_fork_sand_arroyo_11040004_statewideContext_002","occurrence_number":"002","segment_count":16,"disambiguator":"Sand Arroyo · Statewide Colorado hydrography context · occurrence 002","basin":"Sand Arroyo","atlas_layer":"named_water_occurrence","object_role":"named_water_occurrence","historic_label":"Statewide Colorado hydrography context","current_label":"Statewide Colorado hydrography context","recovery_label":"Statewide Colorado hydrography context","tier":"tier4","minZoom":15,"confidence_public":"Statewide hydrography context outside current cutthroat lineage model","geometry_status_public":"Named natural stream occurrence from statewide hydrography","geometry_source_public":"Grouped public hydrography segments","trout_source_public":"Included for Colorado statewide hydrography completeness","public_notes":"North Fork Sand Arroyo is shown as statewide Colorado hydrography context outside the current cutthroat lineage assignment set."}},{"type":"Feature","geometry":{"type":"LineString","coordinates":[[-103.0703,37.3283],[-103.0689,37.3276]]},"properties":{"source_id":"co_named_stream_050895","name":"North Fork Sand Arroyo","display_name":"North Fork Sand Arroyo","mapped_name":"North Fork Sand Arroyo","source_name":"North Fork Sand Arroyo","state":"CO","atlas_class":"named_natural_stream","huc8":"11040004","huc8Name":"Sand Arroyo","huc8States":"CO,KS","lineageKey":"statewideContext","lineage":"statewideContext","historic":"statewideContext","current":"statewideContext","recovery":"statewideContext","lineageLabel":"Statewide Colorado hydrography context","lineageBasin":"","lineageNote":"","atlas_context":"statewide_hydrography_context","confidence":"Statewide hydrography context outside current cutthroat lineage model","geometryStatus":"Named natural stream segment from statewide hydrography","note":"This named natural stream is included for statewide Colorado hydrography completeness and is outside the current cutthroat lineage assignment set.","source_segment_id":"co_named_stream_050895","water_id":"co_north_fork_sand_arroyo_11040004_statewideContext_002","occurrence_id":"co_north_fork_sand_arroyo_11040004_statewideContext_002","occurrence_number":"002","segment_count":16,"disambiguator":"Sand Arroyo · Statewide Colorado hydrography context · occurrence 002","basin":"Sand Arroyo","atlas_layer":"named_water_occurrence","object_role":"named_water_occurrence","historic_label":"Statewide Colorado hydrography context","current_label":"Statewide Colorado hydrography context","recovery_label":"Statewide Colorado hydrography context","tier":"tier4","minZoom":15,"confidence_public":"Statewide hydrography context outside current cutthroat lineage model","geometry_status_public":"Named natural stream occurrence from statewide hydrography","geometry_source_public":"Grouped public hydrography segments","trout_source_public":"Included for Colorado statewide hydrography completeness","public_notes":"North Fork Sand Arroyo is shown as statewide Colorado hydrography context outside the current cutthroat lineage assignment set."}},{"type":"Feature","geometry":{"type":"LineString","coordinates":[[-103.0575,37.3281],[-103.055,37.329]]},"properties":{"source_id":"co_named_stream_051047","name":"North Fork Sand Arroyo","display_name":"North Fork Sand Arroyo","mapped_name":"North Fork Sand Arroyo","source_name":"North Fork Sand Arroyo","state":"CO","atlas_class":"named_natural_stream","huc8":"11040004","huc8Name":"Sand Arroyo","huc8States":"CO,KS","lineageKey":"statewideContext","lineage":"statewideContext","historic":"statewideContext","current":"statewideContext","recovery":"statewideContext","lineageLabel":"Statewide Colorado hydrography context","lineageBasin":"","lineageNote":"","atlas_context":"statewide_hydrography_context","confidence":"Statewide hydrography context outside current cutthroat lineage model","geometryStatus":"Named natural stream segment from statewide hydrography","note":"This named natural stream is included for statewide Colorado hydrography completeness and is outside the current cutthroat lineage assignment set.","source_segment_id":"co_named_stream_051047","water_id":"co_north_fork_sand_arroyo_11040004_statewideContext_002","occurrence_id":"co_north_fork_sand_arroyo_11040004_statewideContext_002","occurrence_number":"002","segment_count":16,"disambiguator":"Sand Arroyo · Statewide Colorado hydrography context · occurrence 002","basin":"Sand Arroyo","atlas_layer":"named_water_occurrence","object_role":"named_water_occurrence","historic_label":"Statewide Colorado hydrography context","current_label":"Statewide Colorado hydrography context","recovery_label":"Statewide Colorado hydrography context","tier":"tier4","minZoom":15,"confidence_public":"Statewide hydrography context outside current cutthroat lineage model","geometry_status_public":"Named natural stream occurrence from statewide hydrography","geometry_source_public":"Grouped public hydrography segments","trout_source_public":"Included for Colorado statewide hydrography completeness","public_notes":"North Fork Sand Arroyo is shown as statewide Colorado hydrography context outside the current cutthroat lineage assignment set."}},{"type":"Feature","geometry":{"type":"LineString","coordinates":[[-103.047,37.328],[-103.0465,37.3282]]},"properties":{"source_id":"co_named_stream_051048","name":"North Fork Sand Arroyo","display_name":"North Fork Sand Arroyo","mapped_name":"North Fork Sand Arroyo","source_name":"North Fork Sand Arroyo","state":"CO","atlas_class":"named_natural_stream","huc8":"11040004","huc8Name":"Sand Arroyo","huc8States":"CO,KS","lineageKey":"statewideContext","lineage":"statewideContext","historic":"statewideContext","current":"statewideContext","recovery":"statewideContext","lineageLabel":"Statewide Colorado hydrography context","lineageBasin":"","lineageNote":"","atlas_context":"statewide_hydrography_context","confidence":"Statewide hydrography context outside current cutthroat lineage model","geometryStatus":"Named natural stream segment from statewide hydrography","note":"This named natural stream is included for statewide Colorado hydrography completeness and is outside the current cutthroat lineage assignment set.","source_segment_id":"co_named_stream_051048","water_id":"co_north_fork_sand_arroyo_11040004_statewideContext_002","occurrence_id":"co_north_fork_sand_arroyo_11040004_statewideContext_002","occurrence_number":"002","segment_count":16,"disambiguator":"Sand Arroyo · Statewide Colorado hydrography context · occurrence 002","basin":"Sand Arroyo","atlas_layer":"named_water_occurrence","object_role":"named_water_occurrence","historic_label":"Statewide Colorado hydrography context","current_label":"Statewide Colorado hydrography context","recovery_label":"Statewide Colorado hydrography context","tier":"tier4","minZoom":15,"confidence_public":"Statewide hydrography context outside current cutthroat lineage model","geometry_status_public":"Named natural stream occurrence from statewide hydrography","geometry_source_public":"Grouped public hydrography segments","trout_source_public":"Included for Colorado statewide hydrography completeness","public_notes":"North Fork Sand Arroyo is shown as statewide Colorado hydrography context outside the current cutthroat lineage assignment set."}},{"type":"Feature","geometry":{"type":"LineString","coordinates":[[-103.0782,37.3292],[-103.0766,37.3291]]},"properties":{"source_id":"co_named_stream_051059","name":"North Fork Sand Arroyo","display_name":"North Fork Sand Arroyo","mapped_name":"North Fork Sand Arroyo","source_name":"North Fork Sand Arroyo","state":"CO","atlas_class":"named_natural_stream","huc8":"11040004","huc8Name":"Sand Arroyo","huc8States":"CO,KS","lineageKey":"statewideContext","lineage":"statewideContext","historic":"statewideContext","current":"statewideContext","recovery":"statewideContext","lineageLabel":"Statewide Colorado hydrography context","lineageBasin":"","lineageNote":"","atlas_context":"statewide_hydrography_context","confidence":"Statewide hydrography context outside current cutthroat lineage model","geometryStatus":"Named natural stream segment from statewide hydrography","note":"This named natural stream is included for statewide Colorado hydrography completeness and is outside the current cutthroat lineage assignment set.","source_segment_id":"co_named_stream_051059","water_id":"co_north_fork_sand_arroyo_11040004_statewideContext_002","occurrence_id":"co_north_fork_sand_arroyo_11040004_statewideContext_002","occurrence_number":"002","segment_count":16,"disambiguator":"Sand Arroyo · Statewide Colorado hydrography context · occurrence 002","basin":"Sand Arroyo","atlas_layer":"named_water_occurrence","object_role":"named_water_occurrence","historic_label":"Statewide Colorado hydrography context","current_label":"Statewide Colorado hydrography context","recovery_label":"Statewide Colorado hydrography context","tier":"tier4","minZoom":15,"confidence_public":"Statewide hydrography context outside current cutthroat lineage model","geometry_status_public":"Named natural stream occurrence from statewide hydrography","geometry_source_public":"Grouped public hydrography segments","trout_source_public":"Included for Colorado statewide hydrography completeness","public_notes":"North Fork Sand Arroyo is shown as statewide Colorado hydrography context outside the current cutthroat lineage assignment set."}},{"type":"Feature","geometry":{"type":"LineString","coordinates":[[-103.0766,37.3291],[-103.0762,37.3291]]},"properties":{"source_id":"co_named_stream_051060","name":"North Fork Sand Arroyo","display_name":"North Fork Sand Arroyo","mapped_name":"North Fork Sand Arroyo","source_name":"North Fork Sand Arroyo","state":"CO","atlas_class":"named_natural_stream","huc8":"11040004","huc8Name":"Sand Arroyo","huc8States":"CO,KS","lineageKey":"statewideContext","lineage":"statewideContext","historic":"statewideContext","current":"statewideContext","recovery":"statewideContext","lineageLabel":"Statewide Colorado hydrography context","lineageBasin":"","lineageNote":"","atlas_context":"statewide_hydrography_context","confidence":"Statewide hydrography context outside current cutthroat lineage model","geometryStatus":"Named natural stream segment from statewide hydrography","note":"This named natural stream is included for statewide Colorado hydrography completeness and is outside the current cutthroat lineage assignment set.","source_segment_id":"co_named_stream_051060","water_id":"co_north_fork_sand_arroyo_11040004_statewideContext_002","occurrence_id":"co_north_fork_sand_arroyo_11040004_statewideContext_002","occurrence_number":"002","segment_count":16,"disambiguator":"Sand Arroyo · Statewide Colorado hydrography context · occurrence 002","basin":"Sand Arroyo","atlas_layer":"named_water_occurrence","object_role":"named_water_occurrence","historic_label":"Statewide Colorado hydrography context","current_label":"Statewide Colorado hydrography context","recovery_label":"Statewide Colorado hydrography context","tier":"tier4","minZoom":15,"confidence_public":"Statewide hydrography context outside current cutthroat lineage model","geometry_status_public":"Named natural stream occurrence from statewide hydrography","geometry_source_public":"Grouped public hydrography segments","trout_source_public":"Included for Colorado statewide hydrography completeness","public_notes":"North Fork Sand Arroyo is shown as statewide Colorado hydrography context outside the current cutthroat lineage assignment set."}},{"type":"Feature","geometry":{"type":"LineString","coordinates":[[-103.0882,37.3313],[-103.0859,37.3309]]},"properties":{"source_id":"co_named_stream_051162","name":"North Fork Sand Arroyo","display_name":"North Fork Sand Arroyo","mapped_name":"North Fork Sand Arroyo","source_name":"North Fork Sand Arroyo","state":"CO","atlas_class":"named_natural_stream","huc8":"11040004","huc8Name":"Sand Arroyo","huc8States":"CO,KS","lineageKey":"statewideContext","lineage":"statewideContext","historic":"statewideContext","current":"statewideContext","recovery":"statewideContext","lineageLabel":"Statewide Colorado hydrography context","lineageBasin":"","lineageNote":"","atlas_context":"statewide_hydrography_context","confidence":"Statewide hydrography context outside current cutthroat lineage model","geometryStatus":"Named natural stream segment from statewide hydrography","note":"This named natural stream is included for statewide Colorado hydrography completeness and is outside the current cutthroat lineage assignment set.","source_segment_id":"co_named_stream_051162","water_id":"co_north_fork_sand_arroyo_11040004_statewideContext_002","occurrence_id":"co_north_fork_sand_arroyo_11040004_statewideContext_002","occurrence_number":"002","segment_count":16,"disambiguator":"Sand Arroyo · Statewide Colorado hydrography context · occurrence 002","basin":"Sand Arroyo","atlas_layer":"named_water_occurrence","object_role":"named_water_occurrence","historic_label":"Statewide Colorado hydrography context","current_label":"Statewide Colorado hydrography context","recovery_label":"Statewide Colorado hydrography context","tier":"tier4","minZoom":15,"confidence_public":"Statewide hydrography context outside current cutthroat lineage model","geometry_status_public":"Named natural stream occurrence from statewide hydrography","geometry_source_public":"Grouped public hydrography segments","trout_source_public":"Included for Colorado statewide hydrography completeness","public_notes":"North Fork Sand Arroyo is shown as statewide Colorado hydrography context outside the current cutthroat lineage assignment set."}},{"type":"Feature","geometry":{"type":"LineString","coordinates":[[-103.0934,37.3316],[-103.0922,37.3326]]},"properties":{"source_id":"co_named_stream_051199","name":"North Fork Sand Arroyo","display_name":"North Fork Sand Arroyo","mapped_name":"North Fork Sand Arroyo","source_name":"North Fork Sand Arroyo","state":"CO","atlas_class":"named_natural_stream","huc8":"11040004","huc8Name":"Sand Arroyo","huc8States":"CO,KS","lineageKey":"statewideContext","lineage":"statewideContext","historic":"statewideContext","current":"statewideContext","recovery":"statewideContext","lineageLabel":"Statewide Colorado hydrography context","lineageBasin":"","lineageNote":"","atlas_context":"statewide_hydrography_context","confidence":"Statewide hydrography context outside current cutthroat lineage model","geometryStatus":"Named natural stream segment from statewide hydrography","note":"This named natural stream is included for statewide Colorado hydrography completeness and is outside the current cutthroat lineage assignment set.","source_segment_id":"co_named_stream_051199","water_id":"co_north_fork_sand_arroyo_11040004_statewideContext_002","occurrence_id":"co_north_fork_sand_arroyo_11040004_statewideContext_002","occurrence_number":"002","segment_count":16,"disambiguator":"Sand Arroyo · Statewide Colorado hydrography context · occurrence 002","basin":"Sand Arroyo","atlas_layer":"named_water_occurrence","object_role":"named_water_occurrence","historic_label":"Statewide Colorado hydrography context","current_label":"Statewide Colorado hydrography context","recovery_label":"Statewide Colorado hydrography context","tier":"tier4","minZoom":15,"confidence_public":"Statewide hydrography context outside current cutthroat lineage model","geometry_status_public":"Named natural stream occurrence from statewide hydrography","geometry_source_public":"Grouped public hydrography segments","trout_source_public":"Included for Colorado statewide hydrography completeness","public_notes":"North Fork Sand Arroyo is shown as statewide Colorado hydrography context outside the current cutthroat lineage assignment set."}}]}