{"type":"FeatureCollection","metadata":{"source":"C:\\ct-atlas-data\\processed\\geojson\\interpreted\\colorado_named_natural_streams_complete_v1.geojson","tier":"tier4","tile_size_degrees":0.25,"x":-411,"y":161,"bounds":{"west":-102.75,"south":40.25,"east":-102.5,"north":40.5}},"features":[{"type":"Feature","geometry":{"type":"LineString","coordinates":[[-102.6986,40.4994],[-102.6958,40.4997],[-102.6948,40.4977],[-102.6931,40.4994],[-102.6915,40.4981],[-102.6896,40.4995],[-102.6885,40.4982],[-102.6875,40.5001],[-102.6857,40.4983],[-102.6826,40.4999]]},"properties":{"source_id":"co_named_stream_025249","name":"Patent Creek","display_name":"Patent Creek","mapped_name":"Patent Creek","source_name":"Patent Creek","state":"CO","atlas_class":"named_natural_stream","huc8":"10250002","huc8Name":"North Fork Republican","huc8States":"CO,KS,NE","lineageKey":"statewideContext","lineage":"statewideContext","historic":"statewideContext","current":"statewideContext","recovery":"statewideContext","lineageLabel":"Statewide Colorado hydrography context","lineageBasin":"","lineageNote":"","atlas_context":"statewide_hydrography_context","confidence":"Statewide hydrography context outside current cutthroat lineage model","geometryStatus":"Named natural stream segment from statewide hydrography","note":"This named natural stream is included for statewide Colorado hydrography completeness and is outside the current cutthroat lineage assignment set.","source_segment_id":"co_named_stream_025249","water_id":"co_patent_creek_10250002_statewideContext_002","occurrence_id":"co_patent_creek_10250002_statewideContext_002","occurrence_number":"002","segment_count":2,"disambiguator":"North Fork Republican · Statewide Colorado hydrography context · occurrence 002","basin":"North Fork Republican","atlas_layer":"named_water_occurrence","object_role":"named_water_occurrence","historic_label":"Statewide Colorado hydrography context","current_label":"Statewide Colorado hydrography context","recovery_label":"Statewide Colorado hydrography context","tier":"tier4","minZoom":15,"confidence_public":"Statewide hydrography context outside current cutthroat lineage model","geometry_status_public":"Named natural stream occurrence from statewide hydrography","geometry_source_public":"Grouped public hydrography segments","trout_source_public":"Included for Colorado statewide hydrography completeness","public_notes":"Patent Creek is shown as statewide Colorado hydrography context outside the current cutthroat lineage assignment set."}},{"type":"Feature","geometry":{"type":"LineString","coordinates":[[-102.629,40.4947],[-102.6253,40.4949]]},"properties":{"source_id":"co_named_stream_025294","name":"Patent Creek","display_name":"Patent Creek","mapped_name":"Patent Creek","source_name":"Patent Creek","state":"CO","atlas_class":"named_natural_stream","huc8":"10250002","huc8Name":"North Fork Republican","huc8States":"CO,KS,NE","lineageKey":"statewideContext","lineage":"statewideContext","historic":"statewideContext","current":"statewideContext","recovery":"statewideContext","lineageLabel":"Statewide Colorado hydrography context","lineageBasin":"","lineageNote":"","atlas_context":"statewide_hydrography_context","confidence":"Statewide hydrography context outside current cutthroat lineage model","geometryStatus":"Named natural stream segment from statewide hydrography","note":"This named natural stream is included for statewide Colorado hydrography completeness and is outside the current cutthroat lineage assignment set.","source_segment_id":"co_named_stream_025294","water_id":"co_patent_creek_10250002_statewideContext_002","occurrence_id":"co_patent_creek_10250002_statewideContext_002","occurrence_number":"002","segment_count":2,"disambiguator":"North Fork Republican · Statewide Colorado hydrography context · occurrence 002","basin":"North Fork Republican","atlas_layer":"named_water_occurrence","object_role":"named_water_occurrence","historic_label":"Statewide Colorado hydrography context","current_label":"Statewide Colorado hydrography context","recovery_label":"Statewide Colorado hydrography context","tier":"tier4","minZoom":15,"confidence_public":"Statewide hydrography context outside current cutthroat lineage model","geometry_status_public":"Named natural stream occurrence from statewide hydrography","geometry_source_public":"Grouped public hydrography segments","trout_source_public":"Included for Colorado statewide hydrography completeness","public_notes":"Patent Creek is shown as statewide Colorado hydrography context outside the current cutthroat lineage assignment set."}},{"type":"Feature","geometry":{"type":"LineString","coordinates":[[-102.7048,40.3051],[-102.7051,40.3093],[-102.7045,40.3101],[-102.6995,40.3067],[-102.6974,40.3083],[-102.6953,40.3073],[-102.6942,40.308],[-102.6944,40.3089],[-102.6924,40.3079],[-102.6901,40.3093],[-102.6864,40.3097],[-102.6837,40.3081],[-102.6837,40.3049],[-102.6827,40.3043],[-102.6805,40.3064],[-102.6782,40.3066],[-102.6755,40.3106],[-102.6737,40.3107],[-102.673,40.3135],[-102.6681,40.3146],[-102.6656,40.3169],[-102.6623,40.3161],[-102.6606,40.3176],[-102.6558,40.3185],[-102.6476,40.3157],[-102.6451,40.3157],[-102.6416,40.318],[-102.6416,40.3212],[-102.6374,40.3206],[-102.6354,40.3221],[-102.6353,40.3238],[-102.637,40.325],[-102.6349,40.3262],[-102.6351,40.3278],[-102.6383,40.3286],[-102.6353,40.3318],[-102.6324,40.3314],[-102.6319,40.3325],[-102.6334,40.334],[-102.6289,40.3364],[-102.6318,40.3366],[-102.6305,40.3388]]},"properties":{"source_id":"co_named_stream_024960","name":"Surveyor Creek","display_name":"Surveyor Creek","mapped_name":"Surveyor Creek","source_name":"Surveyor Creek","state":"CO","atlas_class":"named_natural_stream","huc8":"10250002","huc8Name":"North Fork Republican","huc8States":"CO,KS,NE","lineageKey":"statewideContext","lineage":"statewideContext","historic":"statewideContext","current":"statewideContext","recovery":"statewideContext","lineageLabel":"Statewide Colorado hydrography context","lineageBasin":"","lineageNote":"","atlas_context":"statewide_hydrography_context","confidence":"Statewide hydrography context outside current cutthroat lineage model","geometryStatus":"Named natural stream segment from statewide hydrography","note":"This named natural stream is included for statewide Colorado hydrography completeness and is outside the current cutthroat lineage assignment set.","source_segment_id":"co_named_stream_024960","water_id":"co_surveyor_creek_10250002_statewideContext_004","occurrence_id":"co_surveyor_creek_10250002_statewideContext_004","occurrence_number":"004","segment_count":5,"disambiguator":"North Fork Republican · Statewide Colorado hydrography context · occurrence 004","basin":"North Fork Republican","atlas_layer":"named_water_occurrence","object_role":"named_water_occurrence","historic_label":"Statewide Colorado hydrography context","current_label":"Statewide Colorado hydrography context","recovery_label":"Statewide Colorado hydrography context","tier":"tier4","minZoom":15,"confidence_public":"Statewide hydrography context outside current cutthroat lineage model","geometry_status_public":"Named natural stream occurrence from statewide hydrography","geometry_source_public":"Grouped public hydrography segments","trout_source_public":"Included for Colorado statewide hydrography completeness","public_notes":"Surveyor Creek is shown as statewide Colorado hydrography context outside the current cutthroat lineage assignment set."}},{"type":"Feature","geometry":{"type":"LineString","coordinates":[[-102.7486,40.281],[-102.7468,40.2802],[-102.7491,40.277],[-102.7482,40.2757],[-102.7449,40.2782],[-102.7458,40.2795],[-102.7443,40.2794],[-102.743,40.2781],[-102.7418,40.2784],[-102.7422,40.2804],[-102.7383,40.2842],[-102.7345,40.2825],[-102.7336,40.2808],[-102.7319,40.2819],[-102.73,40.2807],[-102.7284,40.2819],[-102.7278,40.2804],[-102.7332,40.2773],[-102.7305,40.2765],[-102.7294,40.2786],[-102.7284,40.2787],[-102.7269,40.2778],[-102.7267,40.2756],[-102.724,40.2748],[-102.7242,40.2779],[-102.7208,40.2836],[-102.7184,40.2828],[-102.7142,40.2829],[-102.712,40.2816],[-102.7101,40.282],[-102.7111,40.2837],[-102.7084,40.2871],[-102.7125,40.2891],[-102.7123,40.2903],[-102.7098,40.2918],[-102.7113,40.2925],[-102.7041,40.2928],[-102.7034,40.2942],[-102.7057,40.2957],[-102.7059,40.2971],[-102.7045,40.2966],[-102.7032,40.2988],[-102.7013,40.2979],[-102.7001,40.2986],[-102.7019,40.3012],[-102.7051,40.3004],[-102.7066,40.301],[-102.7039,40.3028]]},"properties":{"source_id":"co_named_stream_025442","name":"Surveyor Creek","display_name":"Surveyor Creek","mapped_name":"Surveyor Creek","source_name":"Surveyor Creek","state":"CO","atlas_class":"named_natural_stream","huc8":"10250002","huc8Name":"North Fork Republican","huc8States":"CO,KS,NE","lineageKey":"statewideContext","lineage":"statewideContext","historic":"statewideContext","current":"statewideContext","recovery":"statewideContext","lineageLabel":"Statewide Colorado hydrography context","lineageBasin":"","lineageNote":"","atlas_context":"statewide_hydrography_context","confidence":"Statewide hydrography context outside current cutthroat lineage model","geometryStatus":"Named natural stream segment from statewide hydrography","note":"This named natural stream is included for statewide Colorado hydrography completeness and is outside the current cutthroat lineage assignment set.","source_segment_id":"co_named_stream_025442","water_id":"co_surveyor_creek_10250002_statewideContext_004","occurrence_id":"co_surveyor_creek_10250002_statewideContext_004","occurrence_number":"004","segment_count":5,"disambiguator":"North Fork Republican · Statewide Colorado hydrography context · occurrence 004","basin":"North Fork Republican","atlas_layer":"named_water_occurrence","object_role":"named_water_occurrence","historic_label":"Statewide Colorado hydrography context","current_label":"Statewide Colorado hydrography context","recovery_label":"Statewide Colorado hydrography context","tier":"tier4","minZoom":15,"confidence_public":"Statewide hydrography context outside current cutthroat lineage model","geometry_status_public":"Named natural stream occurrence from statewide hydrography","geometry_source_public":"Grouped public hydrography segments","trout_source_public":"Included for Colorado statewide hydrography completeness","public_notes":"Surveyor Creek is shown as statewide Colorado hydrography context outside the current cutthroat lineage assignment set."}},{"type":"Feature","geometry":{"type":"LineString","coordinates":[[-102.6305,40.3388],[-102.6274,40.34],[-102.6284,40.3426]]},"properties":{"source_id":"co_named_stream_025104","name":"Rock Creek","display_name":"Rock Creek","mapped_name":"Rock Creek","source_name":"Rock Creek","state":"CO","atlas_class":"named_natural_stream","huc8":"10250002","huc8Name":"North Fork Republican","huc8States":"CO,KS,NE","lineageKey":"statewideContext","lineage":"statewideContext","historic":"statewideContext","current":"statewideContext","recovery":"statewideContext","lineageLabel":"Statewide Colorado hydrography context","lineageBasin":"","lineageNote":"","atlas_context":"statewide_hydrography_context","confidence":"Statewide hydrography context outside current cutthroat lineage model","geometryStatus":"Named natural stream segment from statewide hydrography","note":"This named natural stream is included for statewide Colorado hydrography completeness and is outside the current cutthroat lineage assignment set.","source_segment_id":"co_named_stream_025104","water_id":"co_rock_creek_10250002_statewideContext_004","occurrence_id":"co_rock_creek_10250002_statewideContext_004","occurrence_number":"004","segment_count":13,"disambiguator":"North Fork Republican · Statewide Colorado hydrography context · occurrence 004","basin":"North Fork Republican","atlas_layer":"named_water_occurrence","object_role":"named_water_occurrence","historic_label":"Statewide Colorado hydrography context","current_label":"Statewide Colorado hydrography context","recovery_label":"Statewide Colorado hydrography context","tier":"tier4","minZoom":15,"confidence_public":"Statewide hydrography context outside current cutthroat lineage model","geometry_status_public":"Named natural stream occurrence from statewide hydrography","geometry_source_public":"Grouped public hydrography segments","trout_source_public":"Included for Colorado statewide hydrography completeness","public_notes":"Rock Creek is shown as statewide Colorado hydrography context outside the current cutthroat lineage assignment set."}},{"type":"Feature","geometry":{"type":"LineString","coordinates":[[-102.6828,40.3544],[-102.6795,40.3525],[-102.6762,40.3524],[-102.6765,40.3502],[-102.6788,40.3483],[-102.6773,40.3452],[-102.6778,40.343],[-102.6725,40.3421],[-102.671,40.3408],[-102.668,40.3409],[-102.6646,40.3366],[-102.661,40.3361],[-102.6585,40.3333],[-102.6552,40.3333],[-102.6519,40.3312],[-102.6476,40.3333],[-102.6473,40.3347]]},"properties":{"source_id":"co_named_stream_025366","name":"Rock Creek","display_name":"Rock Creek","mapped_name":"Rock Creek","source_name":"Rock Creek","state":"CO","atlas_class":"named_natural_stream","huc8":"10250002","huc8Name":"North Fork Republican","huc8States":"CO,KS,NE","lineageKey":"statewideContext","lineage":"statewideContext","historic":"statewideContext","current":"statewideContext","recovery":"statewideContext","lineageLabel":"Statewide Colorado hydrography context","lineageBasin":"","lineageNote":"","atlas_context":"statewide_hydrography_context","confidence":"Statewide hydrography context outside current cutthroat lineage model","geometryStatus":"Named natural stream segment from statewide hydrography","note":"This named natural stream is included for statewide Colorado hydrography completeness and is outside the current cutthroat lineage assignment set.","source_segment_id":"co_named_stream_025366","water_id":"co_rock_creek_10250002_statewideContext_004","occurrence_id":"co_rock_creek_10250002_statewideContext_004","occurrence_number":"004","segment_count":13,"disambiguator":"North Fork Republican · Statewide Colorado hydrography context · occurrence 004","basin":"North Fork Republican","atlas_layer":"named_water_occurrence","object_role":"named_water_occurrence","historic_label":"Statewide Colorado hydrography context","current_label":"Statewide Colorado hydrography context","recovery_label":"Statewide Colorado hydrography context","tier":"tier4","minZoom":15,"confidence_public":"Statewide hydrography context outside current cutthroat lineage model","geometry_status_public":"Named natural stream occurrence from statewide hydrography","geometry_source_public":"Grouped public hydrography segments","trout_source_public":"Included for Colorado statewide hydrography completeness","public_notes":"Rock Creek is shown as statewide Colorado hydrography context outside the current cutthroat lineage assignment set."}},{"type":"Feature","geometry":{"type":"LineString","coordinates":[[-102.7144,40.339],[-102.7138,40.3388]]},"properties":{"source_id":"co_named_stream_025499","name":"Rock Creek","display_name":"Rock Creek","mapped_name":"Rock Creek","source_name":"Rock Creek","state":"CO","atlas_class":"named_natural_stream","huc8":"10250002","huc8Name":"North Fork Republican","huc8States":"CO,KS,NE","lineageKey":"statewideContext","lineage":"statewideContext","historic":"statewideContext","current":"statewideContext","recovery":"statewideContext","lineageLabel":"Statewide Colorado hydrography context","lineageBasin":"","lineageNote":"","atlas_context":"statewide_hydrography_context","confidence":"Statewide hydrography context outside current cutthroat lineage model","geometryStatus":"Named natural stream segment from statewide hydrography","note":"This named natural stream is included for statewide Colorado hydrography completeness and is outside the current cutthroat lineage assignment set.","source_segment_id":"co_named_stream_025499","water_id":"co_rock_creek_10250002_statewideContext_004","occurrence_id":"co_rock_creek_10250002_statewideContext_004","occurrence_number":"004","segment_count":13,"disambiguator":"North Fork Republican · Statewide Colorado hydrography context · occurrence 004","basin":"North Fork Republican","atlas_layer":"named_water_occurrence","object_role":"named_water_occurrence","historic_label":"Statewide Colorado hydrography context","current_label":"Statewide Colorado hydrography context","recovery_label":"Statewide Colorado hydrography context","tier":"tier4","minZoom":15,"confidence_public":"Statewide hydrography context outside current cutthroat lineage model","geometry_status_public":"Named natural stream occurrence from statewide hydrography","geometry_source_public":"Grouped public hydrography segments","trout_source_public":"Included for Colorado statewide hydrography completeness","public_notes":"Rock Creek is shown as statewide Colorado hydrography context outside the current cutthroat lineage assignment set."}},{"type":"Feature","geometry":{"type":"LineString","coordinates":[[-102.6354,40.3388],[-102.6305,40.3388]]},"properties":{"source_id":"co_named_stream_025533","name":"Rock Creek","display_name":"Rock Creek","mapped_name":"Rock Creek","source_name":"Rock Creek","state":"CO","atlas_class":"named_natural_stream","huc8":"10250002","huc8Name":"North Fork Republican","huc8States":"CO,KS,NE","lineageKey":"statewideContext","lineage":"statewideContext","historic":"statewideContext","current":"statewideContext","recovery":"statewideContext","lineageLabel":"Statewide Colorado hydrography context","lineageBasin":"","lineageNote":"","atlas_context":"statewide_hydrography_context","confidence":"Statewide hydrography context outside current cutthroat lineage model","geometryStatus":"Named natural stream segment from statewide hydrography","note":"This named natural stream is included for statewide Colorado hydrography completeness and is outside the current cutthroat lineage assignment set.","source_segment_id":"co_named_stream_025533","water_id":"co_rock_creek_10250002_statewideContext_004","occurrence_id":"co_rock_creek_10250002_statewideContext_004","occurrence_number":"004","segment_count":13,"disambiguator":"North Fork Republican · Statewide Colorado hydrography context · occurrence 004","basin":"North Fork Republican","atlas_layer":"named_water_occurrence","object_role":"named_water_occurrence","historic_label":"Statewide Colorado hydrography context","current_label":"Statewide Colorado hydrography context","recovery_label":"Statewide Colorado hydrography context","tier":"tier4","minZoom":15,"confidence_public":"Statewide hydrography context outside current cutthroat lineage model","geometry_status_public":"Named natural stream occurrence from statewide hydrography","geometry_source_public":"Grouped public hydrography segments","trout_source_public":"Included for Colorado statewide hydrography completeness","public_notes":"Rock Creek is shown as statewide Colorado hydrography context outside the current cutthroat lineage assignment set."}},{"type":"Feature","geometry":{"type":"LineString","coordinates":[[-102.6284,40.3426],[-102.6274,40.3439],[-102.6253,40.3432],[-102.6267,40.3413],[-102.6255,40.3409],[-102.6251,40.3395],[-102.6239,40.3396],[-102.6224,40.3418],[-102.6225,40.3463],[-102.6191,40.3465],[-102.6177,40.3449],[-102.6174,40.3432],[-102.6204,40.341],[-102.6207,40.34],[-102.6147,40.3415],[-102.6123,40.3382],[-102.6118,40.3395],[-102.6058,40.3412],[-102.6038,40.3402],[-102.6002,40.3411],[-102.5928,40.3394],[-102.5896,40.3369],[-102.5858,40.3361]]},"properties":{"source_id":"co_named_stream_025853","name":"Rock Creek","display_name":"Rock Creek","mapped_name":"Rock Creek","source_name":"Rock Creek","state":"CO","atlas_class":"named_natural_stream","huc8":"10250002","huc8Name":"North Fork Republican","huc8States":"CO,KS,NE","lineageKey":"statewideContext","lineage":"statewideContext","historic":"statewideContext","current":"statewideContext","recovery":"statewideContext","lineageLabel":"Statewide Colorado hydrography context","lineageBasin":"","lineageNote":"","atlas_context":"statewide_hydrography_context","confidence":"Statewide hydrography context outside current cutthroat lineage model","geometryStatus":"Named natural stream segment from statewide hydrography","note":"This named natural stream is included for statewide Colorado hydrography completeness and is outside the current cutthroat lineage assignment set.","source_segment_id":"co_named_stream_025853","water_id":"co_rock_creek_10250002_statewideContext_004","occurrence_id":"co_rock_creek_10250002_statewideContext_004","occurrence_number":"004","segment_count":13,"disambiguator":"North Fork Republican · Statewide Colorado hydrography context · occurrence 004","basin":"North Fork Republican","atlas_layer":"named_water_occurrence","object_role":"named_water_occurrence","historic_label":"Statewide Colorado hydrography context","current_label":"Statewide Colorado hydrography context","recovery_label":"Statewide Colorado hydrography context","tier":"tier4","minZoom":15,"confidence_public":"Statewide hydrography context outside current cutthroat lineage model","geometry_status_public":"Named natural stream occurrence from statewide hydrography","geometry_source_public":"Grouped public hydrography segments","trout_source_public":"Included for Colorado statewide hydrography completeness","public_notes":"Rock Creek is shown as statewide Colorado hydrography context outside the current cutthroat lineage assignment set."}},{"type":"Feature","geometry":{"type":"LineString","coordinates":[[-102.5858,40.3361],[-102.5839,40.3371],[-102.5812,40.3364],[-102.5805,40.3382],[-102.5792,40.3353],[-102.5761,40.3343]]},"properties":{"source_id":"co_named_stream_026062","name":"Rock Creek","display_name":"Rock Creek","mapped_name":"Rock Creek","source_name":"Rock Creek","state":"CO","atlas_class":"named_natural_stream","huc8":"10250002","huc8Name":"North Fork Republican","huc8States":"CO,KS,NE","lineageKey":"statewideContext","lineage":"statewideContext","historic":"statewideContext","current":"statewideContext","recovery":"statewideContext","lineageLabel":"Statewide Colorado hydrography context","lineageBasin":"","lineageNote":"","atlas_context":"statewide_hydrography_context","confidence":"Statewide hydrography context outside current cutthroat lineage model","geometryStatus":"Named natural stream segment from statewide hydrography","note":"This named natural stream is included for statewide Colorado hydrography completeness and is outside the current cutthroat lineage assignment set.","source_segment_id":"co_named_stream_026062","water_id":"co_rock_creek_10250002_statewideContext_004","occurrence_id":"co_rock_creek_10250002_statewideContext_004","occurrence_number":"004","segment_count":13,"disambiguator":"North Fork Republican · Statewide Colorado hydrography context · occurrence 004","basin":"North Fork Republican","atlas_layer":"named_water_occurrence","object_role":"named_water_occurrence","historic_label":"Statewide Colorado hydrography context","current_label":"Statewide Colorado hydrography context","recovery_label":"Statewide Colorado hydrography context","tier":"tier4","minZoom":15,"confidence_public":"Statewide hydrography context outside current cutthroat lineage model","geometry_status_public":"Named natural stream occurrence from statewide hydrography","geometry_source_public":"Grouped public hydrography segments","trout_source_public":"Included for Colorado statewide hydrography completeness","public_notes":"Rock Creek is shown as statewide Colorado hydrography context outside the current cutthroat lineage assignment set."}},{"type":"Feature","geometry":{"type":"LineString","coordinates":[[-102.7094,40.3472],[-102.7014,40.3468],[-102.6981,40.3496],[-102.6927,40.3504],[-102.6876,40.3535],[-102.6828,40.3544]]},"properties":{"source_id":"co_named_stream_026187","name":"Rock Creek","display_name":"Rock Creek","mapped_name":"Rock Creek","source_name":"Rock Creek","state":"CO","atlas_class":"named_natural_stream","huc8":"10250002","huc8Name":"North Fork Republican","huc8States":"CO,KS,NE","lineageKey":"statewideContext","lineage":"statewideContext","historic":"statewideContext","current":"statewideContext","recovery":"statewideContext","lineageLabel":"Statewide Colorado hydrography context","lineageBasin":"","lineageNote":"","atlas_context":"statewide_hydrography_context","confidence":"Statewide hydrography context outside current cutthroat lineage model","geometryStatus":"Named natural stream segment from statewide hydrography","note":"This named natural stream is included for statewide Colorado hydrography completeness and is outside the current cutthroat lineage assignment set.","source_segment_id":"co_named_stream_026187","water_id":"co_rock_creek_10250002_statewideContext_004","occurrence_id":"co_rock_creek_10250002_statewideContext_004","occurrence_number":"004","segment_count":13,"disambiguator":"North Fork Republican · Statewide Colorado hydrography context · occurrence 004","basin":"North Fork Republican","atlas_layer":"named_water_occurrence","object_role":"named_water_occurrence","historic_label":"Statewide Colorado hydrography context","current_label":"Statewide Colorado hydrography context","recovery_label":"Statewide Colorado hydrography context","tier":"tier4","minZoom":15,"confidence_public":"Statewide hydrography context outside current cutthroat lineage model","geometry_status_public":"Named natural stream occurrence from statewide hydrography","geometry_source_public":"Grouped public hydrography segments","trout_source_public":"Included for Colorado statewide hydrography completeness","public_notes":"Rock Creek is shown as statewide Colorado hydrography context outside the current cutthroat lineage assignment set."}},{"type":"Feature","geometry":{"type":"LineString","coordinates":[[-102.6473,40.3347],[-102.6443,40.3352],[-102.6379,40.3384]]},"properties":{"source_id":"co_named_stream_026205","name":"Rock Creek","display_name":"Rock Creek","mapped_name":"Rock Creek","source_name":"Rock Creek","state":"CO","atlas_class":"named_natural_stream","huc8":"10250002","huc8Name":"North Fork Republican","huc8States":"CO,KS,NE","lineageKey":"statewideContext","lineage":"statewideContext","historic":"statewideContext","current":"statewideContext","recovery":"statewideContext","lineageLabel":"Statewide Colorado hydrography context","lineageBasin":"","lineageNote":"","atlas_context":"statewide_hydrography_context","confidence":"Statewide hydrography context outside current cutthroat lineage model","geometryStatus":"Named natural stream segment from statewide hydrography","note":"This named natural stream is included for statewide Colorado hydrography completeness and is outside the current cutthroat lineage assignment set.","source_segment_id":"co_named_stream_026205","water_id":"co_rock_creek_10250002_statewideContext_004","occurrence_id":"co_rock_creek_10250002_statewideContext_004","occurrence_number":"004","segment_count":13,"disambiguator":"North Fork Republican · Statewide Colorado hydrography context · occurrence 004","basin":"North Fork Republican","atlas_layer":"named_water_occurrence","object_role":"named_water_occurrence","historic_label":"Statewide Colorado hydrography context","current_label":"Statewide Colorado hydrography context","recovery_label":"Statewide Colorado hydrography context","tier":"tier4","minZoom":15,"confidence_public":"Statewide hydrography context outside current cutthroat lineage model","geometry_status_public":"Named natural stream occurrence from statewide hydrography","geometry_source_public":"Grouped public hydrography segments","trout_source_public":"Included for Colorado statewide hydrography completeness","public_notes":"Rock Creek is shown as statewide Colorado hydrography context outside the current cutthroat lineage assignment set."}},{"type":"Feature","geometry":{"type":"LineString","coordinates":[[-102.7454,40.3431],[-102.7432,40.3437],[-102.7414,40.3421],[-102.7385,40.342],[-102.7358,40.3437],[-102.7294,40.3425],[-102.7249,40.3401],[-102.7203,40.3414],[-102.7173,40.3389],[-102.7151,40.339]]},"properties":{"source_id":"co_named_stream_026530","name":"Rock Creek","display_name":"Rock Creek","mapped_name":"Rock Creek","source_name":"Rock Creek","state":"CO","atlas_class":"named_natural_stream","huc8":"10250002","huc8Name":"North Fork Republican","huc8States":"CO,KS,NE","lineageKey":"statewideContext","lineage":"statewideContext","historic":"statewideContext","current":"statewideContext","recovery":"statewideContext","lineageLabel":"Statewide Colorado hydrography context","lineageBasin":"","lineageNote":"","atlas_context":"statewide_hydrography_context","confidence":"Statewide hydrography context outside current cutthroat lineage model","geometryStatus":"Named natural stream segment from statewide hydrography","note":"This named natural stream is included for statewide Colorado hydrography completeness and is outside the current cutthroat lineage assignment set.","source_segment_id":"co_named_stream_026530","water_id":"co_rock_creek_10250002_statewideContext_004","occurrence_id":"co_rock_creek_10250002_statewideContext_004","occurrence_number":"004","segment_count":13,"disambiguator":"North Fork Republican · Statewide Colorado hydrography context · occurrence 004","basin":"North Fork Republican","atlas_layer":"named_water_occurrence","object_role":"named_water_occurrence","historic_label":"Statewide Colorado hydrography context","current_label":"Statewide Colorado hydrography context","recovery_label":"Statewide Colorado hydrography context","tier":"tier4","minZoom":15,"confidence_public":"Statewide hydrography context outside current cutthroat lineage model","geometry_status_public":"Named natural stream occurrence from statewide hydrography","geometry_source_public":"Grouped public hydrography segments","trout_source_public":"Included for Colorado statewide hydrography completeness","public_notes":"Rock Creek is shown as statewide Colorado hydrography context outside the current cutthroat lineage assignment set."}},{"type":"Feature","geometry":{"type":"LineString","coordinates":[[-102.5761,40.3343],[-102.5767,40.3325],[-102.5757,40.332],[-102.573,40.3339],[-102.5737,40.3362],[-102.5717,40.3362]]},"properties":{"source_id":"co_named_stream_026537","name":"Rock Creek","display_name":"Rock Creek","mapped_name":"Rock Creek","source_name":"Rock Creek","state":"CO","atlas_class":"named_natural_stream","huc8":"10250002","huc8Name":"North Fork Republican","huc8States":"CO,KS,NE","lineageKey":"statewideContext","lineage":"statewideContext","historic":"statewideContext","current":"statewideContext","recovery":"statewideContext","lineageLabel":"Statewide Colorado hydrography context","lineageBasin":"","lineageNote":"","atlas_context":"statewide_hydrography_context","confidence":"Statewide hydrography context outside current cutthroat lineage model","geometryStatus":"Named natural stream segment from statewide hydrography","note":"This named natural stream is included for statewide Colorado hydrography completeness and is outside the current cutthroat lineage assignment set.","source_segment_id":"co_named_stream_026537","water_id":"co_rock_creek_10250002_statewideContext_004","occurrence_id":"co_rock_creek_10250002_statewideContext_004","occurrence_number":"004","segment_count":13,"disambiguator":"North Fork Republican · Statewide Colorado hydrography context · occurrence 004","basin":"North Fork Republican","atlas_layer":"named_water_occurrence","object_role":"named_water_occurrence","historic_label":"Statewide Colorado hydrography context","current_label":"Statewide Colorado hydrography context","recovery_label":"Statewide Colorado hydrography context","tier":"tier4","minZoom":15,"confidence_public":"Statewide hydrography context outside current cutthroat lineage model","geometry_status_public":"Named natural stream occurrence from statewide hydrography","geometry_source_public":"Grouped public hydrography segments","trout_source_public":"Included for Colorado statewide hydrography completeness","public_notes":"Rock Creek is shown as statewide Colorado hydrography context outside the current cutthroat lineage assignment set."}},{"type":"Feature","geometry":{"type":"LineString","coordinates":[[-102.5717,40.3362],[-102.5713,40.334],[-102.5695,40.3332],[-102.5667,40.3348],[-102.5642,40.3335],[-102.5561,40.3336],[-102.5496,40.3304],[-102.5457,40.3312],[-102.543,40.3297],[-102.5417,40.3273],[-102.5396,40.3274],[-102.5385,40.3262],[-102.5365,40.3278],[-102.5355,40.3261],[-102.5283,40.3247]]},"properties":{"source_id":"co_named_stream_026718","name":"Rock Creek","display_name":"Rock Creek","mapped_name":"Rock Creek","source_name":"Rock Creek","state":"CO","atlas_class":"named_natural_stream","huc8":"10250002","huc8Name":"North Fork Republican","huc8States":"CO,KS,NE","lineageKey":"statewideContext","lineage":"statewideContext","historic":"statewideContext","current":"statewideContext","recovery":"statewideContext","lineageLabel":"Statewide Colorado hydrography context","lineageBasin":"","lineageNote":"","atlas_context":"statewide_hydrography_context","confidence":"Statewide hydrography context outside current cutthroat lineage model","geometryStatus":"Named natural stream segment from statewide hydrography","note":"This named natural stream is included for statewide Colorado hydrography completeness and is outside the current cutthroat lineage assignment set.","source_segment_id":"co_named_stream_026718","water_id":"co_rock_creek_10250002_statewideContext_004","occurrence_id":"co_rock_creek_10250002_statewideContext_004","occurrence_number":"004","segment_count":13,"disambiguator":"North Fork Republican · Statewide Colorado hydrography context · occurrence 004","basin":"North Fork Republican","atlas_layer":"named_water_occurrence","object_role":"named_water_occurrence","historic_label":"Statewide Colorado hydrography context","current_label":"Statewide Colorado hydrography context","recovery_label":"Statewide Colorado hydrography context","tier":"tier4","minZoom":15,"confidence_public":"Statewide hydrography context outside current cutthroat lineage model","geometry_status_public":"Named natural stream occurrence from statewide hydrography","geometry_source_public":"Grouped public hydrography segments","trout_source_public":"Included for Colorado statewide hydrography completeness","public_notes":"Rock Creek is shown as statewide Colorado hydrography context outside the current cutthroat lineage assignment set."}},{"type":"Feature","geometry":{"type":"LineString","coordinates":[[-102.7534,40.3465],[-102.7454,40.3431]]},"properties":{"source_id":"co_named_stream_026943","name":"Rock Creek","display_name":"Rock Creek","mapped_name":"Rock Creek","source_name":"Rock Creek","state":"CO","atlas_class":"named_natural_stream","huc8":"10250002","huc8Name":"North Fork Republican","huc8States":"CO,KS,NE","lineageKey":"statewideContext","lineage":"statewideContext","historic":"statewideContext","current":"statewideContext","recovery":"statewideContext","lineageLabel":"Statewide Colorado hydrography context","lineageBasin":"","lineageNote":"","atlas_context":"statewide_hydrography_context","confidence":"Statewide hydrography context outside current cutthroat lineage model","geometryStatus":"Named natural stream segment from statewide hydrography","note":"This named natural stream is included for statewide Colorado hydrography completeness and is outside the current cutthroat lineage assignment set.","source_segment_id":"co_named_stream_026943","water_id":"co_rock_creek_10250002_statewideContext_004","occurrence_id":"co_rock_creek_10250002_statewideContext_004","occurrence_number":"004","segment_count":13,"disambiguator":"North Fork Republican · Statewide Colorado hydrography context · occurrence 004","basin":"North Fork Republican","atlas_layer":"named_water_occurrence","object_role":"named_water_occurrence","historic_label":"Statewide Colorado hydrography context","current_label":"Statewide Colorado hydrography context","recovery_label":"Statewide Colorado hydrography context","tier":"tier4","minZoom":15,"confidence_public":"Statewide hydrography context outside current cutthroat lineage model","geometry_status_public":"Named natural stream occurrence from statewide hydrography","geometry_source_public":"Grouped public hydrography segments","trout_source_public":"Included for Colorado statewide hydrography completeness","public_notes":"Rock Creek is shown as statewide Colorado hydrography context outside the current cutthroat lineage assignment set."}},{"type":"Feature","geometry":{"type":"LineString","coordinates":[[-102.7548,40.367],[-102.7551,40.3636],[-102.7541,40.3624],[-102.7519,40.3618],[-102.7522,40.3609],[-102.75,40.3578],[-102.7493,40.3578],[-102.7491,40.3589],[-102.7419,40.3579],[-102.7382,40.3566],[-102.7357,40.3544],[-102.7312,40.3547],[-102.7266,40.353],[-102.7207,40.3522],[-102.7116,40.3474],[-102.7094,40.3472]]},"properties":{"source_id":"co_named_stream_025001","name":"Red Willow Creek","display_name":"Red Willow Creek","mapped_name":"Red Willow Creek","source_name":"Red Willow Creek","state":"CO","atlas_class":"named_natural_stream","huc8":"10250002","huc8Name":"North Fork Republican","huc8States":"CO,KS,NE","lineageKey":"statewideContext","lineage":"statewideContext","historic":"statewideContext","current":"statewideContext","recovery":"statewideContext","lineageLabel":"Statewide Colorado hydrography context","lineageBasin":"","lineageNote":"","atlas_context":"statewide_hydrography_context","confidence":"Statewide hydrography context outside current cutthroat lineage model","geometryStatus":"Named natural stream segment from statewide hydrography","note":"This named natural stream is included for statewide Colorado hydrography completeness and is outside the current cutthroat lineage assignment set.","source_segment_id":"co_named_stream_025001","water_id":"co_red_willow_creek_10250002_statewideContext_001","occurrence_id":"co_red_willow_creek_10250002_statewideContext_001","occurrence_number":"001","segment_count":3,"disambiguator":"North Fork Republican · Statewide Colorado hydrography context · occurrence 001","basin":"North Fork Republican","atlas_layer":"named_water_occurrence","object_role":"named_water_occurrence","historic_label":"Statewide Colorado hydrography context","current_label":"Statewide Colorado hydrography context","recovery_label":"Statewide Colorado hydrography context","tier":"tier4","minZoom":15,"confidence_public":"Statewide hydrography context outside current cutthroat lineage model","geometry_status_public":"Named natural stream occurrence from statewide hydrography","geometry_source_public":"Grouped public hydrography segments","trout_source_public":"Included for Colorado statewide hydrography completeness","public_notes":"Red Willow Creek is shown as statewide Colorado hydrography context outside the current cutthroat lineage assignment set."}},{"type":"Feature","geometry":{"type":"LineString","coordinates":[[-102.7007,40.4507],[-102.6967,40.4494],[-102.6932,40.447]]},"properties":{"source_id":"co_named_stream_025069","name":"Coyote Creek","display_name":"Coyote Creek","mapped_name":"Coyote Creek","source_name":"Coyote Creek","state":"CO","atlas_class":"named_natural_stream","huc8":"10250002","huc8Name":"North Fork Republican","huc8States":"CO,KS,NE","lineageKey":"statewideContext","lineage":"statewideContext","historic":"statewideContext","current":"statewideContext","recovery":"statewideContext","lineageLabel":"Statewide Colorado hydrography context","lineageBasin":"","lineageNote":"","atlas_context":"statewide_hydrography_context","confidence":"Statewide hydrography context outside current cutthroat lineage model","geometryStatus":"Named natural stream segment from statewide hydrography","note":"This named natural stream is included for statewide Colorado hydrography completeness and is outside the current cutthroat lineage assignment set.","source_segment_id":"co_named_stream_025069","water_id":"co_coyote_creek_10250002_statewideContext_003","occurrence_id":"co_coyote_creek_10250002_statewideContext_003","occurrence_number":"003","segment_count":14,"disambiguator":"North Fork Republican · Statewide Colorado hydrography context · occurrence 003","basin":"North Fork Republican","atlas_layer":"named_water_occurrence","object_role":"named_water_occurrence","historic_label":"Statewide Colorado hydrography context","current_label":"Statewide Colorado hydrography context","recovery_label":"Statewide Colorado hydrography context","tier":"tier4","minZoom":15,"confidence_public":"Statewide hydrography context outside current cutthroat lineage model","geometry_status_public":"Named natural stream occurrence from statewide hydrography","geometry_source_public":"Grouped public hydrography segments","trout_source_public":"Included for Colorado statewide hydrography completeness","public_notes":"Coyote Creek is shown as statewide Colorado hydrography context outside the current cutthroat lineage assignment set."}},{"type":"Feature","geometry":{"type":"LineString","coordinates":[[-102.6932,40.447],[-102.6923,40.4459]]},"properties":{"source_id":"co_named_stream_025568","name":"Coyote Creek","display_name":"Coyote Creek","mapped_name":"Coyote Creek","source_name":"Coyote Creek","state":"CO","atlas_class":"named_natural_stream","huc8":"10250002","huc8Name":"North Fork Republican","huc8States":"CO,KS,NE","lineageKey":"statewideContext","lineage":"statewideContext","historic":"statewideContext","current":"statewideContext","recovery":"statewideContext","lineageLabel":"Statewide Colorado hydrography context","lineageBasin":"","lineageNote":"","atlas_context":"statewide_hydrography_context","confidence":"Statewide hydrography context outside current cutthroat lineage model","geometryStatus":"Named natural stream segment from statewide hydrography","note":"This named natural stream is included for statewide Colorado hydrography completeness and is outside the current cutthroat lineage assignment set.","source_segment_id":"co_named_stream_025568","water_id":"co_coyote_creek_10250002_statewideContext_003","occurrence_id":"co_coyote_creek_10250002_statewideContext_003","occurrence_number":"003","segment_count":14,"disambiguator":"North Fork Republican · Statewide Colorado hydrography context · occurrence 003","basin":"North Fork Republican","atlas_layer":"named_water_occurrence","object_role":"named_water_occurrence","historic_label":"Statewide Colorado hydrography context","current_label":"Statewide Colorado hydrography context","recovery_label":"Statewide Colorado hydrography context","tier":"tier4","minZoom":15,"confidence_public":"Statewide hydrography context outside current cutthroat lineage model","geometry_status_public":"Named natural stream occurrence from statewide hydrography","geometry_source_public":"Grouped public hydrography segments","trout_source_public":"Included for Colorado statewide hydrography completeness","public_notes":"Coyote Creek is shown as statewide Colorado hydrography context outside the current cutthroat lineage assignment set."}},{"type":"Feature","geometry":{"type":"LineString","coordinates":[[-102.7268,40.4597],[-102.7243,40.459]]},"properties":{"source_id":"co_named_stream_025754","name":"Coyote Creek","display_name":"Coyote Creek","mapped_name":"Coyote Creek","source_name":"Coyote Creek","state":"CO","atlas_class":"named_natural_stream","huc8":"10250002","huc8Name":"North Fork Republican","huc8States":"CO,KS,NE","lineageKey":"statewideContext","lineage":"statewideContext","historic":"statewideContext","current":"statewideContext","recovery":"statewideContext","lineageLabel":"Statewide Colorado hydrography context","lineageBasin":"","lineageNote":"","atlas_context":"statewide_hydrography_context","confidence":"Statewide hydrography context outside current cutthroat lineage model","geometryStatus":"Named natural stream segment from statewide hydrography","note":"This named natural stream is included for statewide Colorado hydrography completeness and is outside the current cutthroat lineage assignment set.","source_segment_id":"co_named_stream_025754","water_id":"co_coyote_creek_10250002_statewideContext_003","occurrence_id":"co_coyote_creek_10250002_statewideContext_003","occurrence_number":"003","segment_count":14,"disambiguator":"North Fork Republican · Statewide Colorado hydrography context · occurrence 003","basin":"North Fork Republican","atlas_layer":"named_water_occurrence","object_role":"named_water_occurrence","historic_label":"Statewide Colorado hydrography context","current_label":"Statewide Colorado hydrography context","recovery_label":"Statewide Colorado hydrography context","tier":"tier4","minZoom":15,"confidence_public":"Statewide hydrography context outside current cutthroat lineage model","geometry_status_public":"Named natural stream occurrence from statewide hydrography","geometry_source_public":"Grouped public hydrography segments","trout_source_public":"Included for Colorado statewide hydrography completeness","public_notes":"Coyote Creek is shown as statewide Colorado hydrography context outside the current cutthroat lineage assignment set."}},{"type":"Feature","geometry":{"type":"LineString","coordinates":[[-102.7469,40.4613],[-102.7464,40.4614]]},"properties":{"source_id":"co_named_stream_026264","name":"Coyote Creek","display_name":"Coyote Creek","mapped_name":"Coyote Creek","source_name":"Coyote Creek","state":"CO","atlas_class":"named_natural_stream","huc8":"10250002","huc8Name":"North Fork Republican","huc8States":"CO,KS,NE","lineageKey":"statewideContext","lineage":"statewideContext","historic":"statewideContext","current":"statewideContext","recovery":"statewideContext","lineageLabel":"Statewide Colorado hydrography context","lineageBasin":"","lineageNote":"","atlas_context":"statewide_hydrography_context","confidence":"Statewide hydrography context outside current cutthroat lineage model","geometryStatus":"Named natural stream segment from statewide hydrography","note":"This named natural stream is included for statewide Colorado hydrography completeness and is outside the current cutthroat lineage assignment set.","source_segment_id":"co_named_stream_026264","water_id":"co_coyote_creek_10250002_statewideContext_003","occurrence_id":"co_coyote_creek_10250002_statewideContext_003","occurrence_number":"003","segment_count":14,"disambiguator":"North Fork Republican · Statewide Colorado hydrography context · occurrence 003","basin":"North Fork Republican","atlas_layer":"named_water_occurrence","object_role":"named_water_occurrence","historic_label":"Statewide Colorado hydrography context","current_label":"Statewide Colorado hydrography context","recovery_label":"Statewide Colorado hydrography context","tier":"tier4","minZoom":15,"confidence_public":"Statewide hydrography context outside current cutthroat lineage model","geometry_status_public":"Named natural stream occurrence from statewide hydrography","geometry_source_public":"Grouped public hydrography segments","trout_source_public":"Included for Colorado statewide hydrography completeness","public_notes":"Coyote Creek is shown as statewide Colorado hydrography context outside the current cutthroat lineage assignment set."}},{"type":"Feature","geometry":{"type":"LineString","coordinates":[[-102.7421,40.4612],[-102.7363,40.461],[-102.7331,40.4624]]},"properties":{"source_id":"co_named_stream_026322","name":"Coyote Creek","display_name":"Coyote Creek","mapped_name":"Coyote Creek","source_name":"Coyote Creek","state":"CO","atlas_class":"named_natural_stream","huc8":"10250002","huc8Name":"North Fork Republican","huc8States":"CO,KS,NE","lineageKey":"statewideContext","lineage":"statewideContext","historic":"statewideContext","current":"statewideContext","recovery":"statewideContext","lineageLabel":"Statewide Colorado hydrography context","lineageBasin":"","lineageNote":"","atlas_context":"statewide_hydrography_context","confidence":"Statewide hydrography context outside current cutthroat lineage model","geometryStatus":"Named natural stream segment from statewide hydrography","note":"This named natural stream is included for statewide Colorado hydrography completeness and is outside the current cutthroat lineage assignment set.","source_segment_id":"co_named_stream_026322","water_id":"co_coyote_creek_10250002_statewideContext_003","occurrence_id":"co_coyote_creek_10250002_statewideContext_003","occurrence_number":"003","segment_count":14,"disambiguator":"North Fork Republican · Statewide Colorado hydrography context · occurrence 003","basin":"North Fork Republican","atlas_layer":"named_water_occurrence","object_role":"named_water_occurrence","historic_label":"Statewide Colorado hydrography context","current_label":"Statewide Colorado hydrography context","recovery_label":"Statewide Colorado hydrography context","tier":"tier4","minZoom":15,"confidence_public":"Statewide hydrography context outside current cutthroat lineage model","geometry_status_public":"Named natural stream occurrence from statewide hydrography","geometry_source_public":"Grouped public hydrography segments","trout_source_public":"Included for Colorado statewide hydrography completeness","public_notes":"Coyote Creek is shown as statewide Colorado hydrography context outside the current cutthroat lineage assignment set."}},{"type":"Feature","geometry":{"type":"LineString","coordinates":[[-102.7508,40.4615],[-102.7469,40.4613]]},"properties":{"source_id":"co_named_stream_026531","name":"Coyote Creek","display_name":"Coyote Creek","mapped_name":"Coyote Creek","source_name":"Coyote Creek","state":"CO","atlas_class":"named_natural_stream","huc8":"10250002","huc8Name":"North Fork Republican","huc8States":"CO,KS,NE","lineageKey":"statewideContext","lineage":"statewideContext","historic":"statewideContext","current":"statewideContext","recovery":"statewideContext","lineageLabel":"Statewide Colorado hydrography context","lineageBasin":"","lineageNote":"","atlas_context":"statewide_hydrography_context","confidence":"Statewide hydrography context outside current cutthroat lineage model","geometryStatus":"Named natural stream segment from statewide hydrography","note":"This named natural stream is included for statewide Colorado hydrography completeness and is outside the current cutthroat lineage assignment set.","source_segment_id":"co_named_stream_026531","water_id":"co_coyote_creek_10250002_statewideContext_003","occurrence_id":"co_coyote_creek_10250002_statewideContext_003","occurrence_number":"003","segment_count":14,"disambiguator":"North Fork Republican · Statewide Colorado hydrography context · occurrence 003","basin":"North Fork Republican","atlas_layer":"named_water_occurrence","object_role":"named_water_occurrence","historic_label":"Statewide Colorado hydrography context","current_label":"Statewide Colorado hydrography context","recovery_label":"Statewide Colorado hydrography context","tier":"tier4","minZoom":15,"confidence_public":"Statewide hydrography context outside current cutthroat lineage model","geometry_status_public":"Named natural stream occurrence from statewide hydrography","geometry_source_public":"Grouped public hydrography segments","trout_source_public":"Included for Colorado statewide hydrography completeness","public_notes":"Coyote Creek is shown as statewide Colorado hydrography context outside the current cutthroat lineage assignment set."}},{"type":"Feature","geometry":{"type":"LineString","coordinates":[[-102.7282,40.4613],[-102.728,40.4606]]},"properties":{"source_id":"co_named_stream_026650","name":"Coyote Creek","display_name":"Coyote Creek","mapped_name":"Coyote Creek","source_name":"Coyote Creek","state":"CO","atlas_class":"named_natural_stream","huc8":"10250002","huc8Name":"North Fork Republican","huc8States":"CO,KS,NE","lineageKey":"statewideContext","lineage":"statewideContext","historic":"statewideContext","current":"statewideContext","recovery":"statewideContext","lineageLabel":"Statewide Colorado hydrography context","lineageBasin":"","lineageNote":"","atlas_context":"statewide_hydrography_context","confidence":"Statewide hydrography context outside current cutthroat lineage model","geometryStatus":"Named natural stream segment from statewide hydrography","note":"This named natural stream is included for statewide Colorado hydrography completeness and is outside the current cutthroat lineage assignment set.","source_segment_id":"co_named_stream_026650","water_id":"co_coyote_creek_10250002_statewideContext_003","occurrence_id":"co_coyote_creek_10250002_statewideContext_003","occurrence_number":"003","segment_count":14,"disambiguator":"North Fork Republican · Statewide Colorado hydrography context · occurrence 003","basin":"North Fork Republican","atlas_layer":"named_water_occurrence","object_role":"named_water_occurrence","historic_label":"Statewide Colorado hydrography context","current_label":"Statewide Colorado hydrography context","recovery_label":"Statewide Colorado hydrography context","tier":"tier4","minZoom":15,"confidence_public":"Statewide hydrography context outside current cutthroat lineage model","geometry_status_public":"Named natural stream occurrence from statewide hydrography","geometry_source_public":"Grouped public hydrography segments","trout_source_public":"Included for Colorado statewide hydrography completeness","public_notes":"Coyote Creek is shown as statewide Colorado hydrography context outside the current cutthroat lineage assignment set."}},{"type":"Feature","geometry":{"type":"LineString","coordinates":[[-102.7447,40.4611],[-102.7431,40.461]]},"properties":{"source_id":"co_named_stream_026830","name":"Coyote Creek","display_name":"Coyote Creek","mapped_name":"Coyote Creek","source_name":"Coyote Creek","state":"CO","atlas_class":"named_natural_stream","huc8":"10250002","huc8Name":"North Fork Republican","huc8States":"CO,KS,NE","lineageKey":"statewideContext","lineage":"statewideContext","historic":"statewideContext","current":"statewideContext","recovery":"statewideContext","lineageLabel":"Statewide Colorado hydrography context","lineageBasin":"","lineageNote":"","atlas_context":"statewide_hydrography_context","confidence":"Statewide hydrography context outside current cutthroat lineage model","geometryStatus":"Named natural stream segment from statewide hydrography","note":"This named natural stream is included for statewide Colorado hydrography completeness and is outside the current cutthroat lineage assignment set.","source_segment_id":"co_named_stream_026830","water_id":"co_coyote_creek_10250002_statewideContext_003","occurrence_id":"co_coyote_creek_10250002_statewideContext_003","occurrence_number":"003","segment_count":14,"disambiguator":"North Fork Republican · Statewide Colorado hydrography context · occurrence 003","basin":"North Fork Republican","atlas_layer":"named_water_occurrence","object_role":"named_water_occurrence","historic_label":"Statewide Colorado hydrography context","current_label":"Statewide Colorado hydrography context","recovery_label":"Statewide Colorado hydrography context","tier":"tier4","minZoom":15,"confidence_public":"Statewide hydrography context outside current cutthroat lineage model","geometry_status_public":"Named natural stream occurrence from statewide hydrography","geometry_source_public":"Grouped public hydrography segments","trout_source_public":"Included for Colorado statewide hydrography completeness","public_notes":"Coyote Creek is shown as statewide Colorado hydrography context outside the current cutthroat lineage assignment set."}},{"type":"Feature","geometry":{"type":"LineString","coordinates":[[-102.6784,40.4194],[-102.6761,40.4196]]},"properties":{"source_id":"co_named_stream_026847","name":"Coyote Creek","display_name":"Coyote Creek","mapped_name":"Coyote Creek","source_name":"Coyote Creek","state":"CO","atlas_class":"named_natural_stream","huc8":"10250002","huc8Name":"North Fork Republican","huc8States":"CO,KS,NE","lineageKey":"statewideContext","lineage":"statewideContext","historic":"statewideContext","current":"statewideContext","recovery":"statewideContext","lineageLabel":"Statewide Colorado hydrography context","lineageBasin":"","lineageNote":"","atlas_context":"statewide_hydrography_context","confidence":"Statewide hydrography context outside current cutthroat lineage model","geometryStatus":"Named natural stream segment from statewide hydrography","note":"This named natural stream is included for statewide Colorado hydrography completeness and is outside the current cutthroat lineage assignment set.","source_segment_id":"co_named_stream_026847","water_id":"co_coyote_creek_10250002_statewideContext_003","occurrence_id":"co_coyote_creek_10250002_statewideContext_003","occurrence_number":"003","segment_count":14,"disambiguator":"North Fork Republican · Statewide Colorado hydrography context · occurrence 003","basin":"North Fork Republican","atlas_layer":"named_water_occurrence","object_role":"named_water_occurrence","historic_label":"Statewide Colorado hydrography context","current_label":"Statewide Colorado hydrography context","recovery_label":"Statewide Colorado hydrography context","tier":"tier4","minZoom":15,"confidence_public":"Statewide hydrography context outside current cutthroat lineage model","geometry_status_public":"Named natural stream occurrence from statewide hydrography","geometry_source_public":"Grouped public hydrography segments","trout_source_public":"Included for Colorado statewide hydrography completeness","public_notes":"Coyote Creek is shown as statewide Colorado hydrography context outside the current cutthroat lineage assignment set."}},{"type":"Feature","geometry":{"type":"LineString","coordinates":[[-102.6599,40.3752],[-102.6589,40.373]]},"properties":{"source_id":"co_named_stream_026890","name":"Coyote Creek","display_name":"Coyote Creek","mapped_name":"Coyote Creek","source_name":"Coyote Creek","state":"CO","atlas_class":"named_natural_stream","huc8":"10250002","huc8Name":"North Fork Republican","huc8States":"CO,KS,NE","lineageKey":"statewideContext","lineage":"statewideContext","historic":"statewideContext","current":"statewideContext","recovery":"statewideContext","lineageLabel":"Statewide Colorado hydrography context","lineageBasin":"","lineageNote":"","atlas_context":"statewide_hydrography_context","confidence":"Statewide hydrography context outside current cutthroat lineage model","geometryStatus":"Named natural stream segment from statewide hydrography","note":"This named natural stream is included for statewide Colorado hydrography completeness and is outside the current cutthroat lineage assignment set.","source_segment_id":"co_named_stream_026890","water_id":"co_coyote_creek_10250002_statewideContext_003","occurrence_id":"co_coyote_creek_10250002_statewideContext_003","occurrence_number":"003","segment_count":14,"disambiguator":"North Fork Republican · Statewide Colorado hydrography context · occurrence 003","basin":"North Fork Republican","atlas_layer":"named_water_occurrence","object_role":"named_water_occurrence","historic_label":"Statewide Colorado hydrography context","current_label":"Statewide Colorado hydrography context","recovery_label":"Statewide Colorado hydrography context","tier":"tier4","minZoom":15,"confidence_public":"Statewide hydrography context outside current cutthroat lineage model","geometry_status_public":"Named natural stream occurrence from statewide hydrography","geometry_source_public":"Grouped public hydrography segments","trout_source_public":"Included for Colorado statewide hydrography completeness","public_notes":"Coyote Creek is shown as statewide Colorado hydrography context outside the current cutthroat lineage assignment set."}},{"type":"Feature","geometry":{"type":"LineString","coordinates":[[-102.6427,40.3641],[-102.6417,40.3627],[-102.6398,40.3628],[-102.6393,40.3611],[-102.637,40.3592],[-102.6386,40.3554],[-102.6354,40.3526],[-102.6376,40.3517],[-102.636,40.3477],[-102.6381,40.3453],[-102.6367,40.345],[-102.636,40.343],[-102.6314,40.3436],[-102.6284,40.3426]]},"properties":{"source_id":"co_named_stream_025171","name":"Coyote Creek","display_name":"Coyote Creek","mapped_name":"Coyote Creek","source_name":"Coyote Creek","state":"CO","atlas_class":"named_natural_stream","huc8":"10250002","huc8Name":"North Fork Republican","huc8States":"CO,KS,NE","lineageKey":"statewideContext","lineage":"statewideContext","historic":"statewideContext","current":"statewideContext","recovery":"statewideContext","lineageLabel":"Statewide Colorado hydrography context","lineageBasin":"","lineageNote":"","atlas_context":"statewide_hydrography_context","confidence":"Statewide hydrography context outside current cutthroat lineage model","geometryStatus":"Named natural stream segment from statewide hydrography","note":"This named natural stream is included for statewide Colorado hydrography completeness and is outside the current cutthroat lineage assignment set.","source_segment_id":"co_named_stream_025171","water_id":"co_coyote_creek_10250002_statewideContext_004","occurrence_id":"co_coyote_creek_10250002_statewideContext_004","occurrence_number":"004","segment_count":4,"disambiguator":"North Fork Republican · Statewide Colorado hydrography context · occurrence 004","basin":"North Fork Republican","atlas_layer":"named_water_occurrence","object_role":"named_water_occurrence","historic_label":"Statewide Colorado hydrography context","current_label":"Statewide Colorado hydrography context","recovery_label":"Statewide Colorado hydrography context","tier":"tier4","minZoom":15,"confidence_public":"Statewide hydrography context outside current cutthroat lineage model","geometry_status_public":"Named natural stream occurrence from statewide hydrography","geometry_source_public":"Grouped public hydrography segments","trout_source_public":"Included for Colorado statewide hydrography completeness","public_notes":"Coyote Creek is shown as statewide Colorado hydrography context outside the current cutthroat lineage assignment set."}},{"type":"Feature","geometry":{"type":"LineString","coordinates":[[-102.659,40.3776],[-102.6596,40.3766]]},"properties":{"source_id":"co_named_stream_025172","name":"Coyote Creek","display_name":"Coyote Creek","mapped_name":"Coyote Creek","source_name":"Coyote Creek","state":"CO","atlas_class":"named_natural_stream","huc8":"10250002","huc8Name":"North Fork Republican","huc8States":"CO,KS,NE","lineageKey":"statewideContext","lineage":"statewideContext","historic":"statewideContext","current":"statewideContext","recovery":"statewideContext","lineageLabel":"Statewide Colorado hydrography context","lineageBasin":"","lineageNote":"","atlas_context":"statewide_hydrography_context","confidence":"Statewide hydrography context outside current cutthroat lineage model","geometryStatus":"Named natural stream segment from statewide hydrography","note":"This named natural stream is included for statewide Colorado hydrography completeness and is outside the current cutthroat lineage assignment set.","source_segment_id":"co_named_stream_025172","water_id":"co_coyote_creek_10250002_statewideContext_004","occurrence_id":"co_coyote_creek_10250002_statewideContext_004","occurrence_number":"004","segment_count":4,"disambiguator":"North Fork Republican · Statewide Colorado hydrography context · occurrence 004","basin":"North Fork Republican","atlas_layer":"named_water_occurrence","object_role":"named_water_occurrence","historic_label":"Statewide Colorado hydrography context","current_label":"Statewide Colorado hydrography context","recovery_label":"Statewide Colorado hydrography context","tier":"tier4","minZoom":15,"confidence_public":"Statewide hydrography context outside current cutthroat lineage model","geometry_status_public":"Named natural stream occurrence from statewide hydrography","geometry_source_public":"Grouped public hydrography segments","trout_source_public":"Included for Colorado statewide hydrography completeness","public_notes":"Coyote Creek is shown as statewide Colorado hydrography context outside the current cutthroat lineage assignment set."}},{"type":"Feature","geometry":{"type":"LineString","coordinates":[[-102.6589,40.373],[-102.6446,40.3678],[-102.6434,40.3668],[-102.6434,40.365]]},"properties":{"source_id":"co_named_stream_026042","name":"Coyote Creek","display_name":"Coyote Creek","mapped_name":"Coyote Creek","source_name":"Coyote Creek","state":"CO","atlas_class":"named_natural_stream","huc8":"10250002","huc8Name":"North Fork Republican","huc8States":"CO,KS,NE","lineageKey":"statewideContext","lineage":"statewideContext","historic":"statewideContext","current":"statewideContext","recovery":"statewideContext","lineageLabel":"Statewide Colorado hydrography context","lineageBasin":"","lineageNote":"","atlas_context":"statewide_hydrography_context","confidence":"Statewide hydrography context outside current cutthroat lineage model","geometryStatus":"Named natural stream segment from statewide hydrography","note":"This named natural stream is included for statewide Colorado hydrography completeness and is outside the current cutthroat lineage assignment set.","source_segment_id":"co_named_stream_026042","water_id":"co_coyote_creek_10250002_statewideContext_004","occurrence_id":"co_coyote_creek_10250002_statewideContext_004","occurrence_number":"004","segment_count":4,"disambiguator":"North Fork Republican · Statewide Colorado hydrography context · occurrence 004","basin":"North Fork Republican","atlas_layer":"named_water_occurrence","object_role":"named_water_occurrence","historic_label":"Statewide Colorado hydrography context","current_label":"Statewide Colorado hydrography context","recovery_label":"Statewide Colorado hydrography context","tier":"tier4","minZoom":15,"confidence_public":"Statewide hydrography context outside current cutthroat lineage model","geometry_status_public":"Named natural stream occurrence from statewide hydrography","geometry_source_public":"Grouped public hydrography segments","trout_source_public":"Included for Colorado statewide hydrography completeness","public_notes":"Coyote Creek is shown as statewide Colorado hydrography context outside the current cutthroat lineage assignment set."}},{"type":"Feature","geometry":{"type":"LineString","coordinates":[[-102.6623,40.3851],[-102.6621,40.3833]]},"properties":{"source_id":"co_named_stream_026309","name":"Coyote Creek","display_name":"Coyote Creek","mapped_name":"Coyote Creek","source_name":"Coyote Creek","state":"CO","atlas_class":"named_natural_stream","huc8":"10250002","huc8Name":"North Fork Republican","huc8States":"CO,KS,NE","lineageKey":"statewideContext","lineage":"statewideContext","historic":"statewideContext","current":"statewideContext","recovery":"statewideContext","lineageLabel":"Statewide Colorado hydrography context","lineageBasin":"","lineageNote":"","atlas_context":"statewide_hydrography_context","confidence":"Statewide hydrography context outside current cutthroat lineage model","geometryStatus":"Named natural stream segment from statewide hydrography","note":"This named natural stream is included for statewide Colorado hydrography completeness and is outside the current cutthroat lineage assignment set.","source_segment_id":"co_named_stream_026309","water_id":"co_coyote_creek_10250002_statewideContext_004","occurrence_id":"co_coyote_creek_10250002_statewideContext_004","occurrence_number":"004","segment_count":4,"disambiguator":"North Fork Republican · Statewide Colorado hydrography context · occurrence 004","basin":"North Fork Republican","atlas_layer":"named_water_occurrence","object_role":"named_water_occurrence","historic_label":"Statewide Colorado hydrography context","current_label":"Statewide Colorado hydrography context","recovery_label":"Statewide Colorado hydrography context","tier":"tier4","minZoom":15,"confidence_public":"Statewide hydrography context outside current cutthroat lineage model","geometry_status_public":"Named natural stream occurrence from statewide hydrography","geometry_source_public":"Grouped public hydrography segments","trout_source_public":"Included for Colorado statewide hydrography completeness","public_notes":"Coyote Creek is shown as statewide Colorado hydrography context outside the current cutthroat lineage assignment set."}}]}