{"type":"FeatureCollection","metadata":{"source":"C:\\ct-atlas-data\\processed\\geojson\\interpreted\\colorado_named_natural_streams_complete_v1.geojson","tier":"tier4","tile_size_degrees":0.25,"x":-410,"y":152,"bounds":{"west":-102.5,"south":38,"east":-102.25,"north":38.25}},"features":[{"type":"Feature","geometry":{"type":"LineString","coordinates":[[-102.4878,38.1542],[-102.4887,38.152]]},"properties":{"source_id":"co_named_stream_030790","name":"Big Sandy Creek","display_name":"Big Sandy Creek","mapped_name":"Big Sandy Creek","source_name":"Big Sandy Creek","state":"CO","atlas_class":"named_natural_stream","huc8":"11020011","huc8Name":"Big Sandy","huc8States":"CO","lineageKey":"statewideContext","lineage":"statewideContext","historic":"statewideContext","current":"statewideContext","recovery":"statewideContext","lineageLabel":"Statewide Colorado hydrography context","lineageBasin":"","lineageNote":"","atlas_context":"statewide_hydrography_context","confidence":"Statewide hydrography context outside current cutthroat lineage model","geometryStatus":"Named natural stream segment from statewide hydrography","note":"This named natural stream is included for statewide Colorado hydrography completeness and is outside the current cutthroat lineage assignment set.","source_segment_id":"co_named_stream_030790","water_id":"co_big_sandy_creek_11020011_statewideContext_016","occurrence_id":"co_big_sandy_creek_11020011_statewideContext_016","occurrence_number":"016","segment_count":7,"disambiguator":"Big Sandy · Statewide Colorado hydrography context · occurrence 016","basin":"Big Sandy","atlas_layer":"named_water_occurrence","object_role":"named_water_occurrence","historic_label":"Statewide Colorado hydrography context","current_label":"Statewide Colorado hydrography context","recovery_label":"Statewide Colorado hydrography context","tier":"tier4","minZoom":15,"confidence_public":"Statewide hydrography context outside current cutthroat lineage model","geometry_status_public":"Named natural stream occurrence from statewide hydrography","geometry_source_public":"Grouped public hydrography segments","trout_source_public":"Included for Colorado statewide hydrography completeness","public_notes":"Big Sandy Creek is shown as statewide Colorado hydrography context outside the current cutthroat lineage assignment set."}},{"type":"Feature","geometry":{"type":"LineString","coordinates":[[-102.4873,38.156],[-102.4882,38.1562]]},"properties":{"source_id":"co_named_stream_030791","name":"Big Sandy Creek","display_name":"Big Sandy Creek","mapped_name":"Big Sandy Creek","source_name":"Big Sandy Creek","state":"CO","atlas_class":"named_natural_stream","huc8":"11020011","huc8Name":"Big Sandy","huc8States":"CO","lineageKey":"statewideContext","lineage":"statewideContext","historic":"statewideContext","current":"statewideContext","recovery":"statewideContext","lineageLabel":"Statewide Colorado hydrography context","lineageBasin":"","lineageNote":"","atlas_context":"statewide_hydrography_context","confidence":"Statewide hydrography context outside current cutthroat lineage model","geometryStatus":"Named natural stream segment from statewide hydrography","note":"This named natural stream is included for statewide Colorado hydrography completeness and is outside the current cutthroat lineage assignment set.","source_segment_id":"co_named_stream_030791","water_id":"co_big_sandy_creek_11020011_statewideContext_016","occurrence_id":"co_big_sandy_creek_11020011_statewideContext_016","occurrence_number":"016","segment_count":7,"disambiguator":"Big Sandy · Statewide Colorado hydrography context · occurrence 016","basin":"Big Sandy","atlas_layer":"named_water_occurrence","object_role":"named_water_occurrence","historic_label":"Statewide Colorado hydrography context","current_label":"Statewide Colorado hydrography context","recovery_label":"Statewide Colorado hydrography context","tier":"tier4","minZoom":15,"confidence_public":"Statewide hydrography context outside current cutthroat lineage model","geometry_status_public":"Named natural stream occurrence from statewide hydrography","geometry_source_public":"Grouped public hydrography segments","trout_source_public":"Included for Colorado statewide hydrography completeness","public_notes":"Big Sandy Creek is shown as statewide Colorado hydrography context outside the current cutthroat lineage assignment set."}},{"type":"Feature","geometry":{"type":"LineString","coordinates":[[-102.4859,38.1558],[-102.4873,38.156]]},"properties":{"source_id":"co_named_stream_030792","name":"Big Sandy Creek","display_name":"Big Sandy Creek","mapped_name":"Big Sandy Creek","source_name":"Big Sandy Creek","state":"CO","atlas_class":"named_natural_stream","huc8":"11020011","huc8Name":"Big Sandy","huc8States":"CO","lineageKey":"statewideContext","lineage":"statewideContext","historic":"statewideContext","current":"statewideContext","recovery":"statewideContext","lineageLabel":"Statewide Colorado hydrography context","lineageBasin":"","lineageNote":"","atlas_context":"statewide_hydrography_context","confidence":"Statewide hydrography context outside current cutthroat lineage model","geometryStatus":"Named natural stream segment from statewide hydrography","note":"This named natural stream is included for statewide Colorado hydrography completeness and is outside the current cutthroat lineage assignment set.","source_segment_id":"co_named_stream_030792","water_id":"co_big_sandy_creek_11020011_statewideContext_016","occurrence_id":"co_big_sandy_creek_11020011_statewideContext_016","occurrence_number":"016","segment_count":7,"disambiguator":"Big Sandy · Statewide Colorado hydrography context · occurrence 016","basin":"Big Sandy","atlas_layer":"named_water_occurrence","object_role":"named_water_occurrence","historic_label":"Statewide Colorado hydrography context","current_label":"Statewide Colorado hydrography context","recovery_label":"Statewide Colorado hydrography context","tier":"tier4","minZoom":15,"confidence_public":"Statewide hydrography context outside current cutthroat lineage model","geometry_status_public":"Named natural stream occurrence from statewide hydrography","geometry_source_public":"Grouped public hydrography segments","trout_source_public":"Included for Colorado statewide hydrography completeness","public_notes":"Big Sandy Creek is shown as statewide Colorado hydrography context outside the current cutthroat lineage assignment set."}},{"type":"Feature","geometry":{"type":"LineString","coordinates":[[-102.4781,38.1748],[-102.4779,38.1732],[-102.4796,38.1727]]},"properties":{"source_id":"co_named_stream_030793","name":"Big Sandy Creek","display_name":"Big Sandy Creek","mapped_name":"Big Sandy Creek","source_name":"Big Sandy Creek","state":"CO","atlas_class":"named_natural_stream","huc8":"11020011","huc8Name":"Big Sandy","huc8States":"CO","lineageKey":"statewideContext","lineage":"statewideContext","historic":"statewideContext","current":"statewideContext","recovery":"statewideContext","lineageLabel":"Statewide Colorado hydrography context","lineageBasin":"","lineageNote":"","atlas_context":"statewide_hydrography_context","confidence":"Statewide hydrography context outside current cutthroat lineage model","geometryStatus":"Named natural stream segment from statewide hydrography","note":"This named natural stream is included for statewide Colorado hydrography completeness and is outside the current cutthroat lineage assignment set.","source_segment_id":"co_named_stream_030793","water_id":"co_big_sandy_creek_11020011_statewideContext_016","occurrence_id":"co_big_sandy_creek_11020011_statewideContext_016","occurrence_number":"016","segment_count":7,"disambiguator":"Big Sandy · Statewide Colorado hydrography context · occurrence 016","basin":"Big Sandy","atlas_layer":"named_water_occurrence","object_role":"named_water_occurrence","historic_label":"Statewide Colorado hydrography context","current_label":"Statewide Colorado hydrography context","recovery_label":"Statewide Colorado hydrography context","tier":"tier4","minZoom":15,"confidence_public":"Statewide hydrography context outside current cutthroat lineage model","geometry_status_public":"Named natural stream occurrence from statewide hydrography","geometry_source_public":"Grouped public hydrography segments","trout_source_public":"Included for Colorado statewide hydrography completeness","public_notes":"Big Sandy Creek is shown as statewide Colorado hydrography context outside the current cutthroat lineage assignment set."}},{"type":"Feature","geometry":{"type":"LineString","coordinates":[[-102.4861,38.2006],[-102.4862,38.2004]]},"properties":{"source_id":"co_named_stream_030794","name":"Big Sandy Creek","display_name":"Big Sandy Creek","mapped_name":"Big Sandy Creek","source_name":"Big Sandy Creek","state":"CO","atlas_class":"named_natural_stream","huc8":"11020011","huc8Name":"Big Sandy","huc8States":"CO","lineageKey":"statewideContext","lineage":"statewideContext","historic":"statewideContext","current":"statewideContext","recovery":"statewideContext","lineageLabel":"Statewide Colorado hydrography context","lineageBasin":"","lineageNote":"","atlas_context":"statewide_hydrography_context","confidence":"Statewide hydrography context outside current cutthroat lineage model","geometryStatus":"Named natural stream segment from statewide hydrography","note":"This named natural stream is included for statewide Colorado hydrography completeness and is outside the current cutthroat lineage assignment set.","source_segment_id":"co_named_stream_030794","water_id":"co_big_sandy_creek_11020011_statewideContext_016","occurrence_id":"co_big_sandy_creek_11020011_statewideContext_016","occurrence_number":"016","segment_count":7,"disambiguator":"Big Sandy · Statewide Colorado hydrography context · occurrence 016","basin":"Big Sandy","atlas_layer":"named_water_occurrence","object_role":"named_water_occurrence","historic_label":"Statewide Colorado hydrography context","current_label":"Statewide Colorado hydrography context","recovery_label":"Statewide Colorado hydrography context","tier":"tier4","minZoom":15,"confidence_public":"Statewide hydrography context outside current cutthroat lineage model","geometry_status_public":"Named natural stream occurrence from statewide hydrography","geometry_source_public":"Grouped public hydrography segments","trout_source_public":"Included for Colorado statewide hydrography completeness","public_notes":"Big Sandy Creek is shown as statewide Colorado hydrography context outside the current cutthroat lineage assignment set."}},{"type":"Feature","geometry":{"type":"LineString","coordinates":[[-102.4857,38.2026],[-102.4861,38.2006]]},"properties":{"source_id":"co_named_stream_030795","name":"Big Sandy Creek","display_name":"Big Sandy Creek","mapped_name":"Big Sandy Creek","source_name":"Big Sandy Creek","state":"CO","atlas_class":"named_natural_stream","huc8":"11020011","huc8Name":"Big Sandy","huc8States":"CO","lineageKey":"statewideContext","lineage":"statewideContext","historic":"statewideContext","current":"statewideContext","recovery":"statewideContext","lineageLabel":"Statewide Colorado hydrography context","lineageBasin":"","lineageNote":"","atlas_context":"statewide_hydrography_context","confidence":"Statewide hydrography context outside current cutthroat lineage model","geometryStatus":"Named natural stream segment from statewide hydrography","note":"This named natural stream is included for statewide Colorado hydrography completeness and is outside the current cutthroat lineage assignment set.","source_segment_id":"co_named_stream_030795","water_id":"co_big_sandy_creek_11020011_statewideContext_016","occurrence_id":"co_big_sandy_creek_11020011_statewideContext_016","occurrence_number":"016","segment_count":7,"disambiguator":"Big Sandy · Statewide Colorado hydrography context · occurrence 016","basin":"Big Sandy","atlas_layer":"named_water_occurrence","object_role":"named_water_occurrence","historic_label":"Statewide Colorado hydrography context","current_label":"Statewide Colorado hydrography context","recovery_label":"Statewide Colorado hydrography context","tier":"tier4","minZoom":15,"confidence_public":"Statewide hydrography context outside current cutthroat lineage model","geometry_status_public":"Named natural stream occurrence from statewide hydrography","geometry_source_public":"Grouped public hydrography segments","trout_source_public":"Included for Colorado statewide hydrography completeness","public_notes":"Big Sandy Creek is shown as statewide Colorado hydrography context outside the current cutthroat lineage assignment set."}},{"type":"Feature","geometry":{"type":"LineString","coordinates":[[-102.4859,38.1982],[-102.4851,38.1979]]},"properties":{"source_id":"co_named_stream_030796","name":"Big Sandy Creek","display_name":"Big Sandy Creek","mapped_name":"Big Sandy Creek","source_name":"Big Sandy Creek","state":"CO","atlas_class":"named_natural_stream","huc8":"11020011","huc8Name":"Big Sandy","huc8States":"CO","lineageKey":"statewideContext","lineage":"statewideContext","historic":"statewideContext","current":"statewideContext","recovery":"statewideContext","lineageLabel":"Statewide Colorado hydrography context","lineageBasin":"","lineageNote":"","atlas_context":"statewide_hydrography_context","confidence":"Statewide hydrography context outside current cutthroat lineage model","geometryStatus":"Named natural stream segment from statewide hydrography","note":"This named natural stream is included for statewide Colorado hydrography completeness and is outside the current cutthroat lineage assignment set.","source_segment_id":"co_named_stream_030796","water_id":"co_big_sandy_creek_11020011_statewideContext_016","occurrence_id":"co_big_sandy_creek_11020011_statewideContext_016","occurrence_number":"016","segment_count":7,"disambiguator":"Big Sandy · Statewide Colorado hydrography context · occurrence 016","basin":"Big Sandy","atlas_layer":"named_water_occurrence","object_role":"named_water_occurrence","historic_label":"Statewide Colorado hydrography context","current_label":"Statewide Colorado hydrography context","recovery_label":"Statewide Colorado hydrography context","tier":"tier4","minZoom":15,"confidence_public":"Statewide hydrography context outside current cutthroat lineage model","geometry_status_public":"Named natural stream occurrence from statewide hydrography","geometry_source_public":"Grouped public hydrography segments","trout_source_public":"Included for Colorado statewide hydrography completeness","public_notes":"Big Sandy Creek is shown as statewide Colorado hydrography context outside the current cutthroat lineage assignment set."}},{"type":"Feature","geometry":{"type":"LineString","coordinates":[[-102.4079,38.1288],[-102.4091,38.1263]]},"properties":{"source_id":"co_named_stream_032884","name":"Cottonwood Creek","display_name":"Cottonwood Creek","mapped_name":"Cottonwood Creek","source_name":"Cottonwood Creek","state":"CO","atlas_class":"named_natural_stream","huc8":"11020009","huc8Name":"Upper Arkansas-John Martin Reservoir","huc8States":"CO,KS","lineageKey":"statewideContext","lineage":"statewideContext","historic":"statewideContext","current":"statewideContext","recovery":"statewideContext","lineageLabel":"Statewide Colorado hydrography context","lineageBasin":"","lineageNote":"","atlas_context":"statewide_hydrography_context","confidence":"Statewide hydrography context outside current cutthroat lineage model","geometryStatus":"Named natural stream segment from statewide hydrography","note":"This named natural stream is included for statewide Colorado hydrography completeness and is outside the current cutthroat lineage assignment set.","source_segment_id":"co_named_stream_032884","water_id":"co_cottonwood_creek_11020009_statewideContext_002","occurrence_id":"co_cottonwood_creek_11020009_statewideContext_002","occurrence_number":"002","segment_count":10,"disambiguator":"Upper Arkansas-John Martin Reservoir · Statewide Colorado hydrography context · occurrence 002","basin":"Upper Arkansas-John Martin Reservoir","atlas_layer":"named_water_occurrence","object_role":"named_water_occurrence","historic_label":"Statewide Colorado hydrography context","current_label":"Statewide Colorado hydrography context","recovery_label":"Statewide Colorado hydrography context","tier":"tier4","minZoom":15,"confidence_public":"Statewide hydrography context outside current cutthroat lineage model","geometry_status_public":"Named natural stream occurrence from statewide hydrography","geometry_source_public":"Grouped public hydrography segments","trout_source_public":"Included for Colorado statewide hydrography completeness","public_notes":"Cottonwood Creek is shown as statewide Colorado hydrography context outside the current cutthroat lineage assignment set."}},{"type":"Feature","geometry":{"type":"LineString","coordinates":[[-102.3946,38.1109],[-102.3937,38.1104]]},"properties":{"source_id":"co_named_stream_033882","name":"Cottonwood Creek","display_name":"Cottonwood Creek","mapped_name":"Cottonwood Creek","source_name":"Cottonwood Creek","state":"CO","atlas_class":"named_natural_stream","huc8":"11020009","huc8Name":"Upper Arkansas-John Martin Reservoir","huc8States":"CO,KS","lineageKey":"statewideContext","lineage":"statewideContext","historic":"statewideContext","current":"statewideContext","recovery":"statewideContext","lineageLabel":"Statewide Colorado hydrography context","lineageBasin":"","lineageNote":"","atlas_context":"statewide_hydrography_context","confidence":"Statewide hydrography context outside current cutthroat lineage model","geometryStatus":"Named natural stream segment from statewide hydrography","note":"This named natural stream is included for statewide Colorado hydrography completeness and is outside the current cutthroat lineage assignment set.","source_segment_id":"co_named_stream_033882","water_id":"co_cottonwood_creek_11020009_statewideContext_002","occurrence_id":"co_cottonwood_creek_11020009_statewideContext_002","occurrence_number":"002","segment_count":10,"disambiguator":"Upper Arkansas-John Martin Reservoir · Statewide Colorado hydrography context · occurrence 002","basin":"Upper Arkansas-John Martin Reservoir","atlas_layer":"named_water_occurrence","object_role":"named_water_occurrence","historic_label":"Statewide Colorado hydrography context","current_label":"Statewide Colorado hydrography context","recovery_label":"Statewide Colorado hydrography context","tier":"tier4","minZoom":15,"confidence_public":"Statewide hydrography context outside current cutthroat lineage model","geometry_status_public":"Named natural stream occurrence from statewide hydrography","geometry_source_public":"Grouped public hydrography segments","trout_source_public":"Included for Colorado statewide hydrography completeness","public_notes":"Cottonwood Creek is shown as statewide Colorado hydrography context outside the current cutthroat lineage assignment set."}},{"type":"Feature","geometry":{"type":"LineString","coordinates":[[-102.3997,38.1115],[-102.3962,38.1118]]},"properties":{"source_id":"co_named_stream_038223","name":"Cottonwood Creek","display_name":"Cottonwood Creek","mapped_name":"Cottonwood Creek","source_name":"Cottonwood Creek","state":"CO","atlas_class":"named_natural_stream","huc8":"11020009","huc8Name":"Upper Arkansas-John Martin Reservoir","huc8States":"CO,KS","lineageKey":"statewideContext","lineage":"statewideContext","historic":"statewideContext","current":"statewideContext","recovery":"statewideContext","lineageLabel":"Statewide Colorado hydrography context","lineageBasin":"","lineageNote":"","atlas_context":"statewide_hydrography_context","confidence":"Statewide hydrography context outside current cutthroat lineage model","geometryStatus":"Named natural stream segment from statewide hydrography","note":"This named natural stream is included for statewide Colorado hydrography completeness and is outside the current cutthroat lineage assignment set.","source_segment_id":"co_named_stream_038223","water_id":"co_cottonwood_creek_11020009_statewideContext_002","occurrence_id":"co_cottonwood_creek_11020009_statewideContext_002","occurrence_number":"002","segment_count":10,"disambiguator":"Upper Arkansas-John Martin Reservoir · Statewide Colorado hydrography context · occurrence 002","basin":"Upper Arkansas-John Martin Reservoir","atlas_layer":"named_water_occurrence","object_role":"named_water_occurrence","historic_label":"Statewide Colorado hydrography context","current_label":"Statewide Colorado hydrography context","recovery_label":"Statewide Colorado hydrography context","tier":"tier4","minZoom":15,"confidence_public":"Statewide hydrography context outside current cutthroat lineage model","geometry_status_public":"Named natural stream occurrence from statewide hydrography","geometry_source_public":"Grouped public hydrography segments","trout_source_public":"Included for Colorado statewide hydrography completeness","public_notes":"Cottonwood Creek is shown as statewide Colorado hydrography context outside the current cutthroat lineage assignment set."}},{"type":"Feature","geometry":{"type":"LineString","coordinates":[[-102.4079,38.1228],[-102.4079,38.1223]]},"properties":{"source_id":"co_named_stream_042487","name":"Cottonwood Creek","display_name":"Cottonwood Creek","mapped_name":"Cottonwood Creek","source_name":"Cottonwood Creek","state":"CO","atlas_class":"named_natural_stream","huc8":"11020009","huc8Name":"Upper Arkansas-John Martin Reservoir","huc8States":"CO,KS","lineageKey":"statewideContext","lineage":"statewideContext","historic":"statewideContext","current":"statewideContext","recovery":"statewideContext","lineageLabel":"Statewide Colorado hydrography context","lineageBasin":"","lineageNote":"","atlas_context":"statewide_hydrography_context","confidence":"Statewide hydrography context outside current cutthroat lineage model","geometryStatus":"Named natural stream segment from statewide hydrography","note":"This named natural stream is included for statewide Colorado hydrography completeness and is outside the current cutthroat lineage assignment set.","source_segment_id":"co_named_stream_042487","water_id":"co_cottonwood_creek_11020009_statewideContext_002","occurrence_id":"co_cottonwood_creek_11020009_statewideContext_002","occurrence_number":"002","segment_count":10,"disambiguator":"Upper Arkansas-John Martin Reservoir · Statewide Colorado hydrography context · occurrence 002","basin":"Upper Arkansas-John Martin Reservoir","atlas_layer":"named_water_occurrence","object_role":"named_water_occurrence","historic_label":"Statewide Colorado hydrography context","current_label":"Statewide Colorado hydrography context","recovery_label":"Statewide Colorado hydrography context","tier":"tier4","minZoom":15,"confidence_public":"Statewide hydrography context outside current cutthroat lineage model","geometry_status_public":"Named natural stream occurrence from statewide hydrography","geometry_source_public":"Grouped public hydrography segments","trout_source_public":"Included for Colorado statewide hydrography completeness","public_notes":"Cottonwood Creek is shown as statewide Colorado hydrography context outside the current cutthroat lineage assignment set."}},{"type":"Feature","geometry":{"type":"LineString","coordinates":[[-102.4086,38.1509],[-102.4092,38.1472]]},"properties":{"source_id":"co_named_stream_043123","name":"Cottonwood Creek","display_name":"Cottonwood Creek","mapped_name":"Cottonwood Creek","source_name":"Cottonwood Creek","state":"CO","atlas_class":"named_natural_stream","huc8":"11020009","huc8Name":"Upper Arkansas-John Martin Reservoir","huc8States":"CO,KS","lineageKey":"statewideContext","lineage":"statewideContext","historic":"statewideContext","current":"statewideContext","recovery":"statewideContext","lineageLabel":"Statewide Colorado hydrography context","lineageBasin":"","lineageNote":"","atlas_context":"statewide_hydrography_context","confidence":"Statewide hydrography context outside current cutthroat lineage model","geometryStatus":"Named natural stream segment from statewide hydrography","note":"This named natural stream is included for statewide Colorado hydrography completeness and is outside the current cutthroat lineage assignment set.","source_segment_id":"co_named_stream_043123","water_id":"co_cottonwood_creek_11020009_statewideContext_002","occurrence_id":"co_cottonwood_creek_11020009_statewideContext_002","occurrence_number":"002","segment_count":10,"disambiguator":"Upper Arkansas-John Martin Reservoir · Statewide Colorado hydrography context · occurrence 002","basin":"Upper Arkansas-John Martin Reservoir","atlas_layer":"named_water_occurrence","object_role":"named_water_occurrence","historic_label":"Statewide Colorado hydrography context","current_label":"Statewide Colorado hydrography context","recovery_label":"Statewide Colorado hydrography context","tier":"tier4","minZoom":15,"confidence_public":"Statewide hydrography context outside current cutthroat lineage model","geometry_status_public":"Named natural stream occurrence from statewide hydrography","geometry_source_public":"Grouped public hydrography segments","trout_source_public":"Included for Colorado statewide hydrography completeness","public_notes":"Cottonwood Creek is shown as statewide Colorado hydrography context outside the current cutthroat lineage assignment set."}},{"type":"Feature","geometry":{"type":"LineString","coordinates":[[-102.4084,38.1427],[-102.4098,38.1378],[-102.4083,38.134],[-102.4079,38.1288]]},"properties":{"source_id":"co_named_stream_043464","name":"Cottonwood Creek","display_name":"Cottonwood Creek","mapped_name":"Cottonwood Creek","source_name":"Cottonwood Creek","state":"CO","atlas_class":"named_natural_stream","huc8":"11020009","huc8Name":"Upper Arkansas-John Martin Reservoir","huc8States":"CO,KS","lineageKey":"statewideContext","lineage":"statewideContext","historic":"statewideContext","current":"statewideContext","recovery":"statewideContext","lineageLabel":"Statewide Colorado hydrography context","lineageBasin":"","lineageNote":"","atlas_context":"statewide_hydrography_context","confidence":"Statewide hydrography context outside current cutthroat lineage model","geometryStatus":"Named natural stream segment from statewide hydrography","note":"This named natural stream is included for statewide Colorado hydrography completeness and is outside the current cutthroat lineage assignment set.","source_segment_id":"co_named_stream_043464","water_id":"co_cottonwood_creek_11020009_statewideContext_002","occurrence_id":"co_cottonwood_creek_11020009_statewideContext_002","occurrence_number":"002","segment_count":10,"disambiguator":"Upper Arkansas-John Martin Reservoir · Statewide Colorado hydrography context · occurrence 002","basin":"Upper Arkansas-John Martin Reservoir","atlas_layer":"named_water_occurrence","object_role":"named_water_occurrence","historic_label":"Statewide Colorado hydrography context","current_label":"Statewide Colorado hydrography context","recovery_label":"Statewide Colorado hydrography context","tier":"tier4","minZoom":15,"confidence_public":"Statewide hydrography context outside current cutthroat lineage model","geometry_status_public":"Named natural stream occurrence from statewide hydrography","geometry_source_public":"Grouped public hydrography segments","trout_source_public":"Included for Colorado statewide hydrography completeness","public_notes":"Cottonwood Creek is shown as statewide Colorado hydrography context outside the current cutthroat lineage assignment set."}},{"type":"Feature","geometry":{"type":"LineString","coordinates":[[-102.3957,38.1116],[-102.3955,38.1115]]},"properties":{"source_id":"co_named_stream_043522","name":"Cottonwood Creek","display_name":"Cottonwood Creek","mapped_name":"Cottonwood Creek","source_name":"Cottonwood Creek","state":"CO","atlas_class":"named_natural_stream","huc8":"11020009","huc8Name":"Upper Arkansas-John Martin Reservoir","huc8States":"CO,KS","lineageKey":"statewideContext","lineage":"statewideContext","historic":"statewideContext","current":"statewideContext","recovery":"statewideContext","lineageLabel":"Statewide Colorado hydrography context","lineageBasin":"","lineageNote":"","atlas_context":"statewide_hydrography_context","confidence":"Statewide hydrography context outside current cutthroat lineage model","geometryStatus":"Named natural stream segment from statewide hydrography","note":"This named natural stream is included for statewide Colorado hydrography completeness and is outside the current cutthroat lineage assignment set.","source_segment_id":"co_named_stream_043522","water_id":"co_cottonwood_creek_11020009_statewideContext_002","occurrence_id":"co_cottonwood_creek_11020009_statewideContext_002","occurrence_number":"002","segment_count":10,"disambiguator":"Upper Arkansas-John Martin Reservoir · Statewide Colorado hydrography context · occurrence 002","basin":"Upper Arkansas-John Martin Reservoir","atlas_layer":"named_water_occurrence","object_role":"named_water_occurrence","historic_label":"Statewide Colorado hydrography context","current_label":"Statewide Colorado hydrography context","recovery_label":"Statewide Colorado hydrography context","tier":"tier4","minZoom":15,"confidence_public":"Statewide hydrography context outside current cutthroat lineage model","geometry_status_public":"Named natural stream occurrence from statewide hydrography","geometry_source_public":"Grouped public hydrography segments","trout_source_public":"Included for Colorado statewide hydrography completeness","public_notes":"Cottonwood Creek is shown as statewide Colorado hydrography context outside the current cutthroat lineage assignment set."}},{"type":"Feature","geometry":{"type":"LineString","coordinates":[[-102.3962,38.1118],[-102.3957,38.1116]]},"properties":{"source_id":"co_named_stream_046666","name":"Cottonwood Creek","display_name":"Cottonwood Creek","mapped_name":"Cottonwood Creek","source_name":"Cottonwood Creek","state":"CO","atlas_class":"named_natural_stream","huc8":"11020009","huc8Name":"Upper Arkansas-John Martin Reservoir","huc8States":"CO,KS","lineageKey":"statewideContext","lineage":"statewideContext","historic":"statewideContext","current":"statewideContext","recovery":"statewideContext","lineageLabel":"Statewide Colorado hydrography context","lineageBasin":"","lineageNote":"","atlas_context":"statewide_hydrography_context","confidence":"Statewide hydrography context outside current cutthroat lineage model","geometryStatus":"Named natural stream segment from statewide hydrography","note":"This named natural stream is included for statewide Colorado hydrography completeness and is outside the current cutthroat lineage assignment set.","source_segment_id":"co_named_stream_046666","water_id":"co_cottonwood_creek_11020009_statewideContext_002","occurrence_id":"co_cottonwood_creek_11020009_statewideContext_002","occurrence_number":"002","segment_count":10,"disambiguator":"Upper Arkansas-John Martin Reservoir · Statewide Colorado hydrography context · occurrence 002","basin":"Upper Arkansas-John Martin Reservoir","atlas_layer":"named_water_occurrence","object_role":"named_water_occurrence","historic_label":"Statewide Colorado hydrography context","current_label":"Statewide Colorado hydrography context","recovery_label":"Statewide Colorado hydrography context","tier":"tier4","minZoom":15,"confidence_public":"Statewide hydrography context outside current cutthroat lineage model","geometry_status_public":"Named natural stream occurrence from statewide hydrography","geometry_source_public":"Grouped public hydrography segments","trout_source_public":"Included for Colorado statewide hydrography completeness","public_notes":"Cottonwood Creek is shown as statewide Colorado hydrography context outside the current cutthroat lineage assignment set."}},{"type":"Feature","geometry":{"type":"LineString","coordinates":[[-102.3955,38.1115],[-102.3946,38.1109]]},"properties":{"source_id":"co_named_stream_046667","name":"Cottonwood Creek","display_name":"Cottonwood Creek","mapped_name":"Cottonwood Creek","source_name":"Cottonwood Creek","state":"CO","atlas_class":"named_natural_stream","huc8":"11020009","huc8Name":"Upper Arkansas-John Martin Reservoir","huc8States":"CO,KS","lineageKey":"statewideContext","lineage":"statewideContext","historic":"statewideContext","current":"statewideContext","recovery":"statewideContext","lineageLabel":"Statewide Colorado hydrography context","lineageBasin":"","lineageNote":"","atlas_context":"statewide_hydrography_context","confidence":"Statewide hydrography context outside current cutthroat lineage model","geometryStatus":"Named natural stream segment from statewide hydrography","note":"This named natural stream is included for statewide Colorado hydrography completeness and is outside the current cutthroat lineage assignment set.","source_segment_id":"co_named_stream_046667","water_id":"co_cottonwood_creek_11020009_statewideContext_002","occurrence_id":"co_cottonwood_creek_11020009_statewideContext_002","occurrence_number":"002","segment_count":10,"disambiguator":"Upper Arkansas-John Martin Reservoir · Statewide Colorado hydrography context · occurrence 002","basin":"Upper Arkansas-John Martin Reservoir","atlas_layer":"named_water_occurrence","object_role":"named_water_occurrence","historic_label":"Statewide Colorado hydrography context","current_label":"Statewide Colorado hydrography context","recovery_label":"Statewide Colorado hydrography context","tier":"tier4","minZoom":15,"confidence_public":"Statewide hydrography context outside current cutthroat lineage model","geometry_status_public":"Named natural stream occurrence from statewide hydrography","geometry_source_public":"Grouped public hydrography segments","trout_source_public":"Included for Colorado statewide hydrography completeness","public_notes":"Cottonwood Creek is shown as statewide Colorado hydrography context outside the current cutthroat lineage assignment set."}},{"type":"Feature","geometry":{"type":"LineString","coordinates":[[-102.4079,38.1223],[-102.4105,38.1191],[-102.4076,38.1131],[-102.4043,38.1112],[-102.3997,38.1115]]},"properties":{"source_id":"co_named_stream_047260","name":"Cottonwood Creek","display_name":"Cottonwood Creek","mapped_name":"Cottonwood Creek","source_name":"Cottonwood Creek","state":"CO","atlas_class":"named_natural_stream","huc8":"11020009","huc8Name":"Upper Arkansas-John Martin Reservoir","huc8States":"CO,KS","lineageKey":"statewideContext","lineage":"statewideContext","historic":"statewideContext","current":"statewideContext","recovery":"statewideContext","lineageLabel":"Statewide Colorado hydrography context","lineageBasin":"","lineageNote":"","atlas_context":"statewide_hydrography_context","confidence":"Statewide hydrography context outside current cutthroat lineage model","geometryStatus":"Named natural stream segment from statewide hydrography","note":"This named natural stream is included for statewide Colorado hydrography completeness and is outside the current cutthroat lineage assignment set.","source_segment_id":"co_named_stream_047260","water_id":"co_cottonwood_creek_11020009_statewideContext_002","occurrence_id":"co_cottonwood_creek_11020009_statewideContext_002","occurrence_number":"002","segment_count":10,"disambiguator":"Upper Arkansas-John Martin Reservoir · Statewide Colorado hydrography context · occurrence 002","basin":"Upper Arkansas-John Martin Reservoir","atlas_layer":"named_water_occurrence","object_role":"named_water_occurrence","historic_label":"Statewide Colorado hydrography context","current_label":"Statewide Colorado hydrography context","recovery_label":"Statewide Colorado hydrography context","tier":"tier4","minZoom":15,"confidence_public":"Statewide hydrography context outside current cutthroat lineage model","geometry_status_public":"Named natural stream occurrence from statewide hydrography","geometry_source_public":"Grouped public hydrography segments","trout_source_public":"Included for Colorado statewide hydrography completeness","public_notes":"Cottonwood Creek is shown as statewide Colorado hydrography context outside the current cutthroat lineage assignment set."}},{"type":"Feature","geometry":{"type":"LineString","coordinates":[[-102.2934,38.0949],[-102.2928,38.0921]]},"properties":{"source_id":"co_named_stream_030804","name":"Buffalo Creek","display_name":"Buffalo Creek","mapped_name":"Buffalo Creek","source_name":"Buffalo Creek","state":"CO","atlas_class":"named_natural_stream","huc8":"11020009","huc8Name":"Upper Arkansas-John Martin Reservoir","huc8States":"CO,KS","lineageKey":"statewideContext","lineage":"statewideContext","historic":"statewideContext","current":"statewideContext","recovery":"statewideContext","lineageLabel":"Statewide Colorado hydrography context","lineageBasin":"","lineageNote":"","atlas_context":"statewide_hydrography_context","confidence":"Statewide hydrography context outside current cutthroat lineage model","geometryStatus":"Named natural stream segment from statewide hydrography","note":"This named natural stream is included for statewide Colorado hydrography completeness and is outside the current cutthroat lineage assignment set.","source_segment_id":"co_named_stream_030804","water_id":"co_buffalo_creek_11020009_statewideContext_001","occurrence_id":"co_buffalo_creek_11020009_statewideContext_001","occurrence_number":"001","segment_count":9,"disambiguator":"Upper Arkansas-John Martin Reservoir · Statewide Colorado hydrography context · occurrence 001","basin":"Upper Arkansas-John Martin Reservoir","atlas_layer":"named_water_occurrence","object_role":"named_water_occurrence","historic_label":"Statewide Colorado hydrography context","current_label":"Statewide Colorado hydrography context","recovery_label":"Statewide Colorado hydrography context","tier":"tier4","minZoom":15,"confidence_public":"Statewide hydrography context outside current cutthroat lineage model","geometry_status_public":"Named natural stream occurrence from statewide hydrography","geometry_source_public":"Grouped public hydrography segments","trout_source_public":"Included for Colorado statewide hydrography completeness","public_notes":"Buffalo Creek is shown as statewide Colorado hydrography context outside the current cutthroat lineage assignment set."}},{"type":"Feature","geometry":{"type":"LineString","coordinates":[[-102.3271,38.1677],[-102.3267,38.1639],[-102.3253,38.1621],[-102.3209,38.1611],[-102.3224,38.1602],[-102.3215,38.1577],[-102.3186,38.1559],[-102.3146,38.1549],[-102.3131,38.1533],[-102.3127,38.152],[-102.3136,38.1509],[-102.317,38.1519],[-102.3168,38.1492],[-102.3053,38.1482],[-102.3028,38.1474],[-102.3015,38.1461],[-102.3025,38.144],[-102.3011,38.1398],[-102.2938,38.1361],[-102.2898,38.1323]]},"properties":{"source_id":"co_named_stream_031110","name":"Buffalo Creek","display_name":"Buffalo Creek","mapped_name":"Buffalo Creek","source_name":"Buffalo Creek","state":"CO","atlas_class":"named_natural_stream","huc8":"11020009","huc8Name":"Upper Arkansas-John Martin Reservoir","huc8States":"CO,KS","lineageKey":"statewideContext","lineage":"statewideContext","historic":"statewideContext","current":"statewideContext","recovery":"statewideContext","lineageLabel":"Statewide Colorado hydrography context","lineageBasin":"","lineageNote":"","atlas_context":"statewide_hydrography_context","confidence":"Statewide hydrography context outside current cutthroat lineage model","geometryStatus":"Named natural stream segment from statewide hydrography","note":"This named natural stream is included for statewide Colorado hydrography completeness and is outside the current cutthroat lineage assignment set.","source_segment_id":"co_named_stream_031110","water_id":"co_buffalo_creek_11020009_statewideContext_001","occurrence_id":"co_buffalo_creek_11020009_statewideContext_001","occurrence_number":"001","segment_count":9,"disambiguator":"Upper Arkansas-John Martin Reservoir · Statewide Colorado hydrography context · occurrence 001","basin":"Upper Arkansas-John Martin Reservoir","atlas_layer":"named_water_occurrence","object_role":"named_water_occurrence","historic_label":"Statewide Colorado hydrography context","current_label":"Statewide Colorado hydrography context","recovery_label":"Statewide Colorado hydrography context","tier":"tier4","minZoom":15,"confidence_public":"Statewide hydrography context outside current cutthroat lineage model","geometry_status_public":"Named natural stream occurrence from statewide hydrography","geometry_source_public":"Grouped public hydrography segments","trout_source_public":"Included for Colorado statewide hydrography completeness","public_notes":"Buffalo Creek is shown as statewide Colorado hydrography context outside the current cutthroat lineage assignment set."}},{"type":"Feature","geometry":{"type":"LineString","coordinates":[[-102.33,38.2168],[-102.3312,38.2055],[-102.3277,38.1997],[-102.3258,38.1992],[-102.3251,38.1981],[-102.3261,38.1941]]},"properties":{"source_id":"co_named_stream_032316","name":"Buffalo Creek","display_name":"Buffalo Creek","mapped_name":"Buffalo Creek","source_name":"Buffalo Creek","state":"CO","atlas_class":"named_natural_stream","huc8":"11020009","huc8Name":"Upper Arkansas-John Martin Reservoir","huc8States":"CO,KS","lineageKey":"statewideContext","lineage":"statewideContext","historic":"statewideContext","current":"statewideContext","recovery":"statewideContext","lineageLabel":"Statewide Colorado hydrography context","lineageBasin":"","lineageNote":"","atlas_context":"statewide_hydrography_context","confidence":"Statewide hydrography context outside current cutthroat lineage model","geometryStatus":"Named natural stream segment from statewide hydrography","note":"This named natural stream is included for statewide Colorado hydrography completeness and is outside the current cutthroat lineage assignment set.","source_segment_id":"co_named_stream_032316","water_id":"co_buffalo_creek_11020009_statewideContext_001","occurrence_id":"co_buffalo_creek_11020009_statewideContext_001","occurrence_number":"001","segment_count":9,"disambiguator":"Upper Arkansas-John Martin Reservoir · Statewide Colorado hydrography context · occurrence 001","basin":"Upper Arkansas-John Martin Reservoir","atlas_layer":"named_water_occurrence","object_role":"named_water_occurrence","historic_label":"Statewide Colorado hydrography context","current_label":"Statewide Colorado hydrography context","recovery_label":"Statewide Colorado hydrography context","tier":"tier4","minZoom":15,"confidence_public":"Statewide hydrography context outside current cutthroat lineage model","geometry_status_public":"Named natural stream occurrence from statewide hydrography","geometry_source_public":"Grouped public hydrography segments","trout_source_public":"Included for Colorado statewide hydrography completeness","public_notes":"Buffalo Creek is shown as statewide Colorado hydrography context outside the current cutthroat lineage assignment set."}},{"type":"Feature","geometry":{"type":"LineString","coordinates":[[-102.3551,38.2595],[-102.3529,38.2541],[-102.3517,38.246],[-102.3446,38.2362],[-102.3437,38.2315],[-102.3414,38.2292],[-102.3364,38.2201],[-102.33,38.2168]]},"properties":{"source_id":"co_named_stream_032556","name":"Buffalo Creek","display_name":"Buffalo Creek","mapped_name":"Buffalo Creek","source_name":"Buffalo Creek","state":"CO","atlas_class":"named_natural_stream","huc8":"11020009","huc8Name":"Upper Arkansas-John Martin Reservoir","huc8States":"CO,KS","lineageKey":"statewideContext","lineage":"statewideContext","historic":"statewideContext","current":"statewideContext","recovery":"statewideContext","lineageLabel":"Statewide Colorado hydrography context","lineageBasin":"","lineageNote":"","atlas_context":"statewide_hydrography_context","confidence":"Statewide hydrography context outside current cutthroat lineage model","geometryStatus":"Named natural stream segment from statewide hydrography","note":"This named natural stream is included for statewide Colorado hydrography completeness and is outside the current cutthroat lineage assignment set.","source_segment_id":"co_named_stream_032556","water_id":"co_buffalo_creek_11020009_statewideContext_001","occurrence_id":"co_buffalo_creek_11020009_statewideContext_001","occurrence_number":"001","segment_count":9,"disambiguator":"Upper Arkansas-John Martin Reservoir · Statewide Colorado hydrography context · occurrence 001","basin":"Upper Arkansas-John Martin Reservoir","atlas_layer":"named_water_occurrence","object_role":"named_water_occurrence","historic_label":"Statewide Colorado hydrography context","current_label":"Statewide Colorado hydrography context","recovery_label":"Statewide Colorado hydrography context","tier":"tier4","minZoom":15,"confidence_public":"Statewide hydrography context outside current cutthroat lineage model","geometry_status_public":"Named natural stream occurrence from statewide hydrography","geometry_source_public":"Grouped public hydrography segments","trout_source_public":"Included for Colorado statewide hydrography completeness","public_notes":"Buffalo Creek is shown as statewide Colorado hydrography context outside the current cutthroat lineage assignment set."}},{"type":"Feature","geometry":{"type":"LineString","coordinates":[[-102.2928,38.0921],[-102.2926,38.0907],[-102.2912,38.0897]]},"properties":{"source_id":"co_named_stream_034210","name":"Buffalo Creek","display_name":"Buffalo Creek","mapped_name":"Buffalo Creek","source_name":"Buffalo Creek","state":"CO","atlas_class":"named_natural_stream","huc8":"11020009","huc8Name":"Upper Arkansas-John Martin Reservoir","huc8States":"CO,KS","lineageKey":"statewideContext","lineage":"statewideContext","historic":"statewideContext","current":"statewideContext","recovery":"statewideContext","lineageLabel":"Statewide Colorado hydrography context","lineageBasin":"","lineageNote":"","atlas_context":"statewide_hydrography_context","confidence":"Statewide hydrography context outside current cutthroat lineage model","geometryStatus":"Named natural stream segment from statewide hydrography","note":"This named natural stream is included for statewide Colorado hydrography completeness and is outside the current cutthroat lineage assignment set.","source_segment_id":"co_named_stream_034210","water_id":"co_buffalo_creek_11020009_statewideContext_001","occurrence_id":"co_buffalo_creek_11020009_statewideContext_001","occurrence_number":"001","segment_count":9,"disambiguator":"Upper Arkansas-John Martin Reservoir · Statewide Colorado hydrography context · occurrence 001","basin":"Upper Arkansas-John Martin Reservoir","atlas_layer":"named_water_occurrence","object_role":"named_water_occurrence","historic_label":"Statewide Colorado hydrography context","current_label":"Statewide Colorado hydrography context","recovery_label":"Statewide Colorado hydrography context","tier":"tier4","minZoom":15,"confidence_public":"Statewide hydrography context outside current cutthroat lineage model","geometry_status_public":"Named natural stream occurrence from statewide hydrography","geometry_source_public":"Grouped public hydrography segments","trout_source_public":"Included for Colorado statewide hydrography completeness","public_notes":"Buffalo Creek is shown as statewide Colorado hydrography context outside the current cutthroat lineage assignment set."}},{"type":"Feature","geometry":{"type":"LineString","coordinates":[[-102.3271,38.1704],[-102.3271,38.1686]]},"properties":{"source_id":"co_named_stream_042029","name":"Buffalo Creek","display_name":"Buffalo Creek","mapped_name":"Buffalo Creek","source_name":"Buffalo Creek","state":"CO","atlas_class":"named_natural_stream","huc8":"11020009","huc8Name":"Upper Arkansas-John Martin Reservoir","huc8States":"CO,KS","lineageKey":"statewideContext","lineage":"statewideContext","historic":"statewideContext","current":"statewideContext","recovery":"statewideContext","lineageLabel":"Statewide Colorado hydrography context","lineageBasin":"","lineageNote":"","atlas_context":"statewide_hydrography_context","confidence":"Statewide hydrography context outside current cutthroat lineage model","geometryStatus":"Named natural stream segment from statewide hydrography","note":"This named natural stream is included for statewide Colorado hydrography completeness and is outside the current cutthroat lineage assignment set.","source_segment_id":"co_named_stream_042029","water_id":"co_buffalo_creek_11020009_statewideContext_001","occurrence_id":"co_buffalo_creek_11020009_statewideContext_001","occurrence_number":"001","segment_count":9,"disambiguator":"Upper Arkansas-John Martin Reservoir · Statewide Colorado hydrography context · occurrence 001","basin":"Upper Arkansas-John Martin Reservoir","atlas_layer":"named_water_occurrence","object_role":"named_water_occurrence","historic_label":"Statewide Colorado hydrography context","current_label":"Statewide Colorado hydrography context","recovery_label":"Statewide Colorado hydrography context","tier":"tier4","minZoom":15,"confidence_public":"Statewide hydrography context outside current cutthroat lineage model","geometry_status_public":"Named natural stream occurrence from statewide hydrography","geometry_source_public":"Grouped public hydrography segments","trout_source_public":"Included for Colorado statewide hydrography completeness","public_notes":"Buffalo Creek is shown as statewide Colorado hydrography context outside the current cutthroat lineage assignment set."}},{"type":"Feature","geometry":{"type":"LineString","coordinates":[[-102.2898,38.1323],[-102.29,38.1288],[-102.2885,38.1256],[-102.2881,38.1216],[-102.2889,38.1201],[-102.2883,38.1164],[-102.29,38.1145],[-102.2894,38.1125],[-102.2907,38.1063],[-102.2902,38.1027],[-102.2935,38.0969],[-102.2934,38.0949]]},"properties":{"source_id":"co_named_stream_042883","name":"Buffalo Creek","display_name":"Buffalo Creek","mapped_name":"Buffalo Creek","source_name":"Buffalo Creek","state":"CO","atlas_class":"named_natural_stream","huc8":"11020009","huc8Name":"Upper Arkansas-John Martin Reservoir","huc8States":"CO,KS","lineageKey":"statewideContext","lineage":"statewideContext","historic":"statewideContext","current":"statewideContext","recovery":"statewideContext","lineageLabel":"Statewide Colorado hydrography context","lineageBasin":"","lineageNote":"","atlas_context":"statewide_hydrography_context","confidence":"Statewide hydrography context outside current cutthroat lineage model","geometryStatus":"Named natural stream segment from statewide hydrography","note":"This named natural stream is included for statewide Colorado hydrography completeness and is outside the current cutthroat lineage assignment set.","source_segment_id":"co_named_stream_042883","water_id":"co_buffalo_creek_11020009_statewideContext_001","occurrence_id":"co_buffalo_creek_11020009_statewideContext_001","occurrence_number":"001","segment_count":9,"disambiguator":"Upper Arkansas-John Martin Reservoir · Statewide Colorado hydrography context · occurrence 001","basin":"Upper Arkansas-John Martin Reservoir","atlas_layer":"named_water_occurrence","object_role":"named_water_occurrence","historic_label":"Statewide Colorado hydrography context","current_label":"Statewide Colorado hydrography context","recovery_label":"Statewide Colorado hydrography context","tier":"tier4","minZoom":15,"confidence_public":"Statewide hydrography context outside current cutthroat lineage model","geometry_status_public":"Named natural stream occurrence from statewide hydrography","geometry_source_public":"Grouped public hydrography segments","trout_source_public":"Included for Colorado statewide hydrography completeness","public_notes":"Buffalo Creek is shown as statewide Colorado hydrography context outside the current cutthroat lineage assignment set."}},{"type":"Feature","geometry":{"type":"LineString","coordinates":[[-102.3292,38.1844],[-102.3292,38.1843]]},"properties":{"source_id":"co_named_stream_046706","name":"Buffalo Creek","display_name":"Buffalo Creek","mapped_name":"Buffalo Creek","source_name":"Buffalo Creek","state":"CO","atlas_class":"named_natural_stream","huc8":"11020009","huc8Name":"Upper Arkansas-John Martin Reservoir","huc8States":"CO,KS","lineageKey":"statewideContext","lineage":"statewideContext","historic":"statewideContext","current":"statewideContext","recovery":"statewideContext","lineageLabel":"Statewide Colorado hydrography context","lineageBasin":"","lineageNote":"","atlas_context":"statewide_hydrography_context","confidence":"Statewide hydrography context outside current cutthroat lineage model","geometryStatus":"Named natural stream segment from statewide hydrography","note":"This named natural stream is included for statewide Colorado hydrography completeness and is outside the current cutthroat lineage assignment set.","source_segment_id":"co_named_stream_046706","water_id":"co_buffalo_creek_11020009_statewideContext_001","occurrence_id":"co_buffalo_creek_11020009_statewideContext_001","occurrence_number":"001","segment_count":9,"disambiguator":"Upper Arkansas-John Martin Reservoir · Statewide Colorado hydrography context · occurrence 001","basin":"Upper Arkansas-John Martin Reservoir","atlas_layer":"named_water_occurrence","object_role":"named_water_occurrence","historic_label":"Statewide Colorado hydrography context","current_label":"Statewide Colorado hydrography context","recovery_label":"Statewide Colorado hydrography context","tier":"tier4","minZoom":15,"confidence_public":"Statewide hydrography context outside current cutthroat lineage model","geometry_status_public":"Named natural stream occurrence from statewide hydrography","geometry_source_public":"Grouped public hydrography segments","trout_source_public":"Included for Colorado statewide hydrography completeness","public_notes":"Buffalo Creek is shown as statewide Colorado hydrography context outside the current cutthroat lineage assignment set."}},{"type":"Feature","geometry":{"type":"LineString","coordinates":[[-102.3261,38.1941],[-102.3255,38.1878],[-102.3292,38.1844]]},"properties":{"source_id":"co_named_stream_047321","name":"Buffalo Creek","display_name":"Buffalo Creek","mapped_name":"Buffalo Creek","source_name":"Buffalo Creek","state":"CO","atlas_class":"named_natural_stream","huc8":"11020009","huc8Name":"Upper Arkansas-John Martin Reservoir","huc8States":"CO,KS","lineageKey":"statewideContext","lineage":"statewideContext","historic":"statewideContext","current":"statewideContext","recovery":"statewideContext","lineageLabel":"Statewide Colorado hydrography context","lineageBasin":"","lineageNote":"","atlas_context":"statewide_hydrography_context","confidence":"Statewide hydrography context outside current cutthroat lineage model","geometryStatus":"Named natural stream segment from statewide hydrography","note":"This named natural stream is included for statewide Colorado hydrography completeness and is outside the current cutthroat lineage assignment set.","source_segment_id":"co_named_stream_047321","water_id":"co_buffalo_creek_11020009_statewideContext_001","occurrence_id":"co_buffalo_creek_11020009_statewideContext_001","occurrence_number":"001","segment_count":9,"disambiguator":"Upper Arkansas-John Martin Reservoir · Statewide Colorado hydrography context · occurrence 001","basin":"Upper Arkansas-John Martin Reservoir","atlas_layer":"named_water_occurrence","object_role":"named_water_occurrence","historic_label":"Statewide Colorado hydrography context","current_label":"Statewide Colorado hydrography context","recovery_label":"Statewide Colorado hydrography context","tier":"tier4","minZoom":15,"confidence_public":"Statewide hydrography context outside current cutthroat lineage model","geometry_status_public":"Named natural stream occurrence from statewide hydrography","geometry_source_public":"Grouped public hydrography segments","trout_source_public":"Included for Colorado statewide hydrography completeness","public_notes":"Buffalo Creek is shown as statewide Colorado hydrography context outside the current cutthroat lineage assignment set."}},{"type":"Feature","geometry":{"type":"LineString","coordinates":[[-102.316,38.0663],[-102.3154,38.0665]]},"properties":{"source_id":"co_named_stream_034132","name":"Wolf Creek","display_name":"Wolf Creek","mapped_name":"Wolf Creek","source_name":"Wolf Creek","state":"CO","atlas_class":"named_natural_stream","huc8":"11020009","huc8Name":"Upper Arkansas-John Martin Reservoir","huc8States":"CO,KS","lineageKey":"statewideContext","lineage":"statewideContext","historic":"statewideContext","current":"statewideContext","recovery":"statewideContext","lineageLabel":"Statewide Colorado hydrography context","lineageBasin":"","lineageNote":"","atlas_context":"statewide_hydrography_context","confidence":"Statewide hydrography context outside current cutthroat lineage model","geometryStatus":"Named natural stream segment from statewide hydrography","note":"This named natural stream is included for statewide Colorado hydrography completeness and is outside the current cutthroat lineage assignment set.","source_segment_id":"co_named_stream_034132","water_id":"co_wolf_creek_11020009_statewideContext_002","occurrence_id":"co_wolf_creek_11020009_statewideContext_002","occurrence_number":"002","segment_count":5,"disambiguator":"Upper Arkansas-John Martin Reservoir · Statewide Colorado hydrography context · occurrence 002","basin":"Upper Arkansas-John Martin Reservoir","atlas_layer":"named_water_occurrence","object_role":"named_water_occurrence","historic_label":"Statewide Colorado hydrography context","current_label":"Statewide Colorado hydrography context","recovery_label":"Statewide Colorado hydrography context","tier":"tier4","minZoom":15,"confidence_public":"Statewide hydrography context outside current cutthroat lineage model","geometry_status_public":"Named natural stream occurrence from statewide hydrography","geometry_source_public":"Grouped public hydrography segments","trout_source_public":"Included for Colorado statewide hydrography completeness","public_notes":"Wolf Creek is shown as statewide Colorado hydrography context outside the current cutthroat lineage assignment set."}},{"type":"Feature","geometry":{"type":"LineString","coordinates":[[-102.3629,38.0126],[-102.3616,38.0146],[-102.3616,38.0197],[-102.3601,38.0227],[-102.3583,38.0241],[-102.355,38.0238],[-102.3557,38.0254],[-102.354,38.0263],[-102.3542,38.0277],[-102.3528,38.0293]]},"properties":{"source_id":"co_named_stream_036528","name":"Wolf Creek","display_name":"Wolf Creek","mapped_name":"Wolf Creek","source_name":"Wolf Creek","state":"CO","atlas_class":"named_natural_stream","huc8":"11020009","huc8Name":"Upper Arkansas-John Martin Reservoir","huc8States":"CO,KS","lineageKey":"statewideContext","lineage":"statewideContext","historic":"statewideContext","current":"statewideContext","recovery":"statewideContext","lineageLabel":"Statewide Colorado hydrography context","lineageBasin":"","lineageNote":"","atlas_context":"statewide_hydrography_context","confidence":"Statewide hydrography context outside current cutthroat lineage model","geometryStatus":"Named natural stream segment from statewide hydrography","note":"This named natural stream is included for statewide Colorado hydrography completeness and is outside the current cutthroat lineage assignment set.","source_segment_id":"co_named_stream_036528","water_id":"co_wolf_creek_11020009_statewideContext_002","occurrence_id":"co_wolf_creek_11020009_statewideContext_002","occurrence_number":"002","segment_count":5,"disambiguator":"Upper Arkansas-John Martin Reservoir · Statewide Colorado hydrography context · occurrence 002","basin":"Upper Arkansas-John Martin Reservoir","atlas_layer":"named_water_occurrence","object_role":"named_water_occurrence","historic_label":"Statewide Colorado hydrography context","current_label":"Statewide Colorado hydrography context","recovery_label":"Statewide Colorado hydrography context","tier":"tier4","minZoom":15,"confidence_public":"Statewide hydrography context outside current cutthroat lineage model","geometry_status_public":"Named natural stream occurrence from statewide hydrography","geometry_source_public":"Grouped public hydrography segments","trout_source_public":"Included for Colorado statewide hydrography completeness","public_notes":"Wolf Creek is shown as statewide Colorado hydrography context outside the current cutthroat lineage assignment set."}},{"type":"Feature","geometry":{"type":"LineString","coordinates":[[-102.3587,37.9912],[-102.359,37.9931],[-102.3572,37.9968],[-102.3579,37.9994],[-102.3564,38.0023],[-102.3603,38.0019]]},"properties":{"source_id":"co_named_stream_040322","name":"Wolf Creek","display_name":"Wolf Creek","mapped_name":"Wolf Creek","source_name":"Wolf Creek","state":"CO","atlas_class":"named_natural_stream","huc8":"11020009","huc8Name":"Upper Arkansas-John Martin Reservoir","huc8States":"CO,KS","lineageKey":"statewideContext","lineage":"statewideContext","historic":"statewideContext","current":"statewideContext","recovery":"statewideContext","lineageLabel":"Statewide Colorado hydrography context","lineageBasin":"","lineageNote":"","atlas_context":"statewide_hydrography_context","confidence":"Statewide hydrography context outside current cutthroat lineage model","geometryStatus":"Named natural stream segment from statewide hydrography","note":"This named natural stream is included for statewide Colorado hydrography completeness and is outside the current cutthroat lineage assignment set.","source_segment_id":"co_named_stream_040322","water_id":"co_wolf_creek_11020009_statewideContext_002","occurrence_id":"co_wolf_creek_11020009_statewideContext_002","occurrence_number":"002","segment_count":5,"disambiguator":"Upper Arkansas-John Martin Reservoir · Statewide Colorado hydrography context · occurrence 002","basin":"Upper Arkansas-John Martin Reservoir","atlas_layer":"named_water_occurrence","object_role":"named_water_occurrence","historic_label":"Statewide Colorado hydrography context","current_label":"Statewide Colorado hydrography context","recovery_label":"Statewide Colorado hydrography context","tier":"tier4","minZoom":15,"confidence_public":"Statewide hydrography context outside current cutthroat lineage model","geometry_status_public":"Named natural stream occurrence from statewide hydrography","geometry_source_public":"Grouped public hydrography segments","trout_source_public":"Included for Colorado statewide hydrography completeness","public_notes":"Wolf Creek is shown as statewide Colorado hydrography context outside the current cutthroat lineage assignment set."}},{"type":"Feature","geometry":{"type":"LineString","coordinates":[[-102.3606,38.0029],[-102.3591,38.005],[-102.3593,38.0063]]},"properties":{"source_id":"co_named_stream_040323","name":"Wolf Creek","display_name":"Wolf Creek","mapped_name":"Wolf Creek","source_name":"Wolf Creek","state":"CO","atlas_class":"named_natural_stream","huc8":"11020009","huc8Name":"Upper Arkansas-John Martin Reservoir","huc8States":"CO,KS","lineageKey":"statewideContext","lineage":"statewideContext","historic":"statewideContext","current":"statewideContext","recovery":"statewideContext","lineageLabel":"Statewide Colorado hydrography context","lineageBasin":"","lineageNote":"","atlas_context":"statewide_hydrography_context","confidence":"Statewide hydrography context outside current cutthroat lineage model","geometryStatus":"Named natural stream segment from statewide hydrography","note":"This named natural stream is included for statewide Colorado hydrography completeness and is outside the current cutthroat lineage assignment set.","source_segment_id":"co_named_stream_040323","water_id":"co_wolf_creek_11020009_statewideContext_002","occurrence_id":"co_wolf_creek_11020009_statewideContext_002","occurrence_number":"002","segment_count":5,"disambiguator":"Upper Arkansas-John Martin Reservoir · Statewide Colorado hydrography context · occurrence 002","basin":"Upper Arkansas-John Martin Reservoir","atlas_layer":"named_water_occurrence","object_role":"named_water_occurrence","historic_label":"Statewide Colorado hydrography context","current_label":"Statewide Colorado hydrography context","recovery_label":"Statewide Colorado hydrography context","tier":"tier4","minZoom":15,"confidence_public":"Statewide hydrography context outside current cutthroat lineage model","geometry_status_public":"Named natural stream occurrence from statewide hydrography","geometry_source_public":"Grouped public hydrography segments","trout_source_public":"Included for Colorado statewide hydrography completeness","public_notes":"Wolf Creek is shown as statewide Colorado hydrography context outside the current cutthroat lineage assignment set."}},{"type":"Feature","geometry":{"type":"LineString","coordinates":[[-102.3399,38.0511],[-102.3385,38.0556],[-102.3351,38.0589],[-102.3366,38.0626],[-102.3359,38.0667],[-102.3307,38.0678],[-102.3186,38.0652]]},"properties":{"source_id":"co_named_stream_042384","name":"Wolf Creek","display_name":"Wolf Creek","mapped_name":"Wolf Creek","source_name":"Wolf Creek","state":"CO","atlas_class":"named_natural_stream","huc8":"11020009","huc8Name":"Upper Arkansas-John Martin Reservoir","huc8States":"CO,KS","lineageKey":"statewideContext","lineage":"statewideContext","historic":"statewideContext","current":"statewideContext","recovery":"statewideContext","lineageLabel":"Statewide Colorado hydrography context","lineageBasin":"","lineageNote":"","atlas_context":"statewide_hydrography_context","confidence":"Statewide hydrography context outside current cutthroat lineage model","geometryStatus":"Named natural stream segment from statewide hydrography","note":"This named natural stream is included for statewide Colorado hydrography completeness and is outside the current cutthroat lineage assignment set.","source_segment_id":"co_named_stream_042384","water_id":"co_wolf_creek_11020009_statewideContext_002","occurrence_id":"co_wolf_creek_11020009_statewideContext_002","occurrence_number":"002","segment_count":5,"disambiguator":"Upper Arkansas-John Martin Reservoir · Statewide Colorado hydrography context · occurrence 002","basin":"Upper Arkansas-John Martin Reservoir","atlas_layer":"named_water_occurrence","object_role":"named_water_occurrence","historic_label":"Statewide Colorado hydrography context","current_label":"Statewide Colorado hydrography context","recovery_label":"Statewide Colorado hydrography context","tier":"tier4","minZoom":15,"confidence_public":"Statewide hydrography context outside current cutthroat lineage model","geometry_status_public":"Named natural stream occurrence from statewide hydrography","geometry_source_public":"Grouped public hydrography segments","trout_source_public":"Included for Colorado statewide hydrography completeness","public_notes":"Wolf Creek is shown as statewide Colorado hydrography context outside the current cutthroat lineage assignment set."}},{"type":"Feature","geometry":{"type":"LineString","coordinates":[[-102.2801,38.0029],[-102.2786,38.0062],[-102.2802,38.0096],[-102.2802,38.0123]]},"properties":{"source_id":"co_named_stream_032393","name":"Granada Creek","display_name":"Granada Creek","mapped_name":"Granada Creek","source_name":"Granada Creek","state":"CO","atlas_class":"named_natural_stream","huc8":"11020009","huc8Name":"Upper Arkansas-John Martin Reservoir","huc8States":"CO,KS","lineageKey":"statewideContext","lineage":"statewideContext","historic":"statewideContext","current":"statewideContext","recovery":"statewideContext","lineageLabel":"Statewide Colorado hydrography context","lineageBasin":"","lineageNote":"","atlas_context":"statewide_hydrography_context","confidence":"Statewide hydrography context outside current cutthroat lineage model","geometryStatus":"Named natural stream segment from statewide hydrography","note":"This named natural stream is included for statewide Colorado hydrography completeness and is outside the current cutthroat lineage assignment set.","source_segment_id":"co_named_stream_032393","water_id":"co_granada_creek_11020009_statewideContext_002","occurrence_id":"co_granada_creek_11020009_statewideContext_002","occurrence_number":"002","segment_count":2,"disambiguator":"Upper Arkansas-John Martin Reservoir · Statewide Colorado hydrography context · occurrence 002","basin":"Upper Arkansas-John Martin Reservoir","atlas_layer":"named_water_occurrence","object_role":"named_water_occurrence","historic_label":"Statewide Colorado hydrography context","current_label":"Statewide Colorado hydrography context","recovery_label":"Statewide Colorado hydrography context","tier":"tier4","minZoom":15,"confidence_public":"Statewide hydrography context outside current cutthroat lineage model","geometry_status_public":"Named natural stream occurrence from statewide hydrography","geometry_source_public":"Grouped public hydrography segments","trout_source_public":"Included for Colorado statewide hydrography completeness","public_notes":"Granada Creek is shown as statewide Colorado hydrography context outside the current cutthroat lineage assignment set."}},{"type":"Feature","geometry":{"type":"LineString","coordinates":[[-102.2802,38.0123],[-102.2773,38.0132],[-102.2769,38.0149],[-102.2705,38.0214],[-102.27,38.0248]]},"properties":{"source_id":"co_named_stream_038505","name":"Granada Creek","display_name":"Granada Creek","mapped_name":"Granada Creek","source_name":"Granada Creek","state":"CO","atlas_class":"named_natural_stream","huc8":"11020009","huc8Name":"Upper Arkansas-John Martin Reservoir","huc8States":"CO,KS","lineageKey":"statewideContext","lineage":"statewideContext","historic":"statewideContext","current":"statewideContext","recovery":"statewideContext","lineageLabel":"Statewide Colorado hydrography context","lineageBasin":"","lineageNote":"","atlas_context":"statewide_hydrography_context","confidence":"Statewide hydrography context outside current cutthroat lineage model","geometryStatus":"Named natural stream segment from statewide hydrography","note":"This named natural stream is included for statewide Colorado hydrography completeness and is outside the current cutthroat lineage assignment set.","source_segment_id":"co_named_stream_038505","water_id":"co_granada_creek_11020009_statewideContext_002","occurrence_id":"co_granada_creek_11020009_statewideContext_002","occurrence_number":"002","segment_count":2,"disambiguator":"Upper Arkansas-John Martin Reservoir · Statewide Colorado hydrography context · occurrence 002","basin":"Upper Arkansas-John Martin Reservoir","atlas_layer":"named_water_occurrence","object_role":"named_water_occurrence","historic_label":"Statewide Colorado hydrography context","current_label":"Statewide Colorado hydrography context","recovery_label":"Statewide Colorado hydrography context","tier":"tier4","minZoom":15,"confidence_public":"Statewide hydrography context outside current cutthroat lineage model","geometry_status_public":"Named natural stream occurrence from statewide hydrography","geometry_source_public":"Grouped public hydrography segments","trout_source_public":"Included for Colorado statewide hydrography completeness","public_notes":"Granada Creek is shown as statewide Colorado hydrography context outside the current cutthroat lineage assignment set."}},{"type":"Feature","geometry":{"type":"LineString","coordinates":[[-102.4083,38.152],[-102.4083,38.1515]]},"properties":{"source_id":"co_named_stream_033883","name":"West Fork Cottonwood Creek","display_name":"West Fork Cottonwood Creek","mapped_name":"West Fork Cottonwood Creek","source_name":"West Fork Cottonwood Creek","state":"CO","atlas_class":"named_natural_stream","huc8":"11020009","huc8Name":"Upper Arkansas-John Martin Reservoir","huc8States":"CO,KS","lineageKey":"statewideContext","lineage":"statewideContext","historic":"statewideContext","current":"statewideContext","recovery":"statewideContext","lineageLabel":"Statewide Colorado hydrography context","lineageBasin":"","lineageNote":"","atlas_context":"statewide_hydrography_context","confidence":"Statewide hydrography context outside current cutthroat lineage model","geometryStatus":"Named natural stream segment from statewide hydrography","note":"This named natural stream is included for statewide Colorado hydrography completeness and is outside the current cutthroat lineage assignment set.","source_segment_id":"co_named_stream_033883","water_id":"co_west_fork_cottonwood_creek_11020009_statewideContext_001","occurrence_id":"co_west_fork_cottonwood_creek_11020009_statewideContext_001","occurrence_number":"001","segment_count":2,"disambiguator":"Upper Arkansas-John Martin Reservoir · Statewide Colorado hydrography context · occurrence 001","basin":"Upper Arkansas-John Martin Reservoir","atlas_layer":"named_water_occurrence","object_role":"named_water_occurrence","historic_label":"Statewide Colorado hydrography context","current_label":"Statewide Colorado hydrography context","recovery_label":"Statewide Colorado hydrography context","tier":"tier4","minZoom":15,"confidence_public":"Statewide hydrography context outside current cutthroat lineage model","geometry_status_public":"Named natural stream occurrence from statewide hydrography","geometry_source_public":"Grouped public hydrography segments","trout_source_public":"Included for Colorado statewide hydrography completeness","public_notes":"West Fork Cottonwood Creek is shown as statewide Colorado hydrography context outside the current cutthroat lineage assignment set."}},{"type":"Feature","geometry":{"type":"LineString","coordinates":[[-102.4132,38.1799],[-102.4141,38.1732],[-102.412,38.1657],[-102.4106,38.1638],[-102.4114,38.1631],[-102.4103,38.1617],[-102.4111,38.161],[-102.4095,38.1543]]},"properties":{"source_id":"co_named_stream_047323","name":"West Fork Cottonwood Creek","display_name":"West Fork Cottonwood Creek","mapped_name":"West Fork Cottonwood Creek","source_name":"West Fork Cottonwood Creek","state":"CO","atlas_class":"named_natural_stream","huc8":"11020009","huc8Name":"Upper Arkansas-John Martin Reservoir","huc8States":"CO,KS","lineageKey":"statewideContext","lineage":"statewideContext","historic":"statewideContext","current":"statewideContext","recovery":"statewideContext","lineageLabel":"Statewide Colorado hydrography context","lineageBasin":"","lineageNote":"","atlas_context":"statewide_hydrography_context","confidence":"Statewide hydrography context outside current cutthroat lineage model","geometryStatus":"Named natural stream segment from statewide hydrography","note":"This named natural stream is included for statewide Colorado hydrography completeness and is outside the current cutthroat lineage assignment set.","source_segment_id":"co_named_stream_047323","water_id":"co_west_fork_cottonwood_creek_11020009_statewideContext_001","occurrence_id":"co_west_fork_cottonwood_creek_11020009_statewideContext_001","occurrence_number":"001","segment_count":2,"disambiguator":"Upper Arkansas-John Martin Reservoir · Statewide Colorado hydrography context · occurrence 001","basin":"Upper Arkansas-John Martin Reservoir","atlas_layer":"named_water_occurrence","object_role":"named_water_occurrence","historic_label":"Statewide Colorado hydrography context","current_label":"Statewide Colorado hydrography context","recovery_label":"Statewide Colorado hydrography context","tier":"tier4","minZoom":15,"confidence_public":"Statewide hydrography context outside current cutthroat lineage model","geometry_status_public":"Named natural stream occurrence from statewide hydrography","geometry_source_public":"Grouped public hydrography segments","trout_source_public":"Included for Colorado statewide hydrography completeness","public_notes":"West Fork Cottonwood Creek is shown as statewide Colorado hydrography context outside the current cutthroat lineage assignment set."}},{"type":"Feature","geometry":{"type":"LineString","coordinates":[[-102.3603,38.1713],[-102.3623,38.1667],[-102.3618,38.1638],[-102.3627,38.161],[-102.3625,38.157],[-102.3669,38.1505],[-102.3671,38.1473],[-102.3688,38.1458]]},"properties":{"source_id":"co_named_stream_038447","name":"Boggs Creek","display_name":"Boggs Creek","mapped_name":"Boggs Creek","source_name":"Boggs Creek","state":"CO","atlas_class":"named_natural_stream","huc8":"11020009","huc8Name":"Upper Arkansas-John Martin Reservoir","huc8States":"CO,KS","lineageKey":"statewideContext","lineage":"statewideContext","historic":"statewideContext","current":"statewideContext","recovery":"statewideContext","lineageLabel":"Statewide Colorado hydrography context","lineageBasin":"","lineageNote":"","atlas_context":"statewide_hydrography_context","confidence":"Statewide hydrography context outside current cutthroat lineage model","geometryStatus":"Named natural stream segment from statewide hydrography","note":"This named natural stream is included for statewide Colorado hydrography completeness and is outside the current cutthroat lineage assignment set.","source_segment_id":"co_named_stream_038447","water_id":"co_boggs_creek_11020009_statewideContext_001","occurrence_id":"co_boggs_creek_11020009_statewideContext_001","occurrence_number":"001","segment_count":3,"disambiguator":"Upper Arkansas-John Martin Reservoir · Statewide Colorado hydrography context · occurrence 001","basin":"Upper Arkansas-John Martin Reservoir","atlas_layer":"named_water_occurrence","object_role":"named_water_occurrence","historic_label":"Statewide Colorado hydrography context","current_label":"Statewide Colorado hydrography context","recovery_label":"Statewide Colorado hydrography context","tier":"tier4","minZoom":15,"confidence_public":"Statewide hydrography context outside current cutthroat lineage model","geometry_status_public":"Named natural stream occurrence from statewide hydrography","geometry_source_public":"Grouped public hydrography segments","trout_source_public":"Included for Colorado statewide hydrography completeness","public_notes":"Boggs Creek is shown as statewide Colorado hydrography context outside the current cutthroat lineage assignment set."}},{"type":"Feature","geometry":{"type":"LineString","coordinates":[[-102.3709,38.1104],[-102.3722,38.1058]]},"properties":{"source_id":"co_named_stream_043124","name":"Boggs Creek","display_name":"Boggs Creek","mapped_name":"Boggs Creek","source_name":"Boggs Creek","state":"CO","atlas_class":"named_natural_stream","huc8":"11020009","huc8Name":"Upper Arkansas-John Martin Reservoir","huc8States":"CO,KS","lineageKey":"statewideContext","lineage":"statewideContext","historic":"statewideContext","current":"statewideContext","recovery":"statewideContext","lineageLabel":"Statewide Colorado hydrography context","lineageBasin":"","lineageNote":"","atlas_context":"statewide_hydrography_context","confidence":"Statewide hydrography context outside current cutthroat lineage model","geometryStatus":"Named natural stream segment from statewide hydrography","note":"This named natural stream is included for statewide Colorado hydrography completeness and is outside the current cutthroat lineage assignment set.","source_segment_id":"co_named_stream_043124","water_id":"co_boggs_creek_11020009_statewideContext_001","occurrence_id":"co_boggs_creek_11020009_statewideContext_001","occurrence_number":"001","segment_count":3,"disambiguator":"Upper Arkansas-John Martin Reservoir · Statewide Colorado hydrography context · occurrence 001","basin":"Upper Arkansas-John Martin Reservoir","atlas_layer":"named_water_occurrence","object_role":"named_water_occurrence","historic_label":"Statewide Colorado hydrography context","current_label":"Statewide Colorado hydrography context","recovery_label":"Statewide Colorado hydrography context","tier":"tier4","minZoom":15,"confidence_public":"Statewide hydrography context outside current cutthroat lineage model","geometry_status_public":"Named natural stream occurrence from statewide hydrography","geometry_source_public":"Grouped public hydrography segments","trout_source_public":"Included for Colorado statewide hydrography completeness","public_notes":"Boggs Creek is shown as statewide Colorado hydrography context outside the current cutthroat lineage assignment set."}},{"type":"Feature","geometry":{"type":"LineString","coordinates":[[-102.3696,38.1451],[-102.3706,38.1438],[-102.3706,38.1399],[-102.3672,38.1351],[-102.3693,38.1301],[-102.3687,38.1232],[-102.3711,38.122],[-102.3729,38.1196],[-102.3725,38.1141],[-102.3708,38.1109]]},"properties":{"source_id":"co_named_stream_043293","name":"Boggs Creek","display_name":"Boggs Creek","mapped_name":"Boggs Creek","source_name":"Boggs Creek","state":"CO","atlas_class":"named_natural_stream","huc8":"11020009","huc8Name":"Upper Arkansas-John Martin Reservoir","huc8States":"CO,KS","lineageKey":"statewideContext","lineage":"statewideContext","historic":"statewideContext","current":"statewideContext","recovery":"statewideContext","lineageLabel":"Statewide Colorado hydrography context","lineageBasin":"","lineageNote":"","atlas_context":"statewide_hydrography_context","confidence":"Statewide hydrography context outside current cutthroat lineage model","geometryStatus":"Named natural stream segment from statewide hydrography","note":"This named natural stream is included for statewide Colorado hydrography completeness and is outside the current cutthroat lineage assignment set.","source_segment_id":"co_named_stream_043293","water_id":"co_boggs_creek_11020009_statewideContext_001","occurrence_id":"co_boggs_creek_11020009_statewideContext_001","occurrence_number":"001","segment_count":3,"disambiguator":"Upper Arkansas-John Martin Reservoir · Statewide Colorado hydrography context · occurrence 001","basin":"Upper Arkansas-John Martin Reservoir","atlas_layer":"named_water_occurrence","object_role":"named_water_occurrence","historic_label":"Statewide Colorado hydrography context","current_label":"Statewide Colorado hydrography context","recovery_label":"Statewide Colorado hydrography context","tier":"tier4","minZoom":15,"confidence_public":"Statewide hydrography context outside current cutthroat lineage model","geometry_status_public":"Named natural stream occurrence from statewide hydrography","geometry_source_public":"Grouped public hydrography segments","trout_source_public":"Included for Colorado statewide hydrography completeness","public_notes":"Boggs Creek is shown as statewide Colorado hydrography context outside the current cutthroat lineage assignment set."}},{"type":"Feature","geometry":{"type":"LineString","coordinates":[[-102.3847,38.1889],[-102.3858,38.1807],[-102.3898,38.1734],[-102.3958,38.1628],[-102.404,38.1567],[-102.4049,38.1535]]},"properties":{"source_id":"co_named_stream_041903","name":"East Fork Cottonwood Creek","display_name":"East Fork Cottonwood Creek","mapped_name":"East Fork Cottonwood Creek","source_name":"East Fork Cottonwood Creek","state":"CO","atlas_class":"named_natural_stream","huc8":"11020009","huc8Name":"Upper Arkansas-John Martin Reservoir","huc8States":"CO,KS","lineageKey":"statewideContext","lineage":"statewideContext","historic":"statewideContext","current":"statewideContext","recovery":"statewideContext","lineageLabel":"Statewide Colorado hydrography context","lineageBasin":"","lineageNote":"","atlas_context":"statewide_hydrography_context","confidence":"Statewide hydrography context outside current cutthroat lineage model","geometryStatus":"Named natural stream segment from statewide hydrography","note":"This named natural stream is included for statewide Colorado hydrography completeness and is outside the current cutthroat lineage assignment set.","source_segment_id":"co_named_stream_041903","water_id":"co_east_fork_cottonwood_creek_11020009_statewideContext_001","occurrence_id":"co_east_fork_cottonwood_creek_11020009_statewideContext_001","occurrence_number":"001","segment_count":2,"disambiguator":"Upper Arkansas-John Martin Reservoir · Statewide Colorado hydrography context · occurrence 001","basin":"Upper Arkansas-John Martin Reservoir","atlas_layer":"named_water_occurrence","object_role":"named_water_occurrence","historic_label":"Statewide Colorado hydrography context","current_label":"Statewide Colorado hydrography context","recovery_label":"Statewide Colorado hydrography context","tier":"tier4","minZoom":15,"confidence_public":"Statewide hydrography context outside current cutthroat lineage model","geometry_status_public":"Named natural stream occurrence from statewide hydrography","geometry_source_public":"Grouped public hydrography segments","trout_source_public":"Included for Colorado statewide hydrography completeness","public_notes":"East Fork Cottonwood Creek is shown as statewide Colorado hydrography context outside the current cutthroat lineage assignment set."}},{"type":"Feature","geometry":{"type":"LineString","coordinates":[[-102.4071,38.1514],[-102.4073,38.1504]]},"properties":{"source_id":"co_named_stream_050269","name":"East Fork Cottonwood Creek","display_name":"East Fork Cottonwood Creek","mapped_name":"East Fork Cottonwood Creek","source_name":"East Fork Cottonwood Creek","state":"CO","atlas_class":"named_natural_stream","huc8":"11020009","huc8Name":"Upper Arkansas-John Martin Reservoir","huc8States":"CO,KS","lineageKey":"statewideContext","lineage":"statewideContext","historic":"statewideContext","current":"statewideContext","recovery":"statewideContext","lineageLabel":"Statewide Colorado hydrography context","lineageBasin":"","lineageNote":"","atlas_context":"statewide_hydrography_context","confidence":"Statewide hydrography context outside current cutthroat lineage model","geometryStatus":"Named natural stream segment from statewide hydrography","note":"This named natural stream is included for statewide Colorado hydrography completeness and is outside the current cutthroat lineage assignment set.","source_segment_id":"co_named_stream_050269","water_id":"co_east_fork_cottonwood_creek_11020009_statewideContext_001","occurrence_id":"co_east_fork_cottonwood_creek_11020009_statewideContext_001","occurrence_number":"001","segment_count":2,"disambiguator":"Upper Arkansas-John Martin Reservoir · Statewide Colorado hydrography context · occurrence 001","basin":"Upper Arkansas-John Martin Reservoir","atlas_layer":"named_water_occurrence","object_role":"named_water_occurrence","historic_label":"Statewide Colorado hydrography context","current_label":"Statewide Colorado hydrography context","recovery_label":"Statewide Colorado hydrography context","tier":"tier4","minZoom":15,"confidence_public":"Statewide hydrography context outside current cutthroat lineage model","geometry_status_public":"Named natural stream occurrence from statewide hydrography","geometry_source_public":"Grouped public hydrography segments","trout_source_public":"Included for Colorado statewide hydrography completeness","public_notes":"East Fork Cottonwood Creek is shown as statewide Colorado hydrography context outside the current cutthroat lineage assignment set."}},{"type":"Feature","geometry":{"type":"LineString","coordinates":[[-102.2446,38.2396],[-102.2521,38.2194],[-102.2567,38.214],[-102.2591,38.2132],[-102.2604,38.2116],[-102.2599,38.2067],[-102.2616,38.2023]]},"properties":{"source_id":"co_named_stream_042271","name":"Skeff Creek","display_name":"Skeff Creek","mapped_name":"Skeff Creek","source_name":"Skeff Creek","state":"CO","atlas_class":"named_natural_stream","huc8":"11020009","huc8Name":"Upper Arkansas-John Martin Reservoir","huc8States":"CO,KS","lineageKey":"statewideContext","lineage":"statewideContext","historic":"statewideContext","current":"statewideContext","recovery":"statewideContext","lineageLabel":"Statewide Colorado hydrography context","lineageBasin":"","lineageNote":"","atlas_context":"statewide_hydrography_context","confidence":"Statewide hydrography context outside current cutthroat lineage model","geometryStatus":"Named natural stream segment from statewide hydrography","note":"This named natural stream is included for statewide Colorado hydrography completeness and is outside the current cutthroat lineage assignment set.","source_segment_id":"co_named_stream_042271","water_id":"co_skeff_creek_11020009_statewideContext_001","occurrence_id":"co_skeff_creek_11020009_statewideContext_001","occurrence_number":"001","segment_count":2,"disambiguator":"Upper Arkansas-John Martin Reservoir · Statewide Colorado hydrography context · occurrence 001","basin":"Upper Arkansas-John Martin Reservoir","atlas_layer":"named_water_occurrence","object_role":"named_water_occurrence","historic_label":"Statewide Colorado hydrography context","current_label":"Statewide Colorado hydrography context","recovery_label":"Statewide Colorado hydrography context","tier":"tier4","minZoom":15,"confidence_public":"Statewide hydrography context outside current cutthroat lineage model","geometry_status_public":"Named natural stream occurrence from statewide hydrography","geometry_source_public":"Grouped public hydrography segments","trout_source_public":"Included for Colorado statewide hydrography completeness","public_notes":"Skeff Creek is shown as statewide Colorado hydrography context outside the current cutthroat lineage assignment set."}},{"type":"Feature","geometry":{"type":"LineString","coordinates":[[-102.2616,38.2023],[-102.2612,38.1997],[-102.2568,38.197],[-102.2559,38.1936],[-102.257,38.1838],[-102.2588,38.1789],[-102.2555,38.1729],[-102.2559,38.1655],[-102.2547,38.1604],[-102.2563,38.156]]},"properties":{"source_id":"co_named_stream_042605","name":"Skeff Creek","display_name":"Skeff Creek","mapped_name":"Skeff Creek","source_name":"Skeff Creek","state":"CO","atlas_class":"named_natural_stream","huc8":"11020009","huc8Name":"Upper Arkansas-John Martin Reservoir","huc8States":"CO,KS","lineageKey":"statewideContext","lineage":"statewideContext","historic":"statewideContext","current":"statewideContext","recovery":"statewideContext","lineageLabel":"Statewide Colorado hydrography context","lineageBasin":"","lineageNote":"","atlas_context":"statewide_hydrography_context","confidence":"Statewide hydrography context outside current cutthroat lineage model","geometryStatus":"Named natural stream segment from statewide hydrography","note":"This named natural stream is included for statewide Colorado hydrography completeness and is outside the current cutthroat lineage assignment set.","source_segment_id":"co_named_stream_042605","water_id":"co_skeff_creek_11020009_statewideContext_001","occurrence_id":"co_skeff_creek_11020009_statewideContext_001","occurrence_number":"001","segment_count":2,"disambiguator":"Upper Arkansas-John Martin Reservoir · Statewide Colorado hydrography context · occurrence 001","basin":"Upper Arkansas-John Martin Reservoir","atlas_layer":"named_water_occurrence","object_role":"named_water_occurrence","historic_label":"Statewide Colorado hydrography context","current_label":"Statewide Colorado hydrography context","recovery_label":"Statewide Colorado hydrography context","tier":"tier4","minZoom":15,"confidence_public":"Statewide hydrography context outside current cutthroat lineage model","geometry_status_public":"Named natural stream occurrence from statewide hydrography","geometry_source_public":"Grouped public hydrography segments","trout_source_public":"Included for Colorado statewide hydrography completeness","public_notes":"Skeff Creek is shown as statewide Colorado hydrography context outside the current cutthroat lineage assignment set."}}]}