{"type":"FeatureCollection","metadata":{"source":"C:\\ct-atlas-data\\processed\\geojson\\interpreted\\colorado_named_natural_streams_complete_v1.geojson","tier":"tier1","tile_size_degrees":0.25,"x":-433,"y":157,"bounds":{"west":-108.25,"south":39.25,"east":-108,"north":39.5}},"features":[{"type":"Feature","geometry":{"type":"LineString","coordinates":[[-108.2533,39.3662],[-108.2521,39.3621],[-108.2501,39.3611],[-108.2474,39.3574]]},"properties":{"source_id":"co_named_stream_079782","name":"Roan Creek","display_name":"Roan Creek","mapped_name":"Roan Creek","source_name":"Roan Creek","state":"CO","atlas_class":"named_natural_stream","huc8":"14010005","huc8Name":"Colorado Headwaters-Plateau","huc8States":"CO,UT","lineageKey":"statewideContext","lineage":"statewideContext","historic":"statewideContext","current":"statewideContext","recovery":"statewideContext","lineageLabel":"Statewide Colorado hydrography context","lineageBasin":"","lineageNote":"","atlas_context":"statewide_hydrography_context","confidence":"Statewide hydrography context outside current cutthroat lineage model","geometryStatus":"Named natural stream segment from statewide hydrography","note":"This named natural stream is included for statewide Colorado hydrography completeness and is outside the current cutthroat lineage assignment set.","source_segment_id":"co_named_stream_079782","water_id":"co_roan_creek_14010005_statewideContext_001","occurrence_id":"co_roan_creek_14010005_statewideContext_001","occurrence_number":"001","segment_count":106,"disambiguator":"Colorado Headwaters-Plateau · Statewide Colorado hydrography context · occurrence 001","basin":"Colorado Headwaters-Plateau","atlas_layer":"named_water_occurrence","object_role":"named_water_occurrence","historic_label":"Statewide Colorado hydrography context","current_label":"Statewide Colorado hydrography context","recovery_label":"Statewide Colorado hydrography context","tier":"tier1","minZoom":10,"confidence_public":"Statewide hydrography context outside current cutthroat lineage model","geometry_status_public":"Named natural stream occurrence from statewide hydrography","geometry_source_public":"Grouped public hydrography segments","trout_source_public":"Included for Colorado statewide hydrography completeness","public_notes":"Roan Creek is shown as statewide Colorado hydrography context outside the current cutthroat lineage assignment set."}},{"type":"Feature","geometry":{"type":"LineString","coordinates":[[-108.2474,39.3574],[-108.2441,39.3564],[-108.2434,39.3545]]},"properties":{"source_id":"co_named_stream_079811","name":"Roan Creek","display_name":"Roan Creek","mapped_name":"Roan Creek","source_name":"Roan Creek","state":"CO","atlas_class":"named_natural_stream","huc8":"14010005","huc8Name":"Colorado Headwaters-Plateau","huc8States":"CO,UT","lineageKey":"statewideContext","lineage":"statewideContext","historic":"statewideContext","current":"statewideContext","recovery":"statewideContext","lineageLabel":"Statewide Colorado hydrography context","lineageBasin":"","lineageNote":"","atlas_context":"statewide_hydrography_context","confidence":"Statewide hydrography context outside current cutthroat lineage model","geometryStatus":"Named natural stream segment from statewide hydrography","note":"This named natural stream is included for statewide Colorado hydrography completeness and is outside the current cutthroat lineage assignment set.","source_segment_id":"co_named_stream_079811","water_id":"co_roan_creek_14010005_statewideContext_001","occurrence_id":"co_roan_creek_14010005_statewideContext_001","occurrence_number":"001","segment_count":106,"disambiguator":"Colorado Headwaters-Plateau · Statewide Colorado hydrography context · occurrence 001","basin":"Colorado Headwaters-Plateau","atlas_layer":"named_water_occurrence","object_role":"named_water_occurrence","historic_label":"Statewide Colorado hydrography context","current_label":"Statewide Colorado hydrography context","recovery_label":"Statewide Colorado hydrography context","tier":"tier1","minZoom":10,"confidence_public":"Statewide hydrography context outside current cutthroat lineage model","geometry_status_public":"Named natural stream occurrence from statewide hydrography","geometry_source_public":"Grouped public hydrography segments","trout_source_public":"Included for Colorado statewide hydrography completeness","public_notes":"Roan Creek is shown as statewide Colorado hydrography context outside the current cutthroat lineage assignment set."}},{"type":"Feature","geometry":{"type":"LineString","coordinates":[[-108.2375,39.3495],[-108.2333,39.3465],[-108.2336,39.3445]]},"properties":{"source_id":"co_named_stream_079812","name":"Roan Creek","display_name":"Roan Creek","mapped_name":"Roan Creek","source_name":"Roan Creek","state":"CO","atlas_class":"named_natural_stream","huc8":"14010005","huc8Name":"Colorado Headwaters-Plateau","huc8States":"CO,UT","lineageKey":"statewideContext","lineage":"statewideContext","historic":"statewideContext","current":"statewideContext","recovery":"statewideContext","lineageLabel":"Statewide Colorado hydrography context","lineageBasin":"","lineageNote":"","atlas_context":"statewide_hydrography_context","confidence":"Statewide hydrography context outside current cutthroat lineage model","geometryStatus":"Named natural stream segment from statewide hydrography","note":"This named natural stream is included for statewide Colorado hydrography completeness and is outside the current cutthroat lineage assignment set.","source_segment_id":"co_named_stream_079812","water_id":"co_roan_creek_14010005_statewideContext_001","occurrence_id":"co_roan_creek_14010005_statewideContext_001","occurrence_number":"001","segment_count":106,"disambiguator":"Colorado Headwaters-Plateau · Statewide Colorado hydrography context · occurrence 001","basin":"Colorado Headwaters-Plateau","atlas_layer":"named_water_occurrence","object_role":"named_water_occurrence","historic_label":"Statewide Colorado hydrography context","current_label":"Statewide Colorado hydrography context","recovery_label":"Statewide Colorado hydrography context","tier":"tier1","minZoom":10,"confidence_public":"Statewide hydrography context outside current cutthroat lineage model","geometry_status_public":"Named natural stream occurrence from statewide hydrography","geometry_source_public":"Grouped public hydrography segments","trout_source_public":"Included for Colorado statewide hydrography completeness","public_notes":"Roan Creek is shown as statewide Colorado hydrography context outside the current cutthroat lineage assignment set."}},{"type":"Feature","geometry":{"type":"LineString","coordinates":[[-108.2432,39.3542],[-108.242,39.3531],[-108.2433,39.3515],[-108.2426,39.351]]},"properties":{"source_id":"co_named_stream_079815","name":"Roan Creek","display_name":"Roan Creek","mapped_name":"Roan Creek","source_name":"Roan Creek","state":"CO","atlas_class":"named_natural_stream","huc8":"14010005","huc8Name":"Colorado Headwaters-Plateau","huc8States":"CO,UT","lineageKey":"statewideContext","lineage":"statewideContext","historic":"statewideContext","current":"statewideContext","recovery":"statewideContext","lineageLabel":"Statewide Colorado hydrography context","lineageBasin":"","lineageNote":"","atlas_context":"statewide_hydrography_context","confidence":"Statewide hydrography context outside current cutthroat lineage model","geometryStatus":"Named natural stream segment from statewide hydrography","note":"This named natural stream is included for statewide Colorado hydrography completeness and is outside the current cutthroat lineage assignment set.","source_segment_id":"co_named_stream_079815","water_id":"co_roan_creek_14010005_statewideContext_001","occurrence_id":"co_roan_creek_14010005_statewideContext_001","occurrence_number":"001","segment_count":106,"disambiguator":"Colorado Headwaters-Plateau · Statewide Colorado hydrography context · occurrence 001","basin":"Colorado Headwaters-Plateau","atlas_layer":"named_water_occurrence","object_role":"named_water_occurrence","historic_label":"Statewide Colorado hydrography context","current_label":"Statewide Colorado hydrography context","recovery_label":"Statewide Colorado hydrography context","tier":"tier1","minZoom":10,"confidence_public":"Statewide hydrography context outside current cutthroat lineage model","geometry_status_public":"Named natural stream occurrence from statewide hydrography","geometry_source_public":"Grouped public hydrography segments","trout_source_public":"Included for Colorado statewide hydrography completeness","public_notes":"Roan Creek is shown as statewide Colorado hydrography context outside the current cutthroat lineage assignment set."}},{"type":"Feature","geometry":{"type":"LineString","coordinates":[[-108.2171,39.3287],[-108.2161,39.3281]]},"properties":{"source_id":"co_named_stream_079819","name":"Roan Creek","display_name":"Roan Creek","mapped_name":"Roan Creek","source_name":"Roan Creek","state":"CO","atlas_class":"named_natural_stream","huc8":"14010005","huc8Name":"Colorado Headwaters-Plateau","huc8States":"CO,UT","lineageKey":"statewideContext","lineage":"statewideContext","historic":"statewideContext","current":"statewideContext","recovery":"statewideContext","lineageLabel":"Statewide Colorado hydrography context","lineageBasin":"","lineageNote":"","atlas_context":"statewide_hydrography_context","confidence":"Statewide hydrography context outside current cutthroat lineage model","geometryStatus":"Named natural stream segment from statewide hydrography","note":"This named natural stream is included for statewide Colorado hydrography completeness and is outside the current cutthroat lineage assignment set.","source_segment_id":"co_named_stream_079819","water_id":"co_roan_creek_14010005_statewideContext_001","occurrence_id":"co_roan_creek_14010005_statewideContext_001","occurrence_number":"001","segment_count":106,"disambiguator":"Colorado Headwaters-Plateau · Statewide Colorado hydrography context · occurrence 001","basin":"Colorado Headwaters-Plateau","atlas_layer":"named_water_occurrence","object_role":"named_water_occurrence","historic_label":"Statewide Colorado hydrography context","current_label":"Statewide Colorado hydrography context","recovery_label":"Statewide Colorado hydrography context","tier":"tier1","minZoom":10,"confidence_public":"Statewide hydrography context outside current cutthroat lineage model","geometry_status_public":"Named natural stream occurrence from statewide hydrography","geometry_source_public":"Grouped public hydrography segments","trout_source_public":"Included for Colorado statewide hydrography completeness","public_notes":"Roan Creek is shown as statewide Colorado hydrography context outside the current cutthroat lineage assignment set."}},{"type":"Feature","geometry":{"type":"LineString","coordinates":[[-108.2434,39.3545],[-108.2432,39.3542]]},"properties":{"source_id":"co_named_stream_079820","name":"Roan Creek","display_name":"Roan Creek","mapped_name":"Roan Creek","source_name":"Roan Creek","state":"CO","atlas_class":"named_natural_stream","huc8":"14010005","huc8Name":"Colorado Headwaters-Plateau","huc8States":"CO,UT","lineageKey":"statewideContext","lineage":"statewideContext","historic":"statewideContext","current":"statewideContext","recovery":"statewideContext","lineageLabel":"Statewide Colorado hydrography context","lineageBasin":"","lineageNote":"","atlas_context":"statewide_hydrography_context","confidence":"Statewide hydrography context outside current cutthroat lineage model","geometryStatus":"Named natural stream segment from statewide hydrography","note":"This named natural stream is included for statewide Colorado hydrography completeness and is outside the current cutthroat lineage assignment set.","source_segment_id":"co_named_stream_079820","water_id":"co_roan_creek_14010005_statewideContext_001","occurrence_id":"co_roan_creek_14010005_statewideContext_001","occurrence_number":"001","segment_count":106,"disambiguator":"Colorado Headwaters-Plateau · Statewide Colorado hydrography context · occurrence 001","basin":"Colorado Headwaters-Plateau","atlas_layer":"named_water_occurrence","object_role":"named_water_occurrence","historic_label":"Statewide Colorado hydrography context","current_label":"Statewide Colorado hydrography context","recovery_label":"Statewide Colorado hydrography context","tier":"tier1","minZoom":10,"confidence_public":"Statewide hydrography context outside current cutthroat lineage model","geometry_status_public":"Named natural stream occurrence from statewide hydrography","geometry_source_public":"Grouped public hydrography segments","trout_source_public":"Included for Colorado statewide hydrography completeness","public_notes":"Roan Creek is shown as statewide Colorado hydrography context outside the current cutthroat lineage assignment set."}},{"type":"Feature","geometry":{"type":"LineString","coordinates":[[-108.2336,39.3445],[-108.2276,39.339]]},"properties":{"source_id":"co_named_stream_079824","name":"Roan Creek","display_name":"Roan Creek","mapped_name":"Roan Creek","source_name":"Roan Creek","state":"CO","atlas_class":"named_natural_stream","huc8":"14010005","huc8Name":"Colorado Headwaters-Plateau","huc8States":"CO,UT","lineageKey":"statewideContext","lineage":"statewideContext","historic":"statewideContext","current":"statewideContext","recovery":"statewideContext","lineageLabel":"Statewide Colorado hydrography context","lineageBasin":"","lineageNote":"","atlas_context":"statewide_hydrography_context","confidence":"Statewide hydrography context outside current cutthroat lineage model","geometryStatus":"Named natural stream segment from statewide hydrography","note":"This named natural stream is included for statewide Colorado hydrography completeness and is outside the current cutthroat lineage assignment set.","source_segment_id":"co_named_stream_079824","water_id":"co_roan_creek_14010005_statewideContext_001","occurrence_id":"co_roan_creek_14010005_statewideContext_001","occurrence_number":"001","segment_count":106,"disambiguator":"Colorado Headwaters-Plateau · Statewide Colorado hydrography context · occurrence 001","basin":"Colorado Headwaters-Plateau","atlas_layer":"named_water_occurrence","object_role":"named_water_occurrence","historic_label":"Statewide Colorado hydrography context","current_label":"Statewide Colorado hydrography context","recovery_label":"Statewide Colorado hydrography context","tier":"tier1","minZoom":10,"confidence_public":"Statewide hydrography context outside current cutthroat lineage model","geometry_status_public":"Named natural stream occurrence from statewide hydrography","geometry_source_public":"Grouped public hydrography segments","trout_source_public":"Included for Colorado statewide hydrography completeness","public_notes":"Roan Creek is shown as statewide Colorado hydrography context outside the current cutthroat lineage assignment set."}},{"type":"Feature","geometry":{"type":"LineString","coordinates":[[-108.2276,39.339],[-108.229,39.3378],[-108.2269,39.3374],[-108.2272,39.3356],[-108.2252,39.3365],[-108.2259,39.3348],[-108.2241,39.3356],[-108.2235,39.3344],[-108.2225,39.3355],[-108.2221,39.3339],[-108.2198,39.3322],[-108.2178,39.3325],[-108.2181,39.3306],[-108.2171,39.3287]]},"properties":{"source_id":"co_named_stream_079826","name":"Roan Creek","display_name":"Roan Creek","mapped_name":"Roan Creek","source_name":"Roan Creek","state":"CO","atlas_class":"named_natural_stream","huc8":"14010005","huc8Name":"Colorado Headwaters-Plateau","huc8States":"CO,UT","lineageKey":"statewideContext","lineage":"statewideContext","historic":"statewideContext","current":"statewideContext","recovery":"statewideContext","lineageLabel":"Statewide Colorado hydrography context","lineageBasin":"","lineageNote":"","atlas_context":"statewide_hydrography_context","confidence":"Statewide hydrography context outside current cutthroat lineage model","geometryStatus":"Named natural stream segment from statewide hydrography","note":"This named natural stream is included for statewide Colorado hydrography completeness and is outside the current cutthroat lineage assignment set.","source_segment_id":"co_named_stream_079826","water_id":"co_roan_creek_14010005_statewideContext_001","occurrence_id":"co_roan_creek_14010005_statewideContext_001","occurrence_number":"001","segment_count":106,"disambiguator":"Colorado Headwaters-Plateau · Statewide Colorado hydrography context · occurrence 001","basin":"Colorado Headwaters-Plateau","atlas_layer":"named_water_occurrence","object_role":"named_water_occurrence","historic_label":"Statewide Colorado hydrography context","current_label":"Statewide Colorado hydrography context","recovery_label":"Statewide Colorado hydrography context","tier":"tier1","minZoom":10,"confidence_public":"Statewide hydrography context outside current cutthroat lineage model","geometry_status_public":"Named natural stream occurrence from statewide hydrography","geometry_source_public":"Grouped public hydrography segments","trout_source_public":"Included for Colorado statewide hydrography completeness","public_notes":"Roan Creek is shown as statewide Colorado hydrography context outside the current cutthroat lineage assignment set."}},{"type":"Feature","geometry":{"type":"LineString","coordinates":[[-108.2426,39.351],[-108.241,39.3508],[-108.2403,39.3494],[-108.2395,39.3508]]},"properties":{"source_id":"co_named_stream_079827","name":"Roan Creek","display_name":"Roan Creek","mapped_name":"Roan Creek","source_name":"Roan Creek","state":"CO","atlas_class":"named_natural_stream","huc8":"14010005","huc8Name":"Colorado Headwaters-Plateau","huc8States":"CO,UT","lineageKey":"statewideContext","lineage":"statewideContext","historic":"statewideContext","current":"statewideContext","recovery":"statewideContext","lineageLabel":"Statewide Colorado hydrography context","lineageBasin":"","lineageNote":"","atlas_context":"statewide_hydrography_context","confidence":"Statewide hydrography context outside current cutthroat lineage model","geometryStatus":"Named natural stream segment from statewide hydrography","note":"This named natural stream is included for statewide Colorado hydrography completeness and is outside the current cutthroat lineage assignment set.","source_segment_id":"co_named_stream_079827","water_id":"co_roan_creek_14010005_statewideContext_001","occurrence_id":"co_roan_creek_14010005_statewideContext_001","occurrence_number":"001","segment_count":106,"disambiguator":"Colorado Headwaters-Plateau · Statewide Colorado hydrography context · occurrence 001","basin":"Colorado Headwaters-Plateau","atlas_layer":"named_water_occurrence","object_role":"named_water_occurrence","historic_label":"Statewide Colorado hydrography context","current_label":"Statewide Colorado hydrography context","recovery_label":"Statewide Colorado hydrography context","tier":"tier1","minZoom":10,"confidence_public":"Statewide hydrography context outside current cutthroat lineage model","geometry_status_public":"Named natural stream occurrence from statewide hydrography","geometry_source_public":"Grouped public hydrography segments","trout_source_public":"Included for Colorado statewide hydrography completeness","public_notes":"Roan Creek is shown as statewide Colorado hydrography context outside the current cutthroat lineage assignment set."}}]}