{"type":"FeatureCollection","metadata":{"source":"C:\\ct-atlas-data\\processed\\geojson\\interpreted\\colorado_named_natural_streams_complete_v1.geojson","tier":"tier1","tile_size_degrees":0.25,"x":-432,"y":152,"bounds":{"west":-108,"south":38,"east":-107.75,"north":38.25}},"features":[{"type":"Feature","geometry":{"type":"LineString","coordinates":[[-107.761,38.2499],[-107.7612,38.25]]},"properties":{"source_id":"co_named_stream_096748","name":"Cow Creek","display_name":"Cow Creek","mapped_name":"Cow Creek","source_name":"Cow Creek","state":"CO","atlas_class":"named_natural_stream","huc8":"14020006","huc8Name":"Uncompahgre","huc8States":"CO","lineageKey":"coloradoRiver","lineage":"coloradoRiver","historic":"coloradoRiver","current":"coloradoRiver","recovery":"recoveryWatch","lineageLabel":"Colorado River green lineage","lineageBasin":"Uncompahgre","lineageNote":"Gunnison green-lineage context","atlas_context":"cutthroat_lineage_context","confidence":"Watershed-level lineage context; expert review recommended","geometryStatus":"Named natural stream segment from statewide hydrography","note":"This named natural stream falls within a HUC8 assigned to a cutthroat lineage context.","source_segment_id":"co_named_stream_096748","water_id":"co_cow_creek_14020006_coloradoRiver_001","occurrence_id":"co_cow_creek_14020006_coloradoRiver_001","occurrence_number":"001","segment_count":90,"disambiguator":"Uncompahgre · Colorado River green lineage · occurrence 001","basin":"Uncompahgre","atlas_layer":"named_water_occurrence","object_role":"named_water_occurrence","historic_label":"Colorado River green lineage","current_label":"Colorado River green lineage","recovery_label":"Recovery watch / review area","tier":"tier1","minZoom":10,"confidence_public":"Watershed-level lineage context; expert review recommended","geometry_status_public":"Named natural stream occurrence from statewide hydrography","geometry_source_public":"Grouped public hydrography segments","trout_source_public":"Compiled public recovery and lineage context; expert review recommended","public_notes":"Cow Creek is shown as a named-water occurrence within watershed-level cutthroat lineage context. This is not a precise biological boundary."}},{"type":"Feature","geometry":{"type":"LineString","coordinates":[[-107.745,38.2434],[-107.7489,38.2447],[-107.7508,38.2442],[-107.7521,38.2456],[-107.7555,38.2453],[-107.761,38.2499]]},"properties":{"source_id":"co_named_stream_096752","name":"Cow Creek","display_name":"Cow Creek","mapped_name":"Cow Creek","source_name":"Cow Creek","state":"CO","atlas_class":"named_natural_stream","huc8":"14020006","huc8Name":"Uncompahgre","huc8States":"CO","lineageKey":"coloradoRiver","lineage":"coloradoRiver","historic":"coloradoRiver","current":"coloradoRiver","recovery":"recoveryWatch","lineageLabel":"Colorado River green lineage","lineageBasin":"Uncompahgre","lineageNote":"Gunnison green-lineage context","atlas_context":"cutthroat_lineage_context","confidence":"Watershed-level lineage context; expert review recommended","geometryStatus":"Named natural stream segment from statewide hydrography","note":"This named natural stream falls within a HUC8 assigned to a cutthroat lineage context.","source_segment_id":"co_named_stream_096752","water_id":"co_cow_creek_14020006_coloradoRiver_001","occurrence_id":"co_cow_creek_14020006_coloradoRiver_001","occurrence_number":"001","segment_count":90,"disambiguator":"Uncompahgre · Colorado River green lineage · occurrence 001","basin":"Uncompahgre","atlas_layer":"named_water_occurrence","object_role":"named_water_occurrence","historic_label":"Colorado River green lineage","current_label":"Colorado River green lineage","recovery_label":"Recovery watch / review area","tier":"tier1","minZoom":10,"confidence_public":"Watershed-level lineage context; expert review recommended","geometry_status_public":"Named natural stream occurrence from statewide hydrography","geometry_source_public":"Grouped public hydrography segments","trout_source_public":"Compiled public recovery and lineage context; expert review recommended","public_notes":"Cow Creek is shown as a named-water occurrence within watershed-level cutthroat lineage context. This is not a precise biological boundary."}}]}