{"type":"FeatureCollection","metadata":{"source":"C:\\ct-atlas-data\\processed\\geojson\\interpreted\\colorado_named_natural_streams_complete_v1.geojson","tier":"tier1","tile_size_degrees":0.25,"x":-424,"y":153,"bounds":{"west":-106,"south":38.25,"east":-105.75,"north":38.5}},"features":[{"type":"Feature","geometry":{"type":"LineString","coordinates":[[-105.8592,38.4824],[-105.8592,38.4822]]},"properties":{"source_id":"co_named_stream_032995","name":"Badger Creek","display_name":"Badger Creek","mapped_name":"Badger Creek","source_name":"Badger Creek","state":"CO","atlas_class":"named_natural_stream","huc8":"11020001","huc8Name":"Arkansas Headwaters","huc8States":"CO","lineageKey":"yellowfin","lineage":"yellowfin","historic":"yellowfin","current":"yellowfin","recovery":"recoveryWatch","lineageLabel":"Yellowfin / Arkansas headwaters historical form","lineageBasin":"Arkansas Headwaters","lineageNote":"Atlas model treats Arkansas watershed as Yellowfin historical context","atlas_context":"cutthroat_lineage_context","confidence":"Watershed-level lineage context; expert review recommended","geometryStatus":"Named natural stream segment from statewide hydrography","note":"This named natural stream falls within a HUC8 assigned to a cutthroat lineage context.","source_segment_id":"co_named_stream_032995","water_id":"co_badger_creek_11020001_yellowfin_001","occurrence_id":"co_badger_creek_11020001_yellowfin_001","occurrence_number":"001","segment_count":237,"disambiguator":"Arkansas Headwaters · Yellowfin / Arkansas headwaters historical form · occurrence 001","basin":"Arkansas Headwaters","atlas_layer":"named_water_occurrence","object_role":"named_water_occurrence","historic_label":"Yellowfin / Arkansas headwaters historical form","current_label":"Yellowfin / Arkansas headwaters historical form","recovery_label":"Recovery watch / review area","tier":"tier1","minZoom":10,"confidence_public":"Watershed-level lineage context; expert review recommended","geometry_status_public":"Named natural stream occurrence from statewide hydrography","geometry_source_public":"Grouped public hydrography segments","trout_source_public":"Compiled public recovery and lineage context; expert review recommended","public_notes":"Badger Creek is shown as a named-water occurrence within watershed-level cutthroat lineage context. This is not a precise biological boundary."}},{"type":"Feature","geometry":{"type":"LineString","coordinates":[[-105.859,38.4809],[-105.8595,38.4793]]},"properties":{"source_id":"co_named_stream_032998","name":"Badger Creek","display_name":"Badger Creek","mapped_name":"Badger Creek","source_name":"Badger Creek","state":"CO","atlas_class":"named_natural_stream","huc8":"11020001","huc8Name":"Arkansas Headwaters","huc8States":"CO","lineageKey":"yellowfin","lineage":"yellowfin","historic":"yellowfin","current":"yellowfin","recovery":"recoveryWatch","lineageLabel":"Yellowfin / Arkansas headwaters historical form","lineageBasin":"Arkansas Headwaters","lineageNote":"Atlas model treats Arkansas watershed as Yellowfin historical context","atlas_context":"cutthroat_lineage_context","confidence":"Watershed-level lineage context; expert review recommended","geometryStatus":"Named natural stream segment from statewide hydrography","note":"This named natural stream falls within a HUC8 assigned to a cutthroat lineage context.","source_segment_id":"co_named_stream_032998","water_id":"co_badger_creek_11020001_yellowfin_001","occurrence_id":"co_badger_creek_11020001_yellowfin_001","occurrence_number":"001","segment_count":237,"disambiguator":"Arkansas Headwaters · Yellowfin / Arkansas headwaters historical form · occurrence 001","basin":"Arkansas Headwaters","atlas_layer":"named_water_occurrence","object_role":"named_water_occurrence","historic_label":"Yellowfin / Arkansas headwaters historical form","current_label":"Yellowfin / Arkansas headwaters historical form","recovery_label":"Recovery watch / review area","tier":"tier1","minZoom":10,"confidence_public":"Watershed-level lineage context; expert review recommended","geometry_status_public":"Named natural stream occurrence from statewide hydrography","geometry_source_public":"Grouped public hydrography segments","trout_source_public":"Compiled public recovery and lineage context; expert review recommended","public_notes":"Badger Creek is shown as a named-water occurrence within watershed-level cutthroat lineage context. This is not a precise biological boundary."}},{"type":"Feature","geometry":{"type":"LineString","coordinates":[[-105.8587,38.4968],[-105.8589,38.4947]]},"properties":{"source_id":"co_named_stream_037145","name":"Badger Creek","display_name":"Badger Creek","mapped_name":"Badger Creek","source_name":"Badger Creek","state":"CO","atlas_class":"named_natural_stream","huc8":"11020001","huc8Name":"Arkansas Headwaters","huc8States":"CO","lineageKey":"yellowfin","lineage":"yellowfin","historic":"yellowfin","current":"yellowfin","recovery":"recoveryWatch","lineageLabel":"Yellowfin / Arkansas headwaters historical form","lineageBasin":"Arkansas Headwaters","lineageNote":"Atlas model treats Arkansas watershed as Yellowfin historical context","atlas_context":"cutthroat_lineage_context","confidence":"Watershed-level lineage context; expert review recommended","geometryStatus":"Named natural stream segment from statewide hydrography","note":"This named natural stream falls within a HUC8 assigned to a cutthroat lineage context.","source_segment_id":"co_named_stream_037145","water_id":"co_badger_creek_11020001_yellowfin_001","occurrence_id":"co_badger_creek_11020001_yellowfin_001","occurrence_number":"001","segment_count":237,"disambiguator":"Arkansas Headwaters · Yellowfin / Arkansas headwaters historical form · occurrence 001","basin":"Arkansas Headwaters","atlas_layer":"named_water_occurrence","object_role":"named_water_occurrence","historic_label":"Yellowfin / Arkansas headwaters historical form","current_label":"Yellowfin / Arkansas headwaters historical form","recovery_label":"Recovery watch / review area","tier":"tier1","minZoom":10,"confidence_public":"Watershed-level lineage context; expert review recommended","geometry_status_public":"Named natural stream occurrence from statewide hydrography","geometry_source_public":"Grouped public hydrography segments","trout_source_public":"Compiled public recovery and lineage context; expert review recommended","public_notes":"Badger Creek is shown as a named-water occurrence within watershed-level cutthroat lineage context. This is not a precise biological boundary."}},{"type":"Feature","geometry":{"type":"LineString","coordinates":[[-105.8577,38.4928],[-105.8588,38.489]]},"properties":{"source_id":"co_named_stream_044343","name":"Badger Creek","display_name":"Badger Creek","mapped_name":"Badger Creek","source_name":"Badger Creek","state":"CO","atlas_class":"named_natural_stream","huc8":"11020001","huc8Name":"Arkansas Headwaters","huc8States":"CO","lineageKey":"yellowfin","lineage":"yellowfin","historic":"yellowfin","current":"yellowfin","recovery":"recoveryWatch","lineageLabel":"Yellowfin / Arkansas headwaters historical form","lineageBasin":"Arkansas Headwaters","lineageNote":"Atlas model treats Arkansas watershed as Yellowfin historical context","atlas_context":"cutthroat_lineage_context","confidence":"Watershed-level lineage context; expert review recommended","geometryStatus":"Named natural stream segment from statewide hydrography","note":"This named natural stream falls within a HUC8 assigned to a cutthroat lineage context.","source_segment_id":"co_named_stream_044343","water_id":"co_badger_creek_11020001_yellowfin_001","occurrence_id":"co_badger_creek_11020001_yellowfin_001","occurrence_number":"001","segment_count":237,"disambiguator":"Arkansas Headwaters · Yellowfin / Arkansas headwaters historical form · occurrence 001","basin":"Arkansas Headwaters","atlas_layer":"named_water_occurrence","object_role":"named_water_occurrence","historic_label":"Yellowfin / Arkansas headwaters historical form","current_label":"Yellowfin / Arkansas headwaters historical form","recovery_label":"Recovery watch / review area","tier":"tier1","minZoom":10,"confidence_public":"Watershed-level lineage context; expert review recommended","geometry_status_public":"Named natural stream occurrence from statewide hydrography","geometry_source_public":"Grouped public hydrography segments","trout_source_public":"Compiled public recovery and lineage context; expert review recommended","public_notes":"Badger Creek is shown as a named-water occurrence within watershed-level cutthroat lineage context. This is not a precise biological boundary."}},{"type":"Feature","geometry":{"type":"LineString","coordinates":[[-105.8589,38.4744],[-105.8595,38.4692],[-105.8614,38.4653]]},"properties":{"source_id":"co_named_stream_045166","name":"Badger Creek","display_name":"Badger Creek","mapped_name":"Badger Creek","source_name":"Badger Creek","state":"CO","atlas_class":"named_natural_stream","huc8":"11020001","huc8Name":"Arkansas Headwaters","huc8States":"CO","lineageKey":"yellowfin","lineage":"yellowfin","historic":"yellowfin","current":"yellowfin","recovery":"recoveryWatch","lineageLabel":"Yellowfin / Arkansas headwaters historical form","lineageBasin":"Arkansas Headwaters","lineageNote":"Atlas model treats Arkansas watershed as Yellowfin historical context","atlas_context":"cutthroat_lineage_context","confidence":"Watershed-level lineage context; expert review recommended","geometryStatus":"Named natural stream segment from statewide hydrography","note":"This named natural stream falls within a HUC8 assigned to a cutthroat lineage context.","source_segment_id":"co_named_stream_045166","water_id":"co_badger_creek_11020001_yellowfin_001","occurrence_id":"co_badger_creek_11020001_yellowfin_001","occurrence_number":"001","segment_count":237,"disambiguator":"Arkansas Headwaters · Yellowfin / Arkansas headwaters historical form · occurrence 001","basin":"Arkansas Headwaters","atlas_layer":"named_water_occurrence","object_role":"named_water_occurrence","historic_label":"Yellowfin / Arkansas headwaters historical form","current_label":"Yellowfin / Arkansas headwaters historical form","recovery_label":"Recovery watch / review area","tier":"tier1","minZoom":10,"confidence_public":"Watershed-level lineage context; expert review recommended","geometry_status_public":"Named natural stream occurrence from statewide hydrography","geometry_source_public":"Grouped public hydrography segments","trout_source_public":"Compiled public recovery and lineage context; expert review recommended","public_notes":"Badger Creek is shown as a named-water occurrence within watershed-level cutthroat lineage context. This is not a precise biological boundary."}},{"type":"Feature","geometry":{"type":"LineString","coordinates":[[-105.8589,38.4871],[-105.8592,38.484]]},"properties":{"source_id":"co_named_stream_048073","name":"Badger Creek","display_name":"Badger Creek","mapped_name":"Badger Creek","source_name":"Badger Creek","state":"CO","atlas_class":"named_natural_stream","huc8":"11020001","huc8Name":"Arkansas Headwaters","huc8States":"CO","lineageKey":"yellowfin","lineage":"yellowfin","historic":"yellowfin","current":"yellowfin","recovery":"recoveryWatch","lineageLabel":"Yellowfin / Arkansas headwaters historical form","lineageBasin":"Arkansas Headwaters","lineageNote":"Atlas model treats Arkansas watershed as Yellowfin historical context","atlas_context":"cutthroat_lineage_context","confidence":"Watershed-level lineage context; expert review recommended","geometryStatus":"Named natural stream segment from statewide hydrography","note":"This named natural stream falls within a HUC8 assigned to a cutthroat lineage context.","source_segment_id":"co_named_stream_048073","water_id":"co_badger_creek_11020001_yellowfin_001","occurrence_id":"co_badger_creek_11020001_yellowfin_001","occurrence_number":"001","segment_count":237,"disambiguator":"Arkansas Headwaters · Yellowfin / Arkansas headwaters historical form · occurrence 001","basin":"Arkansas Headwaters","atlas_layer":"named_water_occurrence","object_role":"named_water_occurrence","historic_label":"Yellowfin / Arkansas headwaters historical form","current_label":"Yellowfin / Arkansas headwaters historical form","recovery_label":"Recovery watch / review area","tier":"tier1","minZoom":10,"confidence_public":"Watershed-level lineage context; expert review recommended","geometry_status_public":"Named natural stream occurrence from statewide hydrography","geometry_source_public":"Grouped public hydrography segments","trout_source_public":"Compiled public recovery and lineage context; expert review recommended","public_notes":"Badger Creek is shown as a named-water occurrence within watershed-level cutthroat lineage context. This is not a precise biological boundary."}},{"type":"Feature","geometry":{"type":"LineString","coordinates":[[-105.8595,38.4793],[-105.8597,38.4768]]},"properties":{"source_id":"co_named_stream_048192","name":"Badger Creek","display_name":"Badger Creek","mapped_name":"Badger Creek","source_name":"Badger Creek","state":"CO","atlas_class":"named_natural_stream","huc8":"11020001","huc8Name":"Arkansas Headwaters","huc8States":"CO","lineageKey":"yellowfin","lineage":"yellowfin","historic":"yellowfin","current":"yellowfin","recovery":"recoveryWatch","lineageLabel":"Yellowfin / Arkansas headwaters historical form","lineageBasin":"Arkansas Headwaters","lineageNote":"Atlas model treats Arkansas watershed as Yellowfin historical context","atlas_context":"cutthroat_lineage_context","confidence":"Watershed-level lineage context; expert review recommended","geometryStatus":"Named natural stream segment from statewide hydrography","note":"This named natural stream falls within a HUC8 assigned to a cutthroat lineage context.","source_segment_id":"co_named_stream_048192","water_id":"co_badger_creek_11020001_yellowfin_001","occurrence_id":"co_badger_creek_11020001_yellowfin_001","occurrence_number":"001","segment_count":237,"disambiguator":"Arkansas Headwaters · Yellowfin / Arkansas headwaters historical form · occurrence 001","basin":"Arkansas Headwaters","atlas_layer":"named_water_occurrence","object_role":"named_water_occurrence","historic_label":"Yellowfin / Arkansas headwaters historical form","current_label":"Yellowfin / Arkansas headwaters historical form","recovery_label":"Recovery watch / review area","tier":"tier1","minZoom":10,"confidence_public":"Watershed-level lineage context; expert review recommended","geometry_status_public":"Named natural stream occurrence from statewide hydrography","geometry_source_public":"Grouped public hydrography segments","trout_source_public":"Compiled public recovery and lineage context; expert review recommended","public_notes":"Badger Creek is shown as a named-water occurrence within watershed-level cutthroat lineage context. This is not a precise biological boundary."}},{"type":"Feature","geometry":{"type":"LineString","coordinates":[[-105.8592,38.4822],[-105.859,38.4809]]},"properties":{"source_id":"co_named_stream_048338","name":"Badger Creek","display_name":"Badger Creek","mapped_name":"Badger Creek","source_name":"Badger Creek","state":"CO","atlas_class":"named_natural_stream","huc8":"11020001","huc8Name":"Arkansas Headwaters","huc8States":"CO","lineageKey":"yellowfin","lineage":"yellowfin","historic":"yellowfin","current":"yellowfin","recovery":"recoveryWatch","lineageLabel":"Yellowfin / Arkansas headwaters historical form","lineageBasin":"Arkansas Headwaters","lineageNote":"Atlas model treats Arkansas watershed as Yellowfin historical context","atlas_context":"cutthroat_lineage_context","confidence":"Watershed-level lineage context; expert review recommended","geometryStatus":"Named natural stream segment from statewide hydrography","note":"This named natural stream falls within a HUC8 assigned to a cutthroat lineage context.","source_segment_id":"co_named_stream_048338","water_id":"co_badger_creek_11020001_yellowfin_001","occurrence_id":"co_badger_creek_11020001_yellowfin_001","occurrence_number":"001","segment_count":237,"disambiguator":"Arkansas Headwaters · Yellowfin / Arkansas headwaters historical form · occurrence 001","basin":"Arkansas Headwaters","atlas_layer":"named_water_occurrence","object_role":"named_water_occurrence","historic_label":"Yellowfin / Arkansas headwaters historical form","current_label":"Yellowfin / Arkansas headwaters historical form","recovery_label":"Recovery watch / review area","tier":"tier1","minZoom":10,"confidence_public":"Watershed-level lineage context; expert review recommended","geometry_status_public":"Named natural stream occurrence from statewide hydrography","geometry_source_public":"Grouped public hydrography segments","trout_source_public":"Compiled public recovery and lineage context; expert review recommended","public_notes":"Badger Creek is shown as a named-water occurrence within watershed-level cutthroat lineage context. This is not a precise biological boundary."}},{"type":"Feature","geometry":{"type":"LineString","coordinates":[[-105.8589,38.4947],[-105.8587,38.4942]]},"properties":{"source_id":"co_named_stream_048393","name":"Badger Creek","display_name":"Badger Creek","mapped_name":"Badger Creek","source_name":"Badger Creek","state":"CO","atlas_class":"named_natural_stream","huc8":"11020001","huc8Name":"Arkansas Headwaters","huc8States":"CO","lineageKey":"yellowfin","lineage":"yellowfin","historic":"yellowfin","current":"yellowfin","recovery":"recoveryWatch","lineageLabel":"Yellowfin / Arkansas headwaters historical form","lineageBasin":"Arkansas Headwaters","lineageNote":"Atlas model treats Arkansas watershed as Yellowfin historical context","atlas_context":"cutthroat_lineage_context","confidence":"Watershed-level lineage context; expert review recommended","geometryStatus":"Named natural stream segment from statewide hydrography","note":"This named natural stream falls within a HUC8 assigned to a cutthroat lineage context.","source_segment_id":"co_named_stream_048393","water_id":"co_badger_creek_11020001_yellowfin_001","occurrence_id":"co_badger_creek_11020001_yellowfin_001","occurrence_number":"001","segment_count":237,"disambiguator":"Arkansas Headwaters · Yellowfin / Arkansas headwaters historical form · occurrence 001","basin":"Arkansas Headwaters","atlas_layer":"named_water_occurrence","object_role":"named_water_occurrence","historic_label":"Yellowfin / Arkansas headwaters historical form","current_label":"Yellowfin / Arkansas headwaters historical form","recovery_label":"Recovery watch / review area","tier":"tier1","minZoom":10,"confidence_public":"Watershed-level lineage context; expert review recommended","geometry_status_public":"Named natural stream occurrence from statewide hydrography","geometry_source_public":"Grouped public hydrography segments","trout_source_public":"Compiled public recovery and lineage context; expert review recommended","public_notes":"Badger Creek is shown as a named-water occurrence within watershed-level cutthroat lineage context. This is not a precise biological boundary."}},{"type":"Feature","geometry":{"type":"LineString","coordinates":[[-105.8581,38.5001],[-105.8592,38.4991]]},"properties":{"source_id":"co_named_stream_048508","name":"Badger Creek","display_name":"Badger Creek","mapped_name":"Badger Creek","source_name":"Badger Creek","state":"CO","atlas_class":"named_natural_stream","huc8":"11020001","huc8Name":"Arkansas Headwaters","huc8States":"CO","lineageKey":"yellowfin","lineage":"yellowfin","historic":"yellowfin","current":"yellowfin","recovery":"recoveryWatch","lineageLabel":"Yellowfin / Arkansas headwaters historical form","lineageBasin":"Arkansas Headwaters","lineageNote":"Atlas model treats Arkansas watershed as Yellowfin historical context","atlas_context":"cutthroat_lineage_context","confidence":"Watershed-level lineage context; expert review recommended","geometryStatus":"Named natural stream segment from statewide hydrography","note":"This named natural stream falls within a HUC8 assigned to a cutthroat lineage context.","source_segment_id":"co_named_stream_048508","water_id":"co_badger_creek_11020001_yellowfin_001","occurrence_id":"co_badger_creek_11020001_yellowfin_001","occurrence_number":"001","segment_count":237,"disambiguator":"Arkansas Headwaters · Yellowfin / Arkansas headwaters historical form · occurrence 001","basin":"Arkansas Headwaters","atlas_layer":"named_water_occurrence","object_role":"named_water_occurrence","historic_label":"Yellowfin / Arkansas headwaters historical form","current_label":"Yellowfin / Arkansas headwaters historical form","recovery_label":"Recovery watch / review area","tier":"tier1","minZoom":10,"confidence_public":"Watershed-level lineage context; expert review recommended","geometry_status_public":"Named natural stream occurrence from statewide hydrography","geometry_source_public":"Grouped public hydrography segments","trout_source_public":"Compiled public recovery and lineage context; expert review recommended","public_notes":"Badger Creek is shown as a named-water occurrence within watershed-level cutthroat lineage context. This is not a precise biological boundary."}},{"type":"Feature","geometry":{"type":"LineString","coordinates":[[-105.8588,38.489],[-105.8589,38.4871]]},"properties":{"source_id":"co_named_stream_049360","name":"Badger Creek","display_name":"Badger Creek","mapped_name":"Badger Creek","source_name":"Badger Creek","state":"CO","atlas_class":"named_natural_stream","huc8":"11020001","huc8Name":"Arkansas Headwaters","huc8States":"CO","lineageKey":"yellowfin","lineage":"yellowfin","historic":"yellowfin","current":"yellowfin","recovery":"recoveryWatch","lineageLabel":"Yellowfin / Arkansas headwaters historical form","lineageBasin":"Arkansas Headwaters","lineageNote":"Atlas model treats Arkansas watershed as Yellowfin historical context","atlas_context":"cutthroat_lineage_context","confidence":"Watershed-level lineage context; expert review recommended","geometryStatus":"Named natural stream segment from statewide hydrography","note":"This named natural stream falls within a HUC8 assigned to a cutthroat lineage context.","source_segment_id":"co_named_stream_049360","water_id":"co_badger_creek_11020001_yellowfin_001","occurrence_id":"co_badger_creek_11020001_yellowfin_001","occurrence_number":"001","segment_count":237,"disambiguator":"Arkansas Headwaters · Yellowfin / Arkansas headwaters historical form · occurrence 001","basin":"Arkansas Headwaters","atlas_layer":"named_water_occurrence","object_role":"named_water_occurrence","historic_label":"Yellowfin / Arkansas headwaters historical form","current_label":"Yellowfin / Arkansas headwaters historical form","recovery_label":"Recovery watch / review area","tier":"tier1","minZoom":10,"confidence_public":"Watershed-level lineage context; expert review recommended","geometry_status_public":"Named natural stream occurrence from statewide hydrography","geometry_source_public":"Grouped public hydrography segments","trout_source_public":"Compiled public recovery and lineage context; expert review recommended","public_notes":"Badger Creek is shown as a named-water occurrence within watershed-level cutthroat lineage context. This is not a precise biological boundary."}},{"type":"Feature","geometry":{"type":"LineString","coordinates":[[-105.8589,38.4976],[-105.8587,38.4968]]},"properties":{"source_id":"co_named_stream_049361","name":"Badger Creek","display_name":"Badger Creek","mapped_name":"Badger Creek","source_name":"Badger Creek","state":"CO","atlas_class":"named_natural_stream","huc8":"11020001","huc8Name":"Arkansas Headwaters","huc8States":"CO","lineageKey":"yellowfin","lineage":"yellowfin","historic":"yellowfin","current":"yellowfin","recovery":"recoveryWatch","lineageLabel":"Yellowfin / Arkansas headwaters historical form","lineageBasin":"Arkansas Headwaters","lineageNote":"Atlas model treats Arkansas watershed as Yellowfin historical context","atlas_context":"cutthroat_lineage_context","confidence":"Watershed-level lineage context; expert review recommended","geometryStatus":"Named natural stream segment from statewide hydrography","note":"This named natural stream falls within a HUC8 assigned to a cutthroat lineage context.","source_segment_id":"co_named_stream_049361","water_id":"co_badger_creek_11020001_yellowfin_001","occurrence_id":"co_badger_creek_11020001_yellowfin_001","occurrence_number":"001","segment_count":237,"disambiguator":"Arkansas Headwaters · Yellowfin / Arkansas headwaters historical form · occurrence 001","basin":"Arkansas Headwaters","atlas_layer":"named_water_occurrence","object_role":"named_water_occurrence","historic_label":"Yellowfin / Arkansas headwaters historical form","current_label":"Yellowfin / Arkansas headwaters historical form","recovery_label":"Recovery watch / review area","tier":"tier1","minZoom":10,"confidence_public":"Watershed-level lineage context; expert review recommended","geometry_status_public":"Named natural stream occurrence from statewide hydrography","geometry_source_public":"Grouped public hydrography segments","trout_source_public":"Compiled public recovery and lineage context; expert review recommended","public_notes":"Badger Creek is shown as a named-water occurrence within watershed-level cutthroat lineage context. This is not a precise biological boundary."}},{"type":"Feature","geometry":{"type":"LineString","coordinates":[[-105.8587,38.4942],[-105.8584,38.4938]]},"properties":{"source_id":"co_named_stream_049362","name":"Badger Creek","display_name":"Badger Creek","mapped_name":"Badger Creek","source_name":"Badger Creek","state":"CO","atlas_class":"named_natural_stream","huc8":"11020001","huc8Name":"Arkansas Headwaters","huc8States":"CO","lineageKey":"yellowfin","lineage":"yellowfin","historic":"yellowfin","current":"yellowfin","recovery":"recoveryWatch","lineageLabel":"Yellowfin / Arkansas headwaters historical form","lineageBasin":"Arkansas Headwaters","lineageNote":"Atlas model treats Arkansas watershed as Yellowfin historical context","atlas_context":"cutthroat_lineage_context","confidence":"Watershed-level lineage context; expert review recommended","geometryStatus":"Named natural stream segment from statewide hydrography","note":"This named natural stream falls within a HUC8 assigned to a cutthroat lineage context.","source_segment_id":"co_named_stream_049362","water_id":"co_badger_creek_11020001_yellowfin_001","occurrence_id":"co_badger_creek_11020001_yellowfin_001","occurrence_number":"001","segment_count":237,"disambiguator":"Arkansas Headwaters · Yellowfin / Arkansas headwaters historical form · occurrence 001","basin":"Arkansas Headwaters","atlas_layer":"named_water_occurrence","object_role":"named_water_occurrence","historic_label":"Yellowfin / Arkansas headwaters historical form","current_label":"Yellowfin / Arkansas headwaters historical form","recovery_label":"Recovery watch / review area","tier":"tier1","minZoom":10,"confidence_public":"Watershed-level lineage context; expert review recommended","geometry_status_public":"Named natural stream occurrence from statewide hydrography","geometry_source_public":"Grouped public hydrography segments","trout_source_public":"Compiled public recovery and lineage context; expert review recommended","public_notes":"Badger Creek is shown as a named-water occurrence within watershed-level cutthroat lineage context. This is not a precise biological boundary."}},{"type":"Feature","geometry":{"type":"LineString","coordinates":[[-105.9791,38.3037],[-105.9788,38.3027]]},"properties":{"source_id":"co_named_stream_054825","name":"San Luis Creek","display_name":"San Luis Creek","mapped_name":"San Luis Creek","source_name":"San Luis Creek","state":"CO","atlas_class":"named_natural_stream","huc8":"13010003","huc8Name":"San Luis","huc8States":"CO","lineageKey":"rioGrande","lineage":"rioGrande","historic":"rioGrande","current":"rioGrande","recovery":"recoveryWatch","lineageLabel":"Rio Grande lineage","lineageBasin":"San Luis","lineageNote":"Generalized Rio Grande cutthroat drainage context","atlas_context":"cutthroat_lineage_context","confidence":"Watershed-level lineage context; expert review recommended","geometryStatus":"Named natural stream segment from statewide hydrography","note":"This named natural stream falls within a HUC8 assigned to a cutthroat lineage context.","source_segment_id":"co_named_stream_054825","water_id":"co_san_luis_creek_13010003_rioGrande_001","occurrence_id":"co_san_luis_creek_13010003_rioGrande_001","occurrence_number":"001","segment_count":91,"disambiguator":"San Luis · Rio Grande lineage · occurrence 001","basin":"San Luis","atlas_layer":"named_water_occurrence","object_role":"named_water_occurrence","historic_label":"Rio Grande lineage","current_label":"Rio Grande lineage","recovery_label":"Recovery watch / review area","tier":"tier1","minZoom":10,"confidence_public":"Watershed-level lineage context; expert review recommended","geometry_status_public":"Named natural stream occurrence from statewide hydrography","geometry_source_public":"Grouped public hydrography segments","trout_source_public":"Compiled public recovery and lineage context; expert review recommended","public_notes":"San Luis Creek is shown as a named-water occurrence within watershed-level cutthroat lineage context. This is not a precise biological boundary."}},{"type":"Feature","geometry":{"type":"LineString","coordinates":[[-105.9668,38.2932],[-105.9646,38.2905],[-105.9617,38.2887]]},"properties":{"source_id":"co_named_stream_055180","name":"San Luis Creek","display_name":"San Luis Creek","mapped_name":"San Luis Creek","source_name":"San Luis Creek","state":"CO","atlas_class":"named_natural_stream","huc8":"13010003","huc8Name":"San Luis","huc8States":"CO","lineageKey":"rioGrande","lineage":"rioGrande","historic":"rioGrande","current":"rioGrande","recovery":"recoveryWatch","lineageLabel":"Rio Grande lineage","lineageBasin":"San Luis","lineageNote":"Generalized Rio Grande cutthroat drainage context","atlas_context":"cutthroat_lineage_context","confidence":"Watershed-level lineage context; expert review recommended","geometryStatus":"Named natural stream segment from statewide hydrography","note":"This named natural stream falls within a HUC8 assigned to a cutthroat lineage context.","source_segment_id":"co_named_stream_055180","water_id":"co_san_luis_creek_13010003_rioGrande_001","occurrence_id":"co_san_luis_creek_13010003_rioGrande_001","occurrence_number":"001","segment_count":91,"disambiguator":"San Luis · Rio Grande lineage · occurrence 001","basin":"San Luis","atlas_layer":"named_water_occurrence","object_role":"named_water_occurrence","historic_label":"Rio Grande lineage","current_label":"Rio Grande lineage","recovery_label":"Recovery watch / review area","tier":"tier1","minZoom":10,"confidence_public":"Watershed-level lineage context; expert review recommended","geometry_status_public":"Named natural stream occurrence from statewide hydrography","geometry_source_public":"Grouped public hydrography segments","trout_source_public":"Compiled public recovery and lineage context; expert review recommended","public_notes":"San Luis Creek is shown as a named-water occurrence within watershed-level cutthroat lineage context. This is not a precise biological boundary."}},{"type":"Feature","geometry":{"type":"LineString","coordinates":[[-105.9511,38.2688],[-105.9498,38.2676],[-105.9485,38.2677]]},"properties":{"source_id":"co_named_stream_055387","name":"San Luis Creek","display_name":"San Luis Creek","mapped_name":"San Luis Creek","source_name":"San Luis Creek","state":"CO","atlas_class":"named_natural_stream","huc8":"13010003","huc8Name":"San Luis","huc8States":"CO","lineageKey":"rioGrande","lineage":"rioGrande","historic":"rioGrande","current":"rioGrande","recovery":"recoveryWatch","lineageLabel":"Rio Grande lineage","lineageBasin":"San Luis","lineageNote":"Generalized Rio Grande cutthroat drainage context","atlas_context":"cutthroat_lineage_context","confidence":"Watershed-level lineage context; expert review recommended","geometryStatus":"Named natural stream segment from statewide hydrography","note":"This named natural stream falls within a HUC8 assigned to a cutthroat lineage context.","source_segment_id":"co_named_stream_055387","water_id":"co_san_luis_creek_13010003_rioGrande_001","occurrence_id":"co_san_luis_creek_13010003_rioGrande_001","occurrence_number":"001","segment_count":91,"disambiguator":"San Luis · Rio Grande lineage · occurrence 001","basin":"San Luis","atlas_layer":"named_water_occurrence","object_role":"named_water_occurrence","historic_label":"Rio Grande lineage","current_label":"Rio Grande lineage","recovery_label":"Recovery watch / review area","tier":"tier1","minZoom":10,"confidence_public":"Watershed-level lineage context; expert review recommended","geometry_status_public":"Named natural stream occurrence from statewide hydrography","geometry_source_public":"Grouped public hydrography segments","trout_source_public":"Compiled public recovery and lineage context; expert review recommended","public_notes":"San Luis Creek is shown as a named-water occurrence within watershed-level cutthroat lineage context. This is not a precise biological boundary."}},{"type":"Feature","geometry":{"type":"LineString","coordinates":[[-105.9182,38.2586],[-105.9179,38.2574],[-105.917,38.2578],[-105.9149,38.2569]]},"properties":{"source_id":"co_named_stream_055636","name":"San Luis Creek","display_name":"San Luis Creek","mapped_name":"San Luis Creek","source_name":"San Luis Creek","state":"CO","atlas_class":"named_natural_stream","huc8":"13010003","huc8Name":"San Luis","huc8States":"CO","lineageKey":"rioGrande","lineage":"rioGrande","historic":"rioGrande","current":"rioGrande","recovery":"recoveryWatch","lineageLabel":"Rio Grande lineage","lineageBasin":"San Luis","lineageNote":"Generalized Rio Grande cutthroat drainage context","atlas_context":"cutthroat_lineage_context","confidence":"Watershed-level lineage context; expert review recommended","geometryStatus":"Named natural stream segment from statewide hydrography","note":"This named natural stream falls within a HUC8 assigned to a cutthroat lineage context.","source_segment_id":"co_named_stream_055636","water_id":"co_san_luis_creek_13010003_rioGrande_001","occurrence_id":"co_san_luis_creek_13010003_rioGrande_001","occurrence_number":"001","segment_count":91,"disambiguator":"San Luis · Rio Grande lineage · occurrence 001","basin":"San Luis","atlas_layer":"named_water_occurrence","object_role":"named_water_occurrence","historic_label":"Rio Grande lineage","current_label":"Rio Grande lineage","recovery_label":"Recovery watch / review area","tier":"tier1","minZoom":10,"confidence_public":"Watershed-level lineage context; expert review recommended","geometry_status_public":"Named natural stream occurrence from statewide hydrography","geometry_source_public":"Grouped public hydrography segments","trout_source_public":"Compiled public recovery and lineage context; expert review recommended","public_notes":"San Luis Creek is shown as a named-water occurrence within watershed-level cutthroat lineage context. This is not a precise biological boundary."}},{"type":"Feature","geometry":{"type":"LineString","coordinates":[[-105.909,38.2527],[-105.9094,38.2521],[-105.9081,38.2509],[-105.9092,38.2505],[-105.9088,38.25]]},"properties":{"source_id":"co_named_stream_055717","name":"San Luis Creek","display_name":"San Luis Creek","mapped_name":"San Luis Creek","source_name":"San Luis Creek","state":"CO","atlas_class":"named_natural_stream","huc8":"13010003","huc8Name":"San Luis","huc8States":"CO","lineageKey":"rioGrande","lineage":"rioGrande","historic":"rioGrande","current":"rioGrande","recovery":"recoveryWatch","lineageLabel":"Rio Grande lineage","lineageBasin":"San Luis","lineageNote":"Generalized Rio Grande cutthroat drainage context","atlas_context":"cutthroat_lineage_context","confidence":"Watershed-level lineage context; expert review recommended","geometryStatus":"Named natural stream segment from statewide hydrography","note":"This named natural stream falls within a HUC8 assigned to a cutthroat lineage context.","source_segment_id":"co_named_stream_055717","water_id":"co_san_luis_creek_13010003_rioGrande_001","occurrence_id":"co_san_luis_creek_13010003_rioGrande_001","occurrence_number":"001","segment_count":91,"disambiguator":"San Luis · Rio Grande lineage · occurrence 001","basin":"San Luis","atlas_layer":"named_water_occurrence","object_role":"named_water_occurrence","historic_label":"Rio Grande lineage","current_label":"Rio Grande lineage","recovery_label":"Recovery watch / review area","tier":"tier1","minZoom":10,"confidence_public":"Watershed-level lineage context; expert review recommended","geometry_status_public":"Named natural stream occurrence from statewide hydrography","geometry_source_public":"Grouped public hydrography segments","trout_source_public":"Compiled public recovery and lineage context; expert review recommended","public_notes":"San Luis Creek is shown as a named-water occurrence within watershed-level cutthroat lineage context. This is not a precise biological boundary."}},{"type":"Feature","geometry":{"type":"LineString","coordinates":[[-106.0015,38.3208],[-105.9997,38.3195],[-105.9988,38.3171],[-105.9964,38.3157],[-105.996,38.3135],[-105.9947,38.3121],[-105.9892,38.3091]]},"properties":{"source_id":"co_named_stream_055720","name":"San Luis Creek","display_name":"San Luis Creek","mapped_name":"San Luis Creek","source_name":"San Luis Creek","state":"CO","atlas_class":"named_natural_stream","huc8":"13010003","huc8Name":"San Luis","huc8States":"CO","lineageKey":"rioGrande","lineage":"rioGrande","historic":"rioGrande","current":"rioGrande","recovery":"recoveryWatch","lineageLabel":"Rio Grande lineage","lineageBasin":"San Luis","lineageNote":"Generalized Rio Grande cutthroat drainage context","atlas_context":"cutthroat_lineage_context","confidence":"Watershed-level lineage context; expert review recommended","geometryStatus":"Named natural stream segment from statewide hydrography","note":"This named natural stream falls within a HUC8 assigned to a cutthroat lineage context.","source_segment_id":"co_named_stream_055720","water_id":"co_san_luis_creek_13010003_rioGrande_001","occurrence_id":"co_san_luis_creek_13010003_rioGrande_001","occurrence_number":"001","segment_count":91,"disambiguator":"San Luis · Rio Grande lineage · occurrence 001","basin":"San Luis","atlas_layer":"named_water_occurrence","object_role":"named_water_occurrence","historic_label":"Rio Grande lineage","current_label":"Rio Grande lineage","recovery_label":"Recovery watch / review area","tier":"tier1","minZoom":10,"confidence_public":"Watershed-level lineage context; expert review recommended","geometry_status_public":"Named natural stream occurrence from statewide hydrography","geometry_source_public":"Grouped public hydrography segments","trout_source_public":"Compiled public recovery and lineage context; expert review recommended","public_notes":"San Luis Creek is shown as a named-water occurrence within watershed-level cutthroat lineage context. This is not a precise biological boundary."}},{"type":"Feature","geometry":{"type":"LineString","coordinates":[[-105.9788,38.3027],[-105.9758,38.3015]]},"properties":{"source_id":"co_named_stream_055916","name":"San Luis Creek","display_name":"San Luis Creek","mapped_name":"San Luis Creek","source_name":"San Luis Creek","state":"CO","atlas_class":"named_natural_stream","huc8":"13010003","huc8Name":"San Luis","huc8States":"CO","lineageKey":"rioGrande","lineage":"rioGrande","historic":"rioGrande","current":"rioGrande","recovery":"recoveryWatch","lineageLabel":"Rio Grande lineage","lineageBasin":"San Luis","lineageNote":"Generalized Rio Grande cutthroat drainage context","atlas_context":"cutthroat_lineage_context","confidence":"Watershed-level lineage context; expert review recommended","geometryStatus":"Named natural stream segment from statewide hydrography","note":"This named natural stream falls within a HUC8 assigned to a cutthroat lineage context.","source_segment_id":"co_named_stream_055916","water_id":"co_san_luis_creek_13010003_rioGrande_001","occurrence_id":"co_san_luis_creek_13010003_rioGrande_001","occurrence_number":"001","segment_count":91,"disambiguator":"San Luis · Rio Grande lineage · occurrence 001","basin":"San Luis","atlas_layer":"named_water_occurrence","object_role":"named_water_occurrence","historic_label":"Rio Grande lineage","current_label":"Rio Grande lineage","recovery_label":"Recovery watch / review area","tier":"tier1","minZoom":10,"confidence_public":"Watershed-level lineage context; expert review recommended","geometry_status_public":"Named natural stream occurrence from statewide hydrography","geometry_source_public":"Grouped public hydrography segments","trout_source_public":"Compiled public recovery and lineage context; expert review recommended","public_notes":"San Luis Creek is shown as a named-water occurrence within watershed-level cutthroat lineage context. This is not a precise biological boundary."}},{"type":"Feature","geometry":{"type":"LineString","coordinates":[[-105.9111,38.2551],[-105.9114,38.2546]]},"properties":{"source_id":"co_named_stream_056429","name":"San Luis Creek","display_name":"San Luis Creek","mapped_name":"San Luis Creek","source_name":"San Luis Creek","state":"CO","atlas_class":"named_natural_stream","huc8":"13010003","huc8Name":"San Luis","huc8States":"CO","lineageKey":"rioGrande","lineage":"rioGrande","historic":"rioGrande","current":"rioGrande","recovery":"recoveryWatch","lineageLabel":"Rio Grande lineage","lineageBasin":"San Luis","lineageNote":"Generalized Rio Grande cutthroat drainage context","atlas_context":"cutthroat_lineage_context","confidence":"Watershed-level lineage context; expert review recommended","geometryStatus":"Named natural stream segment from statewide hydrography","note":"This named natural stream falls within a HUC8 assigned to a cutthroat lineage context.","source_segment_id":"co_named_stream_056429","water_id":"co_san_luis_creek_13010003_rioGrande_001","occurrence_id":"co_san_luis_creek_13010003_rioGrande_001","occurrence_number":"001","segment_count":91,"disambiguator":"San Luis · Rio Grande lineage · occurrence 001","basin":"San Luis","atlas_layer":"named_water_occurrence","object_role":"named_water_occurrence","historic_label":"Rio Grande lineage","current_label":"Rio Grande lineage","recovery_label":"Recovery watch / review area","tier":"tier1","minZoom":10,"confidence_public":"Watershed-level lineage context; expert review recommended","geometry_status_public":"Named natural stream occurrence from statewide hydrography","geometry_source_public":"Grouped public hydrography segments","trout_source_public":"Compiled public recovery and lineage context; expert review recommended","public_notes":"San Luis Creek is shown as a named-water occurrence within watershed-level cutthroat lineage context. This is not a precise biological boundary."}},{"type":"Feature","geometry":{"type":"LineString","coordinates":[[-105.9892,38.3091],[-105.9816,38.306]]},"properties":{"source_id":"co_named_stream_056621","name":"San Luis Creek","display_name":"San Luis Creek","mapped_name":"San Luis Creek","source_name":"San Luis Creek","state":"CO","atlas_class":"named_natural_stream","huc8":"13010003","huc8Name":"San Luis","huc8States":"CO","lineageKey":"rioGrande","lineage":"rioGrande","historic":"rioGrande","current":"rioGrande","recovery":"recoveryWatch","lineageLabel":"Rio Grande lineage","lineageBasin":"San Luis","lineageNote":"Generalized Rio Grande cutthroat drainage context","atlas_context":"cutthroat_lineage_context","confidence":"Watershed-level lineage context; expert review recommended","geometryStatus":"Named natural stream segment from statewide hydrography","note":"This named natural stream falls within a HUC8 assigned to a cutthroat lineage context.","source_segment_id":"co_named_stream_056621","water_id":"co_san_luis_creek_13010003_rioGrande_001","occurrence_id":"co_san_luis_creek_13010003_rioGrande_001","occurrence_number":"001","segment_count":91,"disambiguator":"San Luis · Rio Grande lineage · occurrence 001","basin":"San Luis","atlas_layer":"named_water_occurrence","object_role":"named_water_occurrence","historic_label":"Rio Grande lineage","current_label":"Rio Grande lineage","recovery_label":"Recovery watch / review area","tier":"tier1","minZoom":10,"confidence_public":"Watershed-level lineage context; expert review recommended","geometry_status_public":"Named natural stream occurrence from statewide hydrography","geometry_source_public":"Grouped public hydrography segments","trout_source_public":"Compiled public recovery and lineage context; expert review recommended","public_notes":"San Luis Creek is shown as a named-water occurrence within watershed-level cutthroat lineage context. This is not a precise biological boundary."}},{"type":"Feature","geometry":{"type":"LineString","coordinates":[[-105.9752,38.3011],[-105.9723,38.2988],[-105.9704,38.2956]]},"properties":{"source_id":"co_named_stream_057483","name":"San Luis Creek","display_name":"San Luis Creek","mapped_name":"San Luis Creek","source_name":"San Luis Creek","state":"CO","atlas_class":"named_natural_stream","huc8":"13010003","huc8Name":"San Luis","huc8States":"CO","lineageKey":"rioGrande","lineage":"rioGrande","historic":"rioGrande","current":"rioGrande","recovery":"recoveryWatch","lineageLabel":"Rio Grande lineage","lineageBasin":"San Luis","lineageNote":"Generalized Rio Grande cutthroat drainage context","atlas_context":"cutthroat_lineage_context","confidence":"Watershed-level lineage context; expert review recommended","geometryStatus":"Named natural stream segment from statewide hydrography","note":"This named natural stream falls within a HUC8 assigned to a cutthroat lineage context.","source_segment_id":"co_named_stream_057483","water_id":"co_san_luis_creek_13010003_rioGrande_001","occurrence_id":"co_san_luis_creek_13010003_rioGrande_001","occurrence_number":"001","segment_count":91,"disambiguator":"San Luis · Rio Grande lineage · occurrence 001","basin":"San Luis","atlas_layer":"named_water_occurrence","object_role":"named_water_occurrence","historic_label":"Rio Grande lineage","current_label":"Rio Grande lineage","recovery_label":"Recovery watch / review area","tier":"tier1","minZoom":10,"confidence_public":"Watershed-level lineage context; expert review recommended","geometry_status_public":"Named natural stream occurrence from statewide hydrography","geometry_source_public":"Grouped public hydrography segments","trout_source_public":"Compiled public recovery and lineage context; expert review recommended","public_notes":"San Luis Creek is shown as a named-water occurrence within watershed-level cutthroat lineage context. This is not a precise biological boundary."}},{"type":"Feature","geometry":{"type":"LineString","coordinates":[[-105.944,38.2644],[-105.9407,38.2631],[-105.9369,38.2641],[-105.9318,38.2634],[-105.9295,38.262]]},"properties":{"source_id":"co_named_stream_058389","name":"San Luis Creek","display_name":"San Luis Creek","mapped_name":"San Luis Creek","source_name":"San Luis Creek","state":"CO","atlas_class":"named_natural_stream","huc8":"13010003","huc8Name":"San Luis","huc8States":"CO","lineageKey":"rioGrande","lineage":"rioGrande","historic":"rioGrande","current":"rioGrande","recovery":"recoveryWatch","lineageLabel":"Rio Grande lineage","lineageBasin":"San Luis","lineageNote":"Generalized Rio Grande cutthroat drainage context","atlas_context":"cutthroat_lineage_context","confidence":"Watershed-level lineage context; expert review recommended","geometryStatus":"Named natural stream segment from statewide hydrography","note":"This named natural stream falls within a HUC8 assigned to a cutthroat lineage context.","source_segment_id":"co_named_stream_058389","water_id":"co_san_luis_creek_13010003_rioGrande_001","occurrence_id":"co_san_luis_creek_13010003_rioGrande_001","occurrence_number":"001","segment_count":91,"disambiguator":"San Luis · Rio Grande lineage · occurrence 001","basin":"San Luis","atlas_layer":"named_water_occurrence","object_role":"named_water_occurrence","historic_label":"Rio Grande lineage","current_label":"Rio Grande lineage","recovery_label":"Recovery watch / review area","tier":"tier1","minZoom":10,"confidence_public":"Watershed-level lineage context; expert review recommended","geometry_status_public":"Named natural stream occurrence from statewide hydrography","geometry_source_public":"Grouped public hydrography segments","trout_source_public":"Compiled public recovery and lineage context; expert review recommended","public_notes":"San Luis Creek is shown as a named-water occurrence within watershed-level cutthroat lineage context. This is not a precise biological boundary."}},{"type":"Feature","geometry":{"type":"LineString","coordinates":[[-105.9295,38.262],[-105.9272,38.2625],[-105.9228,38.261]]},"properties":{"source_id":"co_named_stream_059196","name":"San Luis Creek","display_name":"San Luis Creek","mapped_name":"San Luis Creek","source_name":"San Luis Creek","state":"CO","atlas_class":"named_natural_stream","huc8":"13010003","huc8Name":"San Luis","huc8States":"CO","lineageKey":"rioGrande","lineage":"rioGrande","historic":"rioGrande","current":"rioGrande","recovery":"recoveryWatch","lineageLabel":"Rio Grande lineage","lineageBasin":"San Luis","lineageNote":"Generalized Rio Grande cutthroat drainage context","atlas_context":"cutthroat_lineage_context","confidence":"Watershed-level lineage context; expert review recommended","geometryStatus":"Named natural stream segment from statewide hydrography","note":"This named natural stream falls within a HUC8 assigned to a cutthroat lineage context.","source_segment_id":"co_named_stream_059196","water_id":"co_san_luis_creek_13010003_rioGrande_001","occurrence_id":"co_san_luis_creek_13010003_rioGrande_001","occurrence_number":"001","segment_count":91,"disambiguator":"San Luis · Rio Grande lineage · occurrence 001","basin":"San Luis","atlas_layer":"named_water_occurrence","object_role":"named_water_occurrence","historic_label":"Rio Grande lineage","current_label":"Rio Grande lineage","recovery_label":"Recovery watch / review area","tier":"tier1","minZoom":10,"confidence_public":"Watershed-level lineage context; expert review recommended","geometry_status_public":"Named natural stream occurrence from statewide hydrography","geometry_source_public":"Grouped public hydrography segments","trout_source_public":"Compiled public recovery and lineage context; expert review recommended","public_notes":"San Luis Creek is shown as a named-water occurrence within watershed-level cutthroat lineage context. This is not a precise biological boundary."}},{"type":"Feature","geometry":{"type":"LineString","coordinates":[[-105.9606,38.2869],[-105.9604,38.2838]]},"properties":{"source_id":"co_named_stream_059459","name":"San Luis Creek","display_name":"San Luis Creek","mapped_name":"San Luis Creek","source_name":"San Luis Creek","state":"CO","atlas_class":"named_natural_stream","huc8":"13010003","huc8Name":"San Luis","huc8States":"CO","lineageKey":"rioGrande","lineage":"rioGrande","historic":"rioGrande","current":"rioGrande","recovery":"recoveryWatch","lineageLabel":"Rio Grande lineage","lineageBasin":"San Luis","lineageNote":"Generalized Rio Grande cutthroat drainage context","atlas_context":"cutthroat_lineage_context","confidence":"Watershed-level lineage context; expert review recommended","geometryStatus":"Named natural stream segment from statewide hydrography","note":"This named natural stream falls within a HUC8 assigned to a cutthroat lineage context.","source_segment_id":"co_named_stream_059459","water_id":"co_san_luis_creek_13010003_rioGrande_001","occurrence_id":"co_san_luis_creek_13010003_rioGrande_001","occurrence_number":"001","segment_count":91,"disambiguator":"San Luis · Rio Grande lineage · occurrence 001","basin":"San Luis","atlas_layer":"named_water_occurrence","object_role":"named_water_occurrence","historic_label":"Rio Grande lineage","current_label":"Rio Grande lineage","recovery_label":"Recovery watch / review area","tier":"tier1","minZoom":10,"confidence_public":"Watershed-level lineage context; expert review recommended","geometry_status_public":"Named natural stream occurrence from statewide hydrography","geometry_source_public":"Grouped public hydrography segments","trout_source_public":"Compiled public recovery and lineage context; expert review recommended","public_notes":"San Luis Creek is shown as a named-water occurrence within watershed-level cutthroat lineage context. This is not a precise biological boundary."}},{"type":"Feature","geometry":{"type":"LineString","coordinates":[[-105.9704,38.2956],[-105.9703,38.2956]]},"properties":{"source_id":"co_named_stream_059460","name":"San Luis Creek","display_name":"San Luis Creek","mapped_name":"San Luis Creek","source_name":"San Luis Creek","state":"CO","atlas_class":"named_natural_stream","huc8":"13010003","huc8Name":"San Luis","huc8States":"CO","lineageKey":"rioGrande","lineage":"rioGrande","historic":"rioGrande","current":"rioGrande","recovery":"recoveryWatch","lineageLabel":"Rio Grande lineage","lineageBasin":"San Luis","lineageNote":"Generalized Rio Grande cutthroat drainage context","atlas_context":"cutthroat_lineage_context","confidence":"Watershed-level lineage context; expert review recommended","geometryStatus":"Named natural stream segment from statewide hydrography","note":"This named natural stream falls within a HUC8 assigned to a cutthroat lineage context.","source_segment_id":"co_named_stream_059460","water_id":"co_san_luis_creek_13010003_rioGrande_001","occurrence_id":"co_san_luis_creek_13010003_rioGrande_001","occurrence_number":"001","segment_count":91,"disambiguator":"San Luis · Rio Grande lineage · occurrence 001","basin":"San Luis","atlas_layer":"named_water_occurrence","object_role":"named_water_occurrence","historic_label":"Rio Grande lineage","current_label":"Rio Grande lineage","recovery_label":"Recovery watch / review area","tier":"tier1","minZoom":10,"confidence_public":"Watershed-level lineage context; expert review recommended","geometry_status_public":"Named natural stream occurrence from statewide hydrography","geometry_source_public":"Grouped public hydrography segments","trout_source_public":"Compiled public recovery and lineage context; expert review recommended","public_notes":"San Luis Creek is shown as a named-water occurrence within watershed-level cutthroat lineage context. This is not a precise biological boundary."}},{"type":"Feature","geometry":{"type":"LineString","coordinates":[[-105.9114,38.2546],[-105.9102,38.2534],[-105.9106,38.2528],[-105.909,38.2527]]},"properties":{"source_id":"co_named_stream_059918","name":"San Luis Creek","display_name":"San Luis Creek","mapped_name":"San Luis Creek","source_name":"San Luis Creek","state":"CO","atlas_class":"named_natural_stream","huc8":"13010003","huc8Name":"San Luis","huc8States":"CO","lineageKey":"rioGrande","lineage":"rioGrande","historic":"rioGrande","current":"rioGrande","recovery":"recoveryWatch","lineageLabel":"Rio Grande lineage","lineageBasin":"San Luis","lineageNote":"Generalized Rio Grande cutthroat drainage context","atlas_context":"cutthroat_lineage_context","confidence":"Watershed-level lineage context; expert review recommended","geometryStatus":"Named natural stream segment from statewide hydrography","note":"This named natural stream falls within a HUC8 assigned to a cutthroat lineage context.","source_segment_id":"co_named_stream_059918","water_id":"co_san_luis_creek_13010003_rioGrande_001","occurrence_id":"co_san_luis_creek_13010003_rioGrande_001","occurrence_number":"001","segment_count":91,"disambiguator":"San Luis · Rio Grande lineage · occurrence 001","basin":"San Luis","atlas_layer":"named_water_occurrence","object_role":"named_water_occurrence","historic_label":"Rio Grande lineage","current_label":"Rio Grande lineage","recovery_label":"Recovery watch / review area","tier":"tier1","minZoom":10,"confidence_public":"Watershed-level lineage context; expert review recommended","geometry_status_public":"Named natural stream occurrence from statewide hydrography","geometry_source_public":"Grouped public hydrography segments","trout_source_public":"Compiled public recovery and lineage context; expert review recommended","public_notes":"San Luis Creek is shown as a named-water occurrence within watershed-level cutthroat lineage context. This is not a precise biological boundary."}},{"type":"Feature","geometry":{"type":"LineString","coordinates":[[-105.9703,38.2956],[-105.9672,38.294]]},"properties":{"source_id":"co_named_stream_060139","name":"San Luis Creek","display_name":"San Luis Creek","mapped_name":"San Luis Creek","source_name":"San Luis Creek","state":"CO","atlas_class":"named_natural_stream","huc8":"13010003","huc8Name":"San Luis","huc8States":"CO","lineageKey":"rioGrande","lineage":"rioGrande","historic":"rioGrande","current":"rioGrande","recovery":"recoveryWatch","lineageLabel":"Rio Grande lineage","lineageBasin":"San Luis","lineageNote":"Generalized Rio Grande cutthroat drainage context","atlas_context":"cutthroat_lineage_context","confidence":"Watershed-level lineage context; expert review recommended","geometryStatus":"Named natural stream segment from statewide hydrography","note":"This named natural stream falls within a HUC8 assigned to a cutthroat lineage context.","source_segment_id":"co_named_stream_060139","water_id":"co_san_luis_creek_13010003_rioGrande_001","occurrence_id":"co_san_luis_creek_13010003_rioGrande_001","occurrence_number":"001","segment_count":91,"disambiguator":"San Luis · Rio Grande lineage · occurrence 001","basin":"San Luis","atlas_layer":"named_water_occurrence","object_role":"named_water_occurrence","historic_label":"Rio Grande lineage","current_label":"Rio Grande lineage","recovery_label":"Recovery watch / review area","tier":"tier1","minZoom":10,"confidence_public":"Watershed-level lineage context; expert review recommended","geometry_status_public":"Named natural stream occurrence from statewide hydrography","geometry_source_public":"Grouped public hydrography segments","trout_source_public":"Compiled public recovery and lineage context; expert review recommended","public_notes":"San Luis Creek is shown as a named-water occurrence within watershed-level cutthroat lineage context. This is not a precise biological boundary."}},{"type":"Feature","geometry":{"type":"LineString","coordinates":[[-105.9485,38.2677],[-105.9463,38.2674],[-105.9439,38.2653],[-105.944,38.2644]]},"properties":{"source_id":"co_named_stream_060371","name":"San Luis Creek","display_name":"San Luis Creek","mapped_name":"San Luis Creek","source_name":"San Luis Creek","state":"CO","atlas_class":"named_natural_stream","huc8":"13010003","huc8Name":"San Luis","huc8States":"CO","lineageKey":"rioGrande","lineage":"rioGrande","historic":"rioGrande","current":"rioGrande","recovery":"recoveryWatch","lineageLabel":"Rio Grande lineage","lineageBasin":"San Luis","lineageNote":"Generalized Rio Grande cutthroat drainage context","atlas_context":"cutthroat_lineage_context","confidence":"Watershed-level lineage context; expert review recommended","geometryStatus":"Named natural stream segment from statewide hydrography","note":"This named natural stream falls within a HUC8 assigned to a cutthroat lineage context.","source_segment_id":"co_named_stream_060371","water_id":"co_san_luis_creek_13010003_rioGrande_001","occurrence_id":"co_san_luis_creek_13010003_rioGrande_001","occurrence_number":"001","segment_count":91,"disambiguator":"San Luis · Rio Grande lineage · occurrence 001","basin":"San Luis","atlas_layer":"named_water_occurrence","object_role":"named_water_occurrence","historic_label":"Rio Grande lineage","current_label":"Rio Grande lineage","recovery_label":"Recovery watch / review area","tier":"tier1","minZoom":10,"confidence_public":"Watershed-level lineage context; expert review recommended","geometry_status_public":"Named natural stream occurrence from statewide hydrography","geometry_source_public":"Grouped public hydrography segments","trout_source_public":"Compiled public recovery and lineage context; expert review recommended","public_notes":"San Luis Creek is shown as a named-water occurrence within watershed-level cutthroat lineage context. This is not a precise biological boundary."}},{"type":"Feature","geometry":{"type":"LineString","coordinates":[[-105.9672,38.294],[-105.9668,38.2932]]},"properties":{"source_id":"co_named_stream_061674","name":"San Luis Creek","display_name":"San Luis Creek","mapped_name":"San Luis Creek","source_name":"San Luis Creek","state":"CO","atlas_class":"named_natural_stream","huc8":"13010003","huc8Name":"San Luis","huc8States":"CO","lineageKey":"rioGrande","lineage":"rioGrande","historic":"rioGrande","current":"rioGrande","recovery":"recoveryWatch","lineageLabel":"Rio Grande lineage","lineageBasin":"San Luis","lineageNote":"Generalized Rio Grande cutthroat drainage context","atlas_context":"cutthroat_lineage_context","confidence":"Watershed-level lineage context; expert review recommended","geometryStatus":"Named natural stream segment from statewide hydrography","note":"This named natural stream falls within a HUC8 assigned to a cutthroat lineage context.","source_segment_id":"co_named_stream_061674","water_id":"co_san_luis_creek_13010003_rioGrande_001","occurrence_id":"co_san_luis_creek_13010003_rioGrande_001","occurrence_number":"001","segment_count":91,"disambiguator":"San Luis · Rio Grande lineage · occurrence 001","basin":"San Luis","atlas_layer":"named_water_occurrence","object_role":"named_water_occurrence","historic_label":"Rio Grande lineage","current_label":"Rio Grande lineage","recovery_label":"Recovery watch / review area","tier":"tier1","minZoom":10,"confidence_public":"Watershed-level lineage context; expert review recommended","geometry_status_public":"Named natural stream occurrence from statewide hydrography","geometry_source_public":"Grouped public hydrography segments","trout_source_public":"Compiled public recovery and lineage context; expert review recommended","public_notes":"San Luis Creek is shown as a named-water occurrence within watershed-level cutthroat lineage context. This is not a precise biological boundary."}},{"type":"Feature","geometry":{"type":"LineString","coordinates":[[-105.9141,38.2558],[-105.9131,38.2561],[-105.9137,38.2548],[-105.9113,38.2551]]},"properties":{"source_id":"co_named_stream_061696","name":"San Luis Creek","display_name":"San Luis Creek","mapped_name":"San Luis Creek","source_name":"San Luis Creek","state":"CO","atlas_class":"named_natural_stream","huc8":"13010003","huc8Name":"San Luis","huc8States":"CO","lineageKey":"rioGrande","lineage":"rioGrande","historic":"rioGrande","current":"rioGrande","recovery":"recoveryWatch","lineageLabel":"Rio Grande lineage","lineageBasin":"San Luis","lineageNote":"Generalized Rio Grande cutthroat drainage context","atlas_context":"cutthroat_lineage_context","confidence":"Watershed-level lineage context; expert review recommended","geometryStatus":"Named natural stream segment from statewide hydrography","note":"This named natural stream falls within a HUC8 assigned to a cutthroat lineage context.","source_segment_id":"co_named_stream_061696","water_id":"co_san_luis_creek_13010003_rioGrande_001","occurrence_id":"co_san_luis_creek_13010003_rioGrande_001","occurrence_number":"001","segment_count":91,"disambiguator":"San Luis · Rio Grande lineage · occurrence 001","basin":"San Luis","atlas_layer":"named_water_occurrence","object_role":"named_water_occurrence","historic_label":"Rio Grande lineage","current_label":"Rio Grande lineage","recovery_label":"Recovery watch / review area","tier":"tier1","minZoom":10,"confidence_public":"Watershed-level lineage context; expert review recommended","geometry_status_public":"Named natural stream occurrence from statewide hydrography","geometry_source_public":"Grouped public hydrography segments","trout_source_public":"Compiled public recovery and lineage context; expert review recommended","public_notes":"San Luis Creek is shown as a named-water occurrence within watershed-level cutthroat lineage context. This is not a precise biological boundary."}},{"type":"Feature","geometry":{"type":"LineString","coordinates":[[-105.9228,38.261],[-105.9194,38.2601],[-105.9182,38.2586]]},"properties":{"source_id":"co_named_stream_061944","name":"San Luis Creek","display_name":"San Luis Creek","mapped_name":"San Luis Creek","source_name":"San Luis Creek","state":"CO","atlas_class":"named_natural_stream","huc8":"13010003","huc8Name":"San Luis","huc8States":"CO","lineageKey":"rioGrande","lineage":"rioGrande","historic":"rioGrande","current":"rioGrande","recovery":"recoveryWatch","lineageLabel":"Rio Grande lineage","lineageBasin":"San Luis","lineageNote":"Generalized Rio Grande cutthroat drainage context","atlas_context":"cutthroat_lineage_context","confidence":"Watershed-level lineage context; expert review recommended","geometryStatus":"Named natural stream segment from statewide hydrography","note":"This named natural stream falls within a HUC8 assigned to a cutthroat lineage context.","source_segment_id":"co_named_stream_061944","water_id":"co_san_luis_creek_13010003_rioGrande_001","occurrence_id":"co_san_luis_creek_13010003_rioGrande_001","occurrence_number":"001","segment_count":91,"disambiguator":"San Luis · Rio Grande lineage · occurrence 001","basin":"San Luis","atlas_layer":"named_water_occurrence","object_role":"named_water_occurrence","historic_label":"Rio Grande lineage","current_label":"Rio Grande lineage","recovery_label":"Recovery watch / review area","tier":"tier1","minZoom":10,"confidence_public":"Watershed-level lineage context; expert review recommended","geometry_status_public":"Named natural stream occurrence from statewide hydrography","geometry_source_public":"Grouped public hydrography segments","trout_source_public":"Compiled public recovery and lineage context; expert review recommended","public_notes":"San Luis Creek is shown as a named-water occurrence within watershed-level cutthroat lineage context. This is not a precise biological boundary."}},{"type":"Feature","geometry":{"type":"LineString","coordinates":[[-105.9088,38.25],[-105.9081,38.2495],[-105.9087,38.2481]]},"properties":{"source_id":"co_named_stream_062205","name":"San Luis Creek","display_name":"San Luis Creek","mapped_name":"San Luis Creek","source_name":"San Luis Creek","state":"CO","atlas_class":"named_natural_stream","huc8":"13010003","huc8Name":"San Luis","huc8States":"CO","lineageKey":"rioGrande","lineage":"rioGrande","historic":"rioGrande","current":"rioGrande","recovery":"recoveryWatch","lineageLabel":"Rio Grande lineage","lineageBasin":"San Luis","lineageNote":"Generalized Rio Grande cutthroat drainage context","atlas_context":"cutthroat_lineage_context","confidence":"Watershed-level lineage context; expert review recommended","geometryStatus":"Named natural stream segment from statewide hydrography","note":"This named natural stream falls within a HUC8 assigned to a cutthroat lineage context.","source_segment_id":"co_named_stream_062205","water_id":"co_san_luis_creek_13010003_rioGrande_001","occurrence_id":"co_san_luis_creek_13010003_rioGrande_001","occurrence_number":"001","segment_count":91,"disambiguator":"San Luis · Rio Grande lineage · occurrence 001","basin":"San Luis","atlas_layer":"named_water_occurrence","object_role":"named_water_occurrence","historic_label":"Rio Grande lineage","current_label":"Rio Grande lineage","recovery_label":"Recovery watch / review area","tier":"tier1","minZoom":10,"confidence_public":"Watershed-level lineage context; expert review recommended","geometry_status_public":"Named natural stream occurrence from statewide hydrography","geometry_source_public":"Grouped public hydrography segments","trout_source_public":"Compiled public recovery and lineage context; expert review recommended","public_notes":"San Luis Creek is shown as a named-water occurrence within watershed-level cutthroat lineage context. This is not a precise biological boundary."}},{"type":"Feature","geometry":{"type":"LineString","coordinates":[[-105.955,38.2802],[-105.953,38.2743],[-105.9508,38.2722],[-105.9516,38.2702],[-105.9511,38.2688]]},"properties":{"source_id":"co_named_stream_062994","name":"San Luis Creek","display_name":"San Luis Creek","mapped_name":"San Luis Creek","source_name":"San Luis Creek","state":"CO","atlas_class":"named_natural_stream","huc8":"13010003","huc8Name":"San Luis","huc8States":"CO","lineageKey":"rioGrande","lineage":"rioGrande","historic":"rioGrande","current":"rioGrande","recovery":"recoveryWatch","lineageLabel":"Rio Grande lineage","lineageBasin":"San Luis","lineageNote":"Generalized Rio Grande cutthroat drainage context","atlas_context":"cutthroat_lineage_context","confidence":"Watershed-level lineage context; expert review recommended","geometryStatus":"Named natural stream segment from statewide hydrography","note":"This named natural stream falls within a HUC8 assigned to a cutthroat lineage context.","source_segment_id":"co_named_stream_062994","water_id":"co_san_luis_creek_13010003_rioGrande_001","occurrence_id":"co_san_luis_creek_13010003_rioGrande_001","occurrence_number":"001","segment_count":91,"disambiguator":"San Luis · Rio Grande lineage · occurrence 001","basin":"San Luis","atlas_layer":"named_water_occurrence","object_role":"named_water_occurrence","historic_label":"Rio Grande lineage","current_label":"Rio Grande lineage","recovery_label":"Recovery watch / review area","tier":"tier1","minZoom":10,"confidence_public":"Watershed-level lineage context; expert review recommended","geometry_status_public":"Named natural stream occurrence from statewide hydrography","geometry_source_public":"Grouped public hydrography segments","trout_source_public":"Compiled public recovery and lineage context; expert review recommended","public_notes":"San Luis Creek is shown as a named-water occurrence within watershed-level cutthroat lineage context. This is not a precise biological boundary."}},{"type":"Feature","geometry":{"type":"LineString","coordinates":[[-105.9604,38.2838],[-105.9572,38.2826],[-105.955,38.2802]]},"properties":{"source_id":"co_named_stream_063116","name":"San Luis Creek","display_name":"San Luis Creek","mapped_name":"San Luis Creek","source_name":"San Luis Creek","state":"CO","atlas_class":"named_natural_stream","huc8":"13010003","huc8Name":"San Luis","huc8States":"CO","lineageKey":"rioGrande","lineage":"rioGrande","historic":"rioGrande","current":"rioGrande","recovery":"recoveryWatch","lineageLabel":"Rio Grande lineage","lineageBasin":"San Luis","lineageNote":"Generalized Rio Grande cutthroat drainage context","atlas_context":"cutthroat_lineage_context","confidence":"Watershed-level lineage context; expert review recommended","geometryStatus":"Named natural stream segment from statewide hydrography","note":"This named natural stream falls within a HUC8 assigned to a cutthroat lineage context.","source_segment_id":"co_named_stream_063116","water_id":"co_san_luis_creek_13010003_rioGrande_001","occurrence_id":"co_san_luis_creek_13010003_rioGrande_001","occurrence_number":"001","segment_count":91,"disambiguator":"San Luis · Rio Grande lineage · occurrence 001","basin":"San Luis","atlas_layer":"named_water_occurrence","object_role":"named_water_occurrence","historic_label":"Rio Grande lineage","current_label":"Rio Grande lineage","recovery_label":"Recovery watch / review area","tier":"tier1","minZoom":10,"confidence_public":"Watershed-level lineage context; expert review recommended","geometry_status_public":"Named natural stream occurrence from statewide hydrography","geometry_source_public":"Grouped public hydrography segments","trout_source_public":"Compiled public recovery and lineage context; expert review recommended","public_notes":"San Luis Creek is shown as a named-water occurrence within watershed-level cutthroat lineage context. This is not a precise biological boundary."}},{"type":"Feature","geometry":{"type":"LineString","coordinates":[[-105.9113,38.2551],[-105.9111,38.2551]]},"properties":{"source_id":"co_named_stream_063503","name":"San Luis Creek","display_name":"San Luis Creek","mapped_name":"San Luis Creek","source_name":"San Luis Creek","state":"CO","atlas_class":"named_natural_stream","huc8":"13010003","huc8Name":"San Luis","huc8States":"CO","lineageKey":"rioGrande","lineage":"rioGrande","historic":"rioGrande","current":"rioGrande","recovery":"recoveryWatch","lineageLabel":"Rio Grande lineage","lineageBasin":"San Luis","lineageNote":"Generalized Rio Grande cutthroat drainage context","atlas_context":"cutthroat_lineage_context","confidence":"Watershed-level lineage context; expert review recommended","geometryStatus":"Named natural stream segment from statewide hydrography","note":"This named natural stream falls within a HUC8 assigned to a cutthroat lineage context.","source_segment_id":"co_named_stream_063503","water_id":"co_san_luis_creek_13010003_rioGrande_001","occurrence_id":"co_san_luis_creek_13010003_rioGrande_001","occurrence_number":"001","segment_count":91,"disambiguator":"San Luis · Rio Grande lineage · occurrence 001","basin":"San Luis","atlas_layer":"named_water_occurrence","object_role":"named_water_occurrence","historic_label":"Rio Grande lineage","current_label":"Rio Grande lineage","recovery_label":"Recovery watch / review area","tier":"tier1","minZoom":10,"confidence_public":"Watershed-level lineage context; expert review recommended","geometry_status_public":"Named natural stream occurrence from statewide hydrography","geometry_source_public":"Grouped public hydrography segments","trout_source_public":"Compiled public recovery and lineage context; expert review recommended","public_notes":"San Luis Creek is shown as a named-water occurrence within watershed-level cutthroat lineage context. This is not a precise biological boundary."}}]}