{"type":"FeatureCollection","metadata":{"source":"C:\\ct-atlas-data\\processed\\geojson\\interpreted\\colorado_named_natural_streams_complete_v1.geojson","tier":"tier1","tile_size_degrees":0.25,"x":-436,"y":163,"bounds":{"west":-109,"south":40.75,"east":-108.75,"north":41}},"features":[{"type":"Feature","geometry":{"type":"LineString","coordinates":[[-108.8514,40.7719],[-108.8529,40.7719],[-108.8548,40.77]]},"properties":{"source_id":"co_named_stream_103450","name":"Vermillion Creek","display_name":"Vermillion Creek","mapped_name":"Vermillion Creek","source_name":"Vermillion Creek","state":"CO","atlas_class":"named_natural_stream","huc8":"14040109","huc8Name":"Vermilion","huc8States":"CO,WY","lineageKey":"greenRiverBlue","lineage":"greenRiverBlue","historic":"greenRiverBlue","current":"greenRiverBlue","recovery":"recoveryWatch","lineageLabel":"Green River / blue-lineage CT","lineageBasin":"Vermilion","lineageNote":"Green River / blue-lineage context; review needed","atlas_context":"cutthroat_lineage_context","confidence":"Watershed-level lineage context; expert review recommended","geometryStatus":"Named natural stream segment from statewide hydrography","note":"This named natural stream falls within a HUC8 assigned to a cutthroat lineage context.","source_segment_id":"co_named_stream_103450","water_id":"co_vermillion_creek_14040109_greenRiverBlue_002","occurrence_id":"co_vermillion_creek_14040109_greenRiverBlue_002","occurrence_number":"002","segment_count":127,"disambiguator":"Vermilion · Green River / blue-lineage CT · occurrence 002","basin":"Vermilion","atlas_layer":"named_water_occurrence","object_role":"named_water_occurrence","historic_label":"Green River / blue-lineage CT","current_label":"Green River / blue-lineage CT","recovery_label":"Recovery watch / review area","tier":"tier1","minZoom":10,"confidence_public":"Watershed-level lineage context; expert review recommended","geometry_status_public":"Named natural stream occurrence from statewide hydrography","geometry_source_public":"Grouped public hydrography segments","trout_source_public":"Compiled public recovery and lineage context; expert review recommended","public_notes":"Vermillion Creek is shown as a named-water occurrence within watershed-level cutthroat lineage context. This is not a precise biological boundary."}},{"type":"Feature","geometry":{"type":"LineString","coordinates":[[-108.8625,40.7764],[-108.8639,40.7778],[-108.8662,40.7766]]},"properties":{"source_id":"co_named_stream_103453","name":"Vermillion Creek","display_name":"Vermillion Creek","mapped_name":"Vermillion Creek","source_name":"Vermillion Creek","state":"CO","atlas_class":"named_natural_stream","huc8":"14040109","huc8Name":"Vermilion","huc8States":"CO,WY","lineageKey":"greenRiverBlue","lineage":"greenRiverBlue","historic":"greenRiverBlue","current":"greenRiverBlue","recovery":"recoveryWatch","lineageLabel":"Green River / blue-lineage CT","lineageBasin":"Vermilion","lineageNote":"Green River / blue-lineage context; review needed","atlas_context":"cutthroat_lineage_context","confidence":"Watershed-level lineage context; expert review recommended","geometryStatus":"Named natural stream segment from statewide hydrography","note":"This named natural stream falls within a HUC8 assigned to a cutthroat lineage context.","source_segment_id":"co_named_stream_103453","water_id":"co_vermillion_creek_14040109_greenRiverBlue_002","occurrence_id":"co_vermillion_creek_14040109_greenRiverBlue_002","occurrence_number":"002","segment_count":127,"disambiguator":"Vermilion · Green River / blue-lineage CT · occurrence 002","basin":"Vermilion","atlas_layer":"named_water_occurrence","object_role":"named_water_occurrence","historic_label":"Green River / blue-lineage CT","current_label":"Green River / blue-lineage CT","recovery_label":"Recovery watch / review area","tier":"tier1","minZoom":10,"confidence_public":"Watershed-level lineage context; expert review recommended","geometry_status_public":"Named natural stream occurrence from statewide hydrography","geometry_source_public":"Grouped public hydrography segments","trout_source_public":"Compiled public recovery and lineage context; expert review recommended","public_notes":"Vermillion Creek is shown as a named-water occurrence within watershed-level cutthroat lineage context. This is not a precise biological boundary."}},{"type":"Feature","geometry":{"type":"LineString","coordinates":[[-108.8599,40.7759],[-108.8616,40.7755],[-108.8625,40.7764]]},"properties":{"source_id":"co_named_stream_103455","name":"Vermillion Creek","display_name":"Vermillion Creek","mapped_name":"Vermillion Creek","source_name":"Vermillion Creek","state":"CO","atlas_class":"named_natural_stream","huc8":"14040109","huc8Name":"Vermilion","huc8States":"CO,WY","lineageKey":"greenRiverBlue","lineage":"greenRiverBlue","historic":"greenRiverBlue","current":"greenRiverBlue","recovery":"recoveryWatch","lineageLabel":"Green River / blue-lineage CT","lineageBasin":"Vermilion","lineageNote":"Green River / blue-lineage context; review needed","atlas_context":"cutthroat_lineage_context","confidence":"Watershed-level lineage context; expert review recommended","geometryStatus":"Named natural stream segment from statewide hydrography","note":"This named natural stream falls within a HUC8 assigned to a cutthroat lineage context.","source_segment_id":"co_named_stream_103455","water_id":"co_vermillion_creek_14040109_greenRiverBlue_002","occurrence_id":"co_vermillion_creek_14040109_greenRiverBlue_002","occurrence_number":"002","segment_count":127,"disambiguator":"Vermilion · Green River / blue-lineage CT · occurrence 002","basin":"Vermilion","atlas_layer":"named_water_occurrence","object_role":"named_water_occurrence","historic_label":"Green River / blue-lineage CT","current_label":"Green River / blue-lineage CT","recovery_label":"Recovery watch / review area","tier":"tier1","minZoom":10,"confidence_public":"Watershed-level lineage context; expert review recommended","geometry_status_public":"Named natural stream occurrence from statewide hydrography","geometry_source_public":"Grouped public hydrography segments","trout_source_public":"Compiled public recovery and lineage context; expert review recommended","public_notes":"Vermillion Creek is shown as a named-water occurrence within watershed-level cutthroat lineage context. This is not a precise biological boundary."}},{"type":"Feature","geometry":{"type":"LineString","coordinates":[[-108.8662,40.7766],[-108.8688,40.7783]]},"properties":{"source_id":"co_named_stream_103459","name":"Vermillion Creek","display_name":"Vermillion Creek","mapped_name":"Vermillion Creek","source_name":"Vermillion Creek","state":"CO","atlas_class":"named_natural_stream","huc8":"14040109","huc8Name":"Vermilion","huc8States":"CO,WY","lineageKey":"greenRiverBlue","lineage":"greenRiverBlue","historic":"greenRiverBlue","current":"greenRiverBlue","recovery":"recoveryWatch","lineageLabel":"Green River / blue-lineage CT","lineageBasin":"Vermilion","lineageNote":"Green River / blue-lineage context; review needed","atlas_context":"cutthroat_lineage_context","confidence":"Watershed-level lineage context; expert review recommended","geometryStatus":"Named natural stream segment from statewide hydrography","note":"This named natural stream falls within a HUC8 assigned to a cutthroat lineage context.","source_segment_id":"co_named_stream_103459","water_id":"co_vermillion_creek_14040109_greenRiverBlue_002","occurrence_id":"co_vermillion_creek_14040109_greenRiverBlue_002","occurrence_number":"002","segment_count":127,"disambiguator":"Vermilion · Green River / blue-lineage CT · occurrence 002","basin":"Vermilion","atlas_layer":"named_water_occurrence","object_role":"named_water_occurrence","historic_label":"Green River / blue-lineage CT","current_label":"Green River / blue-lineage CT","recovery_label":"Recovery watch / review area","tier":"tier1","minZoom":10,"confidence_public":"Watershed-level lineage context; expert review recommended","geometry_status_public":"Named natural stream occurrence from statewide hydrography","geometry_source_public":"Grouped public hydrography segments","trout_source_public":"Compiled public recovery and lineage context; expert review recommended","public_notes":"Vermillion Creek is shown as a named-water occurrence within watershed-level cutthroat lineage context. This is not a precise biological boundary."}},{"type":"Feature","geometry":{"type":"LineString","coordinates":[[-108.8753,40.7794],[-108.876,40.7795]]},"properties":{"source_id":"co_named_stream_103460","name":"Vermillion Creek","display_name":"Vermillion Creek","mapped_name":"Vermillion Creek","source_name":"Vermillion Creek","state":"CO","atlas_class":"named_natural_stream","huc8":"14040109","huc8Name":"Vermilion","huc8States":"CO,WY","lineageKey":"greenRiverBlue","lineage":"greenRiverBlue","historic":"greenRiverBlue","current":"greenRiverBlue","recovery":"recoveryWatch","lineageLabel":"Green River / blue-lineage CT","lineageBasin":"Vermilion","lineageNote":"Green River / blue-lineage context; review needed","atlas_context":"cutthroat_lineage_context","confidence":"Watershed-level lineage context; expert review recommended","geometryStatus":"Named natural stream segment from statewide hydrography","note":"This named natural stream falls within a HUC8 assigned to a cutthroat lineage context.","source_segment_id":"co_named_stream_103460","water_id":"co_vermillion_creek_14040109_greenRiverBlue_002","occurrence_id":"co_vermillion_creek_14040109_greenRiverBlue_002","occurrence_number":"002","segment_count":127,"disambiguator":"Vermilion · Green River / blue-lineage CT · occurrence 002","basin":"Vermilion","atlas_layer":"named_water_occurrence","object_role":"named_water_occurrence","historic_label":"Green River / blue-lineage CT","current_label":"Green River / blue-lineage CT","recovery_label":"Recovery watch / review area","tier":"tier1","minZoom":10,"confidence_public":"Watershed-level lineage context; expert review recommended","geometry_status_public":"Named natural stream occurrence from statewide hydrography","geometry_source_public":"Grouped public hydrography segments","trout_source_public":"Compiled public recovery and lineage context; expert review recommended","public_notes":"Vermillion Creek is shown as a named-water occurrence within watershed-level cutthroat lineage context. This is not a precise biological boundary."}},{"type":"Feature","geometry":{"type":"LineString","coordinates":[[-108.8839,40.7651],[-108.8826,40.7642]]},"properties":{"source_id":"co_named_stream_103461","name":"Vermillion Creek","display_name":"Vermillion Creek","mapped_name":"Vermillion Creek","source_name":"Vermillion Creek","state":"CO","atlas_class":"named_natural_stream","huc8":"14040109","huc8Name":"Vermilion","huc8States":"CO,WY","lineageKey":"greenRiverBlue","lineage":"greenRiverBlue","historic":"greenRiverBlue","current":"greenRiverBlue","recovery":"recoveryWatch","lineageLabel":"Green River / blue-lineage CT","lineageBasin":"Vermilion","lineageNote":"Green River / blue-lineage context; review needed","atlas_context":"cutthroat_lineage_context","confidence":"Watershed-level lineage context; expert review recommended","geometryStatus":"Named natural stream segment from statewide hydrography","note":"This named natural stream falls within a HUC8 assigned to a cutthroat lineage context.","source_segment_id":"co_named_stream_103461","water_id":"co_vermillion_creek_14040109_greenRiverBlue_002","occurrence_id":"co_vermillion_creek_14040109_greenRiverBlue_002","occurrence_number":"002","segment_count":127,"disambiguator":"Vermilion · Green River / blue-lineage CT · occurrence 002","basin":"Vermilion","atlas_layer":"named_water_occurrence","object_role":"named_water_occurrence","historic_label":"Green River / blue-lineage CT","current_label":"Green River / blue-lineage CT","recovery_label":"Recovery watch / review area","tier":"tier1","minZoom":10,"confidence_public":"Watershed-level lineage context; expert review recommended","geometry_status_public":"Named natural stream occurrence from statewide hydrography","geometry_source_public":"Grouped public hydrography segments","trout_source_public":"Compiled public recovery and lineage context; expert review recommended","public_notes":"Vermillion Creek is shown as a named-water occurrence within watershed-level cutthroat lineage context. This is not a precise biological boundary."}},{"type":"Feature","geometry":{"type":"LineString","coordinates":[[-108.8774,40.7802],[-108.8777,40.7803]]},"properties":{"source_id":"co_named_stream_103462","name":"Vermillion Creek","display_name":"Vermillion Creek","mapped_name":"Vermillion Creek","source_name":"Vermillion Creek","state":"CO","atlas_class":"named_natural_stream","huc8":"14040109","huc8Name":"Vermilion","huc8States":"CO,WY","lineageKey":"greenRiverBlue","lineage":"greenRiverBlue","historic":"greenRiverBlue","current":"greenRiverBlue","recovery":"recoveryWatch","lineageLabel":"Green River / blue-lineage CT","lineageBasin":"Vermilion","lineageNote":"Green River / blue-lineage context; review needed","atlas_context":"cutthroat_lineage_context","confidence":"Watershed-level lineage context; expert review recommended","geometryStatus":"Named natural stream segment from statewide hydrography","note":"This named natural stream falls within a HUC8 assigned to a cutthroat lineage context.","source_segment_id":"co_named_stream_103462","water_id":"co_vermillion_creek_14040109_greenRiverBlue_002","occurrence_id":"co_vermillion_creek_14040109_greenRiverBlue_002","occurrence_number":"002","segment_count":127,"disambiguator":"Vermilion · Green River / blue-lineage CT · occurrence 002","basin":"Vermilion","atlas_layer":"named_water_occurrence","object_role":"named_water_occurrence","historic_label":"Green River / blue-lineage CT","current_label":"Green River / blue-lineage CT","recovery_label":"Recovery watch / review area","tier":"tier1","minZoom":10,"confidence_public":"Watershed-level lineage context; expert review recommended","geometry_status_public":"Named natural stream occurrence from statewide hydrography","geometry_source_public":"Grouped public hydrography segments","trout_source_public":"Compiled public recovery and lineage context; expert review recommended","public_notes":"Vermillion Creek is shown as a named-water occurrence within watershed-level cutthroat lineage context. This is not a precise biological boundary."}},{"type":"Feature","geometry":{"type":"LineString","coordinates":[[-108.889,40.7717],[-108.8879,40.7707]]},"properties":{"source_id":"co_named_stream_103463","name":"Vermillion Creek","display_name":"Vermillion Creek","mapped_name":"Vermillion Creek","source_name":"Vermillion Creek","state":"CO","atlas_class":"named_natural_stream","huc8":"14040109","huc8Name":"Vermilion","huc8States":"CO,WY","lineageKey":"greenRiverBlue","lineage":"greenRiverBlue","historic":"greenRiverBlue","current":"greenRiverBlue","recovery":"recoveryWatch","lineageLabel":"Green River / blue-lineage CT","lineageBasin":"Vermilion","lineageNote":"Green River / blue-lineage context; review needed","atlas_context":"cutthroat_lineage_context","confidence":"Watershed-level lineage context; expert review recommended","geometryStatus":"Named natural stream segment from statewide hydrography","note":"This named natural stream falls within a HUC8 assigned to a cutthroat lineage context.","source_segment_id":"co_named_stream_103463","water_id":"co_vermillion_creek_14040109_greenRiverBlue_002","occurrence_id":"co_vermillion_creek_14040109_greenRiverBlue_002","occurrence_number":"002","segment_count":127,"disambiguator":"Vermilion · Green River / blue-lineage CT · occurrence 002","basin":"Vermilion","atlas_layer":"named_water_occurrence","object_role":"named_water_occurrence","historic_label":"Green River / blue-lineage CT","current_label":"Green River / blue-lineage CT","recovery_label":"Recovery watch / review area","tier":"tier1","minZoom":10,"confidence_public":"Watershed-level lineage context; expert review recommended","geometry_status_public":"Named natural stream occurrence from statewide hydrography","geometry_source_public":"Grouped public hydrography segments","trout_source_public":"Compiled public recovery and lineage context; expert review recommended","public_notes":"Vermillion Creek is shown as a named-water occurrence within watershed-level cutthroat lineage context. This is not a precise biological boundary."}},{"type":"Feature","geometry":{"type":"LineString","coordinates":[[-108.8827,40.7789],[-108.8836,40.7787]]},"properties":{"source_id":"co_named_stream_103464","name":"Vermillion Creek","display_name":"Vermillion Creek","mapped_name":"Vermillion Creek","source_name":"Vermillion Creek","state":"CO","atlas_class":"named_natural_stream","huc8":"14040109","huc8Name":"Vermilion","huc8States":"CO,WY","lineageKey":"greenRiverBlue","lineage":"greenRiverBlue","historic":"greenRiverBlue","current":"greenRiverBlue","recovery":"recoveryWatch","lineageLabel":"Green River / blue-lineage CT","lineageBasin":"Vermilion","lineageNote":"Green River / blue-lineage context; review needed","atlas_context":"cutthroat_lineage_context","confidence":"Watershed-level lineage context; expert review recommended","geometryStatus":"Named natural stream segment from statewide hydrography","note":"This named natural stream falls within a HUC8 assigned to a cutthroat lineage context.","source_segment_id":"co_named_stream_103464","water_id":"co_vermillion_creek_14040109_greenRiverBlue_002","occurrence_id":"co_vermillion_creek_14040109_greenRiverBlue_002","occurrence_number":"002","segment_count":127,"disambiguator":"Vermilion · Green River / blue-lineage CT · occurrence 002","basin":"Vermilion","atlas_layer":"named_water_occurrence","object_role":"named_water_occurrence","historic_label":"Green River / blue-lineage CT","current_label":"Green River / blue-lineage CT","recovery_label":"Recovery watch / review area","tier":"tier1","minZoom":10,"confidence_public":"Watershed-level lineage context; expert review recommended","geometry_status_public":"Named natural stream occurrence from statewide hydrography","geometry_source_public":"Grouped public hydrography segments","trout_source_public":"Compiled public recovery and lineage context; expert review recommended","public_notes":"Vermillion Creek is shown as a named-water occurrence within watershed-level cutthroat lineage context. This is not a precise biological boundary."}},{"type":"Feature","geometry":{"type":"LineString","coordinates":[[-108.8777,40.7803],[-108.8783,40.7806]]},"properties":{"source_id":"co_named_stream_103465","name":"Vermillion Creek","display_name":"Vermillion Creek","mapped_name":"Vermillion Creek","source_name":"Vermillion Creek","state":"CO","atlas_class":"named_natural_stream","huc8":"14040109","huc8Name":"Vermilion","huc8States":"CO,WY","lineageKey":"greenRiverBlue","lineage":"greenRiverBlue","historic":"greenRiverBlue","current":"greenRiverBlue","recovery":"recoveryWatch","lineageLabel":"Green River / blue-lineage CT","lineageBasin":"Vermilion","lineageNote":"Green River / blue-lineage context; review needed","atlas_context":"cutthroat_lineage_context","confidence":"Watershed-level lineage context; expert review recommended","geometryStatus":"Named natural stream segment from statewide hydrography","note":"This named natural stream falls within a HUC8 assigned to a cutthroat lineage context.","source_segment_id":"co_named_stream_103465","water_id":"co_vermillion_creek_14040109_greenRiverBlue_002","occurrence_id":"co_vermillion_creek_14040109_greenRiverBlue_002","occurrence_number":"002","segment_count":127,"disambiguator":"Vermilion · Green River / blue-lineage CT · occurrence 002","basin":"Vermilion","atlas_layer":"named_water_occurrence","object_role":"named_water_occurrence","historic_label":"Green River / blue-lineage CT","current_label":"Green River / blue-lineage CT","recovery_label":"Recovery watch / review area","tier":"tier1","minZoom":10,"confidence_public":"Watershed-level lineage context; expert review recommended","geometry_status_public":"Named natural stream occurrence from statewide hydrography","geometry_source_public":"Grouped public hydrography segments","trout_source_public":"Compiled public recovery and lineage context; expert review recommended","public_notes":"Vermillion Creek is shown as a named-water occurrence within watershed-level cutthroat lineage context. This is not a precise biological boundary."}},{"type":"Feature","geometry":{"type":"LineString","coordinates":[[-108.8894,40.7764],[-108.8895,40.7761]]},"properties":{"source_id":"co_named_stream_103466","name":"Vermillion Creek","display_name":"Vermillion Creek","mapped_name":"Vermillion Creek","source_name":"Vermillion Creek","state":"CO","atlas_class":"named_natural_stream","huc8":"14040109","huc8Name":"Vermilion","huc8States":"CO,WY","lineageKey":"greenRiverBlue","lineage":"greenRiverBlue","historic":"greenRiverBlue","current":"greenRiverBlue","recovery":"recoveryWatch","lineageLabel":"Green River / blue-lineage CT","lineageBasin":"Vermilion","lineageNote":"Green River / blue-lineage context; review needed","atlas_context":"cutthroat_lineage_context","confidence":"Watershed-level lineage context; expert review recommended","geometryStatus":"Named natural stream segment from statewide hydrography","note":"This named natural stream falls within a HUC8 assigned to a cutthroat lineage context.","source_segment_id":"co_named_stream_103466","water_id":"co_vermillion_creek_14040109_greenRiverBlue_002","occurrence_id":"co_vermillion_creek_14040109_greenRiverBlue_002","occurrence_number":"002","segment_count":127,"disambiguator":"Vermilion · Green River / blue-lineage CT · occurrence 002","basin":"Vermilion","atlas_layer":"named_water_occurrence","object_role":"named_water_occurrence","historic_label":"Green River / blue-lineage CT","current_label":"Green River / blue-lineage CT","recovery_label":"Recovery watch / review area","tier":"tier1","minZoom":10,"confidence_public":"Watershed-level lineage context; expert review recommended","geometry_status_public":"Named natural stream occurrence from statewide hydrography","geometry_source_public":"Grouped public hydrography segments","trout_source_public":"Compiled public recovery and lineage context; expert review recommended","public_notes":"Vermillion Creek is shown as a named-water occurrence within watershed-level cutthroat lineage context. This is not a precise biological boundary."}},{"type":"Feature","geometry":{"type":"LineString","coordinates":[[-108.8835,40.7634],[-108.8857,40.7633],[-108.8868,40.7622]]},"properties":{"source_id":"co_named_stream_103467","name":"Vermillion Creek","display_name":"Vermillion Creek","mapped_name":"Vermillion Creek","source_name":"Vermillion Creek","state":"CO","atlas_class":"named_natural_stream","huc8":"14040109","huc8Name":"Vermilion","huc8States":"CO,WY","lineageKey":"greenRiverBlue","lineage":"greenRiverBlue","historic":"greenRiverBlue","current":"greenRiverBlue","recovery":"recoveryWatch","lineageLabel":"Green River / blue-lineage CT","lineageBasin":"Vermilion","lineageNote":"Green River / blue-lineage context; review needed","atlas_context":"cutthroat_lineage_context","confidence":"Watershed-level lineage context; expert review recommended","geometryStatus":"Named natural stream segment from statewide hydrography","note":"This named natural stream falls within a HUC8 assigned to a cutthroat lineage context.","source_segment_id":"co_named_stream_103467","water_id":"co_vermillion_creek_14040109_greenRiverBlue_002","occurrence_id":"co_vermillion_creek_14040109_greenRiverBlue_002","occurrence_number":"002","segment_count":127,"disambiguator":"Vermilion · Green River / blue-lineage CT · occurrence 002","basin":"Vermilion","atlas_layer":"named_water_occurrence","object_role":"named_water_occurrence","historic_label":"Green River / blue-lineage CT","current_label":"Green River / blue-lineage CT","recovery_label":"Recovery watch / review area","tier":"tier1","minZoom":10,"confidence_public":"Watershed-level lineage context; expert review recommended","geometry_status_public":"Named natural stream occurrence from statewide hydrography","geometry_source_public":"Grouped public hydrography segments","trout_source_public":"Compiled public recovery and lineage context; expert review recommended","public_notes":"Vermillion Creek is shown as a named-water occurrence within watershed-level cutthroat lineage context. This is not a precise biological boundary."}},{"type":"Feature","geometry":{"type":"LineString","coordinates":[[-108.8879,40.7707],[-108.8876,40.7701]]},"properties":{"source_id":"co_named_stream_103468","name":"Vermillion Creek","display_name":"Vermillion Creek","mapped_name":"Vermillion Creek","source_name":"Vermillion Creek","state":"CO","atlas_class":"named_natural_stream","huc8":"14040109","huc8Name":"Vermilion","huc8States":"CO,WY","lineageKey":"greenRiverBlue","lineage":"greenRiverBlue","historic":"greenRiverBlue","current":"greenRiverBlue","recovery":"recoveryWatch","lineageLabel":"Green River / blue-lineage CT","lineageBasin":"Vermilion","lineageNote":"Green River / blue-lineage context; review needed","atlas_context":"cutthroat_lineage_context","confidence":"Watershed-level lineage context; expert review recommended","geometryStatus":"Named natural stream segment from statewide hydrography","note":"This named natural stream falls within a HUC8 assigned to a cutthroat lineage context.","source_segment_id":"co_named_stream_103468","water_id":"co_vermillion_creek_14040109_greenRiverBlue_002","occurrence_id":"co_vermillion_creek_14040109_greenRiverBlue_002","occurrence_number":"002","segment_count":127,"disambiguator":"Vermilion · Green River / blue-lineage CT · occurrence 002","basin":"Vermilion","atlas_layer":"named_water_occurrence","object_role":"named_water_occurrence","historic_label":"Green River / blue-lineage CT","current_label":"Green River / blue-lineage CT","recovery_label":"Recovery watch / review area","tier":"tier1","minZoom":10,"confidence_public":"Watershed-level lineage context; expert review recommended","geometry_status_public":"Named natural stream occurrence from statewide hydrography","geometry_source_public":"Grouped public hydrography segments","trout_source_public":"Compiled public recovery and lineage context; expert review recommended","public_notes":"Vermillion Creek is shown as a named-water occurrence within watershed-level cutthroat lineage context. This is not a precise biological boundary."}},{"type":"Feature","geometry":{"type":"LineString","coordinates":[[-108.8826,40.7642],[-108.8819,40.7631],[-108.8835,40.7634]]},"properties":{"source_id":"co_named_stream_103469","name":"Vermillion Creek","display_name":"Vermillion Creek","mapped_name":"Vermillion Creek","source_name":"Vermillion Creek","state":"CO","atlas_class":"named_natural_stream","huc8":"14040109","huc8Name":"Vermilion","huc8States":"CO,WY","lineageKey":"greenRiverBlue","lineage":"greenRiverBlue","historic":"greenRiverBlue","current":"greenRiverBlue","recovery":"recoveryWatch","lineageLabel":"Green River / blue-lineage CT","lineageBasin":"Vermilion","lineageNote":"Green River / blue-lineage context; review needed","atlas_context":"cutthroat_lineage_context","confidence":"Watershed-level lineage context; expert review recommended","geometryStatus":"Named natural stream segment from statewide hydrography","note":"This named natural stream falls within a HUC8 assigned to a cutthroat lineage context.","source_segment_id":"co_named_stream_103469","water_id":"co_vermillion_creek_14040109_greenRiverBlue_002","occurrence_id":"co_vermillion_creek_14040109_greenRiverBlue_002","occurrence_number":"002","segment_count":127,"disambiguator":"Vermilion · Green River / blue-lineage CT · occurrence 002","basin":"Vermilion","atlas_layer":"named_water_occurrence","object_role":"named_water_occurrence","historic_label":"Green River / blue-lineage CT","current_label":"Green River / blue-lineage CT","recovery_label":"Recovery watch / review area","tier":"tier1","minZoom":10,"confidence_public":"Watershed-level lineage context; expert review recommended","geometry_status_public":"Named natural stream occurrence from statewide hydrography","geometry_source_public":"Grouped public hydrography segments","trout_source_public":"Compiled public recovery and lineage context; expert review recommended","public_notes":"Vermillion Creek is shown as a named-water occurrence within watershed-level cutthroat lineage context. This is not a precise biological boundary."}},{"type":"Feature","geometry":{"type":"LineString","coordinates":[[-108.8783,40.7806],[-108.8792,40.7807]]},"properties":{"source_id":"co_named_stream_103470","name":"Vermillion Creek","display_name":"Vermillion Creek","mapped_name":"Vermillion Creek","source_name":"Vermillion Creek","state":"CO","atlas_class":"named_natural_stream","huc8":"14040109","huc8Name":"Vermilion","huc8States":"CO,WY","lineageKey":"greenRiverBlue","lineage":"greenRiverBlue","historic":"greenRiverBlue","current":"greenRiverBlue","recovery":"recoveryWatch","lineageLabel":"Green River / blue-lineage CT","lineageBasin":"Vermilion","lineageNote":"Green River / blue-lineage context; review needed","atlas_context":"cutthroat_lineage_context","confidence":"Watershed-level lineage context; expert review recommended","geometryStatus":"Named natural stream segment from statewide hydrography","note":"This named natural stream falls within a HUC8 assigned to a cutthroat lineage context.","source_segment_id":"co_named_stream_103470","water_id":"co_vermillion_creek_14040109_greenRiverBlue_002","occurrence_id":"co_vermillion_creek_14040109_greenRiverBlue_002","occurrence_number":"002","segment_count":127,"disambiguator":"Vermilion · Green River / blue-lineage CT · occurrence 002","basin":"Vermilion","atlas_layer":"named_water_occurrence","object_role":"named_water_occurrence","historic_label":"Green River / blue-lineage CT","current_label":"Green River / blue-lineage CT","recovery_label":"Recovery watch / review area","tier":"tier1","minZoom":10,"confidence_public":"Watershed-level lineage context; expert review recommended","geometry_status_public":"Named natural stream occurrence from statewide hydrography","geometry_source_public":"Grouped public hydrography segments","trout_source_public":"Compiled public recovery and lineage context; expert review recommended","public_notes":"Vermillion Creek is shown as a named-water occurrence within watershed-level cutthroat lineage context. This is not a precise biological boundary."}},{"type":"Feature","geometry":{"type":"LineString","coordinates":[[-108.8844,40.7667],[-108.8841,40.7662]]},"properties":{"source_id":"co_named_stream_103471","name":"Vermillion Creek","display_name":"Vermillion Creek","mapped_name":"Vermillion Creek","source_name":"Vermillion Creek","state":"CO","atlas_class":"named_natural_stream","huc8":"14040109","huc8Name":"Vermilion","huc8States":"CO,WY","lineageKey":"greenRiverBlue","lineage":"greenRiverBlue","historic":"greenRiverBlue","current":"greenRiverBlue","recovery":"recoveryWatch","lineageLabel":"Green River / blue-lineage CT","lineageBasin":"Vermilion","lineageNote":"Green River / blue-lineage context; review needed","atlas_context":"cutthroat_lineage_context","confidence":"Watershed-level lineage context; expert review recommended","geometryStatus":"Named natural stream segment from statewide hydrography","note":"This named natural stream falls within a HUC8 assigned to a cutthroat lineage context.","source_segment_id":"co_named_stream_103471","water_id":"co_vermillion_creek_14040109_greenRiverBlue_002","occurrence_id":"co_vermillion_creek_14040109_greenRiverBlue_002","occurrence_number":"002","segment_count":127,"disambiguator":"Vermilion · Green River / blue-lineage CT · occurrence 002","basin":"Vermilion","atlas_layer":"named_water_occurrence","object_role":"named_water_occurrence","historic_label":"Green River / blue-lineage CT","current_label":"Green River / blue-lineage CT","recovery_label":"Recovery watch / review area","tier":"tier1","minZoom":10,"confidence_public":"Watershed-level lineage context; expert review recommended","geometry_status_public":"Named natural stream occurrence from statewide hydrography","geometry_source_public":"Grouped public hydrography segments","trout_source_public":"Compiled public recovery and lineage context; expert review recommended","public_notes":"Vermillion Creek is shown as a named-water occurrence within watershed-level cutthroat lineage context. This is not a precise biological boundary."}},{"type":"Feature","geometry":{"type":"LineString","coordinates":[[-108.8732,40.7798],[-108.8742,40.7798]]},"properties":{"source_id":"co_named_stream_103472","name":"Vermillion Creek","display_name":"Vermillion Creek","mapped_name":"Vermillion Creek","source_name":"Vermillion Creek","state":"CO","atlas_class":"named_natural_stream","huc8":"14040109","huc8Name":"Vermilion","huc8States":"CO,WY","lineageKey":"greenRiverBlue","lineage":"greenRiverBlue","historic":"greenRiverBlue","current":"greenRiverBlue","recovery":"recoveryWatch","lineageLabel":"Green River / blue-lineage CT","lineageBasin":"Vermilion","lineageNote":"Green River / blue-lineage context; review needed","atlas_context":"cutthroat_lineage_context","confidence":"Watershed-level lineage context; expert review recommended","geometryStatus":"Named natural stream segment from statewide hydrography","note":"This named natural stream falls within a HUC8 assigned to a cutthroat lineage context.","source_segment_id":"co_named_stream_103472","water_id":"co_vermillion_creek_14040109_greenRiverBlue_002","occurrence_id":"co_vermillion_creek_14040109_greenRiverBlue_002","occurrence_number":"002","segment_count":127,"disambiguator":"Vermilion · Green River / blue-lineage CT · occurrence 002","basin":"Vermilion","atlas_layer":"named_water_occurrence","object_role":"named_water_occurrence","historic_label":"Green River / blue-lineage CT","current_label":"Green River / blue-lineage CT","recovery_label":"Recovery watch / review area","tier":"tier1","minZoom":10,"confidence_public":"Watershed-level lineage context; expert review recommended","geometry_status_public":"Named natural stream occurrence from statewide hydrography","geometry_source_public":"Grouped public hydrography segments","trout_source_public":"Compiled public recovery and lineage context; expert review recommended","public_notes":"Vermillion Creek is shown as a named-water occurrence within watershed-level cutthroat lineage context. This is not a precise biological boundary."}},{"type":"Feature","geometry":{"type":"LineString","coordinates":[[-108.8836,40.7787],[-108.8843,40.7787]]},"properties":{"source_id":"co_named_stream_103473","name":"Vermillion Creek","display_name":"Vermillion Creek","mapped_name":"Vermillion Creek","source_name":"Vermillion Creek","state":"CO","atlas_class":"named_natural_stream","huc8":"14040109","huc8Name":"Vermilion","huc8States":"CO,WY","lineageKey":"greenRiverBlue","lineage":"greenRiverBlue","historic":"greenRiverBlue","current":"greenRiverBlue","recovery":"recoveryWatch","lineageLabel":"Green River / blue-lineage CT","lineageBasin":"Vermilion","lineageNote":"Green River / blue-lineage context; review needed","atlas_context":"cutthroat_lineage_context","confidence":"Watershed-level lineage context; expert review recommended","geometryStatus":"Named natural stream segment from statewide hydrography","note":"This named natural stream falls within a HUC8 assigned to a cutthroat lineage context.","source_segment_id":"co_named_stream_103473","water_id":"co_vermillion_creek_14040109_greenRiverBlue_002","occurrence_id":"co_vermillion_creek_14040109_greenRiverBlue_002","occurrence_number":"002","segment_count":127,"disambiguator":"Vermilion · Green River / blue-lineage CT · occurrence 002","basin":"Vermilion","atlas_layer":"named_water_occurrence","object_role":"named_water_occurrence","historic_label":"Green River / blue-lineage CT","current_label":"Green River / blue-lineage CT","recovery_label":"Recovery watch / review area","tier":"tier1","minZoom":10,"confidence_public":"Watershed-level lineage context; expert review recommended","geometry_status_public":"Named natural stream occurrence from statewide hydrography","geometry_source_public":"Grouped public hydrography segments","trout_source_public":"Compiled public recovery and lineage context; expert review recommended","public_notes":"Vermillion Creek is shown as a named-water occurrence within watershed-level cutthroat lineage context. This is not a precise biological boundary."}},{"type":"Feature","geometry":{"type":"LineString","coordinates":[[-108.8839,40.7654],[-108.8839,40.7651]]},"properties":{"source_id":"co_named_stream_103474","name":"Vermillion Creek","display_name":"Vermillion Creek","mapped_name":"Vermillion Creek","source_name":"Vermillion Creek","state":"CO","atlas_class":"named_natural_stream","huc8":"14040109","huc8Name":"Vermilion","huc8States":"CO,WY","lineageKey":"greenRiverBlue","lineage":"greenRiverBlue","historic":"greenRiverBlue","current":"greenRiverBlue","recovery":"recoveryWatch","lineageLabel":"Green River / blue-lineage CT","lineageBasin":"Vermilion","lineageNote":"Green River / blue-lineage context; review needed","atlas_context":"cutthroat_lineage_context","confidence":"Watershed-level lineage context; expert review recommended","geometryStatus":"Named natural stream segment from statewide hydrography","note":"This named natural stream falls within a HUC8 assigned to a cutthroat lineage context.","source_segment_id":"co_named_stream_103474","water_id":"co_vermillion_creek_14040109_greenRiverBlue_002","occurrence_id":"co_vermillion_creek_14040109_greenRiverBlue_002","occurrence_number":"002","segment_count":127,"disambiguator":"Vermilion · Green River / blue-lineage CT · occurrence 002","basin":"Vermilion","atlas_layer":"named_water_occurrence","object_role":"named_water_occurrence","historic_label":"Green River / blue-lineage CT","current_label":"Green River / blue-lineage CT","recovery_label":"Recovery watch / review area","tier":"tier1","minZoom":10,"confidence_public":"Watershed-level lineage context; expert review recommended","geometry_status_public":"Named natural stream occurrence from statewide hydrography","geometry_source_public":"Grouped public hydrography segments","trout_source_public":"Compiled public recovery and lineage context; expert review recommended","public_notes":"Vermillion Creek is shown as a named-water occurrence within watershed-level cutthroat lineage context. This is not a precise biological boundary."}}]}